<?xml version="1.0" encoding="UTF-8"?>
<gpx creator="Wikiloc - https://www.wikiloc.com" version="1.1" xmlns="http://www.topografix.com/GPX/1/1" xmlns:xsi="http://www.w3.org/2001/XMLSchema-instance" xsi:schemaLocation="http://www.topografix.com/GPX/1/1 http://www.topografix.com/GPX/1/1/gpx.xsd">
  <metadata>
    <name>Wikiloc - Pasarelas de Panticosa</name>
    <author>
      <name>RUTAS por el MONTE BLOG</name>
      <link href="https://www.wikiloc.com/wikiloc/user.do?id=4600824">
        <text>RUTAS por el MONTE BLOG on Wikiloc</text>
      </link>
    </author>
    <link href="https://www.wikiloc.com/hiking-trails/pasarelas-de-panticosa-100213190">
      <text>Pasarelas de Panticosa on Wikiloc</text>
    </link>
    <time>2022-04-16T17:23:07Z</time>
  </metadata>
  <wpt lat="42.721862" lon="-0.281002">
    <ele>1150.6</ele>
    <time>2022-04-16T16:26:26Z</time>
    <name>Tickets</name>
    <cmt></cmt>
    <desc></desc>
  </wpt>
  <wpt lat="42.721595" lon="-0.280823">
    <ele>1214.6</ele>
    <time>2022-04-16T16:28:48Z</time>
    <name>Izquierda</name>
    <cmt></cmt>
    <desc></desc>
  </wpt>
  <wpt lat="42.721742" lon="-0.279815">
    <ele>1218.8</ele>
    <time>2022-04-16T16:32:57Z</time>
    <name>Izquierda</name>
    <cmt></cmt>
    <desc></desc>
  </wpt>
  <wpt lat="42.721710" lon="-0.276992">
    <ele>1243.2</ele>
    <time>2022-04-16T16:37:52Z</time>
    <name>Izquierda</name>
    <cmt></cmt>
    <desc></desc>
  </wpt>
  <wpt lat="42.722643" lon="-0.278350">
    <ele>1245.0</ele>
    <time>2022-04-16T16:41:04Z</time>
    <name>Incio</name>
    <cmt></cmt>
    <desc></desc>
  </wpt>
  <wpt lat="42.724815" lon="-0.276512">
    <ele>1259.2</ele>
    <time>2022-04-16T16:54:05Z</time>
    <name>Fin pasarelas</name>
    <cmt></cmt>
    <desc></desc>
  </wpt>
  <wpt lat="42.724988" lon="-0.277133">
    <ele>1282.6</ele>
    <time>2022-04-16T16:56:13Z</time>
    <name>Izquierda</name>
    <cmt></cmt>
    <desc></desc>
  </wpt>
  <wpt lat="42.724792" lon="-0.277462">
    <ele>1290.5</ele>
    <time>2022-04-16T16:57:36Z</time>
    <name>Bunker derecha</name>
    <cmt></cmt>
    <desc></desc>
  </wpt>
  <wpt lat="42.724943" lon="-0.277577">
    <ele>1301.5</ele>
    <time>2022-04-16T17:00:42Z</time>
    <name>Izquierda</name>
    <cmt></cmt>
    <desc></desc>
  </wpt>
  <wpt lat="42.724518" lon="-0.278438">
    <ele>1334.2</ele>
    <time>2022-04-16T17:03:31Z</time>
    <name>Mirador o Calvé</name>
    <cmt></cmt>
    <desc></desc>
  </wpt>
  <wpt lat="42.725682" lon="-0.278470">
    <ele>1297.7</ele>
    <time>2022-04-16T17:11:15Z</time>
    <name>Izquierda</name>
    <cmt></cmt>
    <desc></desc>
  </wpt>
  <wpt lat="42.723855" lon="-0.280303">
    <ele>1257.4</ele>
    <time>2022-04-16T17:17:15Z</time>
    <name>Derecha</name>
    <cmt></cmt>
    <desc></desc>
  </wpt>
  <wpt lat="42.723367" lon="-0.281553">
    <ele>1248.6</ele>
    <time>2022-04-16T17:19:19Z</time>
    <name>Izquierda</name>
    <cmt></cmt>
    <desc></desc>
  </wpt>
  <wpt lat="42.722962" lon="-0.281505">
    <ele>1245.1</ele>
    <time>2022-04-16T17:20:28Z</time>
    <name>Escaleras</name>
    <cmt></cmt>
    <desc></desc>
  </wpt>
  <trk>
    <name>Pasarelas de Panticosa</name>
    <cmt>Pasarelas de Panticosa</cmt>
    <desc>Pasarelas de Panticosa</desc>
    <trkseg>
      <trkpt lat="42.722125" lon="-0.281190">
        <ele>1150.293</ele>
        <time>2022-04-16T16:26:19Z</time>
      </trkpt>
      <trkpt lat="42.722010" lon="-0.281017">
        <ele>1150.565</ele>
        <time>2022-04-16T16:26:21Z</time>
      </trkpt>
      <trkpt lat="42.721862" lon="-0.281002">
        <ele>1150.721</ele>
        <time>2022-04-16T16:26:26Z</time>
      </trkpt>
      <trkpt lat="42.721890" lon="-0.280954">
        <ele>1155.909</ele>
        <time>2022-04-16T16:26:30Z</time>
      </trkpt>
      <trkpt lat="42.722110" lon="-0.280939">
        <ele>1153.470</ele>
        <time>2022-04-16T16:26:33Z</time>
      </trkpt>
      <trkpt lat="42.722080" lon="-0.281007">
        <ele>1150.919</ele>
        <time>2022-04-16T16:26:34Z</time>
      </trkpt>
      <trkpt lat="42.722125" lon="-0.281000">
        <ele>1151.849</ele>
        <time>2022-04-16T16:26:46Z</time>
      </trkpt>
      <trkpt lat="42.722055" lon="-0.280977">
        <ele>1152.281</ele>
        <time>2022-04-16T16:27:15Z</time>
      </trkpt>
      <trkpt lat="42.721970" lon="-0.281029">
        <ele>1152.290</ele>
        <time>2022-04-16T16:27:43Z</time>
      </trkpt>
      <trkpt lat="42.721895" lon="-0.281022">
        <ele>1163.762</ele>
        <time>2022-04-16T16:28:02Z</time>
      </trkpt>
      <trkpt lat="42.721850" lon="-0.281000">
        <ele>1163.730</ele>
        <time>2022-04-16T16:28:07Z</time>
      </trkpt>
      <trkpt lat="42.721807" lon="-0.280977">
        <ele>1179.268</ele>
        <time>2022-04-16T16:28:11Z</time>
      </trkpt>
      <trkpt lat="42.721759" lon="-0.280964">
        <ele>1185.399</ele>
        <time>2022-04-16T16:28:17Z</time>
      </trkpt>
      <trkpt lat="42.721726" lon="-0.280914">
        <ele>1198.837</ele>
        <time>2022-04-16T16:28:24Z</time>
      </trkpt>
      <trkpt lat="42.721684" lon="-0.280887">
        <ele>1208.249</ele>
        <time>2022-04-16T16:28:29Z</time>
      </trkpt>
      <trkpt lat="42.721634" lon="-0.280860">
        <ele>1209.813</ele>
        <time>2022-04-16T16:28:34Z</time>
      </trkpt>
      <trkpt lat="42.721596" lon="-0.280823">
        <ele>1214.809</ele>
        <time>2022-04-16T16:28:44Z</time>
      </trkpt>
      <trkpt lat="42.721559" lon="-0.280875">
        <ele>1221.784</ele>
        <time>2022-04-16T16:29:07Z</time>
      </trkpt>
      <trkpt lat="42.721516" lon="-0.280848">
        <ele>1221.363</ele>
        <time>2022-04-16T16:31:23Z</time>
      </trkpt>
      <trkpt lat="42.721511" lon="-0.280786">
        <ele>1221.353</ele>
        <time>2022-04-16T16:31:28Z</time>
      </trkpt>
      <trkpt lat="42.721511" lon="-0.280721">
        <ele>1221.325</ele>
        <time>2022-04-16T16:31:33Z</time>
      </trkpt>
      <trkpt lat="42.721526" lon="-0.280659">
        <ele>1221.384</ele>
        <time>2022-04-16T16:31:38Z</time>
      </trkpt>
      <trkpt lat="42.721529" lon="-0.280597">
        <ele>1221.346</ele>
        <time>2022-04-16T16:31:42Z</time>
      </trkpt>
      <trkpt lat="42.721524" lon="-0.280525">
        <ele>1221.254</ele>
        <time>2022-04-16T16:31:47Z</time>
      </trkpt>
      <trkpt lat="42.721519" lon="-0.280452">
        <ele>1221.172</ele>
        <time>2022-04-16T16:31:53Z</time>
      </trkpt>
      <trkpt lat="42.721524" lon="-0.280379">
        <ele>1221.153</ele>
        <time>2022-04-16T16:32:00Z</time>
      </trkpt>
      <trkpt lat="42.721522" lon="-0.280314">
        <ele>1220.911</ele>
        <time>2022-04-16T16:32:04Z</time>
      </trkpt>
      <trkpt lat="42.721519" lon="-0.280242">
        <ele>1220.221</ele>
        <time>2022-04-16T16:32:09Z</time>
      </trkpt>
      <trkpt lat="42.721509" lon="-0.280175">
        <ele>1220.103</ele>
        <time>2022-04-16T16:32:14Z</time>
      </trkpt>
      <trkpt lat="42.721522" lon="-0.280115">
        <ele>1219.909</ele>
        <time>2022-04-16T16:32:18Z</time>
      </trkpt>
      <trkpt lat="42.721527" lon="-0.280050">
        <ele>1219.112</ele>
        <time>2022-04-16T16:32:24Z</time>
      </trkpt>
      <trkpt lat="42.721547" lon="-0.279978">
        <ele>1216.911</ele>
        <time>2022-04-16T16:32:28Z</time>
      </trkpt>
      <trkpt lat="42.721582" lon="-0.279928">
        <ele>1216.721</ele>
        <time>2022-04-16T16:32:32Z</time>
      </trkpt>
      <trkpt lat="42.721615" lon="-0.279885">
        <ele>1216.613</ele>
        <time>2022-04-16T16:32:37Z</time>
      </trkpt>
      <trkpt lat="42.721658" lon="-0.279868">
        <ele>1216.782</ele>
        <time>2022-04-16T16:32:41Z</time>
      </trkpt>
      <trkpt lat="42.721695" lon="-0.279830">
        <ele>1217.644</ele>
        <time>2022-04-16T16:32:48Z</time>
      </trkpt>
      <trkpt lat="42.721742" lon="-0.279813">
        <ele>1218.942</ele>
        <time>2022-04-16T16:32:53Z</time>
      </trkpt>
      <trkpt lat="42.721784" lon="-0.279853">
        <ele>1221.030</ele>
        <time>2022-04-16T16:32:58Z</time>
      </trkpt>
      <trkpt lat="42.721799" lon="-0.279913">
        <ele>1223.771</ele>
        <time>2022-04-16T16:33:03Z</time>
      </trkpt>
      <trkpt lat="42.721822" lon="-0.279970">
        <ele>1224.688</ele>
        <time>2022-04-16T16:33:09Z</time>
      </trkpt>
      <trkpt lat="42.721862" lon="-0.280007">
        <ele>1224.524</ele>
        <time>2022-04-16T16:33:17Z</time>
      </trkpt>
      <trkpt lat="42.721910" lon="-0.280032">
        <ele>1224.026</ele>
        <time>2022-04-16T16:33:25Z</time>
      </trkpt>
      <trkpt lat="42.721953" lon="-0.279984">
        <ele>1223.609</ele>
        <time>2022-04-16T16:33:30Z</time>
      </trkpt>
      <trkpt lat="42.721976" lon="-0.279926">
        <ele>1223.279</ele>
        <time>2022-04-16T16:33:37Z</time>
      </trkpt>
      <trkpt lat="42.721999" lon="-0.279869">
        <ele>1223.298</ele>
        <time>2022-04-16T16:33:43Z</time>
      </trkpt>
      <trkpt lat="42.722034" lon="-0.279812">
        <ele>1223.238</ele>
        <time>2022-04-16T16:33:50Z</time>
      </trkpt>
      <trkpt lat="42.722067" lon="-0.279770">
        <ele>1223.570</ele>
        <time>2022-04-16T16:33:54Z</time>
      </trkpt>
      <trkpt lat="42.722092" lon="-0.279718">
        <ele>1223.939</ele>
        <time>2022-04-16T16:33:59Z</time>
      </trkpt>
      <trkpt lat="42.722124" lon="-0.279665">
        <ele>1224.711</ele>
        <time>2022-04-16T16:34:04Z</time>
      </trkpt>
      <trkpt lat="42.722142" lon="-0.279595">
        <ele>1227.129</ele>
        <time>2022-04-16T16:34:10Z</time>
      </trkpt>
      <trkpt lat="42.722154" lon="-0.279528">
        <ele>1228.747</ele>
        <time>2022-04-16T16:34:15Z</time>
      </trkpt>
      <trkpt lat="42.722144" lon="-0.279463">
        <ele>1229.698</ele>
        <time>2022-04-16T16:34:20Z</time>
      </trkpt>
      <trkpt lat="42.722127" lon="-0.279403">
        <ele>1230.848</ele>
        <time>2022-04-16T16:34:24Z</time>
      </trkpt>
      <trkpt lat="42.722094" lon="-0.279356">
        <ele>1231.261</ele>
        <time>2022-04-16T16:34:30Z</time>
      </trkpt>
      <trkpt lat="42.722084" lon="-0.279296">
        <ele>1231.317</ele>
        <time>2022-04-16T16:34:36Z</time>
      </trkpt>
      <trkpt lat="42.722087" lon="-0.279231">
        <ele>1231.509</ele>
        <time>2022-04-16T16:34:41Z</time>
      </trkpt>
      <trkpt lat="42.722094" lon="-0.279159">
        <ele>1232.035</ele>
        <time>2022-04-16T16:34:47Z</time>
      </trkpt>
      <trkpt lat="42.722096" lon="-0.279096">
        <ele>1232.364</ele>
        <time>2022-04-16T16:34:52Z</time>
      </trkpt>
      <trkpt lat="42.722078" lon="-0.279031">
        <ele>1232.734</ele>
        <time>2022-04-16T16:34:57Z</time>
      </trkpt>
      <trkpt lat="42.722070" lon="-0.278966">
        <ele>1233.586</ele>
        <time>2022-04-16T16:35:01Z</time>
      </trkpt>
      <trkpt lat="42.722062" lon="-0.278889">
        <ele>1234.025</ele>
        <time>2022-04-16T16:35:06Z</time>
      </trkpt>
      <trkpt lat="42.722054" lon="-0.278817">
        <ele>1234.287</ele>
        <time>2022-04-16T16:35:09Z</time>
      </trkpt>
      <trkpt lat="42.722057" lon="-0.278752">
        <ele>1234.245</ele>
        <time>2022-04-16T16:35:13Z</time>
      </trkpt>
      <trkpt lat="42.722047" lon="-0.278689">
        <ele>1233.933</ele>
        <time>2022-04-16T16:35:18Z</time>
      </trkpt>
      <trkpt lat="42.722019" lon="-0.278632">
        <ele>1233.674</ele>
        <time>2022-04-16T16:35:23Z</time>
      </trkpt>
      <trkpt lat="42.721987" lon="-0.278587">
        <ele>1233.211</ele>
        <time>2022-04-16T16:35:26Z</time>
      </trkpt>
      <trkpt lat="42.721989" lon="-0.278512">
        <ele>1233.021</ele>
        <time>2022-04-16T16:35:32Z</time>
      </trkpt>
      <trkpt lat="42.721984" lon="-0.278447">
        <ele>1233.103</ele>
        <time>2022-04-16T16:35:37Z</time>
      </trkpt>
      <trkpt lat="42.721999" lon="-0.278379">
        <ele>1233.209</ele>
        <time>2022-04-16T16:35:43Z</time>
      </trkpt>
      <trkpt lat="42.721981" lon="-0.278311">
        <ele>1235.972</ele>
        <time>2022-04-16T16:35:48Z</time>
      </trkpt>
      <trkpt lat="42.721984" lon="-0.278248">
        <ele>1238.221</ele>
        <time>2022-04-16T16:35:53Z</time>
      </trkpt>
      <trkpt lat="42.721997" lon="-0.278183">
        <ele>1239.481</ele>
        <time>2022-04-16T16:35:58Z</time>
      </trkpt>
      <trkpt lat="42.722015" lon="-0.278126">
        <ele>1241.413</ele>
        <time>2022-04-16T16:36:03Z</time>
      </trkpt>
      <trkpt lat="42.722018" lon="-0.278058">
        <ele>1241.872</ele>
        <time>2022-04-16T16:36:08Z</time>
      </trkpt>
      <trkpt lat="42.722005" lon="-0.277995">
        <ele>1242.394</ele>
        <time>2022-04-16T16:36:13Z</time>
      </trkpt>
      <trkpt lat="42.721972" lon="-0.277933">
        <ele>1242.532</ele>
        <time>2022-04-16T16:36:17Z</time>
      </trkpt>
      <trkpt lat="42.721942" lon="-0.277865">
        <ele>1242.680</ele>
        <time>2022-04-16T16:36:23Z</time>
      </trkpt>
      <trkpt lat="42.721925" lon="-0.277805">
        <ele>1242.451</ele>
        <time>2022-04-16T16:36:28Z</time>
      </trkpt>
      <trkpt lat="42.721902" lon="-0.277748">
        <ele>1242.166</ele>
        <time>2022-04-16T16:36:32Z</time>
      </trkpt>
      <trkpt lat="42.721870" lon="-0.277676">
        <ele>1241.929</ele>
        <time>2022-04-16T16:36:38Z</time>
      </trkpt>
      <trkpt lat="42.721835" lon="-0.277636">
        <ele>1241.921</ele>
        <time>2022-04-16T16:36:42Z</time>
      </trkpt>
      <trkpt lat="42.721807" lon="-0.277559">
        <ele>1242.909</ele>
        <time>2022-04-16T16:36:48Z</time>
      </trkpt>
      <trkpt lat="42.721787" lon="-0.277496">
        <ele>1243.697</ele>
        <time>2022-04-16T16:36:53Z</time>
      </trkpt>
      <trkpt lat="42.721775" lon="-0.277434">
        <ele>1243.696</ele>
        <time>2022-04-16T16:36:57Z</time>
      </trkpt>
      <trkpt lat="42.721760" lon="-0.277369">
        <ele>1243.616</ele>
        <time>2022-04-16T16:37:03Z</time>
      </trkpt>
      <trkpt lat="42.721742" lon="-0.277312">
        <ele>1243.668</ele>
        <time>2022-04-16T16:37:07Z</time>
      </trkpt>
      <trkpt lat="42.721735" lon="-0.277244">
        <ele>1243.627</ele>
        <time>2022-04-16T16:37:12Z</time>
      </trkpt>
      <trkpt lat="42.721743" lon="-0.277174">
        <ele>1243.749</ele>
        <time>2022-04-16T16:37:17Z</time>
      </trkpt>
      <trkpt lat="42.721726" lon="-0.277111">
        <ele>1243.797</ele>
        <time>2022-04-16T16:37:25Z</time>
      </trkpt>
      <trkpt lat="42.721726" lon="-0.277048">
        <ele>1243.735</ele>
        <time>2022-04-16T16:37:30Z</time>
      </trkpt>
      <trkpt lat="42.721709" lon="-0.276990">
        <ele>1243.416</ele>
        <time>2022-04-16T16:37:37Z</time>
      </trkpt>
      <trkpt lat="42.721714" lon="-0.276928">
        <ele>1244.132</ele>
        <time>2022-04-16T16:37:55Z</time>
      </trkpt>
      <trkpt lat="42.721746" lon="-0.276973">
        <ele>1247.292</ele>
        <time>2022-04-16T16:38:09Z</time>
      </trkpt>
      <trkpt lat="42.721783" lon="-0.277028">
        <ele>1248.511</ele>
        <time>2022-04-16T16:38:13Z</time>
      </trkpt>
      <trkpt lat="42.721828" lon="-0.277003">
        <ele>1248.909</ele>
        <time>2022-04-16T16:38:22Z</time>
      </trkpt>
      <trkpt lat="42.721878" lon="-0.277035">
        <ele>1250.674</ele>
        <time>2022-04-16T16:38:30Z</time>
      </trkpt>
      <trkpt lat="42.721915" lon="-0.277078">
        <ele>1252.723</ele>
        <time>2022-04-16T16:38:36Z</time>
      </trkpt>
      <trkpt lat="42.721935" lon="-0.277148">
        <ele>1253.053</ele>
        <time>2022-04-16T16:38:40Z</time>
      </trkpt>
      <trkpt lat="42.721978" lon="-0.277185">
        <ele>1253.355</ele>
        <time>2022-04-16T16:38:45Z</time>
      </trkpt>
      <trkpt lat="42.721996" lon="-0.277253">
        <ele>1253.734</ele>
        <time>2022-04-16T16:38:52Z</time>
      </trkpt>
      <trkpt lat="42.722044" lon="-0.277290">
        <ele>1254.566</ele>
        <time>2022-04-16T16:38:55Z</time>
      </trkpt>
      <trkpt lat="42.722077" lon="-0.277335">
        <ele>1256.544</ele>
        <time>2022-04-16T16:38:58Z</time>
      </trkpt>
      <trkpt lat="42.722104" lon="-0.277392">
        <ele>1257.232</ele>
        <time>2022-04-16T16:39:03Z</time>
      </trkpt>
      <trkpt lat="42.722132" lon="-0.277440">
        <ele>1257.213</ele>
        <time>2022-04-16T16:39:08Z</time>
      </trkpt>
      <trkpt lat="42.722177" lon="-0.277488">
        <ele>1257.215</ele>
        <time>2022-04-16T16:39:12Z</time>
      </trkpt>
      <trkpt lat="42.722212" lon="-0.277538">
        <ele>1257.165</ele>
        <time>2022-04-16T16:39:18Z</time>
      </trkpt>
      <trkpt lat="42.722234" lon="-0.277595">
        <ele>1257.111</ele>
        <time>2022-04-16T16:39:23Z</time>
      </trkpt>
      <trkpt lat="42.722261" lon="-0.277647">
        <ele>1256.409</ele>
        <time>2022-04-16T16:39:26Z</time>
      </trkpt>
      <trkpt lat="42.722293" lon="-0.277714">
        <ele>1255.872</ele>
        <time>2022-04-16T16:39:29Z</time>
      </trkpt>
      <trkpt lat="42.722330" lon="-0.277759">
        <ele>1255.731</ele>
        <time>2022-04-16T16:39:33Z</time>
      </trkpt>
      <trkpt lat="42.722380" lon="-0.277776">
        <ele>1255.631</ele>
        <time>2022-04-16T16:39:38Z</time>
      </trkpt>
      <trkpt lat="42.722417" lon="-0.277816">
        <ele>1255.383</ele>
        <time>2022-04-16T16:39:43Z</time>
      </trkpt>
      <trkpt lat="42.722457" lon="-0.277854">
        <ele>1254.242</ele>
        <time>2022-04-16T16:39:47Z</time>
      </trkpt>
      <trkpt lat="42.722495" lon="-0.277894">
        <ele>1254.034</ele>
        <time>2022-04-16T16:39:50Z</time>
      </trkpt>
      <trkpt lat="42.722527" lon="-0.277949">
        <ele>1254.292</ele>
        <time>2022-04-16T16:39:55Z</time>
      </trkpt>
      <trkpt lat="42.722562" lon="-0.277996">
        <ele>1254.310</ele>
        <time>2022-04-16T16:40:01Z</time>
      </trkpt>
      <trkpt lat="42.722602" lon="-0.278043">
        <ele>1254.331</ele>
        <time>2022-04-16T16:40:08Z</time>
      </trkpt>
      <trkpt lat="42.722637" lon="-0.278086">
        <ele>1254.469</ele>
        <time>2022-04-16T16:40:15Z</time>
      </trkpt>
      <trkpt lat="42.722665" lon="-0.278143">
        <ele>1254.504</ele>
        <time>2022-04-16T16:40:20Z</time>
      </trkpt>
      <trkpt lat="42.722687" lon="-0.278215">
        <ele>1254.324</ele>
        <time>2022-04-16T16:40:26Z</time>
      </trkpt>
      <trkpt lat="42.722644" lon="-0.278245">
        <ele>1253.909</ele>
        <time>2022-04-16T16:40:36Z</time>
      </trkpt>
      <trkpt lat="42.722592" lon="-0.278220">
        <ele>1253.087</ele>
        <time>2022-04-16T16:40:40Z</time>
      </trkpt>
      <trkpt lat="42.722567" lon="-0.278278">
        <ele>1250.366</ele>
        <time>2022-04-16T16:40:46Z</time>
      </trkpt>
      <trkpt lat="42.722604" lon="-0.278321">
        <ele>1246.956</ele>
        <time>2022-04-16T16:40:52Z</time>
      </trkpt>
      <trkpt lat="42.722644" lon="-0.278349">
        <ele>1245.278</ele>
        <time>2022-04-16T16:41:04Z</time>
      </trkpt>
      <trkpt lat="42.722629" lon="-0.278409">
        <ele>1245.077</ele>
        <time>2022-04-16T16:41:15Z</time>
      </trkpt>
      <trkpt lat="42.722656" lon="-0.278474">
        <ele>1244.829</ele>
        <time>2022-04-16T16:41:32Z</time>
      </trkpt>
      <trkpt lat="42.722704" lon="-0.278441">
        <ele>1244.327</ele>
        <time>2022-04-16T16:41:49Z</time>
      </trkpt>
      <trkpt lat="42.722731" lon="-0.278384">
        <ele>1242.615</ele>
        <time>2022-04-16T16:41:55Z</time>
      </trkpt>
      <trkpt lat="42.722723" lon="-0.278322">
        <ele>1239.156</ele>
        <time>2022-04-16T16:42:00Z</time>
      </trkpt>
      <trkpt lat="42.722736" lon="-0.278262">
        <ele>1237.155</ele>
        <time>2022-04-16T16:42:16Z</time>
      </trkpt>
      <trkpt lat="42.722769" lon="-0.278209">
        <ele>1236.707</ele>
        <time>2022-04-16T16:42:22Z</time>
      </trkpt>
      <trkpt lat="42.722779" lon="-0.278149">
        <ele>1236.217</ele>
        <time>2022-04-16T16:42:34Z</time>
      </trkpt>
      <trkpt lat="42.722802" lon="-0.278089">
        <ele>1236.109</ele>
        <time>2022-04-16T16:42:41Z</time>
      </trkpt>
      <trkpt lat="42.722847" lon="-0.278062">
        <ele>1236.236</ele>
        <time>2022-04-16T16:42:46Z</time>
      </trkpt>
      <trkpt lat="42.722887" lon="-0.278029">
        <ele>1235.975</ele>
        <time>2022-04-16T16:42:51Z</time>
      </trkpt>
      <trkpt lat="42.722917" lon="-0.277976">
        <ele>1236.575</ele>
        <time>2022-04-16T16:42:57Z</time>
      </trkpt>
      <trkpt lat="42.722922" lon="-0.277908">
        <ele>1238.557</ele>
        <time>2022-04-16T16:43:05Z</time>
      </trkpt>
      <trkpt lat="42.722922" lon="-0.277845">
        <ele>1238.856</ele>
        <time>2022-04-16T16:43:15Z</time>
      </trkpt>
      <trkpt lat="42.722969" lon="-0.277867">
        <ele>1238.928</ele>
        <time>2022-04-16T16:43:20Z</time>
      </trkpt>
      <trkpt lat="42.723067" lon="-0.277910">
        <ele>1239.536</ele>
        <time>2022-04-16T16:43:52Z</time>
      </trkpt>
      <trkpt lat="42.723119" lon="-0.277927">
        <ele>1239.774</ele>
        <time>2022-04-16T16:44:58Z</time>
      </trkpt>
      <trkpt lat="42.723169" lon="-0.277942">
        <ele>1239.795</ele>
        <time>2022-04-16T16:45:07Z</time>
      </trkpt>
      <trkpt lat="42.723154" lon="-0.277884">
        <ele>1239.728</ele>
        <time>2022-04-16T16:45:15Z</time>
      </trkpt>
      <trkpt lat="42.723179" lon="-0.277832">
        <ele>1239.789</ele>
        <time>2022-04-16T16:45:25Z</time>
      </trkpt>
      <trkpt lat="42.723177" lon="-0.277765">
        <ele>1242.317</ele>
        <time>2022-04-16T16:45:37Z</time>
      </trkpt>
      <trkpt lat="42.723225" lon="-0.277775">
        <ele>1242.509</ele>
        <time>2022-04-16T16:45:45Z</time>
      </trkpt>
      <trkpt lat="42.723282" lon="-0.277753">
        <ele>1241.983</ele>
        <time>2022-04-16T16:46:24Z</time>
      </trkpt>
      <trkpt lat="42.723329" lon="-0.277721">
        <ele>1241.632</ele>
        <time>2022-04-16T16:46:35Z</time>
      </trkpt>
      <trkpt lat="42.723366" lon="-0.277761">
        <ele>1241.372</ele>
        <time>2022-04-16T16:46:46Z</time>
      </trkpt>
      <trkpt lat="42.723463" lon="-0.277771">
        <ele>1239.314</ele>
        <time>2022-04-16T16:47:07Z</time>
      </trkpt>
      <trkpt lat="42.723471" lon="-0.277849">
        <ele>1238.833</ele>
        <time>2022-04-16T16:47:12Z</time>
      </trkpt>
      <trkpt lat="42.723491" lon="-0.277606">
        <ele>1239.965</ele>
        <time>2022-04-16T16:47:54Z</time>
      </trkpt>
      <trkpt lat="42.723516" lon="-0.277484">
        <ele>1239.583</ele>
        <time>2022-04-16T16:48:04Z</time>
      </trkpt>
      <trkpt lat="42.723493" lon="-0.277386">
        <ele>1239.411</ele>
        <time>2022-04-16T16:48:08Z</time>
      </trkpt>
      <trkpt lat="42.723511" lon="-0.277206">
        <ele>1238.542</ele>
        <time>2022-04-16T16:48:27Z</time>
      </trkpt>
      <trkpt lat="42.723536" lon="-0.277116">
        <ele>1237.275</ele>
        <time>2022-04-16T16:49:00Z</time>
      </trkpt>
      <trkpt lat="42.723589" lon="-0.277149">
        <ele>1237.228</ele>
        <time>2022-04-16T16:49:05Z</time>
      </trkpt>
      <trkpt lat="42.723749" lon="-0.277091">
        <ele>1229.420</ele>
        <time>2022-04-16T16:49:23Z</time>
      </trkpt>
      <trkpt lat="42.723912" lon="-0.277303">
        <ele>1236.609</ele>
        <time>2022-04-16T16:49:54Z</time>
      </trkpt>
      <trkpt lat="42.723965" lon="-0.277280">
        <ele>1246.288</ele>
        <time>2022-04-16T16:50:03Z</time>
      </trkpt>
      <trkpt lat="42.724018" lon="-0.277290">
        <ele>1246.717</ele>
        <time>2022-04-16T16:50:09Z</time>
      </trkpt>
      <trkpt lat="42.724071" lon="-0.277263">
        <ele>1249.597</ele>
        <time>2022-04-16T16:50:17Z</time>
      </trkpt>
      <trkpt lat="42.724113" lon="-0.277231">
        <ele>1251.379</ele>
        <time>2022-04-16T16:50:28Z</time>
      </trkpt>
      <trkpt lat="42.724320" lon="-0.277356">
        <ele>1254.028</ele>
        <time>2022-04-16T16:51:07Z</time>
      </trkpt>
      <trkpt lat="42.724353" lon="-0.277313">
        <ele>1254.030</ele>
        <time>2022-04-16T16:51:12Z</time>
      </trkpt>
      <trkpt lat="42.724331" lon="-0.277241">
        <ele>1254.678</ele>
        <time>2022-04-16T16:51:21Z</time>
      </trkpt>
      <trkpt lat="42.724309" lon="-0.277146">
        <ele>1254.586</ele>
        <time>2022-04-16T16:51:31Z</time>
      </trkpt>
      <trkpt lat="42.724314" lon="-0.277044">
        <ele>1254.717</ele>
        <time>2022-04-16T16:51:42Z</time>
      </trkpt>
      <trkpt lat="42.724361" lon="-0.277056">
        <ele>1254.857</ele>
        <time>2022-04-16T16:51:48Z</time>
      </trkpt>
      <trkpt lat="42.724404" lon="-0.277016">
        <ele>1255.600</ele>
        <time>2022-04-16T16:51:54Z</time>
      </trkpt>
      <trkpt lat="42.724424" lon="-0.276956">
        <ele>1256.220</ele>
        <time>2022-04-16T16:52:02Z</time>
      </trkpt>
      <trkpt lat="42.724461" lon="-0.276914">
        <ele>1257.709</ele>
        <time>2022-04-16T16:52:16Z</time>
      </trkpt>
      <trkpt lat="42.724511" lon="-0.276884">
        <ele>1258.846</ele>
        <time>2022-04-16T16:52:20Z</time>
      </trkpt>
      <trkpt lat="42.724551" lon="-0.276836">
        <ele>1259.655</ele>
        <time>2022-04-16T16:52:27Z</time>
      </trkpt>
      <trkpt lat="42.724593" lon="-0.276801">
        <ele>1259.655</ele>
        <time>2022-04-16T16:52:33Z</time>
      </trkpt>
      <trkpt lat="42.724623" lon="-0.276753">
        <ele>1259.667</ele>
        <time>2022-04-16T16:52:41Z</time>
      </trkpt>
      <trkpt lat="42.724670" lon="-0.276721">
        <ele>1258.516</ele>
        <time>2022-04-16T16:52:49Z</time>
      </trkpt>
      <trkpt lat="42.724660" lon="-0.276628">
        <ele>1258.778</ele>
        <time>2022-04-16T16:52:59Z</time>
      </trkpt>
      <trkpt lat="42.724670" lon="-0.276558">
        <ele>1259.036</ele>
        <time>2022-04-16T16:53:06Z</time>
      </trkpt>
      <trkpt lat="42.724695" lon="-0.276503">
        <ele>1259.294</ele>
        <time>2022-04-16T16:53:10Z</time>
      </trkpt>
      <trkpt lat="42.724815" lon="-0.276511">
        <ele>1259.485</ele>
        <time>2022-04-16T16:53:41Z</time>
      </trkpt>
      <trkpt lat="42.724812" lon="-0.276578">
        <ele>1259.471</ele>
        <time>2022-04-16T16:54:09Z</time>
      </trkpt>
      <trkpt lat="42.724850" lon="-0.276631">
        <ele>1259.441</ele>
        <time>2022-04-16T16:54:19Z</time>
      </trkpt>
      <trkpt lat="42.724862" lon="-0.276696">
        <ele>1259.415</ele>
        <time>2022-04-16T16:54:26Z</time>
      </trkpt>
      <trkpt lat="42.724857" lon="-0.276759">
        <ele>1270.909</ele>
        <time>2022-04-16T16:54:39Z</time>
      </trkpt>
      <trkpt lat="42.724877" lon="-0.276822">
        <ele>1274.568</ele>
        <time>2022-04-16T16:54:47Z</time>
      </trkpt>
      <trkpt lat="42.724904" lon="-0.276889">
        <ele>1276.127</ele>
        <time>2022-04-16T16:54:53Z</time>
      </trkpt>
      <trkpt lat="42.724936" lon="-0.276934">
        <ele>1276.337</ele>
        <time>2022-04-16T16:54:56Z</time>
      </trkpt>
      <trkpt lat="42.724974" lon="-0.276979">
        <ele>1277.269</ele>
        <time>2022-04-16T16:55:00Z</time>
      </trkpt>
      <trkpt lat="42.725006" lon="-0.277039">
        <ele>1279.428</ele>
        <time>2022-04-16T16:55:11Z</time>
      </trkpt>
      <trkpt lat="42.725041" lon="-0.277137">
        <ele>1282.260</ele>
        <time>2022-04-16T16:55:56Z</time>
      </trkpt>
      <trkpt lat="42.724989" lon="-0.277132">
        <ele>1282.798</ele>
        <time>2022-04-16T16:56:06Z</time>
      </trkpt>
      <trkpt lat="42.724949" lon="-0.277195">
        <ele>1282.776</ele>
        <time>2022-04-16T16:56:15Z</time>
      </trkpt>
      <trkpt lat="42.724899" lon="-0.277198">
        <ele>1283.227</ele>
        <time>2022-04-16T16:56:19Z</time>
      </trkpt>
      <trkpt lat="42.724844" lon="-0.277208">
        <ele>1285.633</ele>
        <time>2022-04-16T16:56:34Z</time>
      </trkpt>
      <trkpt lat="42.724804" lon="-0.277238">
        <ele>1289.223</ele>
        <time>2022-04-16T16:56:42Z</time>
      </trkpt>
      <trkpt lat="42.724817" lon="-0.277305">
        <ele>1289.315</ele>
        <time>2022-04-16T16:56:50Z</time>
      </trkpt>
      <trkpt lat="42.724847" lon="-0.277357">
        <ele>1289.409</ele>
        <time>2022-04-16T16:56:59Z</time>
      </trkpt>
      <trkpt lat="42.724820" lon="-0.277410">
        <ele>1289.694</ele>
        <time>2022-04-16T16:57:11Z</time>
      </trkpt>
      <trkpt lat="42.724792" lon="-0.277460">
        <ele>1290.643</ele>
        <time>2022-04-16T16:57:25Z</time>
      </trkpt>
      <trkpt lat="42.724837" lon="-0.277378">
        <ele>1313.123</ele>
        <time>2022-04-16T16:58:49Z</time>
      </trkpt>
      <trkpt lat="42.724799" lon="-0.277416">
        <ele>1307.065</ele>
        <time>2022-04-16T16:58:51Z</time>
      </trkpt>
      <trkpt lat="42.724757" lon="-0.277443">
        <ele>1298.994</ele>
        <time>2022-04-16T16:59:48Z</time>
      </trkpt>
      <trkpt lat="42.724789" lon="-0.277495">
        <ele>1298.976</ele>
        <time>2022-04-16T16:59:55Z</time>
      </trkpt>
      <trkpt lat="42.724829" lon="-0.277523">
        <ele>1298.984</ele>
        <time>2022-04-16T17:00:02Z</time>
      </trkpt>
      <trkpt lat="42.724876" lon="-0.277510">
        <ele>1298.922</ele>
        <time>2022-04-16T17:00:10Z</time>
      </trkpt>
      <trkpt lat="42.724921" lon="-0.277522">
        <ele>1298.993</ele>
        <time>2022-04-16T17:00:15Z</time>
      </trkpt>
      <trkpt lat="42.724944" lon="-0.277575">
        <ele>1301.622</ele>
        <time>2022-04-16T17:00:30Z</time>
      </trkpt>
      <trkpt lat="42.724926" lon="-0.277635">
        <ele>1307.262</ele>
        <time>2022-04-16T17:00:55Z</time>
      </trkpt>
      <trkpt lat="42.724883" lon="-0.277657">
        <ele>1310.708</ele>
        <time>2022-04-16T17:01:02Z</time>
      </trkpt>
      <trkpt lat="42.724835" lon="-0.277670">
        <ele>1312.009</ele>
        <time>2022-04-16T17:01:09Z</time>
      </trkpt>
      <trkpt lat="42.724795" lon="-0.277705">
        <ele>1312.713</ele>
        <time>2022-04-16T17:01:16Z</time>
      </trkpt>
      <trkpt lat="42.724755" lon="-0.277740">
        <ele>1315.282</ele>
        <time>2022-04-16T17:01:23Z</time>
      </trkpt>
      <trkpt lat="42.724765" lon="-0.277807">
        <ele>1315.542</ele>
        <time>2022-04-16T17:01:32Z</time>
      </trkpt>
      <trkpt lat="42.724763" lon="-0.277869">
        <ele>1316.184</ele>
        <time>2022-04-16T17:01:39Z</time>
      </trkpt>
      <trkpt lat="42.724716" lon="-0.277869">
        <ele>1316.173</ele>
        <time>2022-04-16T17:01:44Z</time>
      </trkpt>
      <trkpt lat="42.724684" lon="-0.277916">
        <ele>1317.065</ele>
        <time>2022-04-16T17:01:54Z</time>
      </trkpt>
      <trkpt lat="42.724647" lon="-0.277961">
        <ele>1320.223</ele>
        <time>2022-04-16T17:02:01Z</time>
      </trkpt>
      <trkpt lat="42.724640" lon="-0.278029">
        <ele>1323.771</ele>
        <time>2022-04-16T17:02:13Z</time>
      </trkpt>
      <trkpt lat="42.724613" lon="-0.278081">
        <ele>1324.142</ele>
        <time>2022-04-16T17:02:18Z</time>
      </trkpt>
      <trkpt lat="42.724590" lon="-0.278136">
        <ele>1324.596</ele>
        <time>2022-04-16T17:02:26Z</time>
      </trkpt>
      <trkpt lat="42.724563" lon="-0.278186">
        <ele>1324.831</ele>
        <time>2022-04-16T17:02:30Z</time>
      </trkpt>
      <trkpt lat="42.724555" lon="-0.278249">
        <ele>1325.624</ele>
        <time>2022-04-16T17:02:41Z</time>
      </trkpt>
      <trkpt lat="42.724523" lon="-0.278299">
        <ele>1327.109</ele>
        <time>2022-04-16T17:02:47Z</time>
      </trkpt>
      <trkpt lat="42.724516" lon="-0.278371">
        <ele>1327.730</ele>
        <time>2022-04-16T17:02:55Z</time>
      </trkpt>
      <trkpt lat="42.724476" lon="-0.278413">
        <ele>1331.449</ele>
        <time>2022-04-16T17:03:04Z</time>
      </trkpt>
      <trkpt lat="42.724518" lon="-0.278438">
        <ele>1334.569</ele>
        <time>2022-04-16T17:03:22Z</time>
      </trkpt>
      <trkpt lat="42.724466" lon="-0.278460">
        <ele>1336.171</ele>
        <time>2022-04-16T17:04:17Z</time>
      </trkpt>
      <trkpt lat="42.724511" lon="-0.278463">
        <ele>1334.490</ele>
        <time>2022-04-16T17:06:28Z</time>
      </trkpt>
      <trkpt lat="42.724553" lon="-0.278493">
        <ele>1334.452</ele>
        <time>2022-04-16T17:06:53Z</time>
      </trkpt>
      <trkpt lat="42.724601" lon="-0.278460">
        <ele>1334.420</ele>
        <time>2022-04-16T17:07:03Z</time>
      </trkpt>
      <trkpt lat="42.724649" lon="-0.278450">
        <ele>1334.488</ele>
        <time>2022-04-16T17:07:17Z</time>
      </trkpt>
      <trkpt lat="42.724699" lon="-0.278450">
        <ele>1332.599</ele>
        <time>2022-04-16T17:07:27Z</time>
      </trkpt>
      <trkpt lat="42.724746" lon="-0.278448">
        <ele>1331.947</ele>
        <time>2022-04-16T17:07:34Z</time>
      </trkpt>
      <trkpt lat="42.724791" lon="-0.278450">
        <ele>1331.429</ele>
        <time>2022-04-16T17:07:44Z</time>
      </trkpt>
      <trkpt lat="42.724833" lon="-0.278423">
        <ele>1331.221</ele>
        <time>2022-04-16T17:07:57Z</time>
      </trkpt>
      <trkpt lat="42.724880" lon="-0.278405">
        <ele>1331.009</ele>
        <time>2022-04-16T17:08:04Z</time>
      </trkpt>
      <trkpt lat="42.724890" lon="-0.278470">
        <ele>1330.695</ele>
        <time>2022-04-16T17:08:10Z</time>
      </trkpt>
      <trkpt lat="42.724937" lon="-0.278485">
        <ele>1329.314</ele>
        <time>2022-04-16T17:08:17Z</time>
      </trkpt>
      <trkpt lat="42.724984" lon="-0.278465">
        <ele>1328.434</ele>
        <time>2022-04-16T17:08:24Z</time>
      </trkpt>
      <trkpt lat="42.725029" lon="-0.278467">
        <ele>1326.486</ele>
        <time>2022-04-16T17:08:34Z</time>
      </trkpt>
      <trkpt lat="42.725066" lon="-0.278505">
        <ele>1323.935</ele>
        <time>2022-04-16T17:08:43Z</time>
      </trkpt>
      <trkpt lat="42.725099" lon="-0.278547">
        <ele>1323.097</ele>
        <time>2022-04-16T17:08:50Z</time>
      </trkpt>
      <trkpt lat="42.725144" lon="-0.278534">
        <ele>1318.665</ele>
        <time>2022-04-16T17:09:05Z</time>
      </trkpt>
      <trkpt lat="42.725184" lon="-0.278497">
        <ele>1316.253</ele>
        <time>2022-04-16T17:09:11Z</time>
      </trkpt>
      <trkpt lat="42.725226" lon="-0.278467">
        <ele>1314.494</ele>
        <time>2022-04-16T17:09:20Z</time>
      </trkpt>
      <trkpt lat="42.725268" lon="-0.278432">
        <ele>1310.633</ele>
        <time>2022-04-16T17:09:30Z</time>
      </trkpt>
      <trkpt lat="42.725313" lon="-0.278420">
        <ele>1309.623</ele>
        <time>2022-04-16T17:09:38Z</time>
      </trkpt>
      <trkpt lat="42.725351" lon="-0.278378">
        <ele>1307.915</ele>
        <time>2022-04-16T17:09:45Z</time>
      </trkpt>
      <trkpt lat="42.725396" lon="-0.278383">
        <ele>1306.909</ele>
        <time>2022-04-16T17:09:58Z</time>
      </trkpt>
      <trkpt lat="42.725426" lon="-0.278336">
        <ele>1306.784</ele>
        <time>2022-04-16T17:10:08Z</time>
      </trkpt>
      <trkpt lat="42.725466" lon="-0.278306">
        <ele>1306.593</ele>
        <time>2022-04-16T17:10:14Z</time>
      </trkpt>
      <trkpt lat="42.725504" lon="-0.278341">
        <ele>1306.393</ele>
        <time>2022-04-16T17:10:23Z</time>
      </trkpt>
      <trkpt lat="42.725536" lon="-0.278389">
        <ele>1306.395</ele>
        <time>2022-04-16T17:10:33Z</time>
      </trkpt>
      <trkpt lat="42.725546" lon="-0.278454">
        <ele>1305.674</ele>
        <time>2022-04-16T17:10:43Z</time>
      </trkpt>
      <trkpt lat="42.725594" lon="-0.278471">
        <ele>1304.686</ele>
        <time>2022-04-16T17:10:53Z</time>
      </trkpt>
      <trkpt lat="42.725639" lon="-0.278443">
        <ele>1303.914</ele>
        <time>2022-04-16T17:10:57Z</time>
      </trkpt>
      <trkpt lat="42.725682" lon="-0.278470">
        <ele>1298.232</ele>
        <time>2022-04-16T17:11:11Z</time>
      </trkpt>
      <trkpt lat="42.725629" lon="-0.278517">
        <ele>1296.363</ele>
        <time>2022-04-16T17:11:16Z</time>
      </trkpt>
      <trkpt lat="42.725591" lon="-0.278550">
        <ele>1296.142</ele>
        <time>2022-04-16T17:11:20Z</time>
      </trkpt>
      <trkpt lat="42.725558" lon="-0.278595">
        <ele>1295.622</ele>
        <time>2022-04-16T17:11:24Z</time>
      </trkpt>
      <trkpt lat="42.725530" lon="-0.278645">
        <ele>1295.614</ele>
        <time>2022-04-16T17:11:28Z</time>
      </trkpt>
      <trkpt lat="42.725490" lon="-0.278698">
        <ele>1295.609</ele>
        <time>2022-04-16T17:11:34Z</time>
      </trkpt>
      <trkpt lat="42.725468" lon="-0.278760">
        <ele>1298.475</ele>
        <time>2022-04-16T17:11:41Z</time>
      </trkpt>
      <trkpt lat="42.725450" lon="-0.278820">
        <ele>1298.454</ele>
        <time>2022-04-16T17:11:47Z</time>
      </trkpt>
      <trkpt lat="42.725420" lon="-0.278870">
        <ele>1298.484</ele>
        <time>2022-04-16T17:11:51Z</time>
      </trkpt>
      <trkpt lat="42.725388" lon="-0.278917">
        <ele>1298.436</ele>
        <time>2022-04-16T17:11:58Z</time>
      </trkpt>
      <trkpt lat="42.725341" lon="-0.278952">
        <ele>1297.115</ele>
        <time>2022-04-16T17:12:03Z</time>
      </trkpt>
      <trkpt lat="42.725308" lon="-0.279012">
        <ele>1296.317</ele>
        <time>2022-04-16T17:12:09Z</time>
      </trkpt>
      <trkpt lat="42.725276" lon="-0.279060">
        <ele>1295.695</ele>
        <time>2022-04-16T17:12:14Z</time>
      </trkpt>
      <trkpt lat="42.725248" lon="-0.279117">
        <ele>1295.353</ele>
        <time>2022-04-16T17:12:20Z</time>
      </trkpt>
      <trkpt lat="42.725213" lon="-0.279164">
        <ele>1294.974</ele>
        <time>2022-04-16T17:12:27Z</time>
      </trkpt>
      <trkpt lat="42.725166" lon="-0.279197">
        <ele>1291.561</ele>
        <time>2022-04-16T17:12:33Z</time>
      </trkpt>
      <trkpt lat="42.725129" lon="-0.279250">
        <ele>1289.121</ele>
        <time>2022-04-16T17:12:39Z</time>
      </trkpt>
      <trkpt lat="42.725096" lon="-0.279297">
        <ele>1288.013</ele>
        <time>2022-04-16T17:12:47Z</time>
      </trkpt>
      <trkpt lat="42.725061" lon="-0.279364">
        <ele>1286.209</ele>
        <time>2022-04-16T17:12:55Z</time>
      </trkpt>
      <trkpt lat="42.725039" lon="-0.279424">
        <ele>1286.167</ele>
        <time>2022-04-16T17:12:59Z</time>
      </trkpt>
      <trkpt lat="42.724997" lon="-0.279456">
        <ele>1286.136</ele>
        <time>2022-04-16T17:13:04Z</time>
      </trkpt>
      <trkpt lat="42.725030" lon="-0.279504">
        <ele>1286.196</ele>
        <time>2022-04-16T17:13:12Z</time>
      </trkpt>
      <trkpt lat="42.725010" lon="-0.279561">
        <ele>1286.088</ele>
        <time>2022-04-16T17:13:24Z</time>
      </trkpt>
      <trkpt lat="42.724972" lon="-0.279596">
        <ele>1284.437</ele>
        <time>2022-04-16T17:13:32Z</time>
      </trkpt>
      <trkpt lat="42.724925" lon="-0.279621">
        <ele>1282.829</ele>
        <time>2022-04-16T17:13:38Z</time>
      </trkpt>
      <trkpt lat="42.724880" lon="-0.279624">
        <ele>1280.847</ele>
        <time>2022-04-16T17:13:46Z</time>
      </trkpt>
      <trkpt lat="42.724837" lon="-0.279642">
        <ele>1280.765</ele>
        <time>2022-04-16T17:13:52Z</time>
      </trkpt>
      <trkpt lat="42.724792" lon="-0.279657">
        <ele>1280.026</ele>
        <time>2022-04-16T17:13:59Z</time>
      </trkpt>
      <trkpt lat="42.724754" lon="-0.279700">
        <ele>1279.539</ele>
        <time>2022-04-16T17:14:07Z</time>
      </trkpt>
      <trkpt lat="42.724711" lon="-0.279723">
        <ele>1279.301</ele>
        <time>2022-04-16T17:14:14Z</time>
      </trkpt>
      <trkpt lat="42.724679" lon="-0.279771">
        <ele>1278.821</ele>
        <time>2022-04-16T17:14:20Z</time>
      </trkpt>
      <trkpt lat="42.724642" lon="-0.279808">
        <ele>1278.609</ele>
        <time>2022-04-16T17:14:26Z</time>
      </trkpt>
      <trkpt lat="42.724597" lon="-0.279821">
        <ele>1277.184</ele>
        <time>2022-04-16T17:14:34Z</time>
      </trkpt>
      <trkpt lat="42.724557" lon="-0.279866">
        <ele>1276.423</ele>
        <time>2022-04-16T17:14:41Z</time>
      </trkpt>
      <trkpt lat="42.724517" lon="-0.279894">
        <ele>1276.423</ele>
        <time>2022-04-16T17:14:47Z</time>
      </trkpt>
      <trkpt lat="42.724470" lon="-0.279877">
        <ele>1276.535</ele>
        <time>2022-04-16T17:14:52Z</time>
      </trkpt>
      <trkpt lat="42.724423" lon="-0.279859">
        <ele>1277.614</ele>
        <time>2022-04-16T17:15:00Z</time>
      </trkpt>
      <trkpt lat="42.724378" lon="-0.279869">
        <ele>1277.696</ele>
        <time>2022-04-16T17:15:06Z</time>
      </trkpt>
      <trkpt lat="42.724325" lon="-0.279861">
        <ele>1277.674</ele>
        <time>2022-04-16T17:15:13Z</time>
      </trkpt>
      <trkpt lat="42.724280" lon="-0.279886">
        <ele>1276.042</ele>
        <time>2022-04-16T17:15:18Z</time>
      </trkpt>
      <trkpt lat="42.724235" lon="-0.279909">
        <ele>1275.683</ele>
        <time>2022-04-16T17:15:23Z</time>
      </trkpt>
      <trkpt lat="42.724187" lon="-0.279936">
        <ele>1274.853</ele>
        <time>2022-04-16T17:15:30Z</time>
      </trkpt>
      <trkpt lat="42.724142" lon="-0.279981">
        <ele>1273.704</ele>
        <time>2022-04-16T17:15:35Z</time>
      </trkpt>
      <trkpt lat="42.724099" lon="-0.280016">
        <ele>1273.514</ele>
        <time>2022-04-16T17:15:41Z</time>
      </trkpt>
      <trkpt lat="42.724054" lon="-0.280014">
        <ele>1273.309</ele>
        <time>2022-04-16T17:15:46Z</time>
      </trkpt>
      <trkpt lat="42.724006" lon="-0.280022">
        <ele>1273.096</ele>
        <time>2022-04-16T17:15:51Z</time>
      </trkpt>
      <trkpt lat="42.723963" lon="-0.280004">
        <ele>1271.585</ele>
        <time>2022-04-16T17:15:56Z</time>
      </trkpt>
      <trkpt lat="42.723918" lon="-0.280007">
        <ele>1269.365</ele>
        <time>2022-04-16T17:16:03Z</time>
      </trkpt>
      <trkpt lat="42.723918" lon="-0.280070">
        <ele>1266.627</ele>
        <time>2022-04-16T17:16:10Z</time>
      </trkpt>
      <trkpt lat="42.723960" lon="-0.280097">
        <ele>1265.276</ele>
        <time>2022-04-16T17:16:16Z</time>
      </trkpt>
      <trkpt lat="42.723987" lon="-0.280155">
        <ele>1264.968</ele>
        <time>2022-04-16T17:16:21Z</time>
      </trkpt>
      <trkpt lat="42.724022" lon="-0.280207">
        <ele>1264.546</ele>
        <time>2022-04-16T17:16:26Z</time>
      </trkpt>
      <trkpt lat="42.723980" lon="-0.280242">
        <ele>1262.334</ele>
        <time>2022-04-16T17:16:32Z</time>
      </trkpt>
      <trkpt lat="42.723928" lon="-0.280244">
        <ele>1260.185</ele>
        <time>2022-04-16T17:16:37Z</time>
      </trkpt>
      <trkpt lat="42.723881" lon="-0.280249">
        <ele>1259.881</ele>
        <time>2022-04-16T17:16:43Z</time>
      </trkpt>
      <trkpt lat="42.723856" lon="-0.280302">
        <ele>1258.361</ele>
        <time>2022-04-16T17:16:52Z</time>
      </trkpt>
      <trkpt lat="42.723781" lon="-0.280327">
        <ele>1257.117</ele>
        <time>2022-04-16T17:17:16Z</time>
      </trkpt>
      <trkpt lat="42.723734" lon="-0.280349">
        <ele>1256.509</ele>
        <time>2022-04-16T17:17:23Z</time>
      </trkpt>
      <trkpt lat="42.723742" lon="-0.280412">
        <ele>1251.989</ele>
        <time>2022-04-16T17:17:41Z</time>
      </trkpt>
      <trkpt lat="42.723737" lon="-0.280487">
        <ele>1251.678</ele>
        <time>2022-04-16T17:17:47Z</time>
      </trkpt>
      <trkpt lat="42.723752" lon="-0.280550">
        <ele>1251.728</ele>
        <time>2022-04-16T17:17:52Z</time>
      </trkpt>
      <trkpt lat="42.723745" lon="-0.280615">
        <ele>1251.750</ele>
        <time>2022-04-16T17:17:56Z</time>
      </trkpt>
      <trkpt lat="42.723735" lon="-0.280678">
        <ele>1251.779</ele>
        <time>2022-04-16T17:18:00Z</time>
      </trkpt>
      <trkpt lat="42.723720" lon="-0.280748">
        <ele>1250.821</ele>
        <time>2022-04-16T17:18:04Z</time>
      </trkpt>
      <trkpt lat="42.723682" lon="-0.280788">
        <ele>1248.739</ele>
        <time>2022-04-16T17:18:07Z</time>
      </trkpt>
      <trkpt lat="42.723660" lon="-0.280850">
        <ele>1245.357</ele>
        <time>2022-04-16T17:18:11Z</time>
      </trkpt>
      <trkpt lat="42.723652" lon="-0.280923">
        <ele>1242.328</ele>
        <time>2022-04-16T17:18:16Z</time>
      </trkpt>
      <trkpt lat="42.723645" lon="-0.280988">
        <ele>1241.095</ele>
        <time>2022-04-16T17:18:20Z</time>
      </trkpt>
      <trkpt lat="42.723615" lon="-0.281041">
        <ele>1240.549</ele>
        <time>2022-04-16T17:18:24Z</time>
      </trkpt>
      <trkpt lat="42.723582" lon="-0.281099">
        <ele>1240.023</ele>
        <time>2022-04-16T17:18:29Z</time>
      </trkpt>
      <trkpt lat="42.723555" lon="-0.281152">
        <ele>1240.009</ele>
        <time>2022-04-16T17:18:34Z</time>
      </trkpt>
      <trkpt lat="42.723523" lon="-0.281200">
        <ele>1240.070</ele>
        <time>2022-04-16T17:18:40Z</time>
      </trkpt>
      <trkpt lat="42.723500" lon="-0.281265">
        <ele>1241.569</ele>
        <time>2022-04-16T17:18:46Z</time>
      </trkpt>
      <trkpt lat="42.723480" lon="-0.281323">
        <ele>1242.399</ele>
        <time>2022-04-16T17:18:50Z</time>
      </trkpt>
      <trkpt lat="42.723468" lon="-0.281388">
        <ele>1243.641</ele>
        <time>2022-04-16T17:18:54Z</time>
      </trkpt>
      <trkpt lat="42.723465" lon="-0.281456">
        <ele>1245.310</ele>
        <time>2022-04-16T17:18:58Z</time>
      </trkpt>
      <trkpt lat="42.723438" lon="-0.281513">
        <ele>1247.982</ele>
        <time>2022-04-16T17:19:04Z</time>
      </trkpt>
      <trkpt lat="42.723378" lon="-0.281483">
        <ele>1249.410</ele>
        <time>2022-04-16T17:19:08Z</time>
      </trkpt>
      <trkpt lat="42.723366" lon="-0.281550">
        <ele>1249.448</ele>
        <time>2022-04-16T17:19:11Z</time>
      </trkpt>
      <trkpt lat="42.723324" lon="-0.281588">
        <ele>1245.449</ele>
        <time>2022-04-16T17:19:26Z</time>
      </trkpt>
      <trkpt lat="42.723282" lon="-0.281635">
        <ele>1245.113</ele>
        <time>2022-04-16T17:19:29Z</time>
      </trkpt>
      <trkpt lat="42.723225" lon="-0.281653">
        <ele>1245.243</ele>
        <time>2022-04-16T17:19:34Z</time>
      </trkpt>
      <trkpt lat="42.723177" lon="-0.281646">
        <ele>1253.807</ele>
        <time>2022-04-16T17:19:46Z</time>
      </trkpt>
      <trkpt lat="42.723135" lon="-0.281599">
        <ele>1253.909</ele>
        <time>2022-04-16T17:19:51Z</time>
      </trkpt>
      <trkpt lat="42.723098" lon="-0.281552">
        <ele>1253.962</ele>
        <time>2022-04-16T17:19:56Z</time>
      </trkpt>
      <trkpt lat="42.723053" lon="-0.281527">
        <ele>1253.851</ele>
        <time>2022-04-16T17:20:00Z</time>
      </trkpt>
      <trkpt lat="42.723008" lon="-0.281504">
        <ele>1250.161</ele>
        <time>2022-04-16T17:20:11Z</time>
      </trkpt>
      <trkpt lat="42.722960" lon="-0.281501">
        <ele>1245.983</ele>
        <time>2022-04-16T17:20:18Z</time>
      </trkpt>
      <trkpt lat="42.722922" lon="-0.281554">
        <ele>1239.772</ele>
        <time>2022-04-16T17:20:30Z</time>
      </trkpt>
      <trkpt lat="42.722885" lon="-0.281601">
        <ele>1238.274</ele>
        <time>2022-04-16T17:20:35Z</time>
      </trkpt>
      <trkpt lat="42.722848" lon="-0.281658">
        <ele>1237.932</ele>
        <time>2022-04-16T17:20:40Z</time>
      </trkpt>
      <trkpt lat="42.722801" lon="-0.281703">
        <ele>1236.870</ele>
        <time>2022-04-16T17:20:44Z</time>
      </trkpt>
      <trkpt lat="42.722751" lon="-0.281723">
        <ele>1236.151</ele>
        <time>2022-04-16T17:20:47Z</time>
      </trkpt>
      <trkpt lat="42.722704" lon="-0.281735">
        <ele>1236.759</ele>
        <time>2022-04-16T17:20:57Z</time>
      </trkpt>
      <trkpt lat="42.722657" lon="-0.281767">
        <ele>1237.003</ele>
        <time>2022-04-16T17:21:03Z</time>
      </trkpt>
      <trkpt lat="42.722622" lon="-0.281819">
        <ele>1237.023</ele>
        <time>2022-04-16T17:21:10Z</time>
      </trkpt>
      <trkpt lat="42.722579" lon="-0.281851">
        <ele>1236.809</ele>
        <time>2022-04-16T17:21:17Z</time>
      </trkpt>
      <trkpt lat="42.722536" lon="-0.281879">
        <ele>1236.266</ele>
        <time>2022-04-16T17:21:21Z</time>
      </trkpt>
      <trkpt lat="42.722489" lon="-0.281886">
        <ele>1235.565</ele>
        <time>2022-04-16T17:21:26Z</time>
      </trkpt>
      <trkpt lat="42.722442" lon="-0.281888">
        <ele>1235.245</ele>
        <time>2022-04-16T17:21:32Z</time>
      </trkpt>
      <trkpt lat="42.722392" lon="-0.281895">
        <ele>1235.037</ele>
        <time>2022-04-16T17:21:36Z</time>
      </trkpt>
      <trkpt lat="42.722337" lon="-0.281878">
        <ele>1234.886</ele>
        <time>2022-04-16T17:21:42Z</time>
      </trkpt>
      <trkpt lat="42.722289" lon="-0.281855">
        <ele>1234.778</ele>
        <time>2022-04-16T17:21:49Z</time>
      </trkpt>
      <trkpt lat="42.722234" lon="-0.281862">
        <ele>1232.836</ele>
        <time>2022-04-16T17:21:57Z</time>
      </trkpt>
      <trkpt lat="42.722189" lon="-0.281839">
        <ele>1232.324</ele>
        <time>2022-04-16T17:22:02Z</time>
      </trkpt>
      <trkpt lat="42.722136" lon="-0.281834">
        <ele>1230.695</ele>
        <time>2022-04-16T17:22:07Z</time>
      </trkpt>
      <trkpt lat="42.722099" lon="-0.281774">
        <ele>1229.983</ele>
        <time>2022-04-16T17:22:12Z</time>
      </trkpt>
      <trkpt lat="42.722089" lon="-0.281714">
        <ele>1228.925</ele>
        <time>2022-04-16T17:22:18Z</time>
      </trkpt>
      <trkpt lat="42.722112" lon="-0.281646">
        <ele>1228.317</ele>
        <time>2022-04-16T17:22:23Z</time>
      </trkpt>
      <trkpt lat="42.722104" lon="-0.281583">
        <ele>1226.109</ele>
        <time>2022-04-16T17:22:28Z</time>
      </trkpt>
      <trkpt lat="42.722082" lon="-0.281523">
        <ele>1226.089</ele>
        <time>2022-04-16T17:22:33Z</time>
      </trkpt>
      <trkpt lat="42.722047" lon="-0.281466">
        <ele>1225.318</ele>
        <time>2022-04-16T17:22:39Z</time>
      </trkpt>
      <trkpt lat="42.721995" lon="-0.281439">
        <ele>1225.268</ele>
        <time>2022-04-16T17:22:43Z</time>
      </trkpt>
      <trkpt lat="42.721950" lon="-0.281409">
        <ele>1223.680</ele>
        <time>2022-04-16T17:22:47Z</time>
      </trkpt>
      <trkpt lat="42.721917" lon="-0.281357">
        <ele>1221.679</ele>
        <time>2022-04-16T17:22:51Z</time>
      </trkpt>
      <trkpt lat="42.721915" lon="-0.281295">
        <ele>1218.451</ele>
        <time>2022-04-16T17:22:55Z</time>
      </trkpt>
      <trkpt lat="42.721932" lon="-0.281232">
        <ele>1215.789</ele>
        <time>2022-04-16T17:22:59Z</time>
      </trkpt>
      <trkpt lat="42.721949" lon="-0.281174">
        <ele>1215.457</ele>
        <time>2022-04-16T17:23:03Z</time>
      </trkpt>
      <trkpt lat="42.721959" lon="-0.281104">
        <ele>1215.478</ele>
        <time>2022-04-16T17:23:07Z</time>
      </trkpt>
    </trkseg>
  </trk></gpx>