<?xml version="1.0" encoding="UTF-8"?>
<gpx creator="Wikiloc - https://www.wikiloc.com" version="1.1" xmlns="http://www.topografix.com/GPX/1/1" xmlns:xsi="http://www.w3.org/2001/XMLSchema-instance" xsi:schemaLocation="http://www.topografix.com/GPX/1/1 http://www.topografix.com/GPX/1/1/gpx.xsd">
  <metadata>
    <name>Wikiloc - Faro de Ajo y Cueva La Ojerada desde Tobes</name>
    <author>
      <name>RUTAS por el MONTE BLOG</name>
      <link href="https://www.wikiloc.com/wikiloc/user.do?id=4600824">
        <text>RUTAS por el MONTE BLOG on Wikiloc</text>
      </link>
    </author>
    <link href="https://www.wikiloc.com/hiking-trails/faro-de-ajo-y-cueva-la-ojerada-desde-tobes-209261626">
      <text>Faro de Ajo y Cueva La Ojerada desde Tobes on Wikiloc</text>
    </link>
    <time>2025-04-17T11:45:05.335Z</time>
  </metadata>
  <wpt lat="43.511392" lon="-3.584425">
    <ele>82.7</ele>
    <time>2025-04-17T10:43:33.342Z</time>
    <name>Parking</name>
    <cmt></cmt>
    <desc></desc>
  </wpt>
  <wpt lat="43.512011" lon="-3.584219">
    <ele>34.1</ele>
    <time>2025-04-17T10:46:30.344Z</time>
    <name>Paso izquierda</name>
    <cmt></cmt>
    <desc></desc>
  </wpt>
  <wpt lat="43.512461" lon="-3.586642">
    <ele>34.9</ele>
    <time>2025-04-17T10:52:17.354Z</time>
    <name>Vistas</name>
    <cmt></cmt>
    <desc></desc>
  </wpt>
  <wpt lat="43.512596" lon="-3.587537">
    <ele>36.3</ele>
    <time>2025-04-17T10:54:37.352Z</time>
    <name>Paso</name>
    <cmt></cmt>
    <desc></desc>
  </wpt>
  <wpt lat="43.512881" lon="-3.588870">
    <ele>44.3</ele>
    <time>2025-04-17T10:58:18.332Z</time>
    <name>Vistas</name>
    <cmt></cmt>
    <desc></desc>
  </wpt>
  <wpt lat="43.512386" lon="-3.591072">
    <ele>50.2</ele>
    <time>2025-04-17T11:02:24.337Z</time>
    <name>Vistas faro</name>
    <cmt></cmt>
    <desc></desc>
  </wpt>
  <wpt lat="43.511666" lon="-3.593352">
    <ele>56.2</ele>
    <time>2025-04-17T11:05:36.366Z</time>
    <name>Paso</name>
    <cmt></cmt>
    <desc></desc>
  </wpt>
  <wpt lat="43.511800" lon="-3.594945">
    <ele>54.4</ele>
    <time>2025-04-17T11:11:19.335Z</time>
    <name>Faro de Ajo</name>
    <cmt></cmt>
    <desc></desc>
  </wpt>
  <wpt lat="43.511706" lon="-3.596743">
    <ele>50.3</ele>
    <time>2025-04-17T11:17:19.343Z</time>
    <name>Mirador</name>
    <cmt></cmt>
    <desc></desc>
  </wpt>
  <wpt lat="43.511941" lon="-3.595775">
    <ele>50.9</ele>
    <time>2025-04-17T11:18:54.327Z</time>
    <name>Telescopio</name>
    <cmt></cmt>
    <desc></desc>
  </wpt>
  <wpt lat="43.512345" lon="-3.586281">
    <ele>36.3</ele>
    <time>2025-04-17T11:36:22.333Z</time>
    <name>Vista cueva</name>
    <cmt></cmt>
    <desc></desc>
  </wpt>
  <wpt lat="43.512029" lon="-3.584086">
    <ele>36.1</ele>
    <time>2025-04-17T11:38:55.335Z</time>
    <name>Camino hacia cueva</name>
    <cmt></cmt>
    <desc></desc>
  </wpt>
  <wpt lat="43.512085" lon="-3.582292">
    <ele>24.1</ele>
    <time>2025-04-17T11:41:28.375Z</time>
    <name>Cueva La Ojerada</name>
    <cmt></cmt>
    <desc></desc>
  </wpt>
  <trk>
    <name>Faro de Ajo y Cueva La Ojerada desde Tobes</name>
    <cmt>Ruta circular desde Tobes pasando por: 
- Faro de Ajo (1.5 km) 
- Cueva La Ojerada (2.7 km) 
 
Sencillo paseo para toda la familia de unos&amp;nbsp;2,9 km&amp;nbsp;al Faro de Ajo y la cueva de la Ojerada&amp;nbsp;desde el estacionamiento Ojerada de Ajo. Es una ruta de&amp;nbsp;aproximadamente 1 hora&amp;nbsp;con vistas espectaculares tanto de los acantilados como del mar.</cmt>
    <desc>Ruta circular desde Tobes pasando por: 
- Faro de Ajo (1.5 km) 
- Cueva La Ojerada (2.7 km) 
 
Sencillo paseo para toda la familia de unos&amp;nbsp;2,9 km&amp;nbsp;al Faro de Ajo y la cueva de la Ojerada&amp;nbsp;desde el estacionamiento Ojerada de Ajo. Es una ruta de&amp;nbsp;aproximadamente 1 hora&amp;nbsp;con vistas espectaculares tanto de los acantilados como del mar.</desc>
    <trkseg>
      <trkpt lat="43.511417" lon="-3.584422">
        <ele>37.796</ele>
        <time>2025-04-17T10:43:40.333Z</time>
      </trkpt>
      <trkpt lat="43.511451" lon="-3.584380">
        <ele>35.831</ele>
        <time>2025-04-17T10:44:59.337Z</time>
      </trkpt>
      <trkpt lat="43.511496" lon="-3.584342">
        <ele>35.524</ele>
        <time>2025-04-17T10:45:04.333Z</time>
      </trkpt>
      <trkpt lat="43.511539" lon="-3.584305">
        <ele>35.509</ele>
        <time>2025-04-17T10:45:09.351Z</time>
      </trkpt>
      <trkpt lat="43.511577" lon="-3.584264">
        <ele>35.731</ele>
        <time>2025-04-17T10:45:21.370Z</time>
      </trkpt>
      <trkpt lat="43.511622" lon="-3.584252">
        <ele>35.629</ele>
        <time>2025-04-17T10:45:25.354Z</time>
      </trkpt>
      <trkpt lat="43.511676" lon="-3.584219">
        <ele>35.568</ele>
        <time>2025-04-17T10:45:29.334Z</time>
      </trkpt>
      <trkpt lat="43.511726" lon="-3.584190">
        <ele>35.441</ele>
        <time>2025-04-17T10:45:33.355Z</time>
      </trkpt>
      <trkpt lat="43.511766" lon="-3.584150">
        <ele>35.655</ele>
        <time>2025-04-17T10:45:38.352Z</time>
      </trkpt>
      <trkpt lat="43.511810" lon="-3.584130">
        <ele>35.640</ele>
        <time>2025-04-17T10:45:45.338Z</time>
      </trkpt>
      <trkpt lat="43.511858" lon="-3.584118">
        <ele>35.525</ele>
        <time>2025-04-17T10:45:50.342Z</time>
      </trkpt>
      <trkpt lat="43.511906" lon="-3.584117">
        <ele>34.851</ele>
        <time>2025-04-17T10:45:58.336Z</time>
      </trkpt>
      <trkpt lat="43.511952" lon="-3.584128">
        <ele>34.845</ele>
        <time>2025-04-17T10:46:06.375Z</time>
      </trkpt>
      <trkpt lat="43.511994" lon="-3.584161">
        <ele>34.966</ele>
        <time>2025-04-17T10:46:17.339Z</time>
      </trkpt>
      <trkpt lat="43.512011" lon="-3.584219">
        <ele>34.229</ele>
        <time>2025-04-17T10:46:26.339Z</time>
      </trkpt>
      <trkpt lat="43.512010" lon="-3.584282">
        <ele>34.321</ele>
        <time>2025-04-17T10:46:34.349Z</time>
      </trkpt>
      <trkpt lat="43.512010" lon="-3.584357">
        <ele>34.209</ele>
        <time>2025-04-17T10:46:40.334Z</time>
      </trkpt>
      <trkpt lat="43.511990" lon="-3.584432">
        <ele>34.188</ele>
        <time>2025-04-17T10:46:46.332Z</time>
      </trkpt>
      <trkpt lat="43.511985" lon="-3.584497">
        <ele>33.776</ele>
        <time>2025-04-17T10:46:51.364Z</time>
      </trkpt>
      <trkpt lat="43.511974" lon="-3.584577">
        <ele>33.165</ele>
        <time>2025-04-17T10:47:07.363Z</time>
      </trkpt>
      <trkpt lat="43.511965" lon="-3.584641">
        <ele>33.128</ele>
        <time>2025-04-17T10:47:10.345Z</time>
      </trkpt>
      <trkpt lat="43.511949" lon="-3.584708">
        <ele>33.372</ele>
        <time>2025-04-17T10:47:14.346Z</time>
      </trkpt>
      <trkpt lat="43.511938" lon="-3.584768">
        <ele>33.457</ele>
        <time>2025-04-17T10:47:19.332Z</time>
      </trkpt>
      <trkpt lat="43.511950" lon="-3.584835">
        <ele>33.742</ele>
        <time>2025-04-17T10:47:24.334Z</time>
      </trkpt>
      <trkpt lat="43.511962" lon="-3.584899">
        <ele>33.218</ele>
        <time>2025-04-17T10:47:31.341Z</time>
      </trkpt>
      <trkpt lat="43.511956" lon="-3.584968">
        <ele>33.192</ele>
        <time>2025-04-17T10:47:39.337Z</time>
      </trkpt>
      <trkpt lat="43.511955" lon="-3.585045">
        <ele>32.299</ele>
        <time>2025-04-17T10:47:45.341Z</time>
      </trkpt>
      <trkpt lat="43.511972" lon="-3.585108">
        <ele>30.307</ele>
        <time>2025-04-17T10:48:05.344Z</time>
      </trkpt>
      <trkpt lat="43.511986" lon="-3.585168">
        <ele>30.027</ele>
        <time>2025-04-17T10:48:11.341Z</time>
      </trkpt>
      <trkpt lat="43.512000" lon="-3.585228">
        <ele>30.009</ele>
        <time>2025-04-17T10:48:17.341Z</time>
      </trkpt>
      <trkpt lat="43.512012" lon="-3.585290">
        <ele>29.581</ele>
        <time>2025-04-17T10:48:25.341Z</time>
      </trkpt>
      <trkpt lat="43.512025" lon="-3.585360">
        <ele>29.249</ele>
        <time>2025-04-17T10:48:35.354Z</time>
      </trkpt>
      <trkpt lat="43.512057" lon="-3.585404">
        <ele>29.758</ele>
        <time>2025-04-17T10:48:47.422Z</time>
      </trkpt>
      <trkpt lat="43.512069" lon="-3.585482">
        <ele>30.061</ele>
        <time>2025-04-17T10:48:59.351Z</time>
      </trkpt>
      <trkpt lat="43.512088" lon="-3.585557">
        <ele>30.155</ele>
        <time>2025-04-17T10:49:01.355Z</time>
      </trkpt>
      <trkpt lat="43.512109" lon="-3.585619">
        <ele>30.610</ele>
        <time>2025-04-17T10:49:05.343Z</time>
      </trkpt>
      <trkpt lat="43.512137" lon="-3.585678">
        <ele>32.085</ele>
        <time>2025-04-17T10:49:12.357Z</time>
      </trkpt>
      <trkpt lat="43.512148" lon="-3.585739">
        <ele>33.241</ele>
        <time>2025-04-17T10:49:24.351Z</time>
      </trkpt>
      <trkpt lat="43.512147" lon="-3.585807">
        <ele>33.795</ele>
        <time>2025-04-17T10:49:41.353Z</time>
      </trkpt>
      <trkpt lat="43.512175" lon="-3.585868">
        <ele>34.533</ele>
        <time>2025-04-17T10:49:47.355Z</time>
      </trkpt>
      <trkpt lat="43.512205" lon="-3.585918">
        <ele>35.123</ele>
        <time>2025-04-17T10:49:52.391Z</time>
      </trkpt>
      <trkpt lat="43.512227" lon="-3.585973">
        <ele>35.615</ele>
        <time>2025-04-17T10:50:05.352Z</time>
      </trkpt>
      <trkpt lat="43.512255" lon="-3.586045">
        <ele>35.709</ele>
        <time>2025-04-17T10:50:07.369Z</time>
      </trkpt>
      <trkpt lat="43.512267" lon="-3.586108">
        <ele>35.855</ele>
        <time>2025-04-17T10:50:09.423Z</time>
      </trkpt>
      <trkpt lat="43.512289" lon="-3.586173">
        <ele>36.483</ele>
        <time>2025-04-17T10:50:22.343Z</time>
      </trkpt>
      <trkpt lat="43.512317" lon="-3.586226">
        <ele>36.422</ele>
        <time>2025-04-17T10:50:25.347Z</time>
      </trkpt>
      <trkpt lat="43.512341" lon="-3.586279">
        <ele>35.995</ele>
        <time>2025-04-17T10:50:29.340Z</time>
      </trkpt>
      <trkpt lat="43.512359" lon="-3.586338">
        <ele>35.929</ele>
        <time>2025-04-17T10:50:34.348Z</time>
      </trkpt>
      <trkpt lat="43.512367" lon="-3.586405">
        <ele>36.454</ele>
        <time>2025-04-17T10:50:40.341Z</time>
      </trkpt>
      <trkpt lat="43.512402" lon="-3.586451">
        <ele>37.029</ele>
        <time>2025-04-17T10:50:47.346Z</time>
      </trkpt>
      <trkpt lat="43.512434" lon="-3.586505">
        <ele>37.645</ele>
        <time>2025-04-17T10:50:55.354Z</time>
      </trkpt>
      <trkpt lat="43.512452" lon="-3.586580">
        <ele>37.619</ele>
        <time>2025-04-17T10:51:35.358Z</time>
      </trkpt>
      <trkpt lat="43.512461" lon="-3.586642">
        <ele>35.018</ele>
        <time>2025-04-17T10:52:10.326Z</time>
      </trkpt>
      <trkpt lat="43.512471" lon="-3.586704">
        <ele>35.298</ele>
        <time>2025-04-17T10:52:21.342Z</time>
      </trkpt>
      <trkpt lat="43.512469" lon="-3.586773">
        <ele>35.317</ele>
        <time>2025-04-17T10:52:30.326Z</time>
      </trkpt>
      <trkpt lat="43.512458" lon="-3.586839">
        <ele>34.709</ele>
        <time>2025-04-17T10:52:40.357Z</time>
      </trkpt>
      <trkpt lat="43.512444" lon="-3.586898">
        <ele>34.563</ele>
        <time>2025-04-17T10:52:52.351Z</time>
      </trkpt>
      <trkpt lat="43.512442" lon="-3.586972">
        <ele>33.671</ele>
        <time>2025-04-17T10:53:07.354Z</time>
      </trkpt>
      <trkpt lat="43.512476" lon="-3.587015">
        <ele>31.860</ele>
        <time>2025-04-17T10:53:34.336Z</time>
      </trkpt>
      <trkpt lat="43.512506" lon="-3.587071">
        <ele>30.343</ele>
        <time>2025-04-17T10:53:50.341Z</time>
      </trkpt>
      <trkpt lat="43.512540" lon="-3.587116">
        <ele>30.327</ele>
        <time>2025-04-17T10:53:53.329Z</time>
      </trkpt>
      <trkpt lat="43.512567" lon="-3.587174">
        <ele>32.382</ele>
        <time>2025-04-17T10:53:59.355Z</time>
      </trkpt>
      <trkpt lat="43.512616" lon="-3.587205">
        <ele>33.317</ele>
        <time>2025-04-17T10:54:04.370Z</time>
      </trkpt>
      <trkpt lat="43.512613" lon="-3.587276">
        <ele>34.373</ele>
        <time>2025-04-17T10:54:09.340Z</time>
      </trkpt>
      <trkpt lat="43.512601" lon="-3.587347">
        <ele>35.177</ele>
        <time>2025-04-17T10:54:13.335Z</time>
      </trkpt>
      <trkpt lat="43.512603" lon="-3.587409">
        <ele>35.544</ele>
        <time>2025-04-17T10:54:18.343Z</time>
      </trkpt>
      <trkpt lat="43.512592" lon="-3.587473">
        <ele>35.905</ele>
        <time>2025-04-17T10:54:24.332Z</time>
      </trkpt>
      <trkpt lat="43.512596" lon="-3.587540">
        <ele>36.515</ele>
        <time>2025-04-17T10:54:30.344Z</time>
      </trkpt>
      <trkpt lat="43.512635" lon="-3.587570">
        <ele>36.109</ele>
        <time>2025-04-17T10:55:18.368Z</time>
      </trkpt>
      <trkpt lat="43.512681" lon="-3.587597">
        <ele>36.226</ele>
        <time>2025-04-17T10:55:22.364Z</time>
      </trkpt>
      <trkpt lat="43.512726" lon="-3.587632">
        <ele>36.894</ele>
        <time>2025-04-17T10:55:31.368Z</time>
      </trkpt>
      <trkpt lat="43.512750" lon="-3.587690">
        <ele>39.233</ele>
        <time>2025-04-17T10:55:38.362Z</time>
      </trkpt>
      <trkpt lat="43.512767" lon="-3.587757">
        <ele>39.296</ele>
        <time>2025-04-17T10:55:51.331Z</time>
      </trkpt>
      <trkpt lat="43.512781" lon="-3.587836">
        <ele>40.180</ele>
        <time>2025-04-17T10:56:01.346Z</time>
      </trkpt>
      <trkpt lat="43.512798" lon="-3.587894">
        <ele>40.935</ele>
        <time>2025-04-17T10:56:06.341Z</time>
      </trkpt>
      <trkpt lat="43.512816" lon="-3.587952">
        <ele>41.310</ele>
        <time>2025-04-17T10:56:14.350Z</time>
      </trkpt>
      <trkpt lat="43.512829" lon="-3.588017">
        <ele>41.376</ele>
        <time>2025-04-17T10:56:22.359Z</time>
      </trkpt>
      <trkpt lat="43.512855" lon="-3.588071">
        <ele>42.890</ele>
        <time>2025-04-17T10:56:30.337Z</time>
      </trkpt>
      <trkpt lat="43.512885" lon="-3.588119">
        <ele>43.592</ele>
        <time>2025-04-17T10:56:35.351Z</time>
      </trkpt>
      <trkpt lat="43.512902" lon="-3.588182">
        <ele>44.073</ele>
        <time>2025-04-17T10:56:45.339Z</time>
      </trkpt>
      <trkpt lat="43.512900" lon="-3.588251">
        <ele>44.020</ele>
        <time>2025-04-17T10:56:53.339Z</time>
      </trkpt>
      <trkpt lat="43.512883" lon="-3.588316">
        <ele>44.209</ele>
        <time>2025-04-17T10:57:05.347Z</time>
      </trkpt>
      <trkpt lat="43.512870" lon="-3.588376">
        <ele>44.761</ele>
        <time>2025-04-17T10:57:13.334Z</time>
      </trkpt>
      <trkpt lat="43.512868" lon="-3.588453">
        <ele>44.669</ele>
        <time>2025-04-17T10:57:19.336Z</time>
      </trkpt>
      <trkpt lat="43.512860" lon="-3.588517">
        <ele>44.738</ele>
        <time>2025-04-17T10:57:29.328Z</time>
      </trkpt>
      <trkpt lat="43.512822" lon="-3.588564">
        <ele>44.851</ele>
        <time>2025-04-17T10:57:35.344Z</time>
      </trkpt>
      <trkpt lat="43.512795" lon="-3.588624">
        <ele>44.825</ele>
        <time>2025-04-17T10:57:40.333Z</time>
      </trkpt>
      <trkpt lat="43.512772" lon="-3.588679">
        <ele>43.850</ele>
        <time>2025-04-17T10:57:47.344Z</time>
      </trkpt>
      <trkpt lat="43.512793" lon="-3.588738">
        <ele>44.185</ele>
        <time>2025-04-17T10:57:52.348Z</time>
      </trkpt>
      <trkpt lat="43.512803" lon="-3.588807">
        <ele>44.891</ele>
        <time>2025-04-17T10:57:59.369Z</time>
      </trkpt>
      <trkpt lat="43.512836" lon="-3.588851">
        <ele>44.325</ele>
        <time>2025-04-17T10:58:03.357Z</time>
      </trkpt>
      <trkpt lat="43.512878" lon="-3.588876">
        <ele>44.662</ele>
        <time>2025-04-17T10:58:13.338Z</time>
      </trkpt>
      <trkpt lat="43.512870" lon="-3.588946">
        <ele>45.083</ele>
        <time>2025-04-17T10:58:52.338Z</time>
      </trkpt>
      <trkpt lat="43.512872" lon="-3.589015">
        <ele>45.111</ele>
        <time>2025-04-17T10:58:57.363Z</time>
      </trkpt>
      <trkpt lat="43.512877" lon="-3.589084">
        <ele>45.509</ele>
        <time>2025-04-17T10:59:03.366Z</time>
      </trkpt>
      <trkpt lat="43.512867" lon="-3.589147">
        <ele>45.698</ele>
        <time>2025-04-17T10:59:08.327Z</time>
      </trkpt>
      <trkpt lat="43.512863" lon="-3.589213">
        <ele>45.826</ele>
        <time>2025-04-17T10:59:13.334Z</time>
      </trkpt>
      <trkpt lat="43.512865" lon="-3.589282">
        <ele>45.855</ele>
        <time>2025-04-17T10:59:19.348Z</time>
      </trkpt>
      <trkpt lat="43.512864" lon="-3.589361">
        <ele>46.118</ele>
        <time>2025-04-17T10:59:24.343Z</time>
      </trkpt>
      <trkpt lat="43.512870" lon="-3.589431">
        <ele>46.142</ele>
        <time>2025-04-17T10:59:41.336Z</time>
      </trkpt>
      <trkpt lat="43.512865" lon="-3.589494">
        <ele>45.827</ele>
        <time>2025-04-17T10:59:45.337Z</time>
      </trkpt>
      <trkpt lat="43.512854" lon="-3.589554">
        <ele>45.292</ele>
        <time>2025-04-17T10:59:51.339Z</time>
      </trkpt>
      <trkpt lat="43.512853" lon="-3.589621">
        <ele>45.398</ele>
        <time>2025-04-17T10:59:55.339Z</time>
      </trkpt>
      <trkpt lat="43.512854" lon="-3.589685">
        <ele>45.772</ele>
        <time>2025-04-17T11:00:00.339Z</time>
      </trkpt>
      <trkpt lat="43.512860" lon="-3.589750">
        <ele>47.297</ele>
        <time>2025-04-17T11:00:14.344Z</time>
      </trkpt>
      <trkpt lat="43.512862" lon="-3.589820">
        <ele>47.323</ele>
        <time>2025-04-17T11:00:20.345Z</time>
      </trkpt>
      <trkpt lat="43.512832" lon="-3.589881">
        <ele>47.725</ele>
        <time>2025-04-17T11:00:26.341Z</time>
      </trkpt>
      <trkpt lat="43.512798" lon="-3.589946">
        <ele>48.509</ele>
        <time>2025-04-17T11:00:31.341Z</time>
      </trkpt>
      <trkpt lat="43.512782" lon="-3.590009">
        <ele>48.961</ele>
        <time>2025-04-17T11:00:35.338Z</time>
      </trkpt>
      <trkpt lat="43.512770" lon="-3.590070">
        <ele>49.389</ele>
        <time>2025-04-17T11:00:39.372Z</time>
      </trkpt>
      <trkpt lat="43.512742" lon="-3.590135">
        <ele>49.878</ele>
        <time>2025-04-17T11:00:44.359Z</time>
      </trkpt>
      <trkpt lat="43.512728" lon="-3.590211">
        <ele>49.821</ele>
        <time>2025-04-17T11:00:50.340Z</time>
      </trkpt>
      <trkpt lat="43.512720" lon="-3.590281">
        <ele>48.695</ele>
        <time>2025-04-17T11:01:08.345Z</time>
      </trkpt>
      <trkpt lat="43.512708" lon="-3.590348">
        <ele>48.370</ele>
        <time>2025-04-17T11:01:13.332Z</time>
      </trkpt>
      <trkpt lat="43.512681" lon="-3.590402">
        <ele>48.175</ele>
        <time>2025-04-17T11:01:19.347Z</time>
      </trkpt>
      <trkpt lat="43.512641" lon="-3.590433">
        <ele>47.781</ele>
        <time>2025-04-17T11:01:23.335Z</time>
      </trkpt>
      <trkpt lat="43.512605" lon="-3.590477">
        <ele>47.755</ele>
        <time>2025-04-17T11:01:27.347Z</time>
      </trkpt>
      <trkpt lat="43.512567" lon="-3.590523">
        <ele>48.336</ele>
        <time>2025-04-17T11:01:32.342Z</time>
      </trkpt>
      <trkpt lat="43.512537" lon="-3.590578">
        <ele>49.117</ele>
        <time>2025-04-17T11:01:37.344Z</time>
      </trkpt>
      <trkpt lat="43.512499" lon="-3.590633">
        <ele>49.318</ele>
        <time>2025-04-17T11:01:42.372Z</time>
      </trkpt>
      <trkpt lat="43.512466" lon="-3.590683">
        <ele>49.609</ele>
        <time>2025-04-17T11:01:47.345Z</time>
      </trkpt>
      <trkpt lat="43.512449" lon="-3.590748">
        <ele>49.645</ele>
        <time>2025-04-17T11:01:53.341Z</time>
      </trkpt>
      <trkpt lat="43.512425" lon="-3.590802">
        <ele>50.393</ele>
        <time>2025-04-17T11:01:58.355Z</time>
      </trkpt>
      <trkpt lat="43.512405" lon="-3.590871">
        <ele>50.352</ele>
        <time>2025-04-17T11:02:03.370Z</time>
      </trkpt>
      <trkpt lat="43.512417" lon="-3.590939">
        <ele>50.315</ele>
        <time>2025-04-17T11:02:08.358Z</time>
      </trkpt>
      <trkpt lat="43.512404" lon="-3.591009">
        <ele>50.359</ele>
        <time>2025-04-17T11:02:13.330Z</time>
      </trkpt>
      <trkpt lat="43.512384" lon="-3.591078">
        <ele>50.414</ele>
        <time>2025-04-17T11:02:19.352Z</time>
      </trkpt>
      <trkpt lat="43.512358" lon="-3.591135">
        <ele>50.849</ele>
        <time>2025-04-17T11:02:27.341Z</time>
      </trkpt>
      <trkpt lat="43.512331" lon="-3.591191">
        <ele>50.735</ele>
        <time>2025-04-17T11:02:32.325Z</time>
      </trkpt>
      <trkpt lat="43.512304" lon="-3.591248">
        <ele>50.259</ele>
        <time>2025-04-17T11:02:38.326Z</time>
      </trkpt>
      <trkpt lat="43.512274" lon="-3.591298">
        <ele>50.311</ele>
        <time>2025-04-17T11:02:43.344Z</time>
      </trkpt>
      <trkpt lat="43.512240" lon="-3.591347">
        <ele>50.421</ele>
        <time>2025-04-17T11:02:48.337Z</time>
      </trkpt>
      <trkpt lat="43.512207" lon="-3.591404">
        <ele>50.403</ele>
        <time>2025-04-17T11:02:53.343Z</time>
      </trkpt>
      <trkpt lat="43.512176" lon="-3.591459">
        <ele>50.309</ele>
        <time>2025-04-17T11:02:58.334Z</time>
      </trkpt>
      <trkpt lat="43.512142" lon="-3.591519">
        <ele>49.853</ele>
        <time>2025-04-17T11:03:03.348Z</time>
      </trkpt>
      <trkpt lat="43.512101" lon="-3.591556">
        <ele>49.531</ele>
        <time>2025-04-17T11:03:08.357Z</time>
      </trkpt>
      <trkpt lat="43.512068" lon="-3.591599">
        <ele>49.510</ele>
        <time>2025-04-17T11:03:12.389Z</time>
      </trkpt>
      <trkpt lat="43.512032" lon="-3.591651">
        <ele>49.693</ele>
        <time>2025-04-17T11:03:17.352Z</time>
      </trkpt>
      <trkpt lat="43.512006" lon="-3.591707">
        <ele>49.877</ele>
        <time>2025-04-17T11:03:22.355Z</time>
      </trkpt>
      <trkpt lat="43.511977" lon="-3.591772">
        <ele>50.242</ele>
        <time>2025-04-17T11:03:27.361Z</time>
      </trkpt>
      <trkpt lat="43.511959" lon="-3.591831">
        <ele>50.757</ele>
        <time>2025-04-17T11:03:32.350Z</time>
      </trkpt>
      <trkpt lat="43.511944" lon="-3.591891">
        <ele>51.063</ele>
        <time>2025-04-17T11:03:36.360Z</time>
      </trkpt>
      <trkpt lat="43.511915" lon="-3.591949">
        <ele>51.457</ele>
        <time>2025-04-17T11:03:42.347Z</time>
      </trkpt>
      <trkpt lat="43.511898" lon="-3.592017">
        <ele>52.262</ele>
        <time>2025-04-17T11:03:48.356Z</time>
      </trkpt>
      <trkpt lat="43.511881" lon="-3.592078">
        <ele>52.583</ele>
        <time>2025-04-17T11:03:53.330Z</time>
      </trkpt>
      <trkpt lat="43.511883" lon="-3.592148">
        <ele>52.611</ele>
        <time>2025-04-17T11:03:58.335Z</time>
      </trkpt>
      <trkpt lat="43.511893" lon="-3.592226">
        <ele>52.409</ele>
        <time>2025-04-17T11:04:02.335Z</time>
      </trkpt>
      <trkpt lat="43.511902" lon="-3.592294">
        <ele>52.378</ele>
        <time>2025-04-17T11:04:06.341Z</time>
      </trkpt>
      <trkpt lat="43.511866" lon="-3.592331">
        <ele>53.196</ele>
        <time>2025-04-17T11:04:46.348Z</time>
      </trkpt>
      <trkpt lat="43.511829" lon="-3.592376">
        <ele>52.475</ele>
        <time>2025-04-17T11:04:50.346Z</time>
      </trkpt>
      <trkpt lat="43.511793" lon="-3.592445">
        <ele>53.268</ele>
        <time>2025-04-17T11:05:00.328Z</time>
      </trkpt>
      <trkpt lat="43.511757" lon="-3.592529">
        <ele>53.372</ele>
        <time>2025-04-17T11:05:02.351Z</time>
      </trkpt>
      <trkpt lat="43.511730" lon="-3.592608">
        <ele>53.457</ele>
        <time>2025-04-17T11:05:04.372Z</time>
      </trkpt>
      <trkpt lat="43.511703" lon="-3.592688">
        <ele>53.542</ele>
        <time>2025-04-17T11:05:06.353Z</time>
      </trkpt>
      <trkpt lat="43.511679" lon="-3.592761">
        <ele>53.768</ele>
        <time>2025-04-17T11:05:08.351Z</time>
      </trkpt>
      <trkpt lat="43.511656" lon="-3.592838">
        <ele>53.792</ele>
        <time>2025-04-17T11:05:10.347Z</time>
      </trkpt>
      <trkpt lat="43.511628" lon="-3.592907">
        <ele>53.756</ele>
        <time>2025-04-17T11:05:12.344Z</time>
      </trkpt>
      <trkpt lat="43.511612" lon="-3.592990">
        <ele>54.059</ele>
        <time>2025-04-17T11:05:14.353Z</time>
      </trkpt>
      <trkpt lat="43.511612" lon="-3.593070">
        <ele>54.114</ele>
        <time>2025-04-17T11:05:16.359Z</time>
      </trkpt>
      <trkpt lat="43.511630" lon="-3.593157">
        <ele>54.609</ele>
        <time>2025-04-17T11:05:19.350Z</time>
      </trkpt>
      <trkpt lat="43.511642" lon="-3.593220">
        <ele>54.617</ele>
        <time>2025-04-17T11:05:21.353Z</time>
      </trkpt>
      <trkpt lat="43.511651" lon="-3.593294">
        <ele>55.435</ele>
        <time>2025-04-17T11:05:25.339Z</time>
      </trkpt>
      <trkpt lat="43.511663" lon="-3.593360">
        <ele>56.484</ele>
        <time>2025-04-17T11:05:30.328Z</time>
      </trkpt>
      <trkpt lat="43.511674" lon="-3.593426">
        <ele>56.997</ele>
        <time>2025-04-17T11:05:38.328Z</time>
      </trkpt>
      <trkpt lat="43.511693" lon="-3.593483">
        <ele>56.261</ele>
        <time>2025-04-17T11:06:06.360Z</time>
      </trkpt>
      <trkpt lat="43.511703" lon="-3.593550">
        <ele>56.586</ele>
        <time>2025-04-17T11:06:12.340Z</time>
      </trkpt>
      <trkpt lat="43.511713" lon="-3.593619">
        <ele>56.991</ele>
        <time>2025-04-17T11:06:19.341Z</time>
      </trkpt>
      <trkpt lat="43.511713" lon="-3.593682">
        <ele>57.037</ele>
        <time>2025-04-17T11:06:24.381Z</time>
      </trkpt>
      <trkpt lat="43.511727" lon="-3.593743">
        <ele>57.681</ele>
        <time>2025-04-17T11:06:30.377Z</time>
      </trkpt>
      <trkpt lat="43.511708" lon="-3.593813">
        <ele>54.696</ele>
        <time>2025-04-17T11:07:06.361Z</time>
      </trkpt>
      <trkpt lat="43.511704" lon="-3.593886">
        <ele>55.131</ele>
        <time>2025-04-17T11:07:11.336Z</time>
      </trkpt>
      <trkpt lat="43.511698" lon="-3.593950">
        <ele>55.524</ele>
        <time>2025-04-17T11:07:16.349Z</time>
      </trkpt>
      <trkpt lat="43.511679" lon="-3.594007">
        <ele>54.909</ele>
        <time>2025-04-17T11:08:09.347Z</time>
      </trkpt>
      <trkpt lat="43.511662" lon="-3.594066">
        <ele>55.371</ele>
        <time>2025-04-17T11:08:14.358Z</time>
      </trkpt>
      <trkpt lat="43.511639" lon="-3.594124">
        <ele>55.549</ele>
        <time>2025-04-17T11:08:22.351Z</time>
      </trkpt>
      <trkpt lat="43.511618" lon="-3.594188">
        <ele>55.418</ele>
        <time>2025-04-17T11:08:25.334Z</time>
      </trkpt>
      <trkpt lat="43.511610" lon="-3.594252">
        <ele>55.471</ele>
        <time>2025-04-17T11:08:28.362Z</time>
      </trkpt>
      <trkpt lat="43.511606" lon="-3.594323">
        <ele>56.195</ele>
        <time>2025-04-17T11:08:32.396Z</time>
      </trkpt>
      <trkpt lat="43.511612" lon="-3.594389">
        <ele>56.450</ele>
        <time>2025-04-17T11:08:36.357Z</time>
      </trkpt>
      <trkpt lat="43.511628" lon="-3.594462">
        <ele>57.085</ele>
        <time>2025-04-17T11:08:45.362Z</time>
      </trkpt>
      <trkpt lat="43.511647" lon="-3.594528">
        <ele>57.551</ele>
        <time>2025-04-17T11:08:50.339Z</time>
      </trkpt>
      <trkpt lat="43.511671" lon="-3.594593">
        <ele>58.275</ele>
        <time>2025-04-17T11:08:55.351Z</time>
      </trkpt>
      <trkpt lat="43.511693" lon="-3.594655">
        <ele>58.421</ele>
        <time>2025-04-17T11:09:00.349Z</time>
      </trkpt>
      <trkpt lat="43.511712" lon="-3.594718">
        <ele>54.141</ele>
        <time>2025-04-17T11:09:49.328Z</time>
      </trkpt>
      <trkpt lat="43.511718" lon="-3.594783">
        <ele>53.305</ele>
        <time>2025-04-17T11:10:05.342Z</time>
      </trkpt>
      <trkpt lat="43.511754" lon="-3.594839">
        <ele>54.009</ele>
        <time>2025-04-17T11:11:03.339Z</time>
      </trkpt>
      <trkpt lat="43.511783" lon="-3.594896">
        <ele>54.734</ele>
        <time>2025-04-17T11:11:08.350Z</time>
      </trkpt>
      <trkpt lat="43.511797" lon="-3.594956">
        <ele>54.732</ele>
        <time>2025-04-17T11:11:14.337Z</time>
      </trkpt>
      <trkpt lat="43.511817" lon="-3.595017">
        <ele>54.881</ele>
        <time>2025-04-17T11:11:20.338Z</time>
      </trkpt>
      <trkpt lat="43.511849" lon="-3.595066">
        <ele>54.914</ele>
        <time>2025-04-17T11:11:24.342Z</time>
      </trkpt>
      <trkpt lat="43.511873" lon="-3.595129">
        <ele>54.918</ele>
        <time>2025-04-17T11:11:30.343Z</time>
      </trkpt>
      <trkpt lat="43.511867" lon="-3.595197">
        <ele>49.943</ele>
        <time>2025-04-17T11:12:01.374Z</time>
      </trkpt>
      <trkpt lat="43.511874" lon="-3.595264">
        <ele>49.878</ele>
        <time>2025-04-17T11:12:06.332Z</time>
      </trkpt>
      <trkpt lat="43.511887" lon="-3.595336">
        <ele>50.534</ele>
        <time>2025-04-17T11:12:11.331Z</time>
      </trkpt>
      <trkpt lat="43.511905" lon="-3.595399">
        <ele>51.018</ele>
        <time>2025-04-17T11:12:16.345Z</time>
      </trkpt>
      <trkpt lat="43.511916" lon="-3.595475">
        <ele>51.525</ele>
        <time>2025-04-17T11:12:21.358Z</time>
      </trkpt>
      <trkpt lat="43.511921" lon="-3.595546">
        <ele>52.026</ele>
        <time>2025-04-17T11:12:26.357Z</time>
      </trkpt>
      <trkpt lat="43.511928" lon="-3.595616">
        <ele>52.308</ele>
        <time>2025-04-17T11:12:31.337Z</time>
      </trkpt>
      <trkpt lat="43.511936" lon="-3.595693">
        <ele>52.309</ele>
        <time>2025-04-17T11:12:36.356Z</time>
      </trkpt>
      <trkpt lat="43.511935" lon="-3.595768">
        <ele>52.454</ele>
        <time>2025-04-17T11:12:41.347Z</time>
      </trkpt>
      <trkpt lat="43.511881" lon="-3.595793">
        <ele>52.692</ele>
        <time>2025-04-17T11:12:46.350Z</time>
      </trkpt>
      <trkpt lat="43.511833" lon="-3.595758">
        <ele>53.111</ele>
        <time>2025-04-17T11:12:51.356Z</time>
      </trkpt>
      <trkpt lat="43.511779" lon="-3.595735">
        <ele>53.944</ele>
        <time>2025-04-17T11:12:56.356Z</time>
      </trkpt>
      <trkpt lat="43.511728" lon="-3.595722">
        <ele>54.668</ele>
        <time>2025-04-17T11:13:02.387Z</time>
      </trkpt>
      <trkpt lat="43.511685" lon="-3.595704">
        <ele>54.943</ele>
        <time>2025-04-17T11:13:14.386Z</time>
      </trkpt>
      <trkpt lat="43.511612" lon="-3.595681">
        <ele>55.028</ele>
        <time>2025-04-17T11:13:17.377Z</time>
      </trkpt>
      <trkpt lat="43.511559" lon="-3.595674">
        <ele>55.154</ele>
        <time>2025-04-17T11:13:19.354Z</time>
      </trkpt>
      <trkpt lat="43.511505" lon="-3.595687">
        <ele>55.668</ele>
        <time>2025-04-17T11:13:22.327Z</time>
      </trkpt>
      <trkpt lat="43.511452" lon="-3.595689">
        <ele>55.982</ele>
        <time>2025-04-17T11:13:27.352Z</time>
      </trkpt>
      <trkpt lat="43.511407" lon="-3.595672">
        <ele>56.943</ele>
        <time>2025-04-17T11:13:32.355Z</time>
      </trkpt>
      <trkpt lat="43.511365" lon="-3.595643">
        <ele>57.317</ele>
        <time>2025-04-17T11:13:36.373Z</time>
      </trkpt>
      <trkpt lat="43.511316" lon="-3.595610">
        <ele>57.709</ele>
        <time>2025-04-17T11:13:46.366Z</time>
      </trkpt>
      <trkpt lat="43.511270" lon="-3.595589">
        <ele>58.120</ele>
        <time>2025-04-17T11:13:51.365Z</time>
      </trkpt>
      <trkpt lat="43.511318" lon="-3.595615">
        <ele>50.738</ele>
        <time>2025-04-17T11:15:19.357Z</time>
      </trkpt>
      <trkpt lat="43.511365" lon="-3.595634">
        <ele>51.567</ele>
        <time>2025-04-17T11:15:26.383Z</time>
      </trkpt>
      <trkpt lat="43.511418" lon="-3.595660">
        <ele>52.280</ele>
        <time>2025-04-17T11:15:31.356Z</time>
      </trkpt>
      <trkpt lat="43.511468" lon="-3.595675">
        <ele>52.794</ele>
        <time>2025-04-17T11:15:37.345Z</time>
      </trkpt>
      <trkpt lat="43.511513" lon="-3.595675">
        <ele>53.189</ele>
        <time>2025-04-17T11:15:42.345Z</time>
      </trkpt>
      <trkpt lat="43.511557" lon="-3.595664">
        <ele>53.224</ele>
        <time>2025-04-17T11:15:47.362Z</time>
      </trkpt>
      <trkpt lat="43.511616" lon="-3.595664">
        <ele>53.390</ele>
        <time>2025-04-17T11:15:59.349Z</time>
      </trkpt>
      <trkpt lat="43.511665" lon="-3.595671">
        <ele>53.484</ele>
        <time>2025-04-17T11:16:02.339Z</time>
      </trkpt>
      <trkpt lat="43.511709" lon="-3.595687">
        <ele>53.617</ele>
        <time>2025-04-17T11:16:05.348Z</time>
      </trkpt>
      <trkpt lat="43.511764" lon="-3.595711">
        <ele>54.187</ele>
        <time>2025-04-17T11:16:09.345Z</time>
      </trkpt>
      <trkpt lat="43.511813" lon="-3.595724">
        <ele>54.715</ele>
        <time>2025-04-17T11:16:15.346Z</time>
      </trkpt>
      <trkpt lat="43.511857" lon="-3.595742">
        <ele>54.609</ele>
        <time>2025-04-17T11:16:21.341Z</time>
      </trkpt>
      <trkpt lat="43.511906" lon="-3.595763">
        <ele>54.383</ele>
        <time>2025-04-17T11:16:27.334Z</time>
      </trkpt>
      <trkpt lat="43.511939" lon="-3.595817">
        <ele>54.161</ele>
        <time>2025-04-17T11:16:31.331Z</time>
      </trkpt>
      <trkpt lat="43.511950" lon="-3.595892">
        <ele>54.210</ele>
        <time>2025-04-17T11:16:33.342Z</time>
      </trkpt>
      <trkpt lat="43.511965" lon="-3.595970">
        <ele>54.233</ele>
        <time>2025-04-17T11:16:35.364Z</time>
      </trkpt>
      <trkpt lat="43.511970" lon="-3.596046">
        <ele>54.187</ele>
        <time>2025-04-17T11:16:37.353Z</time>
      </trkpt>
      <trkpt lat="43.511961" lon="-3.596129">
        <ele>53.962</ele>
        <time>2025-04-17T11:16:39.338Z</time>
      </trkpt>
      <trkpt lat="43.511946" lon="-3.596204">
        <ele>53.867</ele>
        <time>2025-04-17T11:16:41.355Z</time>
      </trkpt>
      <trkpt lat="43.511925" lon="-3.596278">
        <ele>53.453</ele>
        <time>2025-04-17T11:16:43.348Z</time>
      </trkpt>
      <trkpt lat="43.511903" lon="-3.596341">
        <ele>53.227</ele>
        <time>2025-04-17T11:16:45.344Z</time>
      </trkpt>
      <trkpt lat="43.511878" lon="-3.596404">
        <ele>53.063</ele>
        <time>2025-04-17T11:16:47.339Z</time>
      </trkpt>
      <trkpt lat="43.511862" lon="-3.596480">
        <ele>52.244</ele>
        <time>2025-04-17T11:16:51.359Z</time>
      </trkpt>
      <trkpt lat="43.511842" lon="-3.596555">
        <ele>51.418</ele>
        <time>2025-04-17T11:16:55.357Z</time>
      </trkpt>
      <trkpt lat="43.511819" lon="-3.596620">
        <ele>50.809</ele>
        <time>2025-04-17T11:16:59.355Z</time>
      </trkpt>
      <trkpt lat="43.511784" lon="-3.596666">
        <ele>50.868</ele>
        <time>2025-04-17T11:17:03.347Z</time>
      </trkpt>
      <trkpt lat="43.511747" lon="-3.596706">
        <ele>50.496</ele>
        <time>2025-04-17T11:17:07.325Z</time>
      </trkpt>
      <trkpt lat="43.511704" lon="-3.596756">
        <ele>50.485</ele>
        <time>2025-04-17T11:17:12.342Z</time>
      </trkpt>
      <trkpt lat="43.511749" lon="-3.596714">
        <ele>46.428</ele>
        <time>2025-04-17T11:18:09.341Z</time>
      </trkpt>
      <trkpt lat="43.511785" lon="-3.596666">
        <ele>46.042</ele>
        <time>2025-04-17T11:18:13.340Z</time>
      </trkpt>
      <trkpt lat="43.511824" lon="-3.596606">
        <ele>46.327</ele>
        <time>2025-04-17T11:18:17.342Z</time>
      </trkpt>
      <trkpt lat="43.511847" lon="-3.596531">
        <ele>46.582</ele>
        <time>2025-04-17T11:18:21.361Z</time>
      </trkpt>
      <trkpt lat="43.511873" lon="-3.596460">
        <ele>46.848</ele>
        <time>2025-04-17T11:18:25.360Z</time>
      </trkpt>
      <trkpt lat="43.511898" lon="-3.596396">
        <ele>47.092</ele>
        <time>2025-04-17T11:18:27.367Z</time>
      </trkpt>
      <trkpt lat="43.511915" lon="-3.596328">
        <ele>47.694</ele>
        <time>2025-04-17T11:18:29.358Z</time>
      </trkpt>
      <trkpt lat="43.511931" lon="-3.596259">
        <ele>47.957</ele>
        <time>2025-04-17T11:18:31.364Z</time>
      </trkpt>
      <trkpt lat="43.511944" lon="-3.596195">
        <ele>48.322</ele>
        <time>2025-04-17T11:18:33.366Z</time>
      </trkpt>
      <trkpt lat="43.511961" lon="-3.596131">
        <ele>48.609</ele>
        <time>2025-04-17T11:18:35.361Z</time>
      </trkpt>
      <trkpt lat="43.511975" lon="-3.596063">
        <ele>49.361</ele>
        <time>2025-04-17T11:18:37.363Z</time>
      </trkpt>
      <trkpt lat="43.511981" lon="-3.595995">
        <ele>49.639</ele>
        <time>2025-04-17T11:18:39.354Z</time>
      </trkpt>
      <trkpt lat="43.511967" lon="-3.595930">
        <ele>49.728</ele>
        <time>2025-04-17T11:18:41.367Z</time>
      </trkpt>
      <trkpt lat="43.511949" lon="-3.595862">
        <ele>50.251</ele>
        <time>2025-04-17T11:18:44.347Z</time>
      </trkpt>
      <trkpt lat="43.511939" lon="-3.595790">
        <ele>51.285</ele>
        <time>2025-04-17T11:18:49.325Z</time>
      </trkpt>
      <trkpt lat="43.511936" lon="-3.595728">
        <ele>52.130</ele>
        <time>2025-04-17T11:18:56.318Z</time>
      </trkpt>
      <trkpt lat="43.511920" lon="-3.595649">
        <ele>52.265</ele>
        <time>2025-04-17T11:19:00.337Z</time>
      </trkpt>
      <trkpt lat="43.511911" lon="-3.595581">
        <ele>52.521</ele>
        <time>2025-04-17T11:19:04.326Z</time>
      </trkpt>
      <trkpt lat="43.511904" lon="-3.595513">
        <ele>52.985</ele>
        <time>2025-04-17T11:19:08.325Z</time>
      </trkpt>
      <trkpt lat="43.511899" lon="-3.595446">
        <ele>53.577</ele>
        <time>2025-04-17T11:19:12.321Z</time>
      </trkpt>
      <trkpt lat="43.511897" lon="-3.595379">
        <ele>54.061</ele>
        <time>2025-04-17T11:19:19.347Z</time>
      </trkpt>
      <trkpt lat="43.511895" lon="-3.595309">
        <ele>54.427</ele>
        <time>2025-04-17T11:19:26.345Z</time>
      </trkpt>
      <trkpt lat="43.511879" lon="-3.595240">
        <ele>54.509</ele>
        <time>2025-04-17T11:19:31.332Z</time>
      </trkpt>
      <trkpt lat="43.511866" lon="-3.595178">
        <ele>54.939</ele>
        <time>2025-04-17T11:19:35.342Z</time>
      </trkpt>
      <trkpt lat="43.511849" lon="-3.595117">
        <ele>55.417</ele>
        <time>2025-04-17T11:19:39.355Z</time>
      </trkpt>
      <trkpt lat="43.511836" lon="-3.595049">
        <ele>56.396</ele>
        <time>2025-04-17T11:19:44.379Z</time>
      </trkpt>
      <trkpt lat="43.511813" lon="-3.594995">
        <ele>56.789</ele>
        <time>2025-04-17T11:19:48.366Z</time>
      </trkpt>
      <trkpt lat="43.511793" lon="-3.594927">
        <ele>57.143</ele>
        <time>2025-04-17T11:19:53.358Z</time>
      </trkpt>
      <trkpt lat="43.511769" lon="-3.594855">
        <ele>57.548</ele>
        <time>2025-04-17T11:19:58.367Z</time>
      </trkpt>
      <trkpt lat="43.511752" lon="-3.594789">
        <ele>57.713</ele>
        <time>2025-04-17T11:20:03.344Z</time>
      </trkpt>
      <trkpt lat="43.511731" lon="-3.594721">
        <ele>57.849</ele>
        <time>2025-04-17T11:20:07.359Z</time>
      </trkpt>
      <trkpt lat="43.511704" lon="-3.594659">
        <ele>58.293</ele>
        <time>2025-04-17T11:20:12.364Z</time>
      </trkpt>
      <trkpt lat="43.511682" lon="-3.594599">
        <ele>58.542</ele>
        <time>2025-04-17T11:20:17.348Z</time>
      </trkpt>
      <trkpt lat="43.511665" lon="-3.594535">
        <ele>58.422</ele>
        <time>2025-04-17T11:20:21.354Z</time>
      </trkpt>
      <trkpt lat="43.511638" lon="-3.594473">
        <ele>57.914</ele>
        <time>2025-04-17T11:20:26.362Z</time>
      </trkpt>
      <trkpt lat="43.511615" lon="-3.594412">
        <ele>58.309</ele>
        <time>2025-04-17T11:20:31.351Z</time>
      </trkpt>
      <trkpt lat="43.511603" lon="-3.594350">
        <ele>58.536</ele>
        <time>2025-04-17T11:20:35.355Z</time>
      </trkpt>
      <trkpt lat="43.511600" lon="-3.594272">
        <ele>58.494</ele>
        <time>2025-04-17T11:20:41.366Z</time>
      </trkpt>
      <trkpt lat="43.511618" lon="-3.594209">
        <ele>58.353</ele>
        <time>2025-04-17T11:20:46.347Z</time>
      </trkpt>
      <trkpt lat="43.511632" lon="-3.594145">
        <ele>58.076</ele>
        <time>2025-04-17T11:20:50.348Z</time>
      </trkpt>
      <trkpt lat="43.511648" lon="-3.594074">
        <ele>58.110</ele>
        <time>2025-04-17T11:20:55.356Z</time>
      </trkpt>
      <trkpt lat="43.511666" lon="-3.594017">
        <ele>59.075</ele>
        <time>2025-04-17T11:21:00.349Z</time>
      </trkpt>
      <trkpt lat="43.511686" lon="-3.593952">
        <ele>59.420</ele>
        <time>2025-04-17T11:21:05.370Z</time>
      </trkpt>
      <trkpt lat="43.511701" lon="-3.593886">
        <ele>59.886</ele>
        <time>2025-04-17T11:21:10.352Z</time>
      </trkpt>
      <trkpt lat="43.511711" lon="-3.593817">
        <ele>59.880</ele>
        <time>2025-04-17T11:21:14.358Z</time>
      </trkpt>
      <trkpt lat="43.511716" lon="-3.593747">
        <ele>59.679</ele>
        <time>2025-04-17T11:21:19.357Z</time>
      </trkpt>
      <trkpt lat="43.511717" lon="-3.593682">
        <ele>59.905</ele>
        <time>2025-04-17T11:21:24.368Z</time>
      </trkpt>
      <trkpt lat="43.511709" lon="-3.593619">
        <ele>60.225</ele>
        <time>2025-04-17T11:21:29.351Z</time>
      </trkpt>
      <trkpt lat="43.511696" lon="-3.593551">
        <ele>59.909</ele>
        <time>2025-04-17T11:21:35.323Z</time>
      </trkpt>
      <trkpt lat="43.511679" lon="-3.593484">
        <ele>60.099</ele>
        <time>2025-04-17T11:21:41.326Z</time>
      </trkpt>
      <trkpt lat="43.511667" lon="-3.593415">
        <ele>59.727</ele>
        <time>2025-04-17T11:21:50.340Z</time>
      </trkpt>
      <trkpt lat="43.511647" lon="-3.593353">
        <ele>59.736</ele>
        <time>2025-04-17T11:21:55.340Z</time>
      </trkpt>
      <trkpt lat="43.511632" lon="-3.593288">
        <ele>59.029</ele>
        <time>2025-04-17T11:22:02.336Z</time>
      </trkpt>
      <trkpt lat="43.511624" lon="-3.593224">
        <ele>58.913</ele>
        <time>2025-04-17T11:22:13.347Z</time>
      </trkpt>
      <trkpt lat="43.511618" lon="-3.593148">
        <ele>58.768</ele>
        <time>2025-04-17T11:22:17.332Z</time>
      </trkpt>
      <trkpt lat="43.511606" lon="-3.593087">
        <ele>58.753</ele>
        <time>2025-04-17T11:22:20.347Z</time>
      </trkpt>
      <trkpt lat="43.511587" lon="-3.593026">
        <ele>58.679</ele>
        <time>2025-04-17T11:22:26.330Z</time>
      </trkpt>
      <trkpt lat="43.511595" lon="-3.592956">
        <ele>57.943</ele>
        <time>2025-04-17T11:22:32.329Z</time>
      </trkpt>
      <trkpt lat="43.511609" lon="-3.592892">
        <ele>57.875</ele>
        <time>2025-04-17T11:22:37.339Z</time>
      </trkpt>
      <trkpt lat="43.511625" lon="-3.592830">
        <ele>57.128</ele>
        <time>2025-04-17T11:22:42.361Z</time>
      </trkpt>
      <trkpt lat="43.511645" lon="-3.592767">
        <ele>57.020</ele>
        <time>2025-04-17T11:22:47.333Z</time>
      </trkpt>
      <trkpt lat="43.511669" lon="-3.592698">
        <ele>55.509</ele>
        <time>2025-04-17T11:22:52.352Z</time>
      </trkpt>
      <trkpt lat="43.511687" lon="-3.592636">
        <ele>55.499</ele>
        <time>2025-04-17T11:22:57.350Z</time>
      </trkpt>
      <trkpt lat="43.511711" lon="-3.592571">
        <ele>55.487</ele>
        <time>2025-04-17T11:23:02.327Z</time>
      </trkpt>
      <trkpt lat="43.511734" lon="-3.592499">
        <ele>55.356</ele>
        <time>2025-04-17T11:23:07.332Z</time>
      </trkpt>
      <trkpt lat="43.511751" lon="-3.592427">
        <ele>55.419</ele>
        <time>2025-04-17T11:23:12.335Z</time>
      </trkpt>
      <trkpt lat="43.511764" lon="-3.592366">
        <ele>55.513</ele>
        <time>2025-04-17T11:23:16.342Z</time>
      </trkpt>
      <trkpt lat="43.511777" lon="-3.592296">
        <ele>55.658</ele>
        <time>2025-04-17T11:23:21.358Z</time>
      </trkpt>
      <trkpt lat="43.511803" lon="-3.592245">
        <ele>55.683</ele>
        <time>2025-04-17T11:23:25.372Z</time>
      </trkpt>
      <trkpt lat="43.511825" lon="-3.592189">
        <ele>55.569</ele>
        <time>2025-04-17T11:23:29.357Z</time>
      </trkpt>
      <trkpt lat="43.511856" lon="-3.592143">
        <ele>55.563</ele>
        <time>2025-04-17T11:23:34.367Z</time>
      </trkpt>
      <trkpt lat="43.511875" lon="-3.592083">
        <ele>55.525</ele>
        <time>2025-04-17T11:23:39.365Z</time>
      </trkpt>
      <trkpt lat="43.511894" lon="-3.592025">
        <ele>55.326</ele>
        <time>2025-04-17T11:23:45.354Z</time>
      </trkpt>
      <trkpt lat="43.511917" lon="-3.591969">
        <ele>54.908</ele>
        <time>2025-04-17T11:23:50.354Z</time>
      </trkpt>
      <trkpt lat="43.511936" lon="-3.591897">
        <ele>54.109</ele>
        <time>2025-04-17T11:23:56.366Z</time>
      </trkpt>
      <trkpt lat="43.511954" lon="-3.591835">
        <ele>53.864</ele>
        <time>2025-04-17T11:24:00.356Z</time>
      </trkpt>
      <trkpt lat="43.511976" lon="-3.591772">
        <ele>53.782</ele>
        <time>2025-04-17T11:24:05.344Z</time>
      </trkpt>
      <trkpt lat="43.512005" lon="-3.591717">
        <ele>53.351</ele>
        <time>2025-04-17T11:24:11.352Z</time>
      </trkpt>
      <trkpt lat="43.512036" lon="-3.591661">
        <ele>53.284</ele>
        <time>2025-04-17T11:24:16.342Z</time>
      </trkpt>
      <trkpt lat="43.512066" lon="-3.591600">
        <ele>52.968</ele>
        <time>2025-04-17T11:24:21.355Z</time>
      </trkpt>
      <trkpt lat="43.512103" lon="-3.591565">
        <ele>52.723</ele>
        <time>2025-04-17T11:24:25.353Z</time>
      </trkpt>
      <trkpt lat="43.512142" lon="-3.591515">
        <ele>52.728</ele>
        <time>2025-04-17T11:24:31.365Z</time>
      </trkpt>
      <trkpt lat="43.512176" lon="-3.591470">
        <ele>52.554</ele>
        <time>2025-04-17T11:24:36.359Z</time>
      </trkpt>
      <trkpt lat="43.512206" lon="-3.591415">
        <ele>51.758</ele>
        <time>2025-04-17T11:24:41.358Z</time>
      </trkpt>
      <trkpt lat="43.512231" lon="-3.591359">
        <ele>51.541</ele>
        <time>2025-04-17T11:24:46.359Z</time>
      </trkpt>
      <trkpt lat="43.512266" lon="-3.591310">
        <ele>51.281</ele>
        <time>2025-04-17T11:24:51.365Z</time>
      </trkpt>
      <trkpt lat="43.512298" lon="-3.591264">
        <ele>50.909</ele>
        <time>2025-04-17T11:24:56.360Z</time>
      </trkpt>
      <trkpt lat="43.512330" lon="-3.591207">
        <ele>50.509</ele>
        <time>2025-04-17T11:25:01.352Z</time>
      </trkpt>
      <trkpt lat="43.512355" lon="-3.591148">
        <ele>50.776</ele>
        <time>2025-04-17T11:25:06.352Z</time>
      </trkpt>
      <trkpt lat="43.512370" lon="-3.591085">
        <ele>50.834</ele>
        <time>2025-04-17T11:25:11.363Z</time>
      </trkpt>
      <trkpt lat="43.512400" lon="-3.591038">
        <ele>50.863</ele>
        <time>2025-04-17T11:25:15.357Z</time>
      </trkpt>
      <trkpt lat="43.512442" lon="-3.591004">
        <ele>50.276</ele>
        <time>2025-04-17T11:25:19.368Z</time>
      </trkpt>
      <trkpt lat="43.512473" lon="-3.590954">
        <ele>49.840</ele>
        <time>2025-04-17T11:25:27.361Z</time>
      </trkpt>
      <trkpt lat="43.512486" lon="-3.590888">
        <ele>49.845</ele>
        <time>2025-04-17T11:25:32.357Z</time>
      </trkpt>
      <trkpt lat="43.512490" lon="-3.590819">
        <ele>49.910</ele>
        <time>2025-04-17T11:25:37.355Z</time>
      </trkpt>
      <trkpt lat="43.512499" lon="-3.590756">
        <ele>50.416</ele>
        <time>2025-04-17T11:25:43.371Z</time>
      </trkpt>
      <trkpt lat="43.512493" lon="-3.590690">
        <ele>50.690</ele>
        <time>2025-04-17T11:25:49.363Z</time>
      </trkpt>
      <trkpt lat="43.512502" lon="-3.590618">
        <ele>50.798</ele>
        <time>2025-04-17T11:25:54.370Z</time>
      </trkpt>
      <trkpt lat="43.512544" lon="-3.590559">
        <ele>50.415</ele>
        <time>2025-04-17T11:26:00.353Z</time>
      </trkpt>
      <trkpt lat="43.512579" lon="-3.590512">
        <ele>50.326</ele>
        <time>2025-04-17T11:26:10.342Z</time>
      </trkpt>
      <trkpt lat="43.512614" lon="-3.590459">
        <ele>50.409</ele>
        <time>2025-04-17T11:26:21.327Z</time>
      </trkpt>
      <trkpt lat="43.512662" lon="-3.590404">
        <ele>50.031</ele>
        <time>2025-04-17T11:26:25.330Z</time>
      </trkpt>
      <trkpt lat="43.512697" lon="-3.590359">
        <ele>50.029</ele>
        <time>2025-04-17T11:26:28.340Z</time>
      </trkpt>
      <trkpt lat="43.512726" lon="-3.590295">
        <ele>50.188</ele>
        <time>2025-04-17T11:26:32.329Z</time>
      </trkpt>
      <trkpt lat="43.512735" lon="-3.590221">
        <ele>50.771</ele>
        <time>2025-04-17T11:26:37.325Z</time>
      </trkpt>
      <trkpt lat="43.512747" lon="-3.590154">
        <ele>50.875</ele>
        <time>2025-04-17T11:26:42.334Z</time>
      </trkpt>
      <trkpt lat="43.512759" lon="-3.590087">
        <ele>50.870</ele>
        <time>2025-04-17T11:26:47.336Z</time>
      </trkpt>
      <trkpt lat="43.512771" lon="-3.590021">
        <ele>50.735</ele>
        <time>2025-04-17T11:26:52.335Z</time>
      </trkpt>
      <trkpt lat="43.512787" lon="-3.589959">
        <ele>50.441</ele>
        <time>2025-04-17T11:26:57.347Z</time>
      </trkpt>
      <trkpt lat="43.512808" lon="-3.589894">
        <ele>50.025</ele>
        <time>2025-04-17T11:27:03.357Z</time>
      </trkpt>
      <trkpt lat="43.512833" lon="-3.589834">
        <ele>50.014</ele>
        <time>2025-04-17T11:27:11.366Z</time>
      </trkpt>
      <trkpt lat="43.512859" lon="-3.589778">
        <ele>49.254</ele>
        <time>2025-04-17T11:27:18.350Z</time>
      </trkpt>
      <trkpt lat="43.512857" lon="-3.589714">
        <ele>48.709</ele>
        <time>2025-04-17T11:27:24.358Z</time>
      </trkpt>
      <trkpt lat="43.512864" lon="-3.589651">
        <ele>48.409</ele>
        <time>2025-04-17T11:27:36.353Z</time>
      </trkpt>
      <trkpt lat="43.512858" lon="-3.589572">
        <ele>48.253</ele>
        <time>2025-04-17T11:27:47.353Z</time>
      </trkpt>
      <trkpt lat="43.512860" lon="-3.589509">
        <ele>48.131</ele>
        <time>2025-04-17T11:27:51.353Z</time>
      </trkpt>
      <trkpt lat="43.512857" lon="-3.589443">
        <ele>48.020</ele>
        <time>2025-04-17T11:27:55.361Z</time>
      </trkpt>
      <trkpt lat="43.512855" lon="-3.589368">
        <ele>48.023</ele>
        <time>2025-04-17T11:28:00.367Z</time>
      </trkpt>
      <trkpt lat="43.512843" lon="-3.589305">
        <ele>48.127</ele>
        <time>2025-04-17T11:28:05.358Z</time>
      </trkpt>
      <trkpt lat="43.512841" lon="-3.589237">
        <ele>48.292</ele>
        <time>2025-04-17T11:28:10.361Z</time>
      </trkpt>
      <trkpt lat="43.512840" lon="-3.589165">
        <ele>48.467</ele>
        <time>2025-04-17T11:28:15.361Z</time>
      </trkpt>
      <trkpt lat="43.512831" lon="-3.589092">
        <ele>48.633</ele>
        <time>2025-04-17T11:28:21.361Z</time>
      </trkpt>
      <trkpt lat="43.512835" lon="-3.589026">
        <ele>48.757</ele>
        <time>2025-04-17T11:28:25.357Z</time>
      </trkpt>
      <trkpt lat="43.512827" lon="-3.588956">
        <ele>48.349</ele>
        <time>2025-04-17T11:28:30.354Z</time>
      </trkpt>
      <trkpt lat="43.512816" lon="-3.588885">
        <ele>47.902</ele>
        <time>2025-04-17T11:28:35.356Z</time>
      </trkpt>
      <trkpt lat="43.512803" lon="-3.588812">
        <ele>47.322</ele>
        <time>2025-04-17T11:28:40.368Z</time>
      </trkpt>
      <trkpt lat="43.512778" lon="-3.588751">
        <ele>46.809</ele>
        <time>2025-04-17T11:28:53.361Z</time>
      </trkpt>
      <trkpt lat="43.512754" lon="-3.588686">
        <ele>46.756</ele>
        <time>2025-04-17T11:28:59.360Z</time>
      </trkpt>
      <trkpt lat="43.512771" lon="-3.588618">
        <ele>46.274</ele>
        <time>2025-04-17T11:29:07.359Z</time>
      </trkpt>
      <trkpt lat="43.512797" lon="-3.588563">
        <ele>46.643</ele>
        <time>2025-04-17T11:29:12.350Z</time>
      </trkpt>
      <trkpt lat="43.512830" lon="-3.588521">
        <ele>46.876</ele>
        <time>2025-04-17T11:29:23.364Z</time>
      </trkpt>
      <trkpt lat="43.512835" lon="-3.588457">
        <ele>46.820</ele>
        <time>2025-04-17T11:29:28.366Z</time>
      </trkpt>
      <trkpt lat="43.512851" lon="-3.588395">
        <ele>46.915</ele>
        <time>2025-04-17T11:29:34.359Z</time>
      </trkpt>
      <trkpt lat="43.512873" lon="-3.588338">
        <ele>46.940</ele>
        <time>2025-04-17T11:29:40.365Z</time>
      </trkpt>
      <trkpt lat="43.512882" lon="-3.588262">
        <ele>46.516</ele>
        <time>2025-04-17T11:29:49.369Z</time>
      </trkpt>
      <trkpt lat="43.512882" lon="-3.588197">
        <ele>46.620</ele>
        <time>2025-04-17T11:29:54.369Z</time>
      </trkpt>
      <trkpt lat="43.512884" lon="-3.588128">
        <ele>46.633</ele>
        <time>2025-04-17T11:30:00.357Z</time>
      </trkpt>
      <trkpt lat="43.512851" lon="-3.588083">
        <ele>46.323</ele>
        <time>2025-04-17T11:30:06.364Z</time>
      </trkpt>
      <trkpt lat="43.512820" lon="-3.588033">
        <ele>46.015</ele>
        <time>2025-04-17T11:30:13.366Z</time>
      </trkpt>
      <trkpt lat="43.512805" lon="-3.587973">
        <ele>45.809</ele>
        <time>2025-04-17T11:30:19.355Z</time>
      </trkpt>
      <trkpt lat="43.512810" lon="-3.587907">
        <ele>46.075</ele>
        <time>2025-04-17T11:30:29.366Z</time>
      </trkpt>
      <trkpt lat="43.512791" lon="-3.587843">
        <ele>45.313</ele>
        <time>2025-04-17T11:30:47.357Z</time>
      </trkpt>
      <trkpt lat="43.512765" lon="-3.587788">
        <ele>44.552</ele>
        <time>2025-04-17T11:30:59.365Z</time>
      </trkpt>
      <trkpt lat="43.512747" lon="-3.587728">
        <ele>44.015</ele>
        <time>2025-04-17T11:31:05.360Z</time>
      </trkpt>
      <trkpt lat="43.512718" lon="-3.587672">
        <ele>42.629</ele>
        <time>2025-04-17T11:31:21.353Z</time>
      </trkpt>
      <trkpt lat="43.512688" lon="-3.587625">
        <ele>41.654</ele>
        <time>2025-04-17T11:31:42.371Z</time>
      </trkpt>
      <trkpt lat="43.512641" lon="-3.587627">
        <ele>40.419</ele>
        <time>2025-04-17T11:32:05.369Z</time>
      </trkpt>
      <trkpt lat="43.512598" lon="-3.587596">
        <ele>39.765</ele>
        <time>2025-04-17T11:32:12.357Z</time>
      </trkpt>
      <trkpt lat="43.512585" lon="-3.587532">
        <ele>38.299</ele>
        <time>2025-04-17T11:32:43.350Z</time>
      </trkpt>
      <trkpt lat="43.512584" lon="-3.587468">
        <ele>38.431</ele>
        <time>2025-04-17T11:32:48.347Z</time>
      </trkpt>
      <trkpt lat="43.512590" lon="-3.587404">
        <ele>38.461</ele>
        <time>2025-04-17T11:32:54.351Z</time>
      </trkpt>
      <trkpt lat="43.512589" lon="-3.587330">
        <ele>38.007</ele>
        <time>2025-04-17T11:32:59.341Z</time>
      </trkpt>
      <trkpt lat="43.512586" lon="-3.587262">
        <ele>38.009</ele>
        <time>2025-04-17T11:33:05.355Z</time>
      </trkpt>
      <trkpt lat="43.512583" lon="-3.587191">
        <ele>37.895</ele>
        <time>2025-04-17T11:33:13.364Z</time>
      </trkpt>
      <trkpt lat="43.512560" lon="-3.587138">
        <ele>36.123</ele>
        <time>2025-04-17T11:33:43.363Z</time>
      </trkpt>
      <trkpt lat="43.512538" lon="-3.587081">
        <ele>35.922</ele>
        <time>2025-04-17T11:33:49.366Z</time>
      </trkpt>
      <trkpt lat="43.512506" lon="-3.587032">
        <ele>35.135</ele>
        <time>2025-04-17T11:33:57.369Z</time>
      </trkpt>
      <trkpt lat="43.512471" lon="-3.586985">
        <ele>34.439</ele>
        <time>2025-04-17T11:34:08.366Z</time>
      </trkpt>
      <trkpt lat="43.512449" lon="-3.586923">
        <ele>34.154</ele>
        <time>2025-04-17T11:34:19.359Z</time>
      </trkpt>
      <trkpt lat="43.512448" lon="-3.586854">
        <ele>34.799</ele>
        <time>2025-04-17T11:34:34.352Z</time>
      </trkpt>
      <trkpt lat="43.512461" lon="-3.586789">
        <ele>35.265</ele>
        <time>2025-04-17T11:34:39.356Z</time>
      </trkpt>
      <trkpt lat="43.512469" lon="-3.586722">
        <ele>35.919</ele>
        <time>2025-04-17T11:34:53.360Z</time>
      </trkpt>
      <trkpt lat="43.512458" lon="-3.586653">
        <ele>36.512</ele>
        <time>2025-04-17T11:35:00.353Z</time>
      </trkpt>
      <trkpt lat="43.512434" lon="-3.586591">
        <ele>37.132</ele>
        <time>2025-04-17T11:35:05.358Z</time>
      </trkpt>
      <trkpt lat="43.512415" lon="-3.586532">
        <ele>37.505</ele>
        <time>2025-04-17T11:35:11.377Z</time>
      </trkpt>
      <trkpt lat="43.512415" lon="-3.586469">
        <ele>37.109</ele>
        <time>2025-04-17T11:35:19.342Z</time>
      </trkpt>
      <trkpt lat="43.512371" lon="-3.586436">
        <ele>37.343</ele>
        <time>2025-04-17T11:35:39.351Z</time>
      </trkpt>
      <trkpt lat="43.512366" lon="-3.586366">
        <ele>37.661</ele>
        <time>2025-04-17T11:36:10.343Z</time>
      </trkpt>
      <trkpt lat="43.512344" lon="-3.586300">
        <ele>36.580</ele>
        <time>2025-04-17T11:36:22.333Z</time>
      </trkpt>
      <trkpt lat="43.512322" lon="-3.586244">
        <ele>36.133</ele>
        <time>2025-04-17T11:36:28.347Z</time>
      </trkpt>
      <trkpt lat="43.512293" lon="-3.586187">
        <ele>36.097</ele>
        <time>2025-04-17T11:36:34.347Z</time>
      </trkpt>
      <trkpt lat="43.512271" lon="-3.586125">
        <ele>36.312</ele>
        <time>2025-04-17T11:36:38.329Z</time>
      </trkpt>
      <trkpt lat="43.512249" lon="-3.586064">
        <ele>36.587</ele>
        <time>2025-04-17T11:36:42.331Z</time>
      </trkpt>
      <trkpt lat="43.512221" lon="-3.586006">
        <ele>36.793</ele>
        <time>2025-04-17T11:36:46.334Z</time>
      </trkpt>
      <trkpt lat="43.512191" lon="-3.585944">
        <ele>36.777</ele>
        <time>2025-04-17T11:36:50.337Z</time>
      </trkpt>
      <trkpt lat="43.512157" lon="-3.585890">
        <ele>36.562</ele>
        <time>2025-04-17T11:36:55.328Z</time>
      </trkpt>
      <trkpt lat="43.512132" lon="-3.585830">
        <ele>36.283</ele>
        <time>2025-04-17T11:37:00.349Z</time>
      </trkpt>
      <trkpt lat="43.512127" lon="-3.585759">
        <ele>35.411</ele>
        <time>2025-04-17T11:37:07.361Z</time>
      </trkpt>
      <trkpt lat="43.512136" lon="-3.585695">
        <ele>35.009</ele>
        <time>2025-04-17T11:37:12.364Z</time>
      </trkpt>
      <trkpt lat="43.512129" lon="-3.585629">
        <ele>34.368</ele>
        <time>2025-04-17T11:37:17.350Z</time>
      </trkpt>
      <trkpt lat="43.512110" lon="-3.585566">
        <ele>33.716</ele>
        <time>2025-04-17T11:37:22.358Z</time>
      </trkpt>
      <trkpt lat="43.512080" lon="-3.585504">
        <ele>33.265</ele>
        <time>2025-04-17T11:37:27.370Z</time>
      </trkpt>
      <trkpt lat="43.512045" lon="-3.585452">
        <ele>32.458</ele>
        <time>2025-04-17T11:37:43.352Z</time>
      </trkpt>
      <trkpt lat="43.512031" lon="-3.585388">
        <ele>32.412</ele>
        <time>2025-04-17T11:37:48.348Z</time>
      </trkpt>
      <trkpt lat="43.512006" lon="-3.585291">
        <ele>31.917</ele>
        <time>2025-04-17T11:37:52.355Z</time>
      </trkpt>
      <trkpt lat="43.511984" lon="-3.585219">
        <ele>31.932</ele>
        <time>2025-04-17T11:37:54.376Z</time>
      </trkpt>
      <trkpt lat="43.511971" lon="-3.585157">
        <ele>32.088</ele>
        <time>2025-04-17T11:37:56.359Z</time>
      </trkpt>
      <trkpt lat="43.511952" lon="-3.585092">
        <ele>32.122</ele>
        <time>2025-04-17T11:37:58.367Z</time>
      </trkpt>
      <trkpt lat="43.511941" lon="-3.585023">
        <ele>32.122</ele>
        <time>2025-04-17T11:38:00.368Z</time>
      </trkpt>
      <trkpt lat="43.511935" lon="-3.584960">
        <ele>32.162</ele>
        <time>2025-04-17T11:38:02.368Z</time>
      </trkpt>
      <trkpt lat="43.511929" lon="-3.584880">
        <ele>32.608</ele>
        <time>2025-04-17T11:38:06.356Z</time>
      </trkpt>
      <trkpt lat="43.511925" lon="-3.584810">
        <ele>33.209</ele>
        <time>2025-04-17T11:38:10.358Z</time>
      </trkpt>
      <trkpt lat="43.511928" lon="-3.584725">
        <ele>33.634</ele>
        <time>2025-04-17T11:38:14.356Z</time>
      </trkpt>
      <trkpt lat="43.511956" lon="-3.584647">
        <ele>33.732</ele>
        <time>2025-04-17T11:38:17.362Z</time>
      </trkpt>
      <trkpt lat="43.511967" lon="-3.584586">
        <ele>34.361</ele>
        <time>2025-04-17T11:38:20.362Z</time>
      </trkpt>
      <trkpt lat="43.511981" lon="-3.584513">
        <ele>34.724</ele>
        <time>2025-04-17T11:38:24.341Z</time>
      </trkpt>
      <trkpt lat="43.511994" lon="-3.584445">
        <ele>34.988</ele>
        <time>2025-04-17T11:38:27.345Z</time>
      </trkpt>
      <trkpt lat="43.512003" lon="-3.584377">
        <ele>35.083</ele>
        <time>2025-04-17T11:38:29.361Z</time>
      </trkpt>
      <trkpt lat="43.512002" lon="-3.584310">
        <ele>35.568</ele>
        <time>2025-04-17T11:38:33.370Z</time>
      </trkpt>
      <trkpt lat="43.512002" lon="-3.584230">
        <ele>35.834</ele>
        <time>2025-04-17T11:38:37.366Z</time>
      </trkpt>
      <trkpt lat="43.512030" lon="-3.584178">
        <ele>36.828</ele>
        <time>2025-04-17T11:38:46.355Z</time>
      </trkpt>
      <trkpt lat="43.512030" lon="-3.584101">
        <ele>36.384</ele>
        <time>2025-04-17T11:38:51.326Z</time>
      </trkpt>
      <trkpt lat="43.512020" lon="-3.584034">
        <ele>36.407</ele>
        <time>2025-04-17T11:38:56.338Z</time>
      </trkpt>
      <trkpt lat="43.512018" lon="-3.583970">
        <ele>37.217</ele>
        <time>2025-04-17T11:39:00.343Z</time>
      </trkpt>
      <trkpt lat="43.512019" lon="-3.583898">
        <ele>37.309</ele>
        <time>2025-04-17T11:39:04.331Z</time>
      </trkpt>
      <trkpt lat="43.512016" lon="-3.583828">
        <ele>37.880</ele>
        <time>2025-04-17T11:39:09.336Z</time>
      </trkpt>
      <trkpt lat="43.512022" lon="-3.583765">
        <ele>38.018</ele>
        <time>2025-04-17T11:39:14.337Z</time>
      </trkpt>
      <trkpt lat="43.512024" lon="-3.583703">
        <ele>37.997</ele>
        <time>2025-04-17T11:39:17.345Z</time>
      </trkpt>
      <trkpt lat="43.512033" lon="-3.583626">
        <ele>37.990</ele>
        <time>2025-04-17T11:39:21.345Z</time>
      </trkpt>
      <trkpt lat="43.512032" lon="-3.583559">
        <ele>37.384</ele>
        <time>2025-04-17T11:39:50.343Z</time>
      </trkpt>
      <trkpt lat="43.512032" lon="-3.583483">
        <ele>37.539</ele>
        <time>2025-04-17T11:39:55.337Z</time>
      </trkpt>
      <trkpt lat="43.512025" lon="-3.583418">
        <ele>37.514</ele>
        <time>2025-04-17T11:39:58.334Z</time>
      </trkpt>
      <trkpt lat="43.512018" lon="-3.583351">
        <ele>37.470</ele>
        <time>2025-04-17T11:40:01.339Z</time>
      </trkpt>
      <trkpt lat="43.512008" lon="-3.583285">
        <ele>36.974</ele>
        <time>2025-04-17T11:40:04.328Z</time>
      </trkpt>
      <trkpt lat="43.511983" lon="-3.583233">
        <ele>36.721</ele>
        <time>2025-04-17T11:40:07.341Z</time>
      </trkpt>
      <trkpt lat="43.511975" lon="-3.583164">
        <ele>36.241</ele>
        <time>2025-04-17T11:40:10.333Z</time>
      </trkpt>
      <trkpt lat="43.511964" lon="-3.583090">
        <ele>36.105</ele>
        <time>2025-04-17T11:40:13.338Z</time>
      </trkpt>
      <trkpt lat="43.511952" lon="-3.583027">
        <ele>35.309</ele>
        <time>2025-04-17T11:40:17.344Z</time>
      </trkpt>
      <trkpt lat="43.511931" lon="-3.582964">
        <ele>34.714</ele>
        <time>2025-04-17T11:40:22.340Z</time>
      </trkpt>
      <trkpt lat="43.511930" lon="-3.582888">
        <ele>34.582</ele>
        <time>2025-04-17T11:40:27.342Z</time>
      </trkpt>
      <trkpt lat="43.511930" lon="-3.582815">
        <ele>34.091</ele>
        <time>2025-04-17T11:40:30.345Z</time>
      </trkpt>
      <trkpt lat="43.511929" lon="-3.582736">
        <ele>33.524</ele>
        <time>2025-04-17T11:40:34.344Z</time>
      </trkpt>
      <trkpt lat="43.511920" lon="-3.582663">
        <ele>32.018</ele>
        <time>2025-04-17T11:40:38.344Z</time>
      </trkpt>
      <trkpt lat="43.511899" lon="-3.582605">
        <ele>31.063</ele>
        <time>2025-04-17T11:40:42.342Z</time>
      </trkpt>
      <trkpt lat="43.511882" lon="-3.582543">
        <ele>29.528</ele>
        <time>2025-04-17T11:40:47.334Z</time>
      </trkpt>
      <trkpt lat="43.511897" lon="-3.582473">
        <ele>28.334</ele>
        <time>2025-04-17T11:40:51.339Z</time>
      </trkpt>
      <trkpt lat="43.511895" lon="-3.582409">
        <ele>25.228</ele>
        <time>2025-04-17T11:41:01.349Z</time>
      </trkpt>
      <trkpt lat="43.511934" lon="-3.582366">
        <ele>25.081</ele>
        <time>2025-04-17T11:41:07.340Z</time>
      </trkpt>
      <trkpt lat="43.511989" lon="-3.582354">
        <ele>24.861</ele>
        <time>2025-04-17T11:41:12.359Z</time>
      </trkpt>
      <trkpt lat="43.512032" lon="-3.582327">
        <ele>24.617</ele>
        <time>2025-04-17T11:41:17.353Z</time>
      </trkpt>
      <trkpt lat="43.512084" lon="-3.582306">
        <ele>24.109</ele>
        <time>2025-04-17T11:41:22.359Z</time>
      </trkpt>
      <trkpt lat="43.512043" lon="-3.582339">
        <ele>23.550</ele>
        <time>2025-04-17T11:42:25.373Z</time>
      </trkpt>
      <trkpt lat="43.512001" lon="-3.582375">
        <ele>23.658</ele>
        <time>2025-04-17T11:42:29.366Z</time>
      </trkpt>
      <trkpt lat="43.511961" lon="-3.582418">
        <ele>23.937</ele>
        <time>2025-04-17T11:42:33.365Z</time>
      </trkpt>
      <trkpt lat="43.511929" lon="-3.582466">
        <ele>24.470</ele>
        <time>2025-04-17T11:42:37.371Z</time>
      </trkpt>
      <trkpt lat="43.511890" lon="-3.582522">
        <ele>24.554</ele>
        <time>2025-04-17T11:42:41.362Z</time>
      </trkpt>
      <trkpt lat="43.511897" lon="-3.582587">
        <ele>24.469</ele>
        <time>2025-04-17T11:42:44.366Z</time>
      </trkpt>
      <trkpt lat="43.511918" lon="-3.582651">
        <ele>24.384</ele>
        <time>2025-04-17T11:42:47.373Z</time>
      </trkpt>
      <trkpt lat="43.511932" lon="-3.582741">
        <ele>24.490</ele>
        <time>2025-04-17T11:42:50.375Z</time>
      </trkpt>
      <trkpt lat="43.511935" lon="-3.582806">
        <ele>25.374</ele>
        <time>2025-04-17T11:42:52.375Z</time>
      </trkpt>
      <trkpt lat="43.511939" lon="-3.582873">
        <ele>26.123</ele>
        <time>2025-04-17T11:42:54.375Z</time>
      </trkpt>
      <trkpt lat="43.511945" lon="-3.582938">
        <ele>26.483</ele>
        <time>2025-04-17T11:42:56.368Z</time>
      </trkpt>
      <trkpt lat="43.511963" lon="-3.583008">
        <ele>27.111</ele>
        <time>2025-04-17T11:42:59.358Z</time>
      </trkpt>
      <trkpt lat="43.511967" lon="-3.583077">
        <ele>28.309</ele>
        <time>2025-04-17T11:43:02.368Z</time>
      </trkpt>
      <trkpt lat="43.511981" lon="-3.583139">
        <ele>28.934</ele>
        <time>2025-04-17T11:43:04.367Z</time>
      </trkpt>
      <trkpt lat="43.512006" lon="-3.583230">
        <ele>30.692</ele>
        <time>2025-04-17T11:43:07.371Z</time>
      </trkpt>
      <trkpt lat="43.512020" lon="-3.583296">
        <ele>31.751</ele>
        <time>2025-04-17T11:43:10.356Z</time>
      </trkpt>
      <trkpt lat="43.512021" lon="-3.583387">
        <ele>33.174</ele>
        <time>2025-04-17T11:43:14.368Z</time>
      </trkpt>
      <trkpt lat="43.512035" lon="-3.583461">
        <ele>34.498</ele>
        <time>2025-04-17T11:43:18.376Z</time>
      </trkpt>
      <trkpt lat="43.512037" lon="-3.583528">
        <ele>35.543</ele>
        <time>2025-04-17T11:43:23.364Z</time>
      </trkpt>
      <trkpt lat="43.512028" lon="-3.583600">
        <ele>36.228</ele>
        <time>2025-04-17T11:43:28.368Z</time>
      </trkpt>
      <trkpt lat="43.512026" lon="-3.583681">
        <ele>36.484</ele>
        <time>2025-04-17T11:43:32.371Z</time>
      </trkpt>
      <trkpt lat="43.512018" lon="-3.583759">
        <ele>36.978</ele>
        <time>2025-04-17T11:43:36.369Z</time>
      </trkpt>
      <trkpt lat="43.512028" lon="-3.583821">
        <ele>37.158</ele>
        <time>2025-04-17T11:43:39.368Z</time>
      </trkpt>
      <trkpt lat="43.512032" lon="-3.583891">
        <ele>38.152</ele>
        <time>2025-04-17T11:43:43.361Z</time>
      </trkpt>
      <trkpt lat="43.512036" lon="-3.583958">
        <ele>38.717</ele>
        <time>2025-04-17T11:43:48.354Z</time>
      </trkpt>
      <trkpt lat="43.512038" lon="-3.584041">
        <ele>38.809</ele>
        <time>2025-04-17T11:43:51.362Z</time>
      </trkpt>
      <trkpt lat="43.512037" lon="-3.584105">
        <ele>38.757</ele>
        <time>2025-04-17T11:43:54.369Z</time>
      </trkpt>
      <trkpt lat="43.512031" lon="-3.584182">
        <ele>38.265</ele>
        <time>2025-04-17T11:43:58.366Z</time>
      </trkpt>
      <trkpt lat="43.511978" lon="-3.584191">
        <ele>37.924</ele>
        <time>2025-04-17T11:44:10.370Z</time>
      </trkpt>
      <trkpt lat="43.511927" lon="-3.584176">
        <ele>38.027</ele>
        <time>2025-04-17T11:44:14.364Z</time>
      </trkpt>
      <trkpt lat="43.511882" lon="-3.584191">
        <ele>38.131</ele>
        <time>2025-04-17T11:44:19.359Z</time>
      </trkpt>
      <trkpt lat="43.511829" lon="-3.584200">
        <ele>38.076</ele>
        <time>2025-04-17T11:44:24.342Z</time>
      </trkpt>
      <trkpt lat="43.511776" lon="-3.584221">
        <ele>37.681</ele>
        <time>2025-04-17T11:44:29.350Z</time>
      </trkpt>
      <trkpt lat="43.511727" lon="-3.584257">
        <ele>37.697</ele>
        <time>2025-04-17T11:44:34.348Z</time>
      </trkpt>
      <trkpt lat="43.511674" lon="-3.584273">
        <ele>37.591</ele>
        <time>2025-04-17T11:44:39.339Z</time>
      </trkpt>
      <trkpt lat="43.511622" lon="-3.584278">
        <ele>37.598</ele>
        <time>2025-04-17T11:44:44.336Z</time>
      </trkpt>
      <trkpt lat="43.511576" lon="-3.584320">
        <ele>37.615</ele>
        <time>2025-04-17T11:44:49.344Z</time>
      </trkpt>
      <trkpt lat="43.511533" lon="-3.584361">
        <ele>37.526</ele>
        <time>2025-04-17T11:44:54.340Z</time>
      </trkpt>
      <trkpt lat="43.511489" lon="-3.584394">
        <ele>37.309</ele>
        <time>2025-04-17T11:45:00.348Z</time>
      </trkpt>
      <trkpt lat="43.511451" lon="-3.584442">
        <ele>37.121</ele>
        <time>2025-04-17T11:45:05.335Z</time>
      </trkpt>
    </trkseg>
  </trk></gpx>