<?xml version="1.0" encoding="UTF-8"?>
<gpx creator="Wikiloc - https://www.wikiloc.com" version="1.1" xmlns="http://www.topografix.com/GPX/1/1" xmlns:xsi="http://www.w3.org/2001/XMLSchema-instance" xsi:schemaLocation="http://www.topografix.com/GPX/1/1 http://www.topografix.com/GPX/1/1/gpx.xsd">
  <metadata>
    <name>Wikiloc - BARGAGAIN por HAYEDO ENCANTADO ruta circular por URBASA</name>
    <link href="https://www.wikiloc.com/hiking-trails/bargagain-por-hayedo-encantado-ruta-circular-por-urbasa-33634765">
      <text>BARGAGAIN por HAYEDO ENCANTADO ruta circular por URBASA on Wikiloc</text>
    </link>
    <time>2019-03-01T14:29:53Z</time>
  </metadata>
  <trk>
    <name>BARGAGAIN por HAYEDO ENCANTADO ruta circular por URBASA</name>
    <cmt>Preciosa ruta por Urbasa, con ascenso al monte Bargagain pasando por el sendero del Hayedo Encantado.</cmt>
    <desc>Preciosa ruta por Urbasa, con ascenso al monte Bargagain pasando por el sendero del Hayedo Encantado.</desc>
    <trkseg>
      <trkpt lat="42.860440" lon="-2.178490">
        <ele>936.592</ele>
        <time>2019-03-01T12:24:26Z</time>
      </trkpt>
      <trkpt lat="42.860349" lon="-2.178446">
        <ele>936.573</ele>
        <time>2019-03-01T12:24:45Z</time>
      </trkpt>
      <trkpt lat="42.860505" lon="-2.176357">
        <ele>934.620</ele>
        <time>2019-03-01T12:27:55Z</time>
      </trkpt>
      <trkpt lat="42.860302" lon="-2.175297">
        <ele>932.708</ele>
        <time>2019-03-01T12:28:56Z</time>
      </trkpt>
      <trkpt lat="42.860133" lon="-2.171645">
        <ele>937.392</ele>
        <time>2019-03-01T12:32:18Z</time>
      </trkpt>
      <trkpt lat="42.860352" lon="-2.170893">
        <ele>933.692</ele>
        <time>2019-03-01T12:33:09Z</time>
      </trkpt>
      <trkpt lat="42.860775" lon="-2.170708">
        <ele>933.575</ele>
        <time>2019-03-01T12:34:37Z</time>
      </trkpt>
      <trkpt lat="42.860902" lon="-2.170334">
        <ele>934.392</ele>
        <time>2019-03-01T12:35:01Z</time>
      </trkpt>
      <trkpt lat="42.860951" lon="-2.169713">
        <ele>939.043</ele>
        <time>2019-03-01T12:35:45Z</time>
      </trkpt>
      <trkpt lat="42.860822" lon="-2.169493">
        <ele>941.156</ele>
        <time>2019-03-01T12:36:04Z</time>
      </trkpt>
      <trkpt lat="42.860972" lon="-2.168834">
        <ele>929.075</ele>
        <time>2019-03-01T12:37:16Z</time>
      </trkpt>
      <trkpt lat="42.860771" lon="-2.167581">
        <ele>924.254</ele>
        <time>2019-03-01T12:38:26Z</time>
      </trkpt>
      <trkpt lat="42.860969" lon="-2.165920">
        <ele>932.568</ele>
        <time>2019-03-01T12:39:53Z</time>
      </trkpt>
      <trkpt lat="42.860883" lon="-2.165183">
        <ele>939.542</ele>
        <time>2019-03-01T12:40:48Z</time>
      </trkpt>
      <trkpt lat="42.861193" lon="-2.164089">
        <ele>952.526</ele>
        <time>2019-03-01T12:41:50Z</time>
      </trkpt>
      <trkpt lat="42.861909" lon="-2.163298">
        <ele>953.008</ele>
        <time>2019-03-01T12:42:54Z</time>
      </trkpt>
      <trkpt lat="42.861931" lon="-2.162763">
        <ele>956.479</ele>
        <time>2019-03-01T12:43:24Z</time>
      </trkpt>
      <trkpt lat="42.862602" lon="-2.160516">
        <ele>950.099</ele>
        <time>2019-03-01T12:45:51Z</time>
      </trkpt>
      <trkpt lat="42.862536" lon="-2.159990">
        <ele>953.132</ele>
        <time>2019-03-01T12:46:24Z</time>
      </trkpt>
      <trkpt lat="42.862661" lon="-2.159617">
        <ele>952.169</ele>
        <time>2019-03-01T12:46:45Z</time>
      </trkpt>
      <trkpt lat="42.862541" lon="-2.158816">
        <ele>946.610</ele>
        <time>2019-03-01T12:47:38Z</time>
      </trkpt>
      <trkpt lat="42.863449" lon="-2.156760">
        <ele>938.373</ele>
        <time>2019-03-01T12:49:55Z</time>
      </trkpt>
      <trkpt lat="42.863816" lon="-2.156479">
        <ele>938.832</ele>
        <time>2019-03-01T12:51:09Z</time>
      </trkpt>
      <trkpt lat="42.864136" lon="-2.156517">
        <ele>957.691</ele>
        <time>2019-03-01T12:51:42Z</time>
      </trkpt>
      <trkpt lat="42.864950" lon="-2.158459">
        <ele>993.241</ele>
        <time>2019-03-01T12:54:46Z</time>
      </trkpt>
      <trkpt lat="42.865229" lon="-2.158370">
        <ele>999.181</ele>
        <time>2019-03-01T12:55:24Z</time>
      </trkpt>
      <trkpt lat="42.865567" lon="-2.156528">
        <ele>1008.309</ele>
        <time>2019-03-01T12:57:19Z</time>
      </trkpt>
      <trkpt lat="42.865459" lon="-2.156246">
        <ele>1015.708</ele>
        <time>2019-03-01T12:57:41Z</time>
      </trkpt>
      <trkpt lat="42.865672" lon="-2.154960">
        <ele>1014.257</ele>
        <time>2019-03-01T12:58:57Z</time>
      </trkpt>
      <trkpt lat="42.866195" lon="-2.153754">
        <ele>1015.837</ele>
        <time>2019-03-01T13:00:22Z</time>
      </trkpt>
      <trkpt lat="42.866854" lon="-2.152850">
        <ele>1023.230</ele>
        <time>2019-03-01T13:01:40Z</time>
      </trkpt>
      <trkpt lat="42.867000" lon="-2.152442">
        <ele>1021.817</ele>
        <time>2019-03-01T13:02:16Z</time>
      </trkpt>
      <trkpt lat="42.867055" lon="-2.151200">
        <ele>1034.228</ele>
        <time>2019-03-01T13:03:35Z</time>
      </trkpt>
      <trkpt lat="42.867891" lon="-2.150505">
        <ele>1043.991</ele>
        <time>2019-03-01T13:05:07Z</time>
      </trkpt>
      <trkpt lat="42.868227" lon="-2.149909">
        <ele>1051.410</ele>
        <time>2019-03-01T13:05:51Z</time>
      </trkpt>
      <trkpt lat="42.868375" lon="-2.149198">
        <ele>1056.399</ele>
        <time>2019-03-01T13:06:46Z</time>
      </trkpt>
      <trkpt lat="42.868785" lon="-2.149149">
        <ele>1064.136</ele>
        <time>2019-03-01T13:07:23Z</time>
      </trkpt>
      <trkpt lat="42.869191" lon="-2.148527">
        <ele>1080.717</ele>
        <time>2019-03-01T13:08:29Z</time>
      </trkpt>
      <trkpt lat="42.869567" lon="-2.148445">
        <ele>1072.918</ele>
        <time>2019-03-01T13:09:12Z</time>
      </trkpt>
      <trkpt lat="42.870343" lon="-2.149170">
        <ele>1103.708</ele>
        <time>2019-03-01T13:11:07Z</time>
      </trkpt>
      <trkpt lat="42.870521" lon="-2.149597">
        <ele>1115.626</ele>
        <time>2019-03-01T13:11:44Z</time>
      </trkpt>
      <trkpt lat="42.870492" lon="-2.150093">
        <ele>1121.246</ele>
        <time>2019-03-01T13:12:13Z</time>
      </trkpt>
      <trkpt lat="42.870744" lon="-2.150144">
        <ele>1119.569</ele>
        <time>2019-03-01T13:12:41Z</time>
      </trkpt>
      <trkpt lat="42.871122" lon="-2.150581">
        <ele>1114.956</ele>
        <time>2019-03-01T13:13:31Z</time>
      </trkpt>
      <trkpt lat="42.871586" lon="-2.151861">
        <ele>1128.097</ele>
        <time>2019-03-01T13:15:05Z</time>
      </trkpt>
      <trkpt lat="42.871622" lon="-2.152407">
        <ele>1125.340</ele>
        <time>2019-03-01T13:15:41Z</time>
      </trkpt>
      <trkpt lat="42.872033" lon="-2.152801">
        <ele>1140.179</ele>
        <time>2019-03-01T13:16:38Z</time>
      </trkpt>
      <trkpt lat="42.872208" lon="-2.152259">
        <ele>1166.038</ele>
        <time>2019-03-01T13:17:42Z</time>
      </trkpt>
      <trkpt lat="42.872137" lon="-2.151506">
        <ele>1169.998</ele>
        <time>2019-03-01T13:21:00Z</time>
      </trkpt>
      <trkpt lat="42.872206" lon="-2.152577">
        <ele>1158.815</ele>
        <time>2019-03-01T13:23:51Z</time>
      </trkpt>
      <trkpt lat="42.871811" lon="-2.154392">
        <ele>1155.426</ele>
        <time>2019-03-01T13:26:34Z</time>
      </trkpt>
      <trkpt lat="42.871833" lon="-2.156629">
        <ele>1169.808</ele>
        <time>2019-03-01T13:32:52Z</time>
      </trkpt>
      <trkpt lat="42.871493" lon="-2.157672">
        <ele>1163.062</ele>
        <time>2019-03-01T13:36:22Z</time>
      </trkpt>
      <trkpt lat="42.871612" lon="-2.157374">
        <ele>1169.192</ele>
        <time>2019-03-01T13:38:10Z</time>
      </trkpt>
      <trkpt lat="42.871736" lon="-2.157557">
        <ele>1170.475</ele>
        <time>2019-03-01T13:39:19Z</time>
      </trkpt>
      <trkpt lat="42.871640" lon="-2.157383">
        <ele>1169.442</ele>
        <time>2019-03-01T13:40:38Z</time>
      </trkpt>
      <trkpt lat="42.871087" lon="-2.158571">
        <ele>1161.223</ele>
        <time>2019-03-01T13:43:45Z</time>
      </trkpt>
      <trkpt lat="42.870735" lon="-2.158416">
        <ele>1142.036</ele>
        <time>2019-03-01T13:44:56Z</time>
      </trkpt>
      <trkpt lat="42.870379" lon="-2.159410">
        <ele>1132.355</ele>
        <time>2019-03-01T13:46:30Z</time>
      </trkpt>
      <trkpt lat="42.870415" lon="-2.160323">
        <ele>1154.994</ele>
        <time>2019-03-01T13:47:37Z</time>
      </trkpt>
      <trkpt lat="42.870865" lon="-2.161158">
        <ele>1184.384</ele>
        <time>2019-03-01T13:49:07Z</time>
      </trkpt>
      <trkpt lat="42.870923" lon="-2.161592">
        <ele>1185.907</ele>
        <time>2019-03-01T13:49:51Z</time>
      </trkpt>
      <trkpt lat="42.870673" lon="-2.161926">
        <ele>1192.717</ele>
        <time>2019-03-01T13:50:55Z</time>
      </trkpt>
      <trkpt lat="42.870678" lon="-2.162341">
        <ele>1196.508</ele>
        <time>2019-03-01T13:54:01Z</time>
      </trkpt>
      <trkpt lat="42.870491" lon="-2.162521">
        <ele>1193.051</ele>
        <time>2019-03-01T13:55:25Z</time>
      </trkpt>
      <trkpt lat="42.870351" lon="-2.163154">
        <ele>1189.991</ele>
        <time>2019-03-01T13:56:08Z</time>
      </trkpt>
      <trkpt lat="42.869959" lon="-2.163849">
        <ele>1186.644</ele>
        <time>2019-03-01T13:57:08Z</time>
      </trkpt>
      <trkpt lat="42.869980" lon="-2.164458">
        <ele>1191.191</ele>
        <time>2019-03-01T13:57:47Z</time>
      </trkpt>
      <trkpt lat="42.869432" lon="-2.166200">
        <ele>1191.692</ele>
        <time>2019-03-01T14:00:20Z</time>
      </trkpt>
      <trkpt lat="42.868654" lon="-2.166285">
        <ele>1170.255</ele>
        <time>2019-03-01T14:01:42Z</time>
      </trkpt>
      <trkpt lat="42.868389" lon="-2.165864">
        <ele>1140.464</ele>
        <time>2019-03-01T14:02:18Z</time>
      </trkpt>
      <trkpt lat="42.868077" lon="-2.165692">
        <ele>1133.473</ele>
        <time>2019-03-01T14:02:52Z</time>
      </trkpt>
      <trkpt lat="42.867682" lon="-2.165749">
        <ele>1111.674</ele>
        <time>2019-03-01T14:03:25Z</time>
      </trkpt>
      <trkpt lat="42.866995" lon="-2.165512">
        <ele>1074.256</ele>
        <time>2019-03-01T14:04:32Z</time>
      </trkpt>
      <trkpt lat="42.866506" lon="-2.165575">
        <ele>1087.121</ele>
        <time>2019-03-01T14:05:17Z</time>
      </trkpt>
      <trkpt lat="42.865635" lon="-2.165360">
        <ele>1055.008</ele>
        <time>2019-03-01T14:06:50Z</time>
      </trkpt>
      <trkpt lat="42.864988" lon="-2.166291">
        <ele>1038.470</ele>
        <time>2019-03-01T14:08:10Z</time>
      </trkpt>
      <trkpt lat="42.864569" lon="-2.166495">
        <ele>1026.730</ele>
        <time>2019-03-01T14:10:48Z</time>
      </trkpt>
      <trkpt lat="42.863573" lon="-2.166544">
        <ele>1001.243</ele>
        <time>2019-03-01T14:13:12Z</time>
      </trkpt>
      <trkpt lat="42.862811" lon="-2.167081">
        <ele>978.860</ele>
        <time>2019-03-01T14:14:37Z</time>
      </trkpt>
      <trkpt lat="42.862401" lon="-2.167118">
        <ele>958.921</ele>
        <time>2019-03-01T14:15:07Z</time>
      </trkpt>
      <trkpt lat="42.861961" lon="-2.167776">
        <ele>940.144</ele>
        <time>2019-03-01T14:15:59Z</time>
      </trkpt>
      <trkpt lat="42.861634" lon="-2.167907">
        <ele>938.173</ele>
        <time>2019-03-01T14:16:36Z</time>
      </trkpt>
      <trkpt lat="42.861399" lon="-2.168443">
        <ele>929.942</ele>
        <time>2019-03-01T14:17:21Z</time>
      </trkpt>
      <trkpt lat="42.861190" lon="-2.168443">
        <ele>941.625</ele>
        <time>2019-03-01T14:17:32Z</time>
      </trkpt>
      <trkpt lat="42.860991" lon="-2.168650">
        <ele>935.926</ele>
        <time>2019-03-01T14:18:08Z</time>
      </trkpt>
      <trkpt lat="42.860823" lon="-2.169234">
        <ele>934.208</ele>
        <time>2019-03-01T14:18:55Z</time>
      </trkpt>
      <trkpt lat="42.860938" lon="-2.169781">
        <ele>935.808</ele>
        <time>2019-03-01T14:19:46Z</time>
      </trkpt>
      <trkpt lat="42.860867" lon="-2.170650">
        <ele>941.365</ele>
        <time>2019-03-01T14:20:33Z</time>
      </trkpt>
      <trkpt lat="42.860326" lon="-2.170977">
        <ele>935.615</ele>
        <time>2019-03-01T14:21:24Z</time>
      </trkpt>
      <trkpt lat="42.859889" lon="-2.172199">
        <ele>921.468</ele>
        <time>2019-03-01T14:22:56Z</time>
      </trkpt>
      <trkpt lat="42.860204" lon="-2.173121">
        <ele>939.485</ele>
        <time>2019-03-01T14:24:13Z</time>
      </trkpt>
      <trkpt lat="42.860295" lon="-2.175761">
        <ele>931.856</ele>
        <time>2019-03-01T14:26:40Z</time>
      </trkpt>
      <trkpt lat="42.860621" lon="-2.177357">
        <ele>936.639</ele>
        <time>2019-03-01T14:28:28Z</time>
      </trkpt>
      <trkpt lat="42.860410" lon="-2.178027">
        <ele>942.778</ele>
        <time>2019-03-01T14:29:10Z</time>
      </trkpt>
      <trkpt lat="42.860488" lon="-2.178567">
        <ele>935.497</ele>
        <time>2019-03-01T14:29:53Z</time>
      </trkpt>
    </trkseg>
  </trk></gpx>