<?xml version="1.0" encoding="UTF-8"?>
<gpx creator="Wikiloc - https://www.wikiloc.com" version="1.1" xmlns="http://www.topografix.com/GPX/1/1" xmlns:xsi="http://www.w3.org/2001/XMLSchema-instance" xsi:schemaLocation="http://www.topografix.com/GPX/1/1 http://www.topografix.com/GPX/1/1/gpx.xsd">
  <metadata>
    <name>Wikiloc - BERIAIN - SAN DONATO - IHURBAIN circular desde Unanu</name>
    <link href="https://www.wikiloc.com/hiking-trails/beriain-san-donato-ihurbain-circular-desde-unanu-35771593">
      <text>BERIAIN - SAN DONATO - IHURBAIN circular desde Unanu on Wikiloc</text>
    </link>
    <time>2019-04-28T12:03:22Z</time>
  </metadata>
  <wpt lat="42.886357" lon="-2.015808">
    <ele>.0</ele>
    <time>2019-04-28T08:49:01Z</time>
    <name>Inicio en parking pasando Unanu</name>
    <cmt>Subimos unos metros desde el pueblo de Unanu, y dejamos el coche en una pequeña explanda. Hay otra más grande siguiendo el camino unos metros más, junto a la langa del tercer waypoint de esta ruta.</cmt>
    <desc>Subimos unos metros desde el pueblo de Unanu, y dejamos el coche en una pequeña explanda. Hay otra más grande siguiendo el camino unos metros más, junto a la langa del tercer waypoint de esta ruta.</desc>
  </wpt>
  <wpt lat="42.886828" lon="-2.015285">
    <ele>678.6</ele>
    <time>2019-04-28T08:51:10Z</time>
    <name>Derecha atajo</name>
    <cmt>Giramos a la derecha, siguiendo un pequeño atajo, marcado con pintura.</cmt>
    <desc>Giramos a la derecha, siguiendo un pequeño atajo, marcado con pintura.</desc>
  </wpt>
  <wpt lat="42.886886" lon="-2.013918">
    <ele>694.2</ele>
    <time>2019-04-28T08:53:37Z</time>
    <name>Langa</name>
    <cmt>Cruzamos el portón, y seguimos por el camino principal, habilitado para vehículos.</cmt>
    <desc>Cruzamos el portón, y seguimos por el camino principal, habilitado para vehículos.</desc>
  </wpt>
  <wpt lat="42.886713" lon="-2.006658">
    <ele>803.6</ele>
    <time>2019-04-28T09:08:25Z</time>
    <name>Fuente</name>
    <cmt>En este punto, veremos una fuente al lado del camino.</cmt>
    <desc>En este punto, veremos una fuente al lado del camino.</desc>
  </wpt>
  <wpt lat="42.887119" lon="-2.006149">
    <ele>810.0</ele>
    <time>2019-04-28T09:09:48Z</time>
    <name>Desvío izquierda</name>
    <cmt>Tomamos la senda ascende a la izquierda, abandonando la pista habilitada para vehículos. Iniciamos una bonita senda que posteriormente nos adentrará en un precioso bosque.</cmt>
    <desc>Tomamos la senda ascende a la izquierda, abandonando la pista habilitada para vehículos. Iniciamos una bonita senda que posteriormente nos adentrará en un precioso bosque.</desc>
  </wpt>
  <wpt lat="42.887394" lon="-1.997457">
    <ele>1080.4</ele>
    <time>2019-04-28T09:39:17Z</time>
    <name>Reposo previo a duro ascenso</name>
    <cmt>Antes de encarar la rampa más dura de la jornada, llegaremos a un pequeño collado, con vistas espectaculares. Conviene recuperar fuerzas antes de encarar esta empinada subida por un sendero con bastantes piedras sueltas.</cmt>
    <desc>Antes de encarar la rampa más dura de la jornada, llegaremos a un pequeño collado, con vistas espectaculares. Conviene recuperar fuerzas antes de encarar esta empinada subida por un sendero con bastantes piedras sueltas.</desc>
  </wpt>
  <wpt lat="42.890990" lon="-1.992487">
    <ele>1391.0</ele>
    <time>2019-04-28T10:21:20Z</time>
    <name>Girar hacia el montón de rocas y dirigirse a la ermita</name>
    <cmt>Girar hacia el montón de rocas y dirigirse a la ermita</cmt>
    <desc>Girar hacia el montón de rocas y dirigirse a la ermita</desc>
  </wpt>
  <wpt lat="42.887807" lon="-1.981008">
    <ele>1467.6</ele>
    <time>2019-04-28T10:38:49Z</time>
    <name>Ermita San Donato</name>
    <cmt>Ermita San Donato</cmt>
    <desc>Ermita San Donato</desc>
  </wpt>
  <wpt lat="42.888104" lon="-1.980314">
    <ele>1475.5</ele>
    <time>2019-04-28T10:42:32Z</time>
    <name>Beriain</name>
    <cmt>Cima de Beriain</cmt>
    <desc>Cima de Beriain</desc>
  </wpt>
  <wpt lat="42.893752" lon="-1.998152">
    <ele>1396.5</ele>
    <time>2019-04-28T11:13:53Z</time>
    <name>Ihurbain</name>
    <cmt>Desde Beriain, hacemos un precioso cresteo que termina en la punta, en la cima de Ihurbain</cmt>
    <desc>Desde Beriain, hacemos un precioso cresteo que termina en la punta, en la cima de Ihurbain</desc>
  </wpt>
  <wpt lat="42.892130" lon="-1.996619">
    <ele>1319.9</ele>
    <time>2019-04-28T11:22:15Z</time>
    <name>Conexión ida derecha</name>
    <cmt>Conexión ida derecha</cmt>
    <desc>Conexión ida derecha</desc>
  </wpt>
  <trk>
    <name>BERIAIN - SAN DONATO - IHURBAIN circular desde Unanu</name>
    <cmt>BERIAIN - SAN DONATO - IHURBAIN circular desde Unanu 
 
&lt;iframe height="315" src="https://www.youtube.com/embed/ss1T1l4a3WA"&gt;&lt;/iframe&gt;</cmt>
    <desc>BERIAIN - SAN DONATO - IHURBAIN circular desde Unanu 
 
&lt;iframe height="315" src="https://www.youtube.com/embed/ss1T1l4a3WA"&gt;&lt;/iframe&gt;</desc>
    <trkseg>
      <trkpt lat="42.886355" lon="-2.015809">
        <ele>666.825</ele>
        <time>2019-04-28T08:49:16Z</time>
      </trkpt>
      <trkpt lat="42.886468" lon="-2.015511">
        <ele>666.826</ele>
        <time>2019-04-28T08:50:02Z</time>
      </trkpt>
      <trkpt lat="42.886855" lon="-2.015232">
        <ele>666.808</ele>
        <time>2019-04-28T08:51:13Z</time>
      </trkpt>
      <trkpt lat="42.886745" lon="-2.014483">
        <ele>679.008</ele>
        <time>2019-04-28T08:52:26Z</time>
      </trkpt>
      <trkpt lat="42.886925" lon="-2.013883">
        <ele>697.065</ele>
        <time>2019-04-28T08:53:42Z</time>
      </trkpt>
      <trkpt lat="42.886529" lon="-2.013523">
        <ele>702.497</ele>
        <time>2019-04-28T08:54:52Z</time>
      </trkpt>
      <trkpt lat="42.886166" lon="-2.012861">
        <ele>706.689</ele>
        <time>2019-04-28T08:55:42Z</time>
      </trkpt>
      <trkpt lat="42.886480" lon="-2.010910">
        <ele>721.859</ele>
        <time>2019-04-28T08:57:53Z</time>
      </trkpt>
      <trkpt lat="42.886180" lon="-2.010359">
        <ele>722.843</ele>
        <time>2019-04-28T08:58:59Z</time>
      </trkpt>
      <trkpt lat="42.886107" lon="-2.009569">
        <ele>726.327</ele>
        <time>2019-04-28T08:59:51Z</time>
      </trkpt>
      <trkpt lat="42.885109" lon="-2.008740">
        <ele>750.971</ele>
        <time>2019-04-28T09:01:27Z</time>
      </trkpt>
      <trkpt lat="42.885204" lon="-2.008516">
        <ele>751.495</ele>
        <time>2019-04-28T09:01:47Z</time>
      </trkpt>
      <trkpt lat="42.885533" lon="-2.008425">
        <ele>757.559</ele>
        <time>2019-04-28T09:02:18Z</time>
      </trkpt>
      <trkpt lat="42.885682" lon="-2.008163">
        <ele>756.703</ele>
        <time>2019-04-28T09:02:42Z</time>
      </trkpt>
      <trkpt lat="42.885061" lon="-2.007720">
        <ele>769.623</ele>
        <time>2019-04-28T09:03:54Z</time>
      </trkpt>
      <trkpt lat="42.885027" lon="-2.006845">
        <ele>775.008</ele>
        <time>2019-04-28T09:04:57Z</time>
      </trkpt>
      <trkpt lat="42.885168" lon="-2.006627">
        <ele>776.068</ele>
        <time>2019-04-28T09:05:17Z</time>
      </trkpt>
      <trkpt lat="42.885297" lon="-2.007066">
        <ele>785.740</ele>
        <time>2019-04-28T09:05:49Z</time>
      </trkpt>
      <trkpt lat="42.885557" lon="-2.007219">
        <ele>787.582</ele>
        <time>2019-04-28T09:06:15Z</time>
      </trkpt>
      <trkpt lat="42.886304" lon="-2.006674">
        <ele>793.782</ele>
        <time>2019-04-28T09:07:29Z</time>
      </trkpt>
      <trkpt lat="42.886910" lon="-2.006596">
        <ele>804.316</ele>
        <time>2019-04-28T09:09:04Z</time>
      </trkpt>
      <trkpt lat="42.887581" lon="-2.005339">
        <ele>830.990</ele>
        <time>2019-04-28T09:11:40Z</time>
      </trkpt>
      <trkpt lat="42.887963" lon="-2.004927">
        <ele>842.914</ele>
        <time>2019-04-28T09:13:30Z</time>
      </trkpt>
      <trkpt lat="42.888639" lon="-2.004642">
        <ele>885.168</ele>
        <time>2019-04-28T09:15:37Z</time>
      </trkpt>
      <trkpt lat="42.888147" lon="-2.003788">
        <ele>883.569</ele>
        <time>2019-04-28T09:18:29Z</time>
      </trkpt>
      <trkpt lat="42.888109" lon="-2.003446">
        <ele>903.504</ele>
        <time>2019-04-28T09:19:07Z</time>
      </trkpt>
      <trkpt lat="42.887461" lon="-2.002468">
        <ele>910.824</ele>
        <time>2019-04-28T09:21:56Z</time>
      </trkpt>
      <trkpt lat="42.887461" lon="-2.002026">
        <ele>922.808</ele>
        <time>2019-04-28T09:22:51Z</time>
      </trkpt>
      <trkpt lat="42.887598" lon="-2.001962">
        <ele>930.899</ele>
        <time>2019-04-28T09:23:06Z</time>
      </trkpt>
      <trkpt lat="42.887511" lon="-2.001481">
        <ele>918.861</ele>
        <time>2019-04-28T09:24:01Z</time>
      </trkpt>
      <trkpt lat="42.888155" lon="-2.000555">
        <ele>959.013</ele>
        <time>2019-04-28T09:26:52Z</time>
      </trkpt>
      <trkpt lat="42.888155" lon="-1.999421">
        <ele>976.173</ele>
        <time>2019-04-28T09:32:07Z</time>
      </trkpt>
      <trkpt lat="42.888253" lon="-1.999343">
        <ele>972.167</ele>
        <time>2019-04-28T09:32:54Z</time>
      </trkpt>
      <trkpt lat="42.887402" lon="-1.997454">
        <ele>1080.381</ele>
        <time>2019-04-28T09:38:56Z</time>
      </trkpt>
      <trkpt lat="42.888540" lon="-1.997107">
        <ele>1109.875</ele>
        <time>2019-04-28T09:44:28Z</time>
      </trkpt>
      <trkpt lat="42.889506" lon="-1.997129">
        <ele>1147.739</ele>
        <time>2019-04-28T09:48:26Z</time>
      </trkpt>
      <trkpt lat="42.889639" lon="-1.996856">
        <ele>1158.216</ele>
        <time>2019-04-28T09:49:40Z</time>
      </trkpt>
      <trkpt lat="42.890065" lon="-1.996879">
        <ele>1181.276</ele>
        <time>2019-04-28T09:51:45Z</time>
      </trkpt>
      <trkpt lat="42.890240" lon="-1.996738">
        <ele>1193.113</ele>
        <time>2019-04-28T09:52:48Z</time>
      </trkpt>
      <trkpt lat="42.890414" lon="-1.996830">
        <ele>1193.808</ele>
        <time>2019-04-28T09:54:13Z</time>
      </trkpt>
      <trkpt lat="42.890573" lon="-1.996696">
        <ele>1185.874</ele>
        <time>2019-04-28T09:54:53Z</time>
      </trkpt>
      <trkpt lat="42.890957" lon="-1.996975">
        <ele>1172.186</ele>
        <time>2019-04-28T09:57:43Z</time>
      </trkpt>
      <trkpt lat="42.891446" lon="-1.997097">
        <ele>1192.198</ele>
        <time>2019-04-28T10:03:01Z</time>
      </trkpt>
      <trkpt lat="42.891867" lon="-1.996973">
        <ele>1228.128</ele>
        <time>2019-04-28T10:07:03Z</time>
      </trkpt>
      <trkpt lat="42.892062" lon="-1.997183">
        <ele>1248.152</ele>
        <time>2019-04-28T10:08:02Z</time>
      </trkpt>
      <trkpt lat="42.892096" lon="-1.997049">
        <ele>1256.146</ele>
        <time>2019-04-28T10:08:23Z</time>
      </trkpt>
      <trkpt lat="42.891761" lon="-1.995282">
        <ele>1332.480</ele>
        <time>2019-04-28T10:12:20Z</time>
      </trkpt>
      <trkpt lat="42.891775" lon="-1.994580">
        <ele>1352.014</ele>
        <time>2019-04-28T10:13:54Z</time>
      </trkpt>
      <trkpt lat="42.891436" lon="-1.993228">
        <ele>1386.535</ele>
        <time>2019-04-28T10:19:00Z</time>
      </trkpt>
      <trkpt lat="42.890917" lon="-1.992550">
        <ele>1388.886</ele>
        <time>2019-04-28T10:20:38Z</time>
      </trkpt>
      <trkpt lat="42.891072" lon="-1.992339">
        <ele>1397.514</ele>
        <time>2019-04-28T10:21:51Z</time>
      </trkpt>
      <trkpt lat="42.890968" lon="-1.992072">
        <ele>1398.008</ele>
        <time>2019-04-28T10:22:12Z</time>
      </trkpt>
      <trkpt lat="42.890573" lon="-1.991818">
        <ele>1396.986</ele>
        <time>2019-04-28T10:23:02Z</time>
      </trkpt>
      <trkpt lat="42.890215" lon="-1.991017">
        <ele>1407.028</ele>
        <time>2019-04-28T10:24:10Z</time>
      </trkpt>
      <trkpt lat="42.889102" lon="-1.986780">
        <ele>1409.070</ele>
        <time>2019-04-28T10:29:55Z</time>
      </trkpt>
      <trkpt lat="42.888957" lon="-1.984499">
        <ele>1421.120</ele>
        <time>2019-04-28T10:32:39Z</time>
      </trkpt>
      <trkpt lat="42.888211" lon="-1.982807">
        <ele>1445.424</ele>
        <time>2019-04-28T10:35:15Z</time>
      </trkpt>
      <trkpt lat="42.887879" lon="-1.981535">
        <ele>1461.038</ele>
        <time>2019-04-28T10:37:39Z</time>
      </trkpt>
      <trkpt lat="42.887778" lon="-1.980689">
        <ele>1471.512</ele>
        <time>2019-04-28T10:41:20Z</time>
      </trkpt>
      <trkpt lat="42.888302" lon="-1.980150">
        <ele>1477.366</ele>
        <time>2019-04-28T10:44:39Z</time>
      </trkpt>
      <trkpt lat="42.888325" lon="-1.980604">
        <ele>1471.933</ele>
        <time>2019-04-28T10:47:39Z</time>
      </trkpt>
      <trkpt lat="42.888085" lon="-1.981367">
        <ele>1470.023</ele>
        <time>2019-04-28T10:50:11Z</time>
      </trkpt>
      <trkpt lat="42.888750" lon="-1.982834">
        <ele>1447.415</ele>
        <time>2019-04-28T10:53:21Z</time>
      </trkpt>
      <trkpt lat="42.888764" lon="-1.983531">
        <ele>1432.308</ele>
        <time>2019-04-28T10:54:15Z</time>
      </trkpt>
      <trkpt lat="42.889215" lon="-1.984697">
        <ele>1416.276</ele>
        <time>2019-04-28T10:55:31Z</time>
      </trkpt>
      <trkpt lat="42.889345" lon="-1.984705">
        <ele>1414.458</ele>
        <time>2019-04-28T10:55:54Z</time>
      </trkpt>
      <trkpt lat="42.889657" lon="-1.987102">
        <ele>1407.410</ele>
        <time>2019-04-28T10:58:43Z</time>
      </trkpt>
      <trkpt lat="42.890207" lon="-1.988475">
        <ele>1406.440</ele>
        <time>2019-04-28T11:00:12Z</time>
      </trkpt>
      <trkpt lat="42.890421" lon="-1.989637">
        <ele>1413.224</ele>
        <time>2019-04-28T11:01:32Z</time>
      </trkpt>
      <trkpt lat="42.890905" lon="-1.990710">
        <ele>1409.078</ele>
        <time>2019-04-28T11:02:53Z</time>
      </trkpt>
      <trkpt lat="42.892075" lon="-1.992545">
        <ele>1400.052</ele>
        <time>2019-04-28T11:05:03Z</time>
      </trkpt>
      <trkpt lat="42.893129" lon="-1.995606">
        <ele>1406.966</ele>
        <time>2019-04-28T11:09:42Z</time>
      </trkpt>
      <trkpt lat="42.893535" lon="-1.997723">
        <ele>1396.448</ele>
        <time>2019-04-28T11:12:52Z</time>
      </trkpt>
      <trkpt lat="42.893749" lon="-1.998161">
        <ele>1395.261</ele>
        <time>2019-04-28T11:13:34Z</time>
      </trkpt>
      <trkpt lat="42.893076" lon="-1.997129">
        <ele>1374.217</ele>
        <time>2019-04-28T11:17:47Z</time>
      </trkpt>
      <trkpt lat="42.892860" lon="-1.996949">
        <ele>1360.608</ele>
        <time>2019-04-28T11:19:07Z</time>
      </trkpt>
      <trkpt lat="42.892784" lon="-1.997104">
        <ele>1355.477</ele>
        <time>2019-04-28T11:19:37Z</time>
      </trkpt>
      <trkpt lat="42.892563" lon="-1.997073">
        <ele>1347.499</ele>
        <time>2019-04-28T11:20:38Z</time>
      </trkpt>
      <trkpt lat="42.892034" lon="-1.996532">
        <ele>1319.111</ele>
        <time>2019-04-28T11:22:43Z</time>
      </trkpt>
      <trkpt lat="42.892021" lon="-1.997057">
        <ele>1309.021</ele>
        <time>2019-04-28T11:24:05Z</time>
      </trkpt>
      <trkpt lat="42.891751" lon="-1.996965">
        <ele>1294.615</ele>
        <time>2019-04-28T11:25:10Z</time>
      </trkpt>
      <trkpt lat="42.891312" lon="-1.997094">
        <ele>1257.589</ele>
        <time>2019-04-28T11:27:13Z</time>
      </trkpt>
      <trkpt lat="42.890442" lon="-1.996758">
        <ele>1204.483</ele>
        <time>2019-04-28T11:29:33Z</time>
      </trkpt>
      <trkpt lat="42.890399" lon="-1.996868">
        <ele>1196.497</ele>
        <time>2019-04-28T11:29:43Z</time>
      </trkpt>
      <trkpt lat="42.890219" lon="-1.996794">
        <ele>1187.286</ele>
        <time>2019-04-28T11:30:08Z</time>
      </trkpt>
      <trkpt lat="42.890070" lon="-1.996929">
        <ele>1188.360</ele>
        <time>2019-04-28T11:30:39Z</time>
      </trkpt>
      <trkpt lat="42.889648" lon="-1.996951">
        <ele>1163.026</ele>
        <time>2019-04-28T11:31:41Z</time>
      </trkpt>
      <trkpt lat="42.889477" lon="-1.997199">
        <ele>1155.208</ele>
        <time>2019-04-28T11:32:04Z</time>
      </trkpt>
      <trkpt lat="42.888850" lon="-1.997033">
        <ele>1123.371</ele>
        <time>2019-04-28T11:34:05Z</time>
      </trkpt>
      <trkpt lat="42.888550" lon="-1.997223">
        <ele>1101.743</ele>
        <time>2019-04-28T11:34:46Z</time>
      </trkpt>
      <trkpt lat="42.887822" lon="-1.997265">
        <ele>1087.915</ele>
        <time>2019-04-28T11:36:17Z</time>
      </trkpt>
      <trkpt lat="42.887414" lon="-1.997539">
        <ele>1074.625</ele>
        <time>2019-04-28T11:37:54Z</time>
      </trkpt>
      <trkpt lat="42.888213" lon="-1.999423">
        <ele>1042.759</ele>
        <time>2019-04-28T11:41:14Z</time>
      </trkpt>
      <trkpt lat="42.888205" lon="-2.000511">
        <ele>1001.253</ele>
        <time>2019-04-28T11:43:46Z</time>
      </trkpt>
      <trkpt lat="42.887587" lon="-2.001400">
        <ele>939.557</ele>
        <time>2019-04-28T11:45:00Z</time>
      </trkpt>
      <trkpt lat="42.887574" lon="-2.001742">
        <ele>926.191</ele>
        <time>2019-04-28T11:45:21Z</time>
      </trkpt>
      <trkpt lat="42.887774" lon="-2.001948">
        <ele>932.137</ele>
        <time>2019-04-28T11:45:43Z</time>
      </trkpt>
      <trkpt lat="42.887496" lon="-2.002062">
        <ele>934.449</ele>
        <time>2019-04-28T11:46:30Z</time>
      </trkpt>
      <trkpt lat="42.887740" lon="-2.002910">
        <ele>910.913</ele>
        <time>2019-04-28T11:47:21Z</time>
      </trkpt>
      <trkpt lat="42.888657" lon="-2.004698">
        <ele>869.908</ele>
        <time>2019-04-28T11:49:25Z</time>
      </trkpt>
      <trkpt lat="42.887944" lon="-2.004869">
        <ele>851.636</ele>
        <time>2019-04-28T11:50:59Z</time>
      </trkpt>
      <trkpt lat="42.887252" lon="-2.005807">
        <ele>806.128</ele>
        <time>2019-04-28T11:53:03Z</time>
      </trkpt>
      <trkpt lat="42.886948" lon="-2.006603">
        <ele>795.760</ele>
        <time>2019-04-28T11:53:52Z</time>
      </trkpt>
      <trkpt lat="42.886386" lon="-2.006611">
        <ele>790.620</ele>
        <time>2019-04-28T11:54:30Z</time>
      </trkpt>
      <trkpt lat="42.885616" lon="-2.007189">
        <ele>775.594</ele>
        <time>2019-04-28T11:55:08Z</time>
      </trkpt>
      <trkpt lat="42.885375" lon="-2.007077">
        <ele>774.188</ele>
        <time>2019-04-28T11:55:19Z</time>
      </trkpt>
      <trkpt lat="42.885225" lon="-2.006659">
        <ele>773.142</ele>
        <time>2019-04-28T11:55:34Z</time>
      </trkpt>
      <trkpt lat="42.885040" lon="-2.006753">
        <ele>769.956</ele>
        <time>2019-04-28T11:55:43Z</time>
      </trkpt>
      <trkpt lat="42.885105" lon="-2.007786">
        <ele>762.366</ele>
        <time>2019-04-28T11:56:12Z</time>
      </trkpt>
      <trkpt lat="42.885715" lon="-2.008239">
        <ele>757.129</ele>
        <time>2019-04-28T11:56:41Z</time>
      </trkpt>
      <trkpt lat="42.885620" lon="-2.008420">
        <ele>752.921</ele>
        <time>2019-04-28T11:56:48Z</time>
      </trkpt>
      <trkpt lat="42.885226" lon="-2.008527">
        <ele>743.608</ele>
        <time>2019-04-28T11:57:07Z</time>
      </trkpt>
      <trkpt lat="42.885222" lon="-2.008750">
        <ele>736.839</ele>
        <time>2019-04-28T11:57:16Z</time>
      </trkpt>
      <trkpt lat="42.886110" lon="-2.009584">
        <ele>715.781</ele>
        <time>2019-04-28T11:58:14Z</time>
      </trkpt>
      <trkpt lat="42.886278" lon="-2.010421">
        <ele>715.223</ele>
        <time>2019-04-28T11:59:01Z</time>
      </trkpt>
      <trkpt lat="42.886542" lon="-2.010938">
        <ele>710.723</ele>
        <time>2019-04-28T11:59:19Z</time>
      </trkpt>
      <trkpt lat="42.886180" lon="-2.012619">
        <ele>702.317</ele>
        <time>2019-04-28T12:00:08Z</time>
      </trkpt>
      <trkpt lat="42.886572" lon="-2.013405">
        <ele>688.751</ele>
        <time>2019-04-28T12:00:53Z</time>
      </trkpt>
      <trkpt lat="42.886959" lon="-2.013782">
        <ele>694.145</ele>
        <time>2019-04-28T12:01:14Z</time>
      </trkpt>
      <trkpt lat="42.886834" lon="-2.014468">
        <ele>681.019</ele>
        <time>2019-04-28T12:01:54Z</time>
      </trkpt>
      <trkpt lat="42.886959" lon="-2.015212">
        <ele>673.547</ele>
        <time>2019-04-28T12:02:28Z</time>
      </trkpt>
      <trkpt lat="42.886374" lon="-2.015775">
        <ele>650.929</ele>
        <time>2019-04-28T12:03:22Z</time>
      </trkpt>
    </trkseg>
  </trk></gpx>