<?xml version="1.0" encoding="UTF-8"?>
<gpx creator="Wikiloc - https://www.wikiloc.com" version="1.1" xmlns="http://www.topografix.com/GPX/1/1" xmlns:xsi="http://www.w3.org/2001/XMLSchema-instance" xsi:schemaLocation="http://www.topografix.com/GPX/1/1 http://www.topografix.com/GPX/1/1/gpx.xsd">
  <metadata>
    <name>Wikiloc - CUEVA de los CRISTINOS desde Larraona ruta circular</name>
    <link href="https://www.wikiloc.com/hiking-trails/cueva-de-los-cristinos-desde-larraona-ruta-circular-35788829">
      <text>CUEVA de los CRISTINOS desde Larraona ruta circular on Wikiloc</text>
    </link>
    <time>2019-04-28T15:02:00Z</time>
  </metadata>
  <wpt lat="42.778513" lon="-2.257541">
    <ele>842.7</ele>
    <time>2019-04-28T12:58:51Z</time>
    <name>Inicio junto a Ermita de San Cristóbal</name>
    <cmt>Inicio junto a Ermita de San Cristóbal en Larraona.</cmt>
    <desc>Inicio junto a Ermita de San Cristóbal en Larraona.</desc>
  </wpt>
  <wpt lat="42.782379" lon="-2.255127">
    <ele>864.7</ele>
    <time>2019-04-28T13:08:56Z</time>
    <name>Agujero en la Roca</name>
    <cmt>Curioso agujero entre las rocas mientras ascendemos por el camino.</cmt>
    <desc>Curioso agujero entre las rocas mientras ascendemos por el camino.</desc>
  </wpt>
  <wpt lat="42.786192" lon="-2.259727">
    <ele>969.8</ele>
    <time>2019-04-28T13:18:01Z</time>
    <name>Fuente</name>
    <cmt>Fuente de agua que ayuda a resfrescarnos durante el ascenso. También la veremos a la bajada.</cmt>
    <desc>Fuente de agua que ayuda a resfrescarnos durante el ascenso. También la veremos a la bajada.</desc>
  </wpt>
  <wpt lat="42.789178" lon="-2.260294">
    <ele>1009.4</ele>
    <time>2019-04-28T13:24:27Z</time>
    <name>Ermita de San Benito</name>
    <cmt>Ermita de San Benito</cmt>
    <desc>Ermita de San Benito</desc>
  </wpt>
  <wpt lat="42.788419" lon="-2.257280">
    <ele>1000.2</ele>
    <time>2019-04-28T13:29:10Z</time>
    <name>Bosque encantado</name>
    <cmt>Precioso tramo de camino, por senda entre verdes paisajes.</cmt>
    <desc>Precioso tramo de camino, por senda entre verdes paisajes.</desc>
  </wpt>
  <wpt lat="42.794244" lon="-2.249345">
    <ele>964.4</ele>
    <time>2019-04-28T13:41:54Z</time>
    <name>Desvío izquierda</name>
    <cmt>En este punto tomaremos el sendero que va por la izquierda del gran arbusto</cmt>
    <desc>En este punto tomaremos el sendero que va por la izquierda del gran arbusto</desc>
  </wpt>
  <wpt lat="42.796226" lon="-2.247911">
    <ele>975.1</ele>
    <time>2019-04-28T13:45:33Z</time>
    <name>Sendero izquierda</name>
    <cmt>Sendero izquierda</cmt>
    <desc>Sendero izquierda</desc>
  </wpt>
  <wpt lat="42.797586" lon="-2.247233">
    <ele>980.5</ele>
    <time>2019-04-28T13:48:31Z</time>
    <name>Cueva de Los Cristinos</name>
    <cmt>Cueva de Los Cristinos</cmt>
    <desc>Cueva de Los Cristinos</desc>
  </wpt>
  <trk>
    <name>CUEVA de los CRISTINOS desde Larraona ruta circular</name>
    <cmt>Larraona- Cueva de los Cristinos -Larraona 
 
&lt;iframe height="315" src="https://www.youtube.com/embed/-uea4w5ZHsg"&gt;&lt;/iframe&gt;</cmt>
    <desc>Larraona- Cueva de los Cristinos -Larraona 
 
&lt;iframe height="315" src="https://www.youtube.com/embed/-uea4w5ZHsg"&gt;&lt;/iframe&gt;</desc>
    <trkseg>
      <trkpt lat="42.778570" lon="-2.257420">
        <ele>771.722</ele>
        <time>2019-04-28T12:58:28Z</time>
      </trkpt>
      <trkpt lat="42.778513" lon="-2.257540">
        <ele>771.762</ele>
        <time>2019-04-28T12:58:44Z</time>
      </trkpt>
      <trkpt lat="42.779054" lon="-2.257687">
        <ele>771.708</ele>
        <time>2019-04-28T13:00:56Z</time>
      </trkpt>
      <trkpt lat="42.779582" lon="-2.257585">
        <ele>811.708</ele>
        <time>2019-04-28T13:01:45Z</time>
      </trkpt>
      <trkpt lat="42.780269" lon="-2.256633">
        <ele>817.155</ele>
        <time>2019-04-28T13:03:03Z</time>
      </trkpt>
      <trkpt lat="42.780623" lon="-2.256515">
        <ele>824.797</ele>
        <time>2019-04-28T13:03:33Z</time>
      </trkpt>
      <trkpt lat="42.781607" lon="-2.256535">
        <ele>830.619</ele>
        <time>2019-04-28T13:04:55Z</time>
      </trkpt>
      <trkpt lat="42.782006" lon="-2.256876">
        <ele>838.540</ele>
        <time>2019-04-28T13:05:38Z</time>
      </trkpt>
      <trkpt lat="42.782148" lon="-2.256101">
        <ele>845.180</ele>
        <time>2019-04-28T13:06:31Z</time>
      </trkpt>
      <trkpt lat="42.782014" lon="-2.255101">
        <ele>856.750</ele>
        <time>2019-04-28T13:07:37Z</time>
      </trkpt>
      <trkpt lat="42.782182" lon="-2.254803">
        <ele>865.154</ele>
        <time>2019-04-28T13:08:14Z</time>
      </trkpt>
      <trkpt lat="42.783513" lon="-2.256349">
        <ele>900.511</ele>
        <time>2019-04-28T13:11:37Z</time>
      </trkpt>
      <trkpt lat="42.784035" lon="-2.257585">
        <ele>916.928</ele>
        <time>2019-04-28T13:13:20Z</time>
      </trkpt>
      <trkpt lat="42.784426" lon="-2.257656">
        <ele>927.289</ele>
        <time>2019-04-28T13:14:00Z</time>
      </trkpt>
      <trkpt lat="42.784959" lon="-2.258092">
        <ele>934.617</ele>
        <time>2019-04-28T13:14:58Z</time>
      </trkpt>
      <trkpt lat="42.785154" lon="-2.258508">
        <ele>941.708</ele>
        <time>2019-04-28T13:15:33Z</time>
      </trkpt>
      <trkpt lat="42.786826" lon="-2.260434">
        <ele>983.935</ele>
        <time>2019-04-28T13:19:29Z</time>
      </trkpt>
      <trkpt lat="42.787522" lon="-2.261610">
        <ele>996.717</ele>
        <time>2019-04-28T13:21:05Z</time>
      </trkpt>
      <trkpt lat="42.787709" lon="-2.261681">
        <ele>991.739</ele>
        <time>2019-04-28T13:21:24Z</time>
      </trkpt>
      <trkpt lat="42.788055" lon="-2.261132">
        <ele>1002.220</ele>
        <time>2019-04-28T13:22:12Z</time>
      </trkpt>
      <trkpt lat="42.788879" lon="-2.260635">
        <ele>1002.590</ele>
        <time>2019-04-28T13:23:39Z</time>
      </trkpt>
      <trkpt lat="42.789207" lon="-2.260244">
        <ele>1010.370</ele>
        <time>2019-04-28T13:24:33Z</time>
      </trkpt>
      <trkpt lat="42.789300" lon="-2.259010">
        <ele>1014.984</ele>
        <time>2019-04-28T13:26:29Z</time>
      </trkpt>
      <trkpt lat="42.788610" lon="-2.258252">
        <ele>1001.911</ele>
        <time>2019-04-28T13:27:48Z</time>
      </trkpt>
      <trkpt lat="42.788223" lon="-2.256750">
        <ele>995.238</ele>
        <time>2019-04-28T13:30:20Z</time>
      </trkpt>
      <trkpt lat="42.788485" lon="-2.256080">
        <ele>996.570</ele>
        <time>2019-04-28T13:31:13Z</time>
      </trkpt>
      <trkpt lat="42.789253" lon="-2.255492">
        <ele>994.117</ele>
        <time>2019-04-28T13:32:27Z</time>
      </trkpt>
      <trkpt lat="42.789435" lon="-2.254626">
        <ele>987.308</ele>
        <time>2019-04-28T13:33:14Z</time>
      </trkpt>
      <trkpt lat="42.790160" lon="-2.253247">
        <ele>984.996</ele>
        <time>2019-04-28T13:35:00Z</time>
      </trkpt>
      <trkpt lat="42.790844" lon="-2.252289">
        <ele>980.968</ele>
        <time>2019-04-28T13:36:11Z</time>
      </trkpt>
      <trkpt lat="42.791685" lon="-2.251565">
        <ele>976.480</ele>
        <time>2019-04-28T13:37:33Z</time>
      </trkpt>
      <trkpt lat="42.792401" lon="-2.250292">
        <ele>969.571</ele>
        <time>2019-04-28T13:39:05Z</time>
      </trkpt>
      <trkpt lat="42.792679" lon="-2.250064">
        <ele>972.931</ele>
        <time>2019-04-28T13:39:23Z</time>
      </trkpt>
      <trkpt lat="42.793996" lon="-2.249660">
        <ele>967.161</ele>
        <time>2019-04-28T13:41:17Z</time>
      </trkpt>
      <trkpt lat="42.794621" lon="-2.248845">
        <ele>967.475</ele>
        <time>2019-04-28T13:42:53Z</time>
      </trkpt>
      <trkpt lat="42.795678" lon="-2.247956">
        <ele>972.312</ele>
        <time>2019-04-28T13:44:35Z</time>
      </trkpt>
      <trkpt lat="42.796188" lon="-2.247935">
        <ele>976.465</ele>
        <time>2019-04-28T13:45:19Z</time>
      </trkpt>
      <trkpt lat="42.796332" lon="-2.247679">
        <ele>980.568</ele>
        <time>2019-04-28T13:46:03Z</time>
      </trkpt>
      <trkpt lat="42.796939" lon="-2.247268">
        <ele>988.914</ele>
        <time>2019-04-28T13:47:12Z</time>
      </trkpt>
      <trkpt lat="42.797392" lon="-2.247160">
        <ele>987.908</ele>
        <time>2019-04-28T13:47:51Z</time>
      </trkpt>
      <trkpt lat="42.797611" lon="-2.247342">
        <ele>980.939</ele>
        <time>2019-04-28T13:50:01Z</time>
      </trkpt>
      <trkpt lat="42.797620" lon="-2.247245">
        <ele>979.341</ele>
        <time>2019-04-28T14:23:05Z</time>
      </trkpt>
      <trkpt lat="42.797383" lon="-2.247555">
        <ele>978.973</ele>
        <time>2019-04-28T14:23:47Z</time>
      </trkpt>
      <trkpt lat="42.797286" lon="-2.247275">
        <ele>984.694</ele>
        <time>2019-04-28T14:24:21Z</time>
      </trkpt>
      <trkpt lat="42.796896" lon="-2.247260">
        <ele>983.164</ele>
        <time>2019-04-28T14:24:58Z</time>
      </trkpt>
      <trkpt lat="42.796147" lon="-2.247958">
        <ele>983.714</ele>
        <time>2019-04-28T14:26:16Z</time>
      </trkpt>
      <trkpt lat="42.795647" lon="-2.247922">
        <ele>981.898</ele>
        <time>2019-04-28T14:26:56Z</time>
      </trkpt>
      <trkpt lat="42.793996" lon="-2.249593">
        <ele>964.565</ele>
        <time>2019-04-28T14:30:08Z</time>
      </trkpt>
      <trkpt lat="42.792945" lon="-2.249903">
        <ele>962.628</ele>
        <time>2019-04-28T14:31:31Z</time>
      </trkpt>
      <trkpt lat="42.792530" lon="-2.250168">
        <ele>967.089</ele>
        <time>2019-04-28T14:32:09Z</time>
      </trkpt>
      <trkpt lat="42.791698" lon="-2.251544">
        <ele>973.317</ele>
        <time>2019-04-28T14:33:55Z</time>
      </trkpt>
      <trkpt lat="42.790902" lon="-2.252211">
        <ele>971.508</ele>
        <time>2019-04-28T14:35:05Z</time>
      </trkpt>
      <trkpt lat="42.790374" lon="-2.252951">
        <ele>976.995</ele>
        <time>2019-04-28T14:36:14Z</time>
      </trkpt>
      <trkpt lat="42.789508" lon="-2.254423">
        <ele>988.897</ele>
        <time>2019-04-28T14:38:07Z</time>
      </trkpt>
      <trkpt lat="42.789198" lon="-2.255509">
        <ele>987.849</ele>
        <time>2019-04-28T14:39:06Z</time>
      </trkpt>
      <trkpt lat="42.788538" lon="-2.256036">
        <ele>994.530</ele>
        <time>2019-04-28T14:40:08Z</time>
      </trkpt>
      <trkpt lat="42.788270" lon="-2.256706">
        <ele>995.680</ele>
        <time>2019-04-28T14:40:56Z</time>
      </trkpt>
      <trkpt lat="42.788539" lon="-2.257912">
        <ele>999.520</ele>
        <time>2019-04-28T14:42:33Z</time>
      </trkpt>
      <trkpt lat="42.788597" lon="-2.258921">
        <ele>1005.854</ele>
        <time>2019-04-28T14:43:21Z</time>
      </trkpt>
      <trkpt lat="42.788480" lon="-2.259296">
        <ele>1013.551</ele>
        <time>2019-04-28T14:43:46Z</time>
      </trkpt>
      <trkpt lat="42.788618" lon="-2.259638">
        <ele>1008.659</ele>
        <time>2019-04-28T14:44:10Z</time>
      </trkpt>
      <trkpt lat="42.789161" lon="-2.260134">
        <ele>1016.003</ele>
        <time>2019-04-28T14:45:16Z</time>
      </trkpt>
      <trkpt lat="42.789154" lon="-2.260380">
        <ele>1017.623</ele>
        <time>2019-04-28T14:45:27Z</time>
      </trkpt>
      <trkpt lat="42.788105" lon="-2.261101">
        <ele>1003.708</ele>
        <time>2019-04-28T14:46:42Z</time>
      </trkpt>
      <trkpt lat="42.787781" lon="-2.261586">
        <ele>1003.468</ele>
        <time>2019-04-28T14:47:23Z</time>
      </trkpt>
      <trkpt lat="42.787632" lon="-2.261596">
        <ele>1004.690</ele>
        <time>2019-04-28T14:47:33Z</time>
      </trkpt>
      <trkpt lat="42.787279" lon="-2.261210">
        <ele>1001.332</ele>
        <time>2019-04-28T14:48:11Z</time>
      </trkpt>
      <trkpt lat="42.786517" lon="-2.260066">
        <ele>985.233</ele>
        <time>2019-04-28T14:49:15Z</time>
      </trkpt>
      <trkpt lat="42.784602" lon="-2.257787">
        <ele>943.923</ele>
        <time>2019-04-28T14:52:00Z</time>
      </trkpt>
      <trkpt lat="42.784000" lon="-2.257555">
        <ele>935.253</ele>
        <time>2019-04-28T14:52:47Z</time>
      </trkpt>
      <trkpt lat="42.783514" lon="-2.256369">
        <ele>910.377</ele>
        <time>2019-04-28T14:53:49Z</time>
      </trkpt>
      <trkpt lat="42.782107" lon="-2.254750">
        <ele>879.214</ele>
        <time>2019-04-28T14:55:43Z</time>
      </trkpt>
      <trkpt lat="42.781996" lon="-2.255121">
        <ele>871.694</ele>
        <time>2019-04-28T14:56:07Z</time>
      </trkpt>
      <trkpt lat="42.782138" lon="-2.256248">
        <ele>849.657</ele>
        <time>2019-04-28T14:56:54Z</time>
      </trkpt>
      <trkpt lat="42.781915" lon="-2.256770">
        <ele>850.222</ele>
        <time>2019-04-28T14:57:26Z</time>
      </trkpt>
      <trkpt lat="42.781477" lon="-2.256473">
        <ele>836.008</ele>
        <time>2019-04-28T14:58:10Z</time>
      </trkpt>
      <trkpt lat="42.780543" lon="-2.256459">
        <ele>819.782</ele>
        <time>2019-04-28T14:59:20Z</time>
      </trkpt>
      <trkpt lat="42.780033" lon="-2.256822">
        <ele>816.064</ele>
        <time>2019-04-28T14:59:59Z</time>
      </trkpt>
      <trkpt lat="42.779875" lon="-2.257206">
        <ele>813.126</ele>
        <time>2019-04-28T15:00:20Z</time>
      </trkpt>
      <trkpt lat="42.779608" lon="-2.257406">
        <ele>810.977</ele>
        <time>2019-04-28T15:00:47Z</time>
      </trkpt>
      <trkpt lat="42.779042" lon="-2.257652">
        <ele>812.457</ele>
        <time>2019-04-28T15:01:34Z</time>
      </trkpt>
      <trkpt lat="42.778641" lon="-2.257539">
        <ele>810.357</ele>
        <time>2019-04-28T15:02:00Z</time>
      </trkpt>
    </trkseg>
  </trk></gpx>