<?xml version="1.0" encoding="UTF-8"?>
<gpx creator="Wikiloc - https://www.wikiloc.com" version="1.1" xmlns="http://www.topografix.com/GPX/1/1" xmlns:xsi="http://www.w3.org/2001/XMLSchema-instance" xsi:schemaLocation="http://www.topografix.com/GPX/1/1 http://www.topografix.com/GPX/1/1/gpx.xsd">
  <metadata>
    <name>Wikiloc - ORHI (PIC D´ORHY, PICO ORI, ORHY) desde PUERTO de LARRAU circular</name>
    <link href="https://www.wikiloc.com/hiking-trails/orhi-pic-dorhy-pico-ori-orhy-desde-puerto-de-larrau-circular-39921181">
      <text>ORHI (PIC D´ORHY, PICO ORI, ORHY) desde PUERTO de LARRAU circular on Wikiloc</text>
    </link>
    <time>2019-08-14T11:39:52Z</time>
  </metadata>
  <wpt lat="42.974314" lon="-0.993921">
    <ele>.0</ele>
    <time>2019-08-14T09:52:45Z</time>
    <name>Inicio en parking del alto de Larrau</name>
    <cmt>Comenzamos dejando el coche en el alto de Larrau justo en la frontera entre Navarra y Francia. Desde aquí tendremos preciosas vistas tanto del Orhi como de los Pirineos.</cmt>
    <desc>Comenzamos dejando el coche en el alto de Larrau justo en la frontera entre Navarra y Francia. Desde aquí tendremos preciosas vistas tanto del Orhi como de los Pirineos.</desc>
  </wpt>
  <wpt lat="42.974438" lon="-0.993712">
    <ele>1631.9</ele>
    <time>2019-08-14T09:54:37Z</time>
    <name>Senda junto al parking</name>
    <cmt>Tomamos el sendero al otro lado del cercado y comenzamos a ascender. La vista nos indica el camino, que comienza entre puestos de caza.</cmt>
    <desc>Tomamos el sendero al otro lado del cercado y comenzamos a ascender. La vista nos indica el camino, que comienza entre puestos de caza.</desc>
  </wpt>
  <wpt lat="42.982398" lon="-1.002663">
    <ele>1892.8</ele>
    <time>2019-08-14T10:23:47Z</time>
    <name>Cuerda</name>
    <cmt>Veremos una cuerda que ayuda a la ascensión. En realidad no es imprescinble usarla, incluso hay senda justo al lado, pero nunca viene mal la ayuda.</cmt>
    <desc>Veremos una cuerda que ayuda a la ascensión. En realidad no es imprescinble usarla, incluso hay senda justo al lado, pero nunca viene mal la ayuda.</desc>
  </wpt>
  <wpt lat="42.983014" lon="-1.003173">
    <ele>1909.2</ele>
    <time>2019-08-14T10:32:24Z</time>
    <name>Derecha hacia Ori Ttipia</name>
    <cmt>Giramos 180 a la derecha para dirigirnos a Ori Ttipia pasando antes por un pequeño alto cercano con vistas espectaculares.</cmt>
    <desc>Giramos 180 a la derecha para dirigirnos a Ori Ttipia pasando antes por un pequeño alto cercano con vistas espectaculares.</desc>
  </wpt>
  <wpt lat="42.982201" lon="-1.001685">
    <ele>1928.1</ele>
    <time>2019-08-14T10:35:35Z</time>
    <name>Vistas</name>
    <cmt>Pequeño alto antes de subir a Orhi Ttipia con preciosas vistas de los Pirineos y montes cercanos.</cmt>
    <desc>Pequeño alto antes de subir a Orhi Ttipia con preciosas vistas de los Pirineos y montes cercanos.</desc>
  </wpt>
  <wpt lat="42.982759" lon="-1.002357">
    <ele>1925.6</ele>
    <time>2019-08-14T10:40:04Z</time>
    <name>Cresta hacia Ori ttipia</name>
    <cmt>Desde el pico con vistas subimos por la cresta de la montaña hacia Ohri Ttipia. La pendiente aumenta en un tramo breve y rocoso, pero por el que se transita con facilidad.</cmt>
    <desc>Desde el pico con vistas subimos por la cresta de la montaña hacia Ohri Ttipia. La pendiente aumenta en un tramo breve y rocoso, pero por el que se transita con facilidad.</desc>
  </wpt>
  <wpt lat="42.984012" lon="-1.003567">
    <ele>1957.4</ele>
    <time>2019-08-14T10:46:40Z</time>
    <name>Orhi Ttipia 1923 m</name>
    <cmt>Coronamos Orhi Ttipia, pequeña cima previa al Orhi, el cual vemos con una preciosa perspectiva. Desde aquí seguiremos la cresta de la montaña en dirección al Orhi para continuar con la ruta de ascenso.</cmt>
    <desc>Coronamos Orhi Ttipia, pequeña cima previa al Orhi, el cual vemos con una preciosa perspectiva. Desde aquí seguiremos la cresta de la montaña en dirección al Orhi para continuar con la ruta de ascenso.</desc>
  </wpt>
  <wpt lat="42.985542" lon="-1.005101">
    <ele>1963.5</ele>
    <time>2019-08-14T10:52:13Z</time>
    <name>Rampa final de ascenso</name>
    <cmt>En este punto la pendiente se endurece considerablemente. Avanzamos ganando metros con rapidez. La senda se torna más rocosa y realiza pequeños zigzags para aligerar la subida. Pequeñas flechas naranjas nos guían.</cmt>
    <desc>En este punto la pendiente se endurece considerablemente. Avanzamos ganando metros con rapidez. La senda se torna más rocosa y realiza pequeños zigzags para aligerar la subida. Pequeñas flechas naranjas nos guían.</desc>
  </wpt>
  <wpt lat="42.988541" lon="-1.006079">
    <ele>2066.4</ele>
    <time>2019-08-14T11:05:08Z</time>
    <name>Cima del Orhi 2017 m</name>
    <cmt>Espectaculares vistas desde la cima del Orhi, desde el mar Cantábrico al Pirineo, y en días soleados incluso el Moncayo. Sin palabras, una gozada.</cmt>
    <desc>Espectaculares vistas desde la cima del Orhi, desde el mar Cantábrico al Pirineo, y en días soleados incluso el Moncayo. Sin palabras, una gozada.</desc>
  </wpt>
  <wpt lat="42.988781" lon="-1.006254">
    <ele>2065.5</ele>
    <time>2019-08-14T11:09:37Z</time>
    <name>Izquierda descenso</name>
    <cmt>Avanzamos unos pocos metros por la cresta tras visitar la cima del Orhi y comenzamos a caminar por la senda. En la bifurcación dejamos de seguir las flechas naranjas y giramos a la izquierda para descender de manera ligeramente pronuncia por una senda de tierra entre el verde.</cmt>
    <desc>Avanzamos unos pocos metros por la cresta tras visitar la cima del Orhi y comenzamos a caminar por la senda. En la bifurcación dejamos de seguir las flechas naranjas y giramos a la izquierda para descender de manera ligeramente pronuncia por una senda de tierra entre el verde.</desc>
  </wpt>
  <wpt lat="42.986789" lon="-1.007868">
    <ele>1985.7</ele>
    <time>2019-08-14T11:15:25Z</time>
    <name>Izquierda siguiendo la senda</name>
    <cmt>Giramos a la izquierda siguiendo el trayecto del sendero de descenso.</cmt>
    <desc>Giramos a la izquierda siguiendo el trayecto del sendero de descenso.</desc>
  </wpt>
  <wpt lat="42.985570" lon="-1.005985">
    <ele>1946.4</ele>
    <time>2019-08-14T11:19:02Z</time>
    <name>Derecha</name>
    <cmt>En la bifurcación tomamos el sendero de la derecha para conectar con el camino de ida unos metros después.</cmt>
    <desc>En la bifurcación tomamos el sendero de la derecha para conectar con el camino de ida unos metros después.</desc>
  </wpt>
  <trk>
    <name>ORHI (PIC D´ORHY, PICO ORI, ORHY) desde PUERTO de LARRAU circular</name>
    <cmt>Corta pero intensa ruta, sin mayor dificultad técnica. Subiremos al primer 2000 de los Pirineos desde la costa cantábrica siguiendo siempre una senda muy pisada.Además subiremos también a Orhi Ttipia. Haremos parte de la ruta circular, descendiendo el primer tramo por una senda diferente a la que subimos. 
 
Más información próximamente en &lt;p&gt;&lt;a href="https://www.rutasporelmonte.com" rel="nofollow" target="_blank"&gt;https://www.rutasporelmonte.com&lt;/a&gt;&lt;/p&gt; 
 
&lt;iframe height="360" src="https://www.youtube.com/embed/Tu2jU8OqekA"&gt;&lt;/iframe&gt; 
 
Suele ser una buena forma de iniciar a los niños en montes altos, motivo por el cual se suelen ver bastantes familias subiendo a la cima. Sin embargo he decidido calificarla de moderada por la última rampa, ya que puede incomodar al que busque un paseo. 
 
Por lo demás, vistas espectaculares, desde el mar hasta los Pirineos, pasando por una gran cantidad de montañas cercanas. Ruta muy recomendable.</cmt>
    <desc>Corta pero intensa ruta, sin mayor dificultad técnica. Subiremos al primer 2000 de los Pirineos desde la costa cantábrica siguiendo siempre una senda muy pisada.Además subiremos también a Orhi Ttipia. Haremos parte de la ruta circular, descendiendo el primer tramo por una senda diferente a la que subimos. 
 
Más información próximamente en &lt;p&gt;&lt;a href="https://www.rutasporelmonte.com" rel="nofollow" target="_blank"&gt;https://www.rutasporelmonte.com&lt;/a&gt;&lt;/p&gt; 
 
&lt;iframe height="360" src="https://www.youtube.com/embed/Tu2jU8OqekA"&gt;&lt;/iframe&gt; 
 
Suele ser una buena forma de iniciar a los niños en montes altos, motivo por el cual se suelen ver bastantes familias subiendo a la cima. Sin embargo he decidido calificarla de moderada por la última rampa, ya que puede incomodar al que busque un paseo. 
 
Por lo demás, vistas espectaculares, desde el mar hasta los Pirineos, pasando por una gran cantidad de montañas cercanas. Ruta muy recomendable.</desc>
    <trkseg>
      <trkpt lat="42.974314" lon="-0.993921">
        <ele>1638.282</ele>
        <time>2019-08-14T09:52:39Z</time>
      </trkpt>
      <trkpt lat="42.974438" lon="-0.993712">
        <ele>1638.243</ele>
        <time>2019-08-14T09:53:49Z</time>
      </trkpt>
      <trkpt lat="42.974507" lon="-0.994025">
        <ele>1638.217</ele>
        <time>2019-08-14T09:55:20Z</time>
      </trkpt>
      <trkpt lat="42.974340" lon="-0.994536">
        <ele>1638.508</ele>
        <time>2019-08-14T09:56:02Z</time>
      </trkpt>
      <trkpt lat="42.974653" lon="-0.995589">
        <ele>1647.911</ele>
        <time>2019-08-14T09:57:28Z</time>
      </trkpt>
      <trkpt lat="42.975063" lon="-0.996245">
        <ele>1666.497</ele>
        <time>2019-08-14T09:58:46Z</time>
      </trkpt>
      <trkpt lat="42.975463" lon="-0.997356">
        <ele>1689.847</ele>
        <time>2019-08-14T10:00:42Z</time>
      </trkpt>
      <trkpt lat="42.975871" lon="-0.997846">
        <ele>1708.370</ele>
        <time>2019-08-14T10:02:14Z</time>
      </trkpt>
      <trkpt lat="42.976054" lon="-0.998795">
        <ele>1712.749</ele>
        <time>2019-08-14T10:03:59Z</time>
      </trkpt>
      <trkpt lat="42.976371" lon="-0.999147">
        <ele>1711.669</ele>
        <time>2019-08-14T10:04:54Z</time>
      </trkpt>
      <trkpt lat="42.977251" lon="-0.999629">
        <ele>1741.776</ele>
        <time>2019-08-14T10:06:47Z</time>
      </trkpt>
      <trkpt lat="42.978371" lon="-1.000816">
        <ele>1785.919</ele>
        <time>2019-08-14T10:10:53Z</time>
      </trkpt>
      <trkpt lat="42.978914" lon="-1.000970">
        <ele>1802.639</ele>
        <time>2019-08-14T10:12:35Z</time>
      </trkpt>
      <trkpt lat="42.979722" lon="-1.001532">
        <ele>1824.301</ele>
        <time>2019-08-14T10:15:01Z</time>
      </trkpt>
      <trkpt lat="42.981105" lon="-1.001569">
        <ele>1851.521</ele>
        <time>2019-08-14T10:18:18Z</time>
      </trkpt>
      <trkpt lat="42.981900" lon="-1.002412">
        <ele>1871.108</ele>
        <time>2019-08-14T10:20:40Z</time>
      </trkpt>
      <trkpt lat="42.982541" lon="-1.002679">
        <ele>1889.076</ele>
        <time>2019-08-14T10:29:46Z</time>
      </trkpt>
      <trkpt lat="42.982546" lon="-1.002860">
        <ele>1885.012</ele>
        <time>2019-08-14T10:30:20Z</time>
      </trkpt>
      <trkpt lat="42.983014" lon="-1.003177">
        <ele>1909.712</ele>
        <time>2019-08-14T10:32:20Z</time>
      </trkpt>
      <trkpt lat="42.982248" lon="-1.001673">
        <ele>1927.685</ele>
        <time>2019-08-14T10:38:18Z</time>
      </trkpt>
      <trkpt lat="42.982602" lon="-1.002021">
        <ele>1922.674</ele>
        <time>2019-08-14T10:39:25Z</time>
      </trkpt>
      <trkpt lat="42.983147" lon="-1.002962">
        <ele>1937.474</ele>
        <time>2019-08-14T10:42:10Z</time>
      </trkpt>
      <trkpt lat="42.983186" lon="-1.002845">
        <ele>1939.991</ele>
        <time>2019-08-14T10:42:41Z</time>
      </trkpt>
      <trkpt lat="42.983469" lon="-1.002980">
        <ele>1950.424</ele>
        <time>2019-08-14T10:44:18Z</time>
      </trkpt>
      <trkpt lat="42.983599" lon="-1.003255">
        <ele>1958.448</ele>
        <time>2019-08-14T10:44:58Z</time>
      </trkpt>
      <trkpt lat="42.983918" lon="-1.003370">
        <ele>1962.761</ele>
        <time>2019-08-14T10:45:38Z</time>
      </trkpt>
      <trkpt lat="42.984651" lon="-1.004326">
        <ele>1965.817</ele>
        <time>2019-08-14T10:50:13Z</time>
      </trkpt>
      <trkpt lat="42.985333" lon="-1.004803">
        <ele>1957.908</ele>
        <time>2019-08-14T10:51:35Z</time>
      </trkpt>
      <trkpt lat="42.985889" lon="-1.005483">
        <ele>1963.887</ele>
        <time>2019-08-14T10:52:58Z</time>
      </trkpt>
      <trkpt lat="42.986280" lon="-1.005681">
        <ele>1982.713</ele>
        <time>2019-08-14T10:54:20Z</time>
      </trkpt>
      <trkpt lat="42.986321" lon="-1.005558">
        <ele>1988.693</ele>
        <time>2019-08-14T10:54:44Z</time>
      </trkpt>
      <trkpt lat="42.986852" lon="-1.005737">
        <ele>2018.196</ele>
        <time>2019-08-14T10:59:34Z</time>
      </trkpt>
      <trkpt lat="42.987148" lon="-1.005620">
        <ele>2046.155</ele>
        <time>2019-08-14T11:01:44Z</time>
      </trkpt>
      <trkpt lat="42.987807" lon="-1.006026">
        <ele>2064.875</ele>
        <time>2019-08-14T11:03:43Z</time>
      </trkpt>
      <trkpt lat="42.988541" lon="-1.006082">
        <ele>2067.562</ele>
        <time>2019-08-14T11:05:04Z</time>
      </trkpt>
      <trkpt lat="42.988757" lon="-1.006193">
        <ele>2067.575</ele>
        <time>2019-08-14T11:08:47Z</time>
      </trkpt>
      <trkpt lat="42.988745" lon="-1.006396">
        <ele>2063.057</ele>
        <time>2019-08-14T11:10:28Z</time>
      </trkpt>
      <trkpt lat="42.987786" lon="-1.007182">
        <ele>2027.500</ele>
        <time>2019-08-14T11:13:18Z</time>
      </trkpt>
      <trkpt lat="42.986886" lon="-1.007631">
        <ele>1993.920</ele>
        <time>2019-08-14T11:14:54Z</time>
      </trkpt>
      <trkpt lat="42.986751" lon="-1.008000">
        <ele>1980.808</ele>
        <time>2019-08-14T11:15:36Z</time>
      </trkpt>
      <trkpt lat="42.986068" lon="-1.006433">
        <ele>1940.068</ele>
        <time>2019-08-14T11:18:00Z</time>
      </trkpt>
      <trkpt lat="42.984912" lon="-1.005287">
        <ele>1931.164</ele>
        <time>2019-08-14T11:20:07Z</time>
      </trkpt>
      <trkpt lat="42.983546" lon="-1.004335">
        <ele>1923.714</ele>
        <time>2019-08-14T11:21:51Z</time>
      </trkpt>
      <trkpt lat="42.982420" lon="-1.002587">
        <ele>1895.677</ele>
        <time>2019-08-14T11:24:48Z</time>
      </trkpt>
      <trkpt lat="42.981804" lon="-1.002403">
        <ele>1871.596</ele>
        <time>2019-08-14T11:26:34Z</time>
      </trkpt>
      <trkpt lat="42.980942" lon="-1.001515">
        <ele>1853.796</ele>
        <time>2019-08-14T11:27:52Z</time>
      </trkpt>
      <trkpt lat="42.979615" lon="-1.001478">
        <ele>1837.033</ele>
        <time>2019-08-14T11:28:58Z</time>
      </trkpt>
      <trkpt lat="42.979064" lon="-1.001025">
        <ele>1817.976</ele>
        <time>2019-08-14T11:29:44Z</time>
      </trkpt>
      <trkpt lat="42.978403" lon="-1.000770">
        <ele>1795.029</ele>
        <time>2019-08-14T11:30:45Z</time>
      </trkpt>
      <trkpt lat="42.977295" lon="-0.999722">
        <ele>1751.800</ele>
        <time>2019-08-14T11:33:00Z</time>
      </trkpt>
      <trkpt lat="42.976641" lon="-0.999355">
        <ele>1748.620</ele>
        <time>2019-08-14T11:33:56Z</time>
      </trkpt>
      <trkpt lat="42.976055" lon="-0.998773">
        <ele>1738.308</ele>
        <time>2019-08-14T11:34:44Z</time>
      </trkpt>
      <trkpt lat="42.975868" lon="-0.997863">
        <ele>1713.935</ele>
        <time>2019-08-14T11:35:53Z</time>
      </trkpt>
      <trkpt lat="42.975409" lon="-0.997273">
        <ele>1689.971</ele>
        <time>2019-08-14T11:36:48Z</time>
      </trkpt>
      <trkpt lat="42.975077" lon="-0.996262">
        <ele>1667.241</ele>
        <time>2019-08-14T11:37:31Z</time>
      </trkpt>
      <trkpt lat="42.974655" lon="-0.995556">
        <ele>1641.834</ele>
        <time>2019-08-14T11:38:02Z</time>
      </trkpt>
      <trkpt lat="42.974327" lon="-0.994414">
        <ele>1634.693</ele>
        <time>2019-08-14T11:38:41Z</time>
      </trkpt>
      <trkpt lat="42.974459" lon="-0.993863">
        <ele>1634.663</ele>
        <time>2019-08-14T11:39:34Z</time>
      </trkpt>
      <trkpt lat="42.974367" lon="-0.993797">
        <ele>1630.480</ele>
        <time>2019-08-14T11:39:42Z</time>
      </trkpt>
      <trkpt lat="42.974326" lon="-0.993917">
        <ele>1630.263</ele>
        <time>2019-08-14T11:39:52Z</time>
      </trkpt>
    </trkseg>
  </trk></gpx>