<?xml version="1.0" encoding="UTF-8"?>
<gpx creator="Wikiloc - https://www.wikiloc.com" version="1.1" xmlns="http://www.topografix.com/GPX/1/1" xmlns:xsi="http://www.w3.org/2001/XMLSchema-instance" xsi:schemaLocation="http://www.topografix.com/GPX/1/1 http://www.topografix.com/GPX/1/1/gpx.xsd">
  <metadata>
    <name>Wikiloc - CASCADA de AIZPUN</name>
    <author>
      <name>RUTAS por el MONTE BLOG</name>
      <link href="https://www.wikiloc.com/wikiloc/user.do?id=4600824">
        <text>RUTAS por el MONTE BLOG on Wikiloc</text>
      </link>
    </author>
    <link href="https://www.wikiloc.com/hiking-trails/cascada-de-aizpun-59926185">
      <text>CASCADA de AIZPUN on Wikiloc</text>
    </link>
    <time>2020-11-05T12:47:03Z</time>
  </metadata>
  <wpt lat="42.832983" lon="-1.875274">
    <ele>825.8</ele>
    <time>2020-11-05T12:03:40Z</time>
    <name>Aizpun</name>
    <cmt>Aparcamos en Aizpun, junto al Ayuntamiento del Valle de Goñi. Damos nuestros primeros pasos caminando por la carretera. Por suerte no es una carretera muy transitada, por lo que no tenemos que andar continuamente pendientes de los coches que puedan pasar.</cmt>
    <desc>Aparcamos en Aizpun, junto al Ayuntamiento del Valle de Goñi. Damos nuestros primeros pasos caminando por la carretera. Por suerte no es una carretera muy transitada, por lo que no tenemos que andar continuamente pendientes de los coches que puedan pasar.</desc>
  </wpt>
  <wpt lat="42.837617" lon="-1.880111">
    <ele>750.7</ele>
    <time>2020-11-05T12:11:38Z</time>
    <name>Derecha Abandonar carretera y cruzar portón</name>
    <cmt>Derecha Abandonar carretera y cruzar portón</cmt>
    <desc>Derecha Abandonar carretera y cruzar portón</desc>
  </wpt>
  <wpt lat="42.838520" lon="-1.881086">
    <ele>742.4</ele>
    <time>2020-11-05T12:15:46Z</time>
    <name>Recto</name>
    <cmt>Seguir recto, dejando un camino más ancho a nuestra derecha y siguiendo por el sendero.</cmt>
    <desc>Seguir recto, dejando un camino más ancho a nuestra derecha y siguiendo por el sendero.</desc>
  </wpt>
  <wpt lat="42.839736" lon="-1.882846">
    <ele>749.4</ele>
    <time>2020-11-05T12:19:25Z</time>
    <name>Derecha</name>
    <cmt>Derecha</cmt>
    <desc>Derecha</desc>
  </wpt>
  <wpt lat="42.840261" lon="-1.883616">
    <ele>743.2</ele>
    <time>2020-11-05T12:20:28Z</time>
    <name>Derecha 180grados</name>
    <cmt>Derecha 180grados</cmt>
    <desc>Derecha 180grados</desc>
  </wpt>
  <wpt lat="42.840202" lon="-1.882814">
    <ele>729.0</ele>
    <time>2020-11-05T12:21:51Z</time>
    <name>Cruzar Arroyo seguir pista ancha</name>
    <cmt>Cruzar Arroyo (casi seco) seguir pista ancha</cmt>
    <desc>Cruzar Arroyo (casi seco) seguir pista ancha</desc>
  </wpt>
  <wpt lat="42.839943" lon="-1.879774">
    <ele>726.1</ele>
    <time>2020-11-05T12:25:53Z</time>
    <name>Derecha senda estrecha abandonar pista</name>
    <cmt>Derecha senda estrecha abandonar pista. Hacemos un pequeño tramo campo a través hasta conectar con un camino ancho.</cmt>
    <desc>Derecha senda estrecha abandonar pista. Hacemos un pequeño tramo campo a través hasta conectar con un camino ancho.</desc>
  </wpt>
  <wpt lat="42.839680" lon="-1.879278">
    <ele>713.7</ele>
    <time>2020-11-05T12:28:38Z</time>
    <name>Seguir Camino ancho derecha</name>
    <cmt>Llegamos a un camino más ancho y vamos hacia la derecha</cmt>
    <desc>Llegamos a un camino más ancho y vamos hacia la derecha</desc>
  </wpt>
  <wpt lat="42.839250" lon="-1.879500">
    <ele>710.5</ele>
    <time>2020-11-05T12:30:15Z</time>
    <name>Cruzar río</name>
    <cmt>Cruzar río</cmt>
    <desc>Cruzar río</desc>
  </wpt>
  <wpt lat="42.838977" lon="-1.879365">
    <ele>703.8</ele>
    <time>2020-11-05T12:37:52Z</time>
    <name>Izquierda senda ascenso</name>
    <cmt>Izquierda por la senda que va en ascenso</cmt>
    <desc>Izquierda por la senda que va en ascenso</desc>
  </wpt>
  <wpt lat="42.837367" lon="-1.878540">
    <ele>711.4</ele>
    <time>2020-11-05T12:42:30Z</time>
    <name>Cascada de Aizpun</name>
    <cmt>Cascada de Aizpun</cmt>
    <desc>Cascada de Aizpun</desc>
  </wpt>
  <trk>
    <name>CASCADA de AIZPUN</name>
    <cmt>CASCADA de AIZPUN 
 
Vído con imágenes de dron &lt;iframe height="315" src="https://www.youtube.com/embed/fnPdrfXOl6s"&gt;&lt;/iframe&gt; 
 
Ruta circular a la cascada de Aizpun, saliendo desde el pueblo de Aizpun. Importante ir en épocas de lluvia, ya que si no podéis encontrarla sin agua. Nosotros fuimos en noviembre, y si bien tenía agua, hay fechas con más caudal, haciendo que la cascada sea más espectacular. Algo interesante de esta cascada es la posibilidad de verla desde detrás, aprovechando una preciosa formación rocosa que nos permite acceder a esta posición. 
 
La ida la haremos por camino bastante marcado, salvo un pequeño tramo que haremos por bosque para conectar con otro camino que nos llevará hasta la cascada. La vuelta la haremos por el mismo camino que la ida. En total queda un ruta de cerca de 5 km y 1 hora y media.</cmt>
    <desc>CASCADA de AIZPUN 
 
Vído con imágenes de dron &lt;iframe height="315" src="https://www.youtube.com/embed/fnPdrfXOl6s"&gt;&lt;/iframe&gt; 
 
Ruta circular a la cascada de Aizpun, saliendo desde el pueblo de Aizpun. Importante ir en épocas de lluvia, ya que si no podéis encontrarla sin agua. Nosotros fuimos en noviembre, y si bien tenía agua, hay fechas con más caudal, haciendo que la cascada sea más espectacular. Algo interesante de esta cascada es la posibilidad de verla desde detrás, aprovechando una preciosa formación rocosa que nos permite acceder a esta posición. 
 
La ida la haremos por camino bastante marcado, salvo un pequeño tramo que haremos por bosque para conectar con otro camino que nos llevará hasta la cascada. La vuelta la haremos por el mismo camino que la ida. En total queda un ruta de cerca de 5 km y 1 hora y media.</desc>
    <trkseg>
      <trkpt lat="42.832977" lon="-1.875280">
        <ele>774.264</ele>
        <time>2020-11-05T12:03:29Z</time>
      </trkpt>
      <trkpt lat="42.832976" lon="-1.875342">
        <ele>775.606</ele>
        <time>2020-11-05T12:04:06Z</time>
      </trkpt>
      <trkpt lat="42.832940" lon="-1.875385">
        <ele>775.616</ele>
        <time>2020-11-05T12:04:20Z</time>
      </trkpt>
      <trkpt lat="42.832987" lon="-1.875394">
        <ele>775.008</ele>
        <time>2020-11-05T12:04:27Z</time>
      </trkpt>
      <trkpt lat="42.833035" lon="-1.875433">
        <ele>774.771</ele>
        <time>2020-11-05T12:04:31Z</time>
      </trkpt>
      <trkpt lat="42.833070" lon="-1.875481">
        <ele>774.565</ele>
        <time>2020-11-05T12:04:35Z</time>
      </trkpt>
      <trkpt lat="42.833118" lon="-1.875469">
        <ele>774.435</ele>
        <time>2020-11-05T12:04:39Z</time>
      </trkpt>
      <trkpt lat="42.833162" lon="-1.875511">
        <ele>774.378</ele>
        <time>2020-11-05T12:04:44Z</time>
      </trkpt>
      <trkpt lat="42.833197" lon="-1.875572">
        <ele>774.372</ele>
        <time>2020-11-05T12:04:49Z</time>
      </trkpt>
      <trkpt lat="42.833232" lon="-1.875612">
        <ele>774.377</ele>
        <time>2020-11-05T12:04:54Z</time>
      </trkpt>
      <trkpt lat="42.833279" lon="-1.875635">
        <ele>774.334</ele>
        <time>2020-11-05T12:05:00Z</time>
      </trkpt>
      <trkpt lat="42.833326" lon="-1.875641">
        <ele>774.321</ele>
        <time>2020-11-05T12:05:03Z</time>
      </trkpt>
      <trkpt lat="42.833368" lon="-1.875666">
        <ele>774.359</ele>
        <time>2020-11-05T12:05:06Z</time>
      </trkpt>
      <trkpt lat="42.833414" lon="-1.875688">
        <ele>774.303</ele>
        <time>2020-11-05T12:05:09Z</time>
      </trkpt>
      <trkpt lat="42.833469" lon="-1.875734">
        <ele>774.323</ele>
        <time>2020-11-05T12:05:13Z</time>
      </trkpt>
      <trkpt lat="42.833514" lon="-1.875758">
        <ele>774.308</ele>
        <time>2020-11-05T12:05:16Z</time>
      </trkpt>
      <trkpt lat="42.833562" lon="-1.875792">
        <ele>774.350</ele>
        <time>2020-11-05T12:05:20Z</time>
      </trkpt>
      <trkpt lat="42.833601" lon="-1.875844">
        <ele>774.374</ele>
        <time>2020-11-05T12:05:25Z</time>
      </trkpt>
      <trkpt lat="42.833640" lon="-1.875883">
        <ele>774.374</ele>
        <time>2020-11-05T12:05:30Z</time>
      </trkpt>
      <trkpt lat="42.833688" lon="-1.875896">
        <ele>774.347</ele>
        <time>2020-11-05T12:05:40Z</time>
      </trkpt>
      <trkpt lat="42.833729" lon="-1.875926">
        <ele>774.391</ele>
        <time>2020-11-05T12:05:43Z</time>
      </trkpt>
      <trkpt lat="42.833778" lon="-1.875976">
        <ele>774.316</ele>
        <time>2020-11-05T12:05:47Z</time>
      </trkpt>
      <trkpt lat="42.833812" lon="-1.876019">
        <ele>774.313</ele>
        <time>2020-11-05T12:05:50Z</time>
      </trkpt>
      <trkpt lat="42.833857" lon="-1.876055">
        <ele>774.310</ele>
        <time>2020-11-05T12:05:55Z</time>
      </trkpt>
      <trkpt lat="42.833900" lon="-1.876088">
        <ele>774.351</ele>
        <time>2020-11-05T12:06:01Z</time>
      </trkpt>
      <trkpt lat="42.833943" lon="-1.876109">
        <ele>774.301</ele>
        <time>2020-11-05T12:06:05Z</time>
      </trkpt>
      <trkpt lat="42.833986" lon="-1.876139">
        <ele>774.311</ele>
        <time>2020-11-05T12:06:08Z</time>
      </trkpt>
      <trkpt lat="42.834029" lon="-1.876168">
        <ele>774.308</ele>
        <time>2020-11-05T12:06:11Z</time>
      </trkpt>
      <trkpt lat="42.834085" lon="-1.876199">
        <ele>774.310</ele>
        <time>2020-11-05T12:06:14Z</time>
      </trkpt>
      <trkpt lat="42.834132" lon="-1.876221">
        <ele>774.374</ele>
        <time>2020-11-05T12:06:16Z</time>
      </trkpt>
      <trkpt lat="42.834182" lon="-1.876241">
        <ele>774.344</ele>
        <time>2020-11-05T12:06:18Z</time>
      </trkpt>
      <trkpt lat="42.834239" lon="-1.876259">
        <ele>774.317</ele>
        <time>2020-11-05T12:06:20Z</time>
      </trkpt>
      <trkpt lat="42.834294" lon="-1.876274">
        <ele>770.371</ele>
        <time>2020-11-05T12:06:22Z</time>
      </trkpt>
      <trkpt lat="42.834350" lon="-1.876294">
        <ele>766.376</ele>
        <time>2020-11-05T12:06:24Z</time>
      </trkpt>
      <trkpt lat="42.834406" lon="-1.876315">
        <ele>762.363</ele>
        <time>2020-11-05T12:06:26Z</time>
      </trkpt>
      <trkpt lat="42.834450" lon="-1.876333">
        <ele>758.390</ele>
        <time>2020-11-05T12:06:28Z</time>
      </trkpt>
      <trkpt lat="42.834493" lon="-1.876349">
        <ele>754.351</ele>
        <time>2020-11-05T12:06:30Z</time>
      </trkpt>
      <trkpt lat="42.834549" lon="-1.876375">
        <ele>750.301</ele>
        <time>2020-11-05T12:06:33Z</time>
      </trkpt>
      <trkpt lat="42.834603" lon="-1.876396">
        <ele>746.311</ele>
        <time>2020-11-05T12:06:36Z</time>
      </trkpt>
      <trkpt lat="42.834651" lon="-1.876415">
        <ele>742.308</ele>
        <time>2020-11-05T12:06:39Z</time>
      </trkpt>
      <trkpt lat="42.834693" lon="-1.876445">
        <ele>738.390</ele>
        <time>2020-11-05T12:06:43Z</time>
      </trkpt>
      <trkpt lat="42.834711" lon="-1.876502">
        <ele>734.314</ele>
        <time>2020-11-05T12:06:51Z</time>
      </trkpt>
      <trkpt lat="42.834757" lon="-1.876546">
        <ele>730.374</ele>
        <time>2020-11-05T12:06:59Z</time>
      </trkpt>
      <trkpt lat="42.834810" lon="-1.876583">
        <ele>726.387</ele>
        <time>2020-11-05T12:07:03Z</time>
      </trkpt>
      <trkpt lat="42.834857" lon="-1.876615">
        <ele>722.381</ele>
        <time>2020-11-05T12:07:06Z</time>
      </trkpt>
      <trkpt lat="42.834902" lon="-1.876643">
        <ele>718.336</ele>
        <time>2020-11-05T12:07:09Z</time>
      </trkpt>
      <trkpt lat="42.834948" lon="-1.876667">
        <ele>714.383</ele>
        <time>2020-11-05T12:07:11Z</time>
      </trkpt>
      <trkpt lat="42.835004" lon="-1.876706">
        <ele>712.080</ele>
        <time>2020-11-05T12:07:14Z</time>
      </trkpt>
      <trkpt lat="42.835047" lon="-1.876736">
        <ele>710.795</ele>
        <time>2020-11-05T12:07:17Z</time>
      </trkpt>
      <trkpt lat="42.835084" lon="-1.876772">
        <ele>709.849</ele>
        <time>2020-11-05T12:07:20Z</time>
      </trkpt>
      <trkpt lat="42.835126" lon="-1.876807">
        <ele>709.323</ele>
        <time>2020-11-05T12:07:23Z</time>
      </trkpt>
      <trkpt lat="42.835177" lon="-1.876857">
        <ele>709.208</ele>
        <time>2020-11-05T12:07:26Z</time>
      </trkpt>
      <trkpt lat="42.835213" lon="-1.876902">
        <ele>709.374</ele>
        <time>2020-11-05T12:07:28Z</time>
      </trkpt>
      <trkpt lat="42.835248" lon="-1.876948">
        <ele>709.618</ele>
        <time>2020-11-05T12:07:30Z</time>
      </trkpt>
      <trkpt lat="42.835282" lon="-1.876995">
        <ele>709.778</ele>
        <time>2020-11-05T12:07:32Z</time>
      </trkpt>
      <trkpt lat="42.835312" lon="-1.877041">
        <ele>709.761</ele>
        <time>2020-11-05T12:07:34Z</time>
      </trkpt>
      <trkpt lat="42.835352" lon="-1.877098">
        <ele>710.085</ele>
        <time>2020-11-05T12:07:37Z</time>
      </trkpt>
      <trkpt lat="42.835376" lon="-1.877150">
        <ele>710.770</ele>
        <time>2020-11-05T12:07:39Z</time>
      </trkpt>
      <trkpt lat="42.835399" lon="-1.877222">
        <ele>711.017</ele>
        <time>2020-11-05T12:07:45Z</time>
      </trkpt>
      <trkpt lat="42.835420" lon="-1.877279">
        <ele>711.624</ele>
        <time>2020-11-05T12:07:49Z</time>
      </trkpt>
      <trkpt lat="42.835446" lon="-1.877352">
        <ele>711.596</ele>
        <time>2020-11-05T12:07:53Z</time>
      </trkpt>
      <trkpt lat="42.835469" lon="-1.877408">
        <ele>711.131</ele>
        <time>2020-11-05T12:07:56Z</time>
      </trkpt>
      <trkpt lat="42.835487" lon="-1.877474">
        <ele>710.724</ele>
        <time>2020-11-05T12:08:00Z</time>
      </trkpt>
      <trkpt lat="42.835496" lon="-1.877538">
        <ele>710.108</ele>
        <time>2020-11-05T12:08:04Z</time>
      </trkpt>
      <trkpt lat="42.835516" lon="-1.877594">
        <ele>709.244</ele>
        <time>2020-11-05T12:08:09Z</time>
      </trkpt>
      <trkpt lat="42.835534" lon="-1.877664">
        <ele>708.218</ele>
        <time>2020-11-05T12:08:15Z</time>
      </trkpt>
      <trkpt lat="42.835546" lon="-1.877727">
        <ele>707.458</ele>
        <time>2020-11-05T12:08:19Z</time>
      </trkpt>
      <trkpt lat="42.835571" lon="-1.877794">
        <ele>706.591</ele>
        <time>2020-11-05T12:08:23Z</time>
      </trkpt>
      <trkpt lat="42.835598" lon="-1.877850">
        <ele>705.855</ele>
        <time>2020-11-05T12:08:26Z</time>
      </trkpt>
      <trkpt lat="42.835628" lon="-1.877914">
        <ele>705.450</ele>
        <time>2020-11-05T12:08:29Z</time>
      </trkpt>
      <trkpt lat="42.835658" lon="-1.877973">
        <ele>705.677</ele>
        <time>2020-11-05T12:08:32Z</time>
      </trkpt>
      <trkpt lat="42.835689" lon="-1.878038">
        <ele>706.124</ele>
        <time>2020-11-05T12:08:35Z</time>
      </trkpt>
      <trkpt lat="42.835721" lon="-1.878104">
        <ele>706.672</ele>
        <time>2020-11-05T12:08:38Z</time>
      </trkpt>
      <trkpt lat="42.835740" lon="-1.878166">
        <ele>707.013</ele>
        <time>2020-11-05T12:08:41Z</time>
      </trkpt>
      <trkpt lat="42.835757" lon="-1.878232">
        <ele>707.314</ele>
        <time>2020-11-05T12:08:45Z</time>
      </trkpt>
      <trkpt lat="42.835758" lon="-1.878304">
        <ele>707.308</ele>
        <time>2020-11-05T12:08:50Z</time>
      </trkpt>
      <trkpt lat="42.835762" lon="-1.878370">
        <ele>706.192</ele>
        <time>2020-11-05T12:08:56Z</time>
      </trkpt>
      <trkpt lat="42.835789" lon="-1.878423">
        <ele>705.096</ele>
        <time>2020-11-05T12:08:59Z</time>
      </trkpt>
      <trkpt lat="42.835826" lon="-1.878485">
        <ele>704.476</ele>
        <time>2020-11-05T12:09:02Z</time>
      </trkpt>
      <trkpt lat="42.835855" lon="-1.878532">
        <ele>704.269</ele>
        <time>2020-11-05T12:09:04Z</time>
      </trkpt>
      <trkpt lat="42.835900" lon="-1.878601">
        <ele>704.493</ele>
        <time>2020-11-05T12:09:07Z</time>
      </trkpt>
      <trkpt lat="42.835935" lon="-1.878665">
        <ele>704.778</ele>
        <time>2020-11-05T12:09:10Z</time>
      </trkpt>
      <trkpt lat="42.835972" lon="-1.878724">
        <ele>705.165</ele>
        <time>2020-11-05T12:09:13Z</time>
      </trkpt>
      <trkpt lat="42.836002" lon="-1.878774">
        <ele>705.192</ele>
        <time>2020-11-05T12:09:16Z</time>
      </trkpt>
      <trkpt lat="42.836039" lon="-1.878821">
        <ele>705.145</ele>
        <time>2020-11-05T12:09:20Z</time>
      </trkpt>
      <trkpt lat="42.836076" lon="-1.878866">
        <ele>704.647</ele>
        <time>2020-11-05T12:09:27Z</time>
      </trkpt>
      <trkpt lat="42.836117" lon="-1.878905">
        <ele>703.711</ele>
        <time>2020-11-05T12:09:34Z</time>
      </trkpt>
      <trkpt lat="42.836157" lon="-1.878935">
        <ele>702.408</ele>
        <time>2020-11-05T12:09:43Z</time>
      </trkpt>
      <trkpt lat="42.836198" lon="-1.878967">
        <ele>701.439</ele>
        <time>2020-11-05T12:09:47Z</time>
      </trkpt>
      <trkpt lat="42.836248" lon="-1.878995">
        <ele>700.563</ele>
        <time>2020-11-05T12:09:52Z</time>
      </trkpt>
      <trkpt lat="42.836316" lon="-1.879029">
        <ele>699.523</ele>
        <time>2020-11-05T12:09:58Z</time>
      </trkpt>
      <trkpt lat="42.836365" lon="-1.879065">
        <ele>698.876</ele>
        <time>2020-11-05T12:10:01Z</time>
      </trkpt>
      <trkpt lat="42.836418" lon="-1.879095">
        <ele>698.460</ele>
        <time>2020-11-05T12:10:04Z</time>
      </trkpt>
      <trkpt lat="42.836461" lon="-1.879121">
        <ele>698.115</ele>
        <time>2020-11-05T12:10:06Z</time>
      </trkpt>
      <trkpt lat="42.836523" lon="-1.879156">
        <ele>697.992</ele>
        <time>2020-11-05T12:10:09Z</time>
      </trkpt>
      <trkpt lat="42.836576" lon="-1.879190">
        <ele>697.929</ele>
        <time>2020-11-05T12:10:12Z</time>
      </trkpt>
      <trkpt lat="42.836621" lon="-1.879212">
        <ele>698.018</ele>
        <time>2020-11-05T12:10:14Z</time>
      </trkpt>
      <trkpt lat="42.836665" lon="-1.879232">
        <ele>698.598</ele>
        <time>2020-11-05T12:10:17Z</time>
      </trkpt>
      <trkpt lat="42.836716" lon="-1.879221">
        <ele>699.117</ele>
        <time>2020-11-05T12:10:19Z</time>
      </trkpt>
      <trkpt lat="42.836758" lon="-1.879255">
        <ele>699.808</ele>
        <time>2020-11-05T12:10:23Z</time>
      </trkpt>
      <trkpt lat="42.836805" lon="-1.879287">
        <ele>700.396</ele>
        <time>2020-11-05T12:10:26Z</time>
      </trkpt>
      <trkpt lat="42.836847" lon="-1.879312">
        <ele>700.640</ele>
        <time>2020-11-05T12:10:28Z</time>
      </trkpt>
      <trkpt lat="42.836899" lon="-1.879341">
        <ele>701.070</ele>
        <time>2020-11-05T12:10:30Z</time>
      </trkpt>
      <trkpt lat="42.836938" lon="-1.879385">
        <ele>701.263</ele>
        <time>2020-11-05T12:10:33Z</time>
      </trkpt>
      <trkpt lat="42.836982" lon="-1.879435">
        <ele>701.437</ele>
        <time>2020-11-05T12:10:37Z</time>
      </trkpt>
      <trkpt lat="42.837031" lon="-1.879462">
        <ele>702.022</ele>
        <time>2020-11-05T12:10:40Z</time>
      </trkpt>
      <trkpt lat="42.837070" lon="-1.879497">
        <ele>702.779</ele>
        <time>2020-11-05T12:10:44Z</time>
      </trkpt>
      <trkpt lat="42.837110" lon="-1.879542">
        <ele>703.766</ele>
        <time>2020-11-05T12:10:49Z</time>
      </trkpt>
      <trkpt lat="42.837148" lon="-1.879574">
        <ele>704.336</ele>
        <time>2020-11-05T12:10:54Z</time>
      </trkpt>
      <trkpt lat="42.837178" lon="-1.879631">
        <ele>703.917</ele>
        <time>2020-11-05T12:11:02Z</time>
      </trkpt>
      <trkpt lat="42.837209" lon="-1.879676">
        <ele>703.418</ele>
        <time>2020-11-05T12:11:07Z</time>
      </trkpt>
      <trkpt lat="42.837248" lon="-1.879723">
        <ele>702.908</ele>
        <time>2020-11-05T12:11:10Z</time>
      </trkpt>
      <trkpt lat="42.837292" lon="-1.879771">
        <ele>702.478</ele>
        <time>2020-11-05T12:11:13Z</time>
      </trkpt>
      <trkpt lat="42.837343" lon="-1.879814">
        <ele>702.092</ele>
        <time>2020-11-05T12:11:17Z</time>
      </trkpt>
      <trkpt lat="42.837398" lon="-1.879857">
        <ele>701.532</ele>
        <time>2020-11-05T12:11:20Z</time>
      </trkpt>
      <trkpt lat="42.837434" lon="-1.879893">
        <ele>701.185</ele>
        <time>2020-11-05T12:11:22Z</time>
      </trkpt>
      <trkpt lat="42.837476" lon="-1.879931">
        <ele>700.789</ele>
        <time>2020-11-05T12:11:24Z</time>
      </trkpt>
      <trkpt lat="42.837514" lon="-1.879972">
        <ele>700.374</ele>
        <time>2020-11-05T12:11:27Z</time>
      </trkpt>
      <trkpt lat="42.837552" lon="-1.880019">
        <ele>700.111</ele>
        <time>2020-11-05T12:11:29Z</time>
      </trkpt>
      <trkpt lat="42.837597" lon="-1.880063">
        <ele>700.298</ele>
        <time>2020-11-05T12:11:33Z</time>
      </trkpt>
      <trkpt lat="42.837625" lon="-1.880123">
        <ele>699.826</ele>
        <time>2020-11-05T12:11:39Z</time>
      </trkpt>
      <trkpt lat="42.837667" lon="-1.880155">
        <ele>699.447</ele>
        <time>2020-11-05T12:11:43Z</time>
      </trkpt>
      <trkpt lat="42.837714" lon="-1.880175">
        <ele>699.511</ele>
        <time>2020-11-05T12:12:16Z</time>
      </trkpt>
      <trkpt lat="42.837751" lon="-1.880212">
        <ele>699.908</ele>
        <time>2020-11-05T12:12:20Z</time>
      </trkpt>
      <trkpt lat="42.837793" lon="-1.880233">
        <ele>700.237</ele>
        <time>2020-11-05T12:12:30Z</time>
      </trkpt>
      <trkpt lat="42.837844" lon="-1.880258">
        <ele>700.691</ele>
        <time>2020-11-05T12:12:52Z</time>
      </trkpt>
      <trkpt lat="42.837879" lon="-1.880313">
        <ele>700.441</ele>
        <time>2020-11-05T12:12:59Z</time>
      </trkpt>
      <trkpt lat="42.837922" lon="-1.880342">
        <ele>700.174</ele>
        <time>2020-11-05T12:13:04Z</time>
      </trkpt>
      <trkpt lat="42.837923" lon="-1.880406">
        <ele>699.948</ele>
        <time>2020-11-05T12:13:08Z</time>
      </trkpt>
      <trkpt lat="42.837910" lon="-1.880472">
        <ele>699.563</ele>
        <time>2020-11-05T12:13:24Z</time>
      </trkpt>
      <trkpt lat="42.837920" lon="-1.880541">
        <ele>699.040</ele>
        <time>2020-11-05T12:13:29Z</time>
      </trkpt>
      <trkpt lat="42.837947" lon="-1.880595">
        <ele>698.557</ele>
        <time>2020-11-05T12:13:33Z</time>
      </trkpt>
      <trkpt lat="42.837945" lon="-1.880672">
        <ele>697.921</ele>
        <time>2020-11-05T12:13:37Z</time>
      </trkpt>
      <trkpt lat="42.837964" lon="-1.880742">
        <ele>697.141</ele>
        <time>2020-11-05T12:13:44Z</time>
      </trkpt>
      <trkpt lat="42.837991" lon="-1.880797">
        <ele>696.305</ele>
        <time>2020-11-05T12:13:48Z</time>
      </trkpt>
      <trkpt lat="42.838008" lon="-1.880865">
        <ele>695.508</ele>
        <time>2020-11-05T12:13:53Z</time>
      </trkpt>
      <trkpt lat="42.838027" lon="-1.880929">
        <ele>694.837</ele>
        <time>2020-11-05T12:13:58Z</time>
      </trkpt>
      <trkpt lat="42.838057" lon="-1.880983">
        <ele>694.081</ele>
        <time>2020-11-05T12:14:03Z</time>
      </trkpt>
      <trkpt lat="42.838100" lon="-1.881013">
        <ele>693.321</ele>
        <time>2020-11-05T12:14:07Z</time>
      </trkpt>
      <trkpt lat="42.838133" lon="-1.881062">
        <ele>692.524</ele>
        <time>2020-11-05T12:14:13Z</time>
      </trkpt>
      <trkpt lat="42.838121" lon="-1.881134">
        <ele>691.678</ele>
        <time>2020-11-05T12:14:18Z</time>
      </trkpt>
      <trkpt lat="42.838146" lon="-1.881195">
        <ele>690.653</ele>
        <time>2020-11-05T12:14:23Z</time>
      </trkpt>
      <trkpt lat="42.838191" lon="-1.881187">
        <ele>689.530</ele>
        <time>2020-11-05T12:14:32Z</time>
      </trkpt>
      <trkpt lat="42.838234" lon="-1.881160">
        <ele>688.737</ele>
        <time>2020-11-05T12:14:37Z</time>
      </trkpt>
      <trkpt lat="42.838277" lon="-1.881142">
        <ele>688.291</ele>
        <time>2020-11-05T12:14:39Z</time>
      </trkpt>
      <trkpt lat="42.838331" lon="-1.881145">
        <ele>688.281</ele>
        <time>2020-11-05T12:14:43Z</time>
      </trkpt>
      <trkpt lat="42.838377" lon="-1.881117">
        <ele>688.219</ele>
        <time>2020-11-05T12:14:47Z</time>
      </trkpt>
      <trkpt lat="42.838430" lon="-1.881138">
        <ele>688.708</ele>
        <time>2020-11-05T12:15:07Z</time>
      </trkpt>
      <trkpt lat="42.838479" lon="-1.881138">
        <ele>689.154</ele>
        <time>2020-11-05T12:15:10Z</time>
      </trkpt>
      <trkpt lat="42.838531" lon="-1.881141">
        <ele>689.338</ele>
        <time>2020-11-05T12:15:16Z</time>
      </trkpt>
      <trkpt lat="42.838508" lon="-1.881083">
        <ele>690.348</ele>
        <time>2020-11-05T12:15:48Z</time>
      </trkpt>
      <trkpt lat="42.838475" lon="-1.881039">
        <ele>691.731</ele>
        <time>2020-11-05T12:15:57Z</time>
      </trkpt>
      <trkpt lat="42.838509" lon="-1.881091">
        <ele>692.255</ele>
        <time>2020-11-05T12:16:15Z</time>
      </trkpt>
      <trkpt lat="42.838562" lon="-1.881099">
        <ele>692.670</ele>
        <time>2020-11-05T12:16:20Z</time>
      </trkpt>
      <trkpt lat="42.838612" lon="-1.881111">
        <ele>692.827</ele>
        <time>2020-11-05T12:16:25Z</time>
      </trkpt>
      <trkpt lat="42.838654" lon="-1.881132">
        <ele>693.274</ele>
        <time>2020-11-05T12:16:29Z</time>
      </trkpt>
      <trkpt lat="42.838699" lon="-1.881154">
        <ele>693.518</ele>
        <time>2020-11-05T12:16:37Z</time>
      </trkpt>
      <trkpt lat="42.838743" lon="-1.881128">
        <ele>693.998</ele>
        <time>2020-11-05T12:16:42Z</time>
      </trkpt>
      <trkpt lat="42.838788" lon="-1.881149">
        <ele>694.217</ele>
        <time>2020-11-05T12:16:46Z</time>
      </trkpt>
      <trkpt lat="42.838825" lon="-1.881189">
        <ele>694.608</ele>
        <time>2020-11-05T12:16:51Z</time>
      </trkpt>
      <trkpt lat="42.838872" lon="-1.881199">
        <ele>695.046</ele>
        <time>2020-11-05T12:16:55Z</time>
      </trkpt>
      <trkpt lat="42.838912" lon="-1.881227">
        <ele>695.390</ele>
        <time>2020-11-05T12:16:59Z</time>
      </trkpt>
      <trkpt lat="42.838947" lon="-1.881268">
        <ele>695.560</ele>
        <time>2020-11-05T12:17:03Z</time>
      </trkpt>
      <trkpt lat="42.838991" lon="-1.881307">
        <ele>695.973</ele>
        <time>2020-11-05T12:17:07Z</time>
      </trkpt>
      <trkpt lat="42.839027" lon="-1.881374">
        <ele>696.317</ele>
        <time>2020-11-05T12:17:12Z</time>
      </trkpt>
      <trkpt lat="42.839061" lon="-1.881418">
        <ele>696.882</ele>
        <time>2020-11-05T12:17:18Z</time>
      </trkpt>
      <trkpt lat="42.839109" lon="-1.881454">
        <ele>697.449</ele>
        <time>2020-11-05T12:17:22Z</time>
      </trkpt>
      <trkpt lat="42.839143" lon="-1.881502">
        <ele>697.956</ele>
        <time>2020-11-05T12:17:26Z</time>
      </trkpt>
      <trkpt lat="42.839194" lon="-1.881530">
        <ele>698.532</ele>
        <time>2020-11-05T12:17:32Z</time>
      </trkpt>
      <trkpt lat="42.839235" lon="-1.881561">
        <ele>698.992</ele>
        <time>2020-11-05T12:17:36Z</time>
      </trkpt>
      <trkpt lat="42.839270" lon="-1.881604">
        <ele>699.311</ele>
        <time>2020-11-05T12:17:40Z</time>
      </trkpt>
      <trkpt lat="42.839299" lon="-1.881655">
        <ele>699.708</ele>
        <time>2020-11-05T12:17:45Z</time>
      </trkpt>
      <trkpt lat="42.839333" lon="-1.881710">
        <ele>700.128</ele>
        <time>2020-11-05T12:17:51Z</time>
      </trkpt>
      <trkpt lat="42.839347" lon="-1.881772">
        <ele>700.622</ele>
        <time>2020-11-05T12:17:56Z</time>
      </trkpt>
      <trkpt lat="42.839397" lon="-1.881793">
        <ele>701.022</ele>
        <time>2020-11-05T12:18:01Z</time>
      </trkpt>
      <trkpt lat="42.839442" lon="-1.881801">
        <ele>701.565</ele>
        <time>2020-11-05T12:18:04Z</time>
      </trkpt>
      <trkpt lat="42.839488" lon="-1.881845">
        <ele>701.779</ele>
        <time>2020-11-05T12:18:08Z</time>
      </trkpt>
      <trkpt lat="42.839525" lon="-1.881905">
        <ele>701.944</ele>
        <time>2020-11-05T12:18:12Z</time>
      </trkpt>
      <trkpt lat="42.839556" lon="-1.881951">
        <ele>702.131</ele>
        <time>2020-11-05T12:18:16Z</time>
      </trkpt>
      <trkpt lat="42.839588" lon="-1.882018">
        <ele>702.338</ele>
        <time>2020-11-05T12:18:20Z</time>
      </trkpt>
      <trkpt lat="42.839598" lon="-1.882101">
        <ele>702.141</ele>
        <time>2020-11-05T12:18:24Z</time>
      </trkpt>
      <trkpt lat="42.839578" lon="-1.882164">
        <ele>701.681</ele>
        <time>2020-11-05T12:18:28Z</time>
      </trkpt>
      <trkpt lat="42.839568" lon="-1.882231">
        <ele>701.109</ele>
        <time>2020-11-05T12:18:33Z</time>
      </trkpt>
      <trkpt lat="42.839559" lon="-1.882299">
        <ele>701.008</ele>
        <time>2020-11-05T12:18:38Z</time>
      </trkpt>
      <trkpt lat="42.839544" lon="-1.882363">
        <ele>700.919</ele>
        <time>2020-11-05T12:18:43Z</time>
      </trkpt>
      <trkpt lat="42.839543" lon="-1.882433">
        <ele>700.733</ele>
        <time>2020-11-05T12:18:49Z</time>
      </trkpt>
      <trkpt lat="42.839578" lon="-1.882482">
        <ele>700.583</ele>
        <time>2020-11-05T12:18:56Z</time>
      </trkpt>
      <trkpt lat="42.839607" lon="-1.882544">
        <ele>700.396</ele>
        <time>2020-11-05T12:19:00Z</time>
      </trkpt>
      <trkpt lat="42.839640" lon="-1.882611">
        <ele>700.360</ele>
        <time>2020-11-05T12:19:05Z</time>
      </trkpt>
      <trkpt lat="42.839669" lon="-1.882675">
        <ele>700.165</ele>
        <time>2020-11-05T12:19:09Z</time>
      </trkpt>
      <trkpt lat="42.839703" lon="-1.882733">
        <ele>699.882</ele>
        <time>2020-11-05T12:19:12Z</time>
      </trkpt>
      <trkpt lat="42.839719" lon="-1.882794">
        <ele>699.389</ele>
        <time>2020-11-05T12:19:16Z</time>
      </trkpt>
      <trkpt lat="42.839744" lon="-1.882859">
        <ele>698.723</ele>
        <time>2020-11-05T12:19:25Z</time>
      </trkpt>
      <trkpt lat="42.839792" lon="-1.882907">
        <ele>698.983</ele>
        <time>2020-11-05T12:19:29Z</time>
      </trkpt>
      <trkpt lat="42.839835" lon="-1.882930">
        <ele>698.711</ele>
        <time>2020-11-05T12:19:31Z</time>
      </trkpt>
      <trkpt lat="42.839876" lon="-1.882976">
        <ele>697.308</ele>
        <time>2020-11-05T12:19:38Z</time>
      </trkpt>
      <trkpt lat="42.839925" lon="-1.882997">
        <ele>696.297</ele>
        <time>2020-11-05T12:19:42Z</time>
      </trkpt>
      <trkpt lat="42.839958" lon="-1.883040">
        <ele>695.961</ele>
        <time>2020-11-05T12:19:45Z</time>
      </trkpt>
      <trkpt lat="42.839984" lon="-1.883094">
        <ele>695.531</ele>
        <time>2020-11-05T12:19:49Z</time>
      </trkpt>
      <trkpt lat="42.840015" lon="-1.883145">
        <ele>694.954</ele>
        <time>2020-11-05T12:19:52Z</time>
      </trkpt>
      <trkpt lat="42.840043" lon="-1.883226">
        <ele>694.428</ele>
        <time>2020-11-05T12:19:57Z</time>
      </trkpt>
      <trkpt lat="42.840066" lon="-1.883281">
        <ele>693.833</ele>
        <time>2020-11-05T12:20:01Z</time>
      </trkpt>
      <trkpt lat="42.840082" lon="-1.883343">
        <ele>693.350</ele>
        <time>2020-11-05T12:20:04Z</time>
      </trkpt>
      <trkpt lat="42.840117" lon="-1.883406">
        <ele>692.827</ele>
        <time>2020-11-05T12:20:09Z</time>
      </trkpt>
      <trkpt lat="42.840143" lon="-1.883465">
        <ele>692.421</ele>
        <time>2020-11-05T12:20:12Z</time>
      </trkpt>
      <trkpt lat="42.840170" lon="-1.883523">
        <ele>691.941</ele>
        <time>2020-11-05T12:20:17Z</time>
      </trkpt>
      <trkpt lat="42.840211" lon="-1.883579">
        <ele>691.405</ele>
        <time>2020-11-05T12:20:21Z</time>
      </trkpt>
      <trkpt lat="42.840255" lon="-1.883615">
        <ele>691.508</ele>
        <time>2020-11-05T12:20:26Z</time>
      </trkpt>
      <trkpt lat="42.840305" lon="-1.883658">
        <ele>691.417</ele>
        <time>2020-11-05T12:20:46Z</time>
      </trkpt>
      <trkpt lat="42.840363" lon="-1.883636">
        <ele>691.451</ele>
        <time>2020-11-05T12:20:49Z</time>
      </trkpt>
      <trkpt lat="42.840392" lon="-1.883588">
        <ele>691.091</ele>
        <time>2020-11-05T12:20:52Z</time>
      </trkpt>
      <trkpt lat="42.840381" lon="-1.883518">
        <ele>689.964</ele>
        <time>2020-11-05T12:20:56Z</time>
      </trkpt>
      <trkpt lat="42.840357" lon="-1.883458">
        <ele>688.978</ele>
        <time>2020-11-05T12:21:01Z</time>
      </trkpt>
      <trkpt lat="42.840345" lon="-1.883396">
        <ele>688.093</ele>
        <time>2020-11-05T12:21:06Z</time>
      </trkpt>
      <trkpt lat="42.840324" lon="-1.883331">
        <ele>687.470</ele>
        <time>2020-11-05T12:21:10Z</time>
      </trkpt>
      <trkpt lat="42.840345" lon="-1.883276">
        <ele>686.397</ele>
        <time>2020-11-05T12:21:15Z</time>
      </trkpt>
      <trkpt lat="42.840322" lon="-1.883218">
        <ele>685.284</ele>
        <time>2020-11-05T12:21:21Z</time>
      </trkpt>
      <trkpt lat="42.840317" lon="-1.883135">
        <ele>684.007</ele>
        <time>2020-11-05T12:21:25Z</time>
      </trkpt>
      <trkpt lat="42.840305" lon="-1.883069">
        <ele>682.717</ele>
        <time>2020-11-05T12:21:28Z</time>
      </trkpt>
      <trkpt lat="42.840277" lon="-1.883007">
        <ele>681.508</ele>
        <time>2020-11-05T12:21:31Z</time>
      </trkpt>
      <trkpt lat="42.840242" lon="-1.882957">
        <ele>680.643</ele>
        <time>2020-11-05T12:21:35Z</time>
      </trkpt>
      <trkpt lat="42.840210" lon="-1.882897">
        <ele>679.747</ele>
        <time>2020-11-05T12:21:40Z</time>
      </trkpt>
      <trkpt lat="42.840189" lon="-1.882840">
        <ele>678.957</ele>
        <time>2020-11-05T12:21:46Z</time>
      </trkpt>
      <trkpt lat="42.840200" lon="-1.882770">
        <ele>678.390</ele>
        <time>2020-11-05T12:21:57Z</time>
      </trkpt>
      <trkpt lat="42.840189" lon="-1.882708">
        <ele>677.994</ele>
        <time>2020-11-05T12:22:02Z</time>
      </trkpt>
      <trkpt lat="42.840208" lon="-1.882643">
        <ele>676.899</ele>
        <time>2020-11-05T12:22:28Z</time>
      </trkpt>
      <trkpt lat="42.840194" lon="-1.882584">
        <ele>676.226</ele>
        <time>2020-11-05T12:22:31Z</time>
      </trkpt>
      <trkpt lat="42.840173" lon="-1.882519">
        <ele>676.123</ele>
        <time>2020-11-05T12:22:33Z</time>
      </trkpt>
      <trkpt lat="42.840163" lon="-1.882453">
        <ele>676.415</ele>
        <time>2020-11-05T12:22:38Z</time>
      </trkpt>
      <trkpt lat="42.840156" lon="-1.882391">
        <ele>676.365</ele>
        <time>2020-11-05T12:22:42Z</time>
      </trkpt>
      <trkpt lat="42.840131" lon="-1.882331">
        <ele>676.611</ele>
        <time>2020-11-05T12:22:45Z</time>
      </trkpt>
      <trkpt lat="42.840153" lon="-1.882270">
        <ele>677.808</ele>
        <time>2020-11-05T12:22:49Z</time>
      </trkpt>
      <trkpt lat="42.840179" lon="-1.882215">
        <ele>679.386</ele>
        <time>2020-11-05T12:22:52Z</time>
      </trkpt>
      <trkpt lat="42.840203" lon="-1.882152">
        <ele>680.940</ele>
        <time>2020-11-05T12:22:56Z</time>
      </trkpt>
      <trkpt lat="42.840218" lon="-1.882082">
        <ele>682.810</ele>
        <time>2020-11-05T12:23:01Z</time>
      </trkpt>
      <trkpt lat="42.840239" lon="-1.882026">
        <ele>684.383</ele>
        <time>2020-11-05T12:23:04Z</time>
      </trkpt>
      <trkpt lat="42.840281" lon="-1.881978">
        <ele>685.127</ele>
        <time>2020-11-05T12:23:09Z</time>
      </trkpt>
      <trkpt lat="42.840301" lon="-1.881921">
        <ele>686.092</ele>
        <time>2020-11-05T12:23:14Z</time>
      </trkpt>
      <trkpt lat="42.840336" lon="-1.881872">
        <ele>686.739</ele>
        <time>2020-11-05T12:23:20Z</time>
      </trkpt>
      <trkpt lat="42.840334" lon="-1.881787">
        <ele>687.396</ele>
        <time>2020-11-05T12:23:24Z</time>
      </trkpt>
      <trkpt lat="42.840335" lon="-1.881710">
        <ele>687.811</ele>
        <time>2020-11-05T12:23:29Z</time>
      </trkpt>
      <trkpt lat="42.840304" lon="-1.881658">
        <ele>688.321</ele>
        <time>2020-11-05T12:23:35Z</time>
      </trkpt>
      <trkpt lat="42.840259" lon="-1.881628">
        <ele>688.803</ele>
        <time>2020-11-05T12:23:38Z</time>
      </trkpt>
      <trkpt lat="42.840215" lon="-1.881609">
        <ele>689.208</ele>
        <time>2020-11-05T12:23:40Z</time>
      </trkpt>
      <trkpt lat="42.840190" lon="-1.881534">
        <ele>689.726</ele>
        <time>2020-11-05T12:23:44Z</time>
      </trkpt>
      <trkpt lat="42.840162" lon="-1.881468">
        <ele>690.120</ele>
        <time>2020-11-05T12:23:47Z</time>
      </trkpt>
      <trkpt lat="42.840128" lon="-1.881413">
        <ele>690.590</ele>
        <time>2020-11-05T12:23:49Z</time>
      </trkpt>
      <trkpt lat="42.840088" lon="-1.881368">
        <ele>690.813</ele>
        <time>2020-11-05T12:23:53Z</time>
      </trkpt>
      <trkpt lat="42.840049" lon="-1.881313">
        <ele>690.957</ele>
        <time>2020-11-05T12:23:58Z</time>
      </trkpt>
      <trkpt lat="42.840033" lon="-1.881254">
        <ele>690.952</ele>
        <time>2020-11-05T12:24:01Z</time>
      </trkpt>
      <trkpt lat="42.840022" lon="-1.881160">
        <ele>690.829</ele>
        <time>2020-11-05T12:24:05Z</time>
      </trkpt>
      <trkpt lat="42.840015" lon="-1.881090">
        <ele>690.786</ele>
        <time>2020-11-05T12:24:08Z</time>
      </trkpt>
      <trkpt lat="42.839991" lon="-1.881030">
        <ele>690.563</ele>
        <time>2020-11-05T12:24:11Z</time>
      </trkpt>
      <trkpt lat="42.839964" lon="-1.880972">
        <ele>690.244</ele>
        <time>2020-11-05T12:24:16Z</time>
      </trkpt>
      <trkpt lat="42.839947" lon="-1.880914">
        <ele>689.618</ele>
        <time>2020-11-05T12:24:21Z</time>
      </trkpt>
      <trkpt lat="42.839933" lon="-1.880840">
        <ele>688.908</ele>
        <time>2020-11-05T12:24:25Z</time>
      </trkpt>
      <trkpt lat="42.839920" lon="-1.880777">
        <ele>688.351</ele>
        <time>2020-11-05T12:24:28Z</time>
      </trkpt>
      <trkpt lat="42.839898" lon="-1.880702">
        <ele>687.685</ele>
        <time>2020-11-05T12:24:32Z</time>
      </trkpt>
      <trkpt lat="42.839889" lon="-1.880638">
        <ele>686.745</ele>
        <time>2020-11-05T12:24:34Z</time>
      </trkpt>
      <trkpt lat="42.839884" lon="-1.880571">
        <ele>685.568</ele>
        <time>2020-11-05T12:24:38Z</time>
      </trkpt>
      <trkpt lat="42.839871" lon="-1.880511">
        <ele>684.412</ele>
        <time>2020-11-05T12:24:41Z</time>
      </trkpt>
      <trkpt lat="42.839861" lon="-1.880441">
        <ele>683.497</ele>
        <time>2020-11-05T12:24:44Z</time>
      </trkpt>
      <trkpt lat="42.839847" lon="-1.880366">
        <ele>682.444</ele>
        <time>2020-11-05T12:24:47Z</time>
      </trkpt>
      <trkpt lat="42.839854" lon="-1.880297">
        <ele>681.741</ele>
        <time>2020-11-05T12:24:51Z</time>
      </trkpt>
      <trkpt lat="42.839875" lon="-1.880227">
        <ele>681.297</ele>
        <time>2020-11-05T12:24:54Z</time>
      </trkpt>
      <trkpt lat="42.839887" lon="-1.880157">
        <ele>680.723</ele>
        <time>2020-11-05T12:24:57Z</time>
      </trkpt>
      <trkpt lat="42.839896" lon="-1.880097">
        <ele>680.025</ele>
        <time>2020-11-05T12:25:00Z</time>
      </trkpt>
      <trkpt lat="42.839901" lon="-1.880031">
        <ele>679.308</ele>
        <time>2020-11-05T12:25:04Z</time>
      </trkpt>
      <trkpt lat="42.839918" lon="-1.879972">
        <ele>678.784</ele>
        <time>2020-11-05T12:25:07Z</time>
      </trkpt>
      <trkpt lat="42.839928" lon="-1.879910">
        <ele>677.748</ele>
        <time>2020-11-05T12:25:11Z</time>
      </trkpt>
      <trkpt lat="42.839945" lon="-1.879845">
        <ele>677.138</ele>
        <time>2020-11-05T12:25:15Z</time>
      </trkpt>
      <trkpt lat="42.839981" lon="-1.879795">
        <ele>676.781</ele>
        <time>2020-11-05T12:25:18Z</time>
      </trkpt>
      <trkpt lat="42.840016" lon="-1.879744">
        <ele>676.475</ele>
        <time>2020-11-05T12:25:21Z</time>
      </trkpt>
      <trkpt lat="42.840055" lon="-1.879682">
        <ele>675.970</ele>
        <time>2020-11-05T12:25:27Z</time>
      </trkpt>
      <trkpt lat="42.840009" lon="-1.879688">
        <ele>675.517</ele>
        <time>2020-11-05T12:25:37Z</time>
      </trkpt>
      <trkpt lat="42.839982" lon="-1.879739">
        <ele>675.184</ele>
        <time>2020-11-05T12:25:41Z</time>
      </trkpt>
      <trkpt lat="42.839958" lon="-1.879794">
        <ele>674.796</ele>
        <time>2020-11-05T12:25:47Z</time>
      </trkpt>
      <trkpt lat="42.839966" lon="-1.879731">
        <ele>674.631</ele>
        <time>2020-11-05T12:25:57Z</time>
      </trkpt>
      <trkpt lat="42.840040" lon="-1.879675">
        <ele>674.624</ele>
        <time>2020-11-05T12:25:59Z</time>
      </trkpt>
      <trkpt lat="42.840028" lon="-1.879739">
        <ele>675.208</ele>
        <time>2020-11-05T12:26:12Z</time>
      </trkpt>
      <trkpt lat="42.840013" lon="-1.879807">
        <ele>675.634</ele>
        <time>2020-11-05T12:26:18Z</time>
      </trkpt>
      <trkpt lat="42.839987" lon="-1.879756">
        <ele>675.438</ele>
        <time>2020-11-05T12:26:30Z</time>
      </trkpt>
      <trkpt lat="42.839947" lon="-1.879728">
        <ele>675.348</ele>
        <time>2020-11-05T12:26:38Z</time>
      </trkpt>
      <trkpt lat="42.839905" lon="-1.879696">
        <ele>674.251</ele>
        <time>2020-11-05T12:27:02Z</time>
      </trkpt>
      <trkpt lat="42.839858" lon="-1.879700">
        <ele>673.355</ele>
        <time>2020-11-05T12:27:16Z</time>
      </trkpt>
      <trkpt lat="42.839810" lon="-1.879699">
        <ele>672.410</ele>
        <time>2020-11-05T12:27:22Z</time>
      </trkpt>
      <trkpt lat="42.839759" lon="-1.879698">
        <ele>671.197</ele>
        <time>2020-11-05T12:27:35Z</time>
      </trkpt>
      <trkpt lat="42.839723" lon="-1.879657">
        <ele>670.254</ele>
        <time>2020-11-05T12:27:42Z</time>
      </trkpt>
      <trkpt lat="42.839715" lon="-1.879592">
        <ele>668.953</ele>
        <time>2020-11-05T12:27:53Z</time>
      </trkpt>
      <trkpt lat="42.839743" lon="-1.879527">
        <ele>667.504</ele>
        <time>2020-11-05T12:28:00Z</time>
      </trkpt>
      <trkpt lat="42.839759" lon="-1.879468">
        <ele>666.214</ele>
        <time>2020-11-05T12:28:09Z</time>
      </trkpt>
      <trkpt lat="42.839766" lon="-1.879396">
        <ele>664.908</ele>
        <time>2020-11-05T12:28:17Z</time>
      </trkpt>
      <trkpt lat="42.839730" lon="-1.879356">
        <ele>664.160</ele>
        <time>2020-11-05T12:28:24Z</time>
      </trkpt>
      <trkpt lat="42.839695" lon="-1.879311">
        <ele>663.664</ele>
        <time>2020-11-05T12:28:29Z</time>
      </trkpt>
      <trkpt lat="42.839655" lon="-1.879279">
        <ele>664.134</ele>
        <time>2020-11-05T12:28:53Z</time>
      </trkpt>
      <trkpt lat="42.839605" lon="-1.879312">
        <ele>664.357</ele>
        <time>2020-11-05T12:29:09Z</time>
      </trkpt>
      <trkpt lat="42.839561" lon="-1.879340">
        <ele>664.471</ele>
        <time>2020-11-05T12:29:11Z</time>
      </trkpt>
      <trkpt lat="42.839517" lon="-1.879365">
        <ele>664.396</ele>
        <time>2020-11-05T12:29:13Z</time>
      </trkpt>
      <trkpt lat="42.839460" lon="-1.879381">
        <ele>664.233</ele>
        <time>2020-11-05T12:29:16Z</time>
      </trkpt>
      <trkpt lat="42.839409" lon="-1.879398">
        <ele>664.470</ele>
        <time>2020-11-05T12:29:19Z</time>
      </trkpt>
      <trkpt lat="42.839361" lon="-1.879422">
        <ele>664.655</ele>
        <time>2020-11-05T12:29:23Z</time>
      </trkpt>
      <trkpt lat="42.839337" lon="-1.879478">
        <ele>664.507</ele>
        <time>2020-11-05T12:29:26Z</time>
      </trkpt>
      <trkpt lat="42.839300" lon="-1.879524">
        <ele>664.117</ele>
        <time>2020-11-05T12:29:31Z</time>
      </trkpt>
      <trkpt lat="42.839251" lon="-1.879523">
        <ele>662.008</ele>
        <time>2020-11-05T12:30:09Z</time>
      </trkpt>
      <trkpt lat="42.839271" lon="-1.879455">
        <ele>661.250</ele>
        <time>2020-11-05T12:30:22Z</time>
      </trkpt>
      <trkpt lat="42.839224" lon="-1.879446">
        <ele>661.434</ele>
        <time>2020-11-05T12:30:29Z</time>
      </trkpt>
      <trkpt lat="42.839176" lon="-1.879456">
        <ele>661.144</ele>
        <time>2020-11-05T12:30:35Z</time>
      </trkpt>
      <trkpt lat="42.839131" lon="-1.879443">
        <ele>660.627</ele>
        <time>2020-11-05T12:30:45Z</time>
      </trkpt>
      <trkpt lat="42.839184" lon="-1.879441">
        <ele>660.161</ele>
        <time>2020-11-05T12:31:15Z</time>
      </trkpt>
      <trkpt lat="42.839176" lon="-1.879503">
        <ele>657.146</ele>
        <time>2020-11-05T12:32:12Z</time>
      </trkpt>
      <trkpt lat="42.839219" lon="-1.879464">
        <ele>656.193</ele>
        <time>2020-11-05T12:33:26Z</time>
      </trkpt>
      <trkpt lat="42.839259" lon="-1.879526">
        <ele>654.570</ele>
        <time>2020-11-05T12:34:28Z</time>
      </trkpt>
      <trkpt lat="42.839305" lon="-1.879520">
        <ele>653.673</ele>
        <time>2020-11-05T12:34:44Z</time>
      </trkpt>
      <trkpt lat="42.839270" lon="-1.879475">
        <ele>653.185</ele>
        <time>2020-11-05T12:35:03Z</time>
      </trkpt>
      <trkpt lat="42.839241" lon="-1.879428">
        <ele>652.813</ele>
        <time>2020-11-05T12:35:08Z</time>
      </trkpt>
      <trkpt lat="42.839196" lon="-1.879412">
        <ele>652.808</ele>
        <time>2020-11-05T12:35:24Z</time>
      </trkpt>
      <trkpt lat="42.839149" lon="-1.879419">
        <ele>652.382</ele>
        <time>2020-11-05T12:35:33Z</time>
      </trkpt>
      <trkpt lat="42.839091" lon="-1.879408">
        <ele>651.716</ele>
        <time>2020-11-05T12:35:38Z</time>
      </trkpt>
      <trkpt lat="42.839036" lon="-1.879406">
        <ele>650.956</ele>
        <time>2020-11-05T12:35:42Z</time>
      </trkpt>
      <trkpt lat="42.838994" lon="-1.879380">
        <ele>650.249</ele>
        <time>2020-11-05T12:35:49Z</time>
      </trkpt>
      <trkpt lat="42.839010" lon="-1.879300">
        <ele>651.333</ele>
        <time>2020-11-05T12:36:31Z</time>
      </trkpt>
      <trkpt lat="42.839038" lon="-1.879251">
        <ele>651.928</ele>
        <time>2020-11-05T12:36:36Z</time>
      </trkpt>
      <trkpt lat="42.839045" lon="-1.879339">
        <ele>653.055</ele>
        <time>2020-11-05T12:37:00Z</time>
      </trkpt>
      <trkpt lat="42.838989" lon="-1.879338">
        <ele>652.622</ele>
        <time>2020-11-05T12:37:23Z</time>
      </trkpt>
      <trkpt lat="42.839005" lon="-1.879397">
        <ele>651.158</ele>
        <time>2020-11-05T12:38:06Z</time>
      </trkpt>
      <trkpt lat="42.838972" lon="-1.879352">
        <ele>649.852</ele>
        <time>2020-11-05T12:38:16Z</time>
      </trkpt>
      <trkpt lat="42.838931" lon="-1.879313">
        <ele>648.817</ele>
        <time>2020-11-05T12:38:19Z</time>
      </trkpt>
      <trkpt lat="42.838894" lon="-1.879265">
        <ele>648.508</ele>
        <time>2020-11-05T12:38:21Z</time>
      </trkpt>
      <trkpt lat="42.838851" lon="-1.879219">
        <ele>648.870</ele>
        <time>2020-11-05T12:38:24Z</time>
      </trkpt>
      <trkpt lat="42.838809" lon="-1.879186">
        <ele>649.484</ele>
        <time>2020-11-05T12:38:28Z</time>
      </trkpt>
      <trkpt lat="42.838766" lon="-1.879158">
        <ele>649.924</ele>
        <time>2020-11-05T12:38:32Z</time>
      </trkpt>
      <trkpt lat="42.838735" lon="-1.879107">
        <ele>650.797</ele>
        <time>2020-11-05T12:38:36Z</time>
      </trkpt>
      <trkpt lat="42.838690" lon="-1.879066">
        <ele>651.791</ele>
        <time>2020-11-05T12:38:40Z</time>
      </trkpt>
      <trkpt lat="42.838645" lon="-1.879015">
        <ele>652.636</ele>
        <time>2020-11-05T12:38:46Z</time>
      </trkpt>
      <trkpt lat="42.838609" lon="-1.878976">
        <ele>653.313</ele>
        <time>2020-11-05T12:38:51Z</time>
      </trkpt>
      <trkpt lat="42.838574" lon="-1.878934">
        <ele>653.970</ele>
        <time>2020-11-05T12:39:01Z</time>
      </trkpt>
      <trkpt lat="42.838527" lon="-1.878910">
        <ele>655.548</ele>
        <time>2020-11-05T12:39:15Z</time>
      </trkpt>
      <trkpt lat="42.838477" lon="-1.878906">
        <ele>656.761</ele>
        <time>2020-11-05T12:39:20Z</time>
      </trkpt>
      <trkpt lat="42.838427" lon="-1.878917">
        <ele>657.717</ele>
        <time>2020-11-05T12:39:23Z</time>
      </trkpt>
      <trkpt lat="42.838380" lon="-1.878923">
        <ele>658.308</ele>
        <time>2020-11-05T12:39:26Z</time>
      </trkpt>
      <trkpt lat="42.838333" lon="-1.878919">
        <ele>658.879</ele>
        <time>2020-11-05T12:39:29Z</time>
      </trkpt>
      <trkpt lat="42.838287" lon="-1.878902">
        <ele>659.553</ele>
        <time>2020-11-05T12:39:36Z</time>
      </trkpt>
      <trkpt lat="42.838236" lon="-1.878901">
        <ele>660.653</ele>
        <time>2020-11-05T12:39:47Z</time>
      </trkpt>
      <trkpt lat="42.838190" lon="-1.878912">
        <ele>661.776</ele>
        <time>2020-11-05T12:39:51Z</time>
      </trkpt>
      <trkpt lat="42.838142" lon="-1.878922">
        <ele>662.970</ele>
        <time>2020-11-05T12:39:57Z</time>
      </trkpt>
      <trkpt lat="42.838091" lon="-1.878906">
        <ele>664.165</ele>
        <time>2020-11-05T12:40:05Z</time>
      </trkpt>
      <trkpt lat="42.838044" lon="-1.878889">
        <ele>664.982</ele>
        <time>2020-11-05T12:40:11Z</time>
      </trkpt>
      <trkpt lat="42.837991" lon="-1.878866">
        <ele>665.399</ele>
        <time>2020-11-05T12:40:17Z</time>
      </trkpt>
      <trkpt lat="42.837940" lon="-1.878856">
        <ele>665.575</ele>
        <time>2020-11-05T12:40:20Z</time>
      </trkpt>
      <trkpt lat="42.837875" lon="-1.878850">
        <ele>665.828</ele>
        <time>2020-11-05T12:40:23Z</time>
      </trkpt>
      <trkpt lat="42.837826" lon="-1.878838">
        <ele>666.020</ele>
        <time>2020-11-05T12:40:27Z</time>
      </trkpt>
      <trkpt lat="42.837780" lon="-1.878826">
        <ele>666.208</ele>
        <time>2020-11-05T12:40:31Z</time>
      </trkpt>
      <trkpt lat="42.837733" lon="-1.878817">
        <ele>666.482</ele>
        <time>2020-11-05T12:40:45Z</time>
      </trkpt>
      <trkpt lat="42.837687" lon="-1.878815">
        <ele>666.936</ele>
        <time>2020-11-05T12:40:51Z</time>
      </trkpt>
      <trkpt lat="42.837660" lon="-1.878766">
        <ele>668.396</ele>
        <time>2020-11-05T12:41:13Z</time>
      </trkpt>
      <trkpt lat="42.837680" lon="-1.878707">
        <ele>670.679</ele>
        <time>2020-11-05T12:41:33Z</time>
      </trkpt>
      <trkpt lat="42.837650" lon="-1.878643">
        <ele>671.413</ele>
        <time>2020-11-05T12:41:39Z</time>
      </trkpt>
      <trkpt lat="42.837612" lon="-1.878601">
        <ele>671.338</ele>
        <time>2020-11-05T12:41:44Z</time>
      </trkpt>
      <trkpt lat="42.837564" lon="-1.878557">
        <ele>670.195</ele>
        <time>2020-11-05T12:41:49Z</time>
      </trkpt>
      <trkpt lat="42.837511" lon="-1.878541">
        <ele>668.422</ele>
        <time>2020-11-05T12:41:53Z</time>
      </trkpt>
      <trkpt lat="42.837464" lon="-1.878504">
        <ele>665.726</ele>
        <time>2020-11-05T12:42:12Z</time>
      </trkpt>
      <trkpt lat="42.837417" lon="-1.878497">
        <ele>663.647</ele>
        <time>2020-11-05T12:42:16Z</time>
      </trkpt>
      <trkpt lat="42.837372" lon="-1.878502">
        <ele>662.211</ele>
        <time>2020-11-05T12:42:22Z</time>
      </trkpt>
      <trkpt lat="42.837404" lon="-1.878546">
        <ele>661.308</ele>
        <time>2020-11-05T12:42:37Z</time>
      </trkpt>
      <trkpt lat="42.837451" lon="-1.878540">
        <ele>660.817</ele>
        <time>2020-11-05T12:42:57Z</time>
      </trkpt>
      <trkpt lat="42.837501" lon="-1.878567">
        <ele>660.631</ele>
        <time>2020-11-05T12:43:02Z</time>
      </trkpt>
      <trkpt lat="42.837550" lon="-1.878548">
        <ele>660.761</ele>
        <time>2020-11-05T12:43:07Z</time>
      </trkpt>
      <trkpt lat="42.837603" lon="-1.878543">
        <ele>660.944</ele>
        <time>2020-11-05T12:43:11Z</time>
      </trkpt>
      <trkpt lat="42.837711" lon="-1.878485">
        <ele>661.338</ele>
        <time>2020-11-05T12:43:15Z</time>
      </trkpt>
      <trkpt lat="42.837654" lon="-1.878532">
        <ele>661.633</ele>
        <time>2020-11-05T12:43:16Z</time>
      </trkpt>
      <trkpt lat="42.837767" lon="-1.878445">
        <ele>661.960</ele>
        <time>2020-11-05T12:43:19Z</time>
      </trkpt>
      <trkpt lat="42.837826" lon="-1.878390">
        <ele>662.177</ele>
        <time>2020-11-05T12:43:20Z</time>
      </trkpt>
      <trkpt lat="42.837864" lon="-1.878352">
        <ele>662.559</ele>
        <time>2020-11-05T12:43:26Z</time>
      </trkpt>
      <trkpt lat="42.837916" lon="-1.878353">
        <ele>663.003</ele>
        <time>2020-11-05T12:43:30Z</time>
      </trkpt>
      <trkpt lat="42.837964" lon="-1.878377">
        <ele>663.623</ele>
        <time>2020-11-05T12:43:36Z</time>
      </trkpt>
      <trkpt lat="42.837995" lon="-1.878436">
        <ele>664.408</ele>
        <time>2020-11-05T12:43:44Z</time>
      </trkpt>
      <trkpt lat="42.838037" lon="-1.878506">
        <ele>665.250</ele>
        <time>2020-11-05T12:43:49Z</time>
      </trkpt>
      <trkpt lat="42.838077" lon="-1.878541">
        <ele>665.824</ele>
        <time>2020-11-05T12:43:52Z</time>
      </trkpt>
      <trkpt lat="42.838103" lon="-1.878471">
        <ele>669.054</ele>
        <time>2020-11-05T12:44:46Z</time>
      </trkpt>
      <trkpt lat="42.838090" lon="-1.878410">
        <ele>671.697</ele>
        <time>2020-11-05T12:44:54Z</time>
      </trkpt>
      <trkpt lat="42.838018" lon="-1.878423">
        <ele>673.431</ele>
        <time>2020-11-05T12:44:59Z</time>
      </trkpt>
      <trkpt lat="42.837967" lon="-1.878425">
        <ele>674.496</ele>
        <time>2020-11-05T12:45:03Z</time>
      </trkpt>
      <trkpt lat="42.837920" lon="-1.878411">
        <ele>675.063</ele>
        <time>2020-11-05T12:45:07Z</time>
      </trkpt>
      <trkpt lat="42.837878" lon="-1.878385">
        <ele>675.310</ele>
        <time>2020-11-05T12:45:14Z</time>
      </trkpt>
      <trkpt lat="42.837854" lon="-1.878330">
        <ele>675.637</ele>
        <time>2020-11-05T12:45:18Z</time>
      </trkpt>
      <trkpt lat="42.837881" lon="-1.878387">
        <ele>676.349</ele>
        <time>2020-11-05T12:45:33Z</time>
      </trkpt>
      <trkpt lat="42.837870" lon="-1.878471">
        <ele>677.013</ele>
        <time>2020-11-05T12:45:36Z</time>
      </trkpt>
      <trkpt lat="42.837856" lon="-1.878534">
        <ele>676.808</ele>
        <time>2020-11-05T12:45:42Z</time>
      </trkpt>
      <trkpt lat="42.837835" lon="-1.878590">
        <ele>677.488</ele>
        <time>2020-11-05T12:45:55Z</time>
      </trkpt>
      <trkpt lat="42.837796" lon="-1.878639">
        <ele>677.442</ele>
        <time>2020-11-05T12:46:02Z</time>
      </trkpt>
      <trkpt lat="42.837763" lon="-1.878681">
        <ele>677.222</ele>
        <time>2020-11-05T12:46:06Z</time>
      </trkpt>
      <trkpt lat="42.837719" lon="-1.878700">
        <ele>676.925</ele>
        <time>2020-11-05T12:46:10Z</time>
      </trkpt>
      <trkpt lat="42.837536" lon="-1.878798">
        <ele>676.629</ele>
        <time>2020-11-05T12:46:14Z</time>
      </trkpt>
      <trkpt lat="42.837481" lon="-1.878826">
        <ele>676.324</ele>
        <time>2020-11-05T12:46:16Z</time>
      </trkpt>
      <trkpt lat="42.837540" lon="-1.878817">
        <ele>675.641</ele>
        <time>2020-11-05T12:46:24Z</time>
      </trkpt>
      <trkpt lat="42.837603" lon="-1.878804">
        <ele>674.548</ele>
        <time>2020-11-05T12:46:28Z</time>
      </trkpt>
      <trkpt lat="42.837690" lon="-1.878716">
        <ele>673.276</ele>
        <time>2020-11-05T12:46:34Z</time>
      </trkpt>
      <trkpt lat="42.837645" lon="-1.878666">
        <ele>672.090</ele>
        <time>2020-11-05T12:46:37Z</time>
      </trkpt>
      <trkpt lat="42.837577" lon="-1.878666">
        <ele>670.919</ele>
        <time>2020-11-05T12:46:38Z</time>
      </trkpt>
      <trkpt lat="42.837466" lon="-1.878657">
        <ele>669.808</ele>
        <time>2020-11-05T12:46:40Z</time>
      </trkpt>
      <trkpt lat="42.837300" lon="-1.878660">
        <ele>668.792</ele>
        <time>2020-11-05T12:46:42Z</time>
      </trkpt>
      <trkpt lat="42.837193" lon="-1.878673">
        <ele>667.726</ele>
        <time>2020-11-05T12:46:44Z</time>
      </trkpt>
      <trkpt lat="42.837141" lon="-1.878691">
        <ele>666.966</ele>
        <time>2020-11-05T12:46:46Z</time>
      </trkpt>
      <trkpt lat="42.837099" lon="-1.878739">
        <ele>665.739</ele>
        <time>2020-11-05T12:46:56Z</time>
      </trkpt>
      <trkpt lat="42.837161" lon="-1.878741">
        <ele>664.773</ele>
        <time>2020-11-05T12:47:01Z</time>
      </trkpt>
      <trkpt lat="42.837231" lon="-1.878712">
        <ele>663.948</ele>
        <time>2020-11-05T12:47:03Z</time>
      </trkpt>
    </trkseg>
  </trk></gpx>