{"type":"FeatureCollection","features":[{"type":"Feature","properties":{"ruta_id":"100213190","nombre":"PASARELAS de PANTICOSA","blog_url":"https://www.rutasporelmonte.com/pasarelas-de-panticosa/"},"geometry":{"type":"LineString","coordinates":[[-0.28119,42.722125,1150.293],[-0.281017,42.72201,1150.565],[-0.281002,42.721862,1150.721],[-0.280954,42.72189,1155.909],[-0.280939,42.72211,1153.47],[-0.281007,42.72208,1150.919],[-0.281,42.722125,1151.849],[-0.280977,42.722055,1152.281],[-0.281029,42.72197,1152.29],[-0.281022,42.721895,1163.762],[-0.281,42.72185,1163.73],[-0.280977,42.721807,1179.268],[-0.280964,42.721759,1185.399],[-0.280914,42.721726,1198.837],[-0.280887,42.721684,1208.249],[-0.28086,42.721634,1209.813],[-0.280823,42.721596,1214.809],[-0.280875,42.721559,1221.784],[-0.280848,42.721516,1221.363],[-0.280786,42.721511,1221.353],[-0.280721,42.721511,1221.325],[-0.280659,42.721526,1221.384],[-0.280597,42.721529,1221.346],[-0.280525,42.721524,1221.254],[-0.280452,42.721519,1221.172],[-0.280379,42.721524,1221.153],[-0.280314,42.721522,1220.911],[-0.280242,42.721519,1220.221],[-0.280175,42.721509,1220.103],[-0.280115,42.721522,1219.909],[-0.28005,42.721527,1219.112],[-0.279978,42.721547,1216.911],[-0.279928,42.721582,1216.721],[-0.279885,42.721615,1216.613],[-0.279868,42.721658,1216.782],[-0.27983,42.721695,1217.644],[-0.279813,42.721742,1218.942],[-0.279853,42.721784,1221.03],[-0.279913,42.721799,1223.771],[-0.27997,42.721822,1224.688],[-0.280007,42.721862,1224.524],[-0.280032,42.72191,1224.026],[-0.279984,42.721953,1223.609],[-0.279926,42.721976,1223.279],[-0.279869,42.721999,1223.298],[-0.279812,42.722034,1223.238],[-0.27977,42.722067,1223.57],[-0.279718,42.722092,1223.939],[-0.279665,42.722124,1224.711],[-0.279595,42.722142,1227.129],[-0.279528,42.722154,1228.747],[-0.279463,42.722144,1229.698],[-0.279403,42.722127,1230.848],[-0.279356,42.722094,1231.261],[-0.279296,42.722084,1231.317],[-0.279231,42.722087,1231.509],[-0.279159,42.722094,1232.035],[-0.279096,42.722096,1232.364],[-0.279031,42.722078,1232.734],[-0.278966,42.72207,1233.586],[-0.278889,42.722062,1234.025],[-0.278817,42.722054,1234.287],[-0.278752,42.722057,1234.245],[-0.278689,42.722047,1233.933],[-0.278632,42.722019,1233.674],[-0.278587,42.721987,1233.211],[-0.278512,42.721989,1233.021],[-0.278447,42.721984,1233.103],[-0.278379,42.721999,1233.209],[-0.278311,42.721981,1235.972],[-0.278248,42.721984,1238.221],[-0.278183,42.721997,1239.481],[-0.278126,42.722015,1241.413],[-0.278058,42.722018,1241.872],[-0.277995,42.722005,1242.394],[-0.277933,42.721972,1242.532],[-0.277865,42.721942,1242.68],[-0.277805,42.721925,1242.451],[-0.277748,42.721902,1242.166],[-0.277676,42.72187,1241.929],[-0.277636,42.721835,1241.921],[-0.277559,42.721807,1242.909],[-0.277496,42.721787,1243.697],[-0.277434,42.721775,1243.696],[-0.277369,42.72176,1243.616],[-0.277312,42.721742,1243.668],[-0.277244,42.721735,1243.627],[-0.277174,42.721743,1243.749],[-0.277111,42.721726,1243.797],[-0.277048,42.721726,1243.735],[-0.27699,42.721709,1243.416],[-0.276928,42.721714,1244.132],[-0.276973,42.721746,1247.292],[-0.277028,42.721783,1248.511],[-0.277003,42.721828,1248.909],[-0.277035,42.721878,1250.674],[-0.277078,42.721915,1252.723],[-0.277148,42.721935,1253.053],[-0.277185,42.721978,1253.355],[-0.277253,42.721996,1253.734],[-0.27729,42.722044,1254.566],[-0.277335,42.722077,1256.544],[-0.277392,42.722104,1257.232],[-0.27744,42.722132,1257.213],[-0.277488,42.722177,1257.215],[-0.277538,42.722212,1257.165],[-0.277595,42.722234,1257.111],[-0.277647,42.722261,1256.409],[-0.277714,42.722293,1255.872],[-0.277759,42.72233,1255.731],[-0.277776,42.72238,1255.631],[-0.277816,42.722417,1255.383],[-0.277854,42.722457,1254.242],[-0.277894,42.722495,1254.034],[-0.277949,42.722527,1254.292],[-0.277996,42.722562,1254.31],[-0.278043,42.722602,1254.331],[-0.278086,42.722637,1254.469],[-0.278143,42.722665,1254.504],[-0.278215,42.722687,1254.324],[-0.278245,42.722644,1253.909],[-0.27822,42.722592,1253.087],[-0.278278,42.722567,1250.366],[-0.278321,42.722604,1246.956],[-0.278349,42.722644,1245.278],[-0.278409,42.722629,1245.077],[-0.278474,42.722656,1244.829],[-0.278441,42.722704,1244.327],[-0.278384,42.722731,1242.615],[-0.278322,42.722723,1239.156],[-0.278262,42.722736,1237.155],[-0.278209,42.722769,1236.707],[-0.278149,42.722779,1236.217],[-0.278089,42.722802,1236.109],[-0.278062,42.722847,1236.236],[-0.278029,42.722887,1235.975],[-0.277976,42.722917,1236.575],[-0.277908,42.722922,1238.557],[-0.277845,42.722922,1238.856],[-0.277867,42.722969,1238.928],[-0.27791,42.723067,1239.536],[-0.277927,42.723119,1239.774],[-0.277942,42.723169,1239.795],[-0.277884,42.723154,1239.728],[-0.277832,42.723179,1239.789],[-0.277765,42.723177,1242.317],[-0.277775,42.723225,1242.509],[-0.277753,42.723282,1241.983],[-0.277721,42.723329,1241.632],[-0.277761,42.723366,1241.372],[-0.277771,42.723463,1239.314],[-0.277849,42.723471,1238.833],[-0.277606,42.723491,1239.965],[-0.277484,42.723516,1239.583],[-0.277386,42.723493,1239.411],[-0.277206,42.723511,1238.542],[-0.277116,42.723536,1237.275],[-0.277149,42.723589,1237.228],[-0.277091,42.723749,1229.42],[-0.277303,42.723912,1236.609],[-0.27728,42.723965,1246.288],[-0.27729,42.724018,1246.717],[-0.277263,42.724071,1249.597],[-0.277231,42.724113,1251.379],[-0.277356,42.72432,1254.028],[-0.277313,42.724353,1254.03],[-0.277241,42.724331,1254.678],[-0.277146,42.724309,1254.586],[-0.277044,42.724314,1254.717],[-0.277056,42.724361,1254.857],[-0.277016,42.724404,1255.6],[-0.276956,42.724424,1256.22],[-0.276914,42.724461,1257.709],[-0.276884,42.724511,1258.846],[-0.276836,42.724551,1259.655],[-0.276801,42.724593,1259.655],[-0.276753,42.724623,1259.667],[-0.276721,42.72467,1258.516],[-0.276628,42.72466,1258.778],[-0.276558,42.72467,1259.036],[-0.276503,42.724695,1259.294],[-0.276511,42.724815,1259.485],[-0.276578,42.724812,1259.471],[-0.276631,42.72485,1259.441],[-0.276696,42.724862,1259.415],[-0.276759,42.724857,1270.909],[-0.276822,42.724877,1274.568],[-0.276889,42.724904,1276.127],[-0.276934,42.724936,1276.337],[-0.276979,42.724974,1277.269],[-0.277039,42.725006,1279.428],[-0.277137,42.725041,1282.26],[-0.277132,42.724989,1282.798],[-0.277195,42.724949,1282.776],[-0.277198,42.724899,1283.227],[-0.277208,42.724844,1285.633],[-0.277238,42.724804,1289.223],[-0.277305,42.724817,1289.315],[-0.277357,42.724847,1289.409],[-0.27741,42.72482,1289.694],[-0.27746,42.724792,1290.643],[-0.277378,42.724837,1313.123],[-0.277416,42.724799,1307.065],[-0.277443,42.724757,1298.994],[-0.277495,42.724789,1298.976],[-0.277523,42.724829,1298.984],[-0.27751,42.724876,1298.922],[-0.277522,42.724921,1298.993],[-0.277575,42.724944,1301.622],[-0.277635,42.724926,1307.262],[-0.277657,42.724883,1310.708],[-0.27767,42.724835,1312.009],[-0.277705,42.724795,1312.713],[-0.27774,42.724755,1315.282],[-0.277807,42.724765,1315.542],[-0.277869,42.724763,1316.184],[-0.277869,42.724716,1316.173],[-0.277916,42.724684,1317.065],[-0.277961,42.724647,1320.223],[-0.278029,42.72464,1323.771],[-0.278081,42.724613,1324.142],[-0.278136,42.72459,1324.596],[-0.278186,42.724563,1324.831],[-0.278249,42.724555,1325.624],[-0.278299,42.724523,1327.109],[-0.278371,42.724516,1327.73],[-0.278413,42.724476,1331.449],[-0.278438,42.724518,1334.569],[-0.27846,42.724466,1336.171],[-0.278463,42.724511,1334.49],[-0.278493,42.724553,1334.452],[-0.27846,42.724601,1334.42],[-0.27845,42.724649,1334.488],[-0.27845,42.724699,1332.599],[-0.278448,42.724746,1331.947],[-0.27845,42.724791,1331.429],[-0.278423,42.724833,1331.221],[-0.278405,42.72488,1331.009],[-0.27847,42.72489,1330.695],[-0.278485,42.724937,1329.314],[-0.278465,42.724984,1328.434],[-0.278467,42.725029,1326.486],[-0.278505,42.725066,1323.935],[-0.278547,42.725099,1323.097],[-0.278534,42.725144,1318.665],[-0.278497,42.725184,1316.253],[-0.278467,42.725226,1314.494],[-0.278432,42.725268,1310.633],[-0.27842,42.725313,1309.623],[-0.278378,42.725351,1307.915],[-0.278383,42.725396,1306.909],[-0.278336,42.725426,1306.784],[-0.278306,42.725466,1306.593],[-0.278341,42.725504,1306.393],[-0.278389,42.725536,1306.395],[-0.278454,42.725546,1305.674],[-0.278471,42.725594,1304.686],[-0.278443,42.725639,1303.914],[-0.27847,42.725682,1298.232],[-0.278517,42.725629,1296.363],[-0.27855,42.725591,1296.142],[-0.278595,42.725558,1295.622],[-0.278645,42.72553,1295.614],[-0.278698,42.72549,1295.609],[-0.27876,42.725468,1298.475],[-0.27882,42.72545,1298.454],[-0.27887,42.72542,1298.484],[-0.278917,42.725388,1298.436],[-0.278952,42.725341,1297.115],[-0.279012,42.725308,1296.317],[-0.27906,42.725276,1295.695],[-0.279117,42.725248,1295.353],[-0.279164,42.725213,1294.974],[-0.279197,42.725166,1291.561],[-0.27925,42.725129,1289.121],[-0.279297,42.725096,1288.013],[-0.279364,42.725061,1286.209],[-0.279424,42.725039,1286.167],[-0.279456,42.724997,1286.136],[-0.279504,42.72503,1286.196],[-0.279561,42.72501,1286.088],[-0.279596,42.724972,1284.437],[-0.279621,42.724925,1282.829],[-0.279624,42.72488,1280.847],[-0.279642,42.724837,1280.765],[-0.279657,42.724792,1280.026],[-0.2797,42.724754,1279.539],[-0.279723,42.724711,1279.301],[-0.279771,42.724679,1278.821],[-0.279808,42.724642,1278.609],[-0.279821,42.724597,1277.184],[-0.279866,42.724557,1276.423],[-0.279894,42.724517,1276.423],[-0.279877,42.72447,1276.535],[-0.279859,42.724423,1277.614],[-0.279869,42.724378,1277.696],[-0.279861,42.724325,1277.674],[-0.279886,42.72428,1276.042],[-0.279909,42.724235,1275.683],[-0.279936,42.724187,1274.853],[-0.279981,42.724142,1273.704],[-0.280016,42.724099,1273.514],[-0.280014,42.724054,1273.309],[-0.280022,42.724006,1273.096],[-0.280004,42.723963,1271.585],[-0.280007,42.723918,1269.365],[-0.28007,42.723918,1266.627],[-0.280097,42.72396,1265.276],[-0.280155,42.723987,1264.968],[-0.280207,42.724022,1264.546],[-0.280242,42.72398,1262.334],[-0.280244,42.723928,1260.185],[-0.280249,42.723881,1259.881],[-0.280302,42.723856,1258.361],[-0.280327,42.723781,1257.117],[-0.280349,42.723734,1256.509],[-0.280412,42.723742,1251.989],[-0.280487,42.723737,1251.678],[-0.28055,42.723752,1251.728],[-0.280615,42.723745,1251.75],[-0.280678,42.723735,1251.779],[-0.280748,42.72372,1250.821],[-0.280788,42.723682,1248.739],[-0.28085,42.72366,1245.357],[-0.280923,42.723652,1242.328],[-0.280988,42.723645,1241.095],[-0.281041,42.723615,1240.549],[-0.281099,42.723582,1240.023],[-0.281152,42.723555,1240.009],[-0.2812,42.723523,1240.07],[-0.281265,42.7235,1241.569],[-0.281323,42.72348,1242.399],[-0.281388,42.723468,1243.641],[-0.281456,42.723465,1245.31],[-0.281513,42.723438,1247.982],[-0.281483,42.723378,1249.41],[-0.28155,42.723366,1249.448],[-0.281588,42.723324,1245.449],[-0.281635,42.723282,1245.113],[-0.281653,42.723225,1245.243],[-0.281646,42.723177,1253.807],[-0.281599,42.723135,1253.909],[-0.281552,42.723098,1253.962],[-0.281527,42.723053,1253.851],[-0.281504,42.723008,1250.161],[-0.281501,42.72296,1245.983],[-0.281554,42.722922,1239.772],[-0.281601,42.722885,1238.274],[-0.281658,42.722848,1237.932],[-0.281703,42.722801,1236.87],[-0.281723,42.722751,1236.151],[-0.281735,42.722704,1236.759],[-0.281767,42.722657,1237.003],[-0.281819,42.722622,1237.023],[-0.281851,42.722579,1236.809],[-0.281879,42.722536,1236.266],[-0.281886,42.722489,1235.565],[-0.281888,42.722442,1235.245],[-0.281895,42.722392,1235.037],[-0.281878,42.722337,1234.886],[-0.281855,42.722289,1234.778],[-0.281862,42.722234,1232.836],[-0.281839,42.722189,1232.324],[-0.281834,42.722136,1230.695],[-0.281774,42.722099,1229.983],[-0.281714,42.722089,1228.925],[-0.281646,42.722112,1228.317],[-0.281583,42.722104,1226.109],[-0.281523,42.722082,1226.089],[-0.281466,42.722047,1225.318],[-0.281439,42.721995,1225.268],[-0.281409,42.72195,1223.68],[-0.281357,42.721917,1221.679],[-0.281295,42.721915,1218.451],[-0.281232,42.721932,1215.789],[-0.281174,42.721949,1215.457],[-0.281104,42.721959,1215.478]]}}]}