{"type":"FeatureCollection","features":[{"type":"Feature","properties":{"ruta_id":"103972561","nombre":"TXAMANTXOIA o PUNTA MAZ desde CAMPING de ASOLAZE en ISABA","blog_url":"https://www.rutasporelmonte.com/txamantxoia-desde-asolaze-isaba/"},"geometry":{"type":"LineString","coordinates":[[-0.884322,42.901517,917.461],[-0.884272,42.901545,917.421],[-0.884279,42.901497,919.613],[-0.884307,42.90145,919.009],[-0.884332,42.901495,917.087],[-0.884387,42.901523,909.936],[-0.884324,42.901531,909.499],[-0.884252,42.901524,909.445],[-0.884214,42.901487,909.743],[-0.884156,42.901457,909.638],[-0.884083,42.901455,912.121],[-0.884015,42.901428,915.332],[-0.88395,42.901408,917.177],[-0.883877,42.901396,914.265],[-0.883815,42.901398,913.968],[-0.883748,42.901391,913.314],[-0.883673,42.901373,912.909],[-0.883615,42.901338,912.927],[-0.88355,42.901335,912.916],[-0.883488,42.901313,913.039],[-0.883418,42.901296,915.165],[-0.883355,42.901276,916.063],[-0.883288,42.901243,916.018],[-0.883238,42.901216,916.191],[-0.883166,42.901209,915.432],[-0.883091,42.901217,914.467],[-0.883028,42.901209,913.627],[-0.882961,42.901196,913.168],[-0.882898,42.901194,913.214],[-0.882841,42.901174,913.209],[-0.882763,42.901164,913.673],[-0.882703,42.901151,913.992],[-0.882628,42.901141,914.835],[-0.882561,42.901163,916.611],[-0.882493,42.901141,917.469],[-0.882446,42.901111,917.824],[-0.882376,42.901106,918.157],[-0.882321,42.901084,918.048],[-0.882264,42.901064,917.993],[-0.882201,42.901042,918.034],[-0.882131,42.901025,918.155],[-0.882058,42.901022,917.91],[-0.881998,42.901,917.509],[-0.881935,42.900972,917.364],[-0.881875,42.900955,916.333],[-0.881813,42.900958,915.716],[-0.881751,42.90096,915.022],[-0.881678,42.900957,913.99],[-0.881616,42.900939,913.925],[-0.881554,42.900921,914.088],[-0.881464,42.900869,916.489],[-0.881419,42.900837,919.154],[-0.881344,42.90083,919.829],[-0.881281,42.900815,922.2],[-0.881223,42.900788,922.82],[-0.881161,42.90078,923.609],[-0.881103,42.900757,925.163],[-0.881036,42.900737,926.172],[-0.880981,42.900709,929.145],[-0.880924,42.900689,930.811],[-0.880867,42.900669,930.919],[-0.880794,42.900661,931.814],[-0.880742,42.900634,932.347],[-0.88068,42.900616,931.338],[-0.880642,42.900656,931.373],[-0.880589,42.900624,931.269],[-0.880524,42.900626,930.604],[-0.880451,42.900634,930.624],[-0.880378,42.900631,929.509],[-0.880306,42.900626,929.147],[-0.880236,42.900641,928.826],[-0.880174,42.900633,929.559],[-0.880042,42.900606,934.715],[-0.88008,42.900568,937.253],[-0.880013,42.900573,936.928],[-0.879945,42.900575,937.161],[-0.87987,42.900558,937.252],[-0.879805,42.900551,937.267],[-0.879742,42.900538,939.418],[-0.87967,42.900516,942.898],[-0.879602,42.900513,945.417],[-0.879545,42.900491,947.909],[-0.87948,42.900479,949.952],[-0.879423,42.900499,950.631],[-0.879356,42.900486,951.324],[-0.879291,42.900463,954.99],[-0.879248,42.900423,957.478],[-0.879185,42.900415,958.253],[-0.879122,42.900407,958.416],[-0.879092,42.900364,958.597],[-0.879004,42.900391,958.222],[-0.878937,42.900349,957.046],[-0.878872,42.900334,957.088],[-0.878807,42.900334,957.016],[-0.878745,42.900312,957.009],[-0.878673,42.900307,955.935],[-0.878613,42.900294,957.734],[-0.878543,42.900282,959.237],[-0.878478,42.900272,959.973],[-0.8784,42.90028,960.051],[-0.87834,42.900295,960.296],[-0.878265,42.9003,960.359],[-0.878202,42.900302,961.79],[-0.878144,42.900317,962.845],[-0.878079,42.900339,962.933],[-0.878019,42.900359,964.323],[-0.877939,42.900344,964.815],[-0.877916,42.900296,964.809],[-0.877863,42.900271,964.844],[-0.877803,42.900261,964.943],[-0.87775,42.900221,964.426],[-0.877688,42.900193,964.392],[-0.877616,42.90021,964.73],[-0.877554,42.900207,966.785],[-0.877496,42.900189,970.038],[-0.877443,42.900157,973.899],[-0.877378,42.900177,973.544],[-0.877288,42.900195,974.281],[-0.877223,42.900217,974.161],[-0.87716,42.900219,973.517],[-0.877102,42.900249,973.109],[-0.877017,42.900272,975.249],[-0.876955,42.900284,976.578],[-0.87689,42.900311,977.641],[-0.876825,42.900321,979.467],[-0.876777,42.900351,981.265],[-0.876719,42.900366,982.31],[-0.876662,42.900384,983.363],[-0.87661,42.900414,986.114],[-0.87657,42.900452,987.869],[-0.876508,42.900472,989.131],[-0.876445,42.900502,989.861],[-0.876377,42.900519,991.607],[-0.876312,42.900549,992.909],[-0.876237,42.900562,993.464],[-0.876179,42.90058,994.023],[-0.876121,42.900603,994.986],[-0.876058,42.900628,995.622],[-0.875976,42.900633,996.28],[-0.875913,42.900653,996.775],[-0.875858,42.900681,996.918],[-0.8758,42.900699,997.039],[-0.875755,42.900736,997.314],[-0.875737,42.900784,998.166],[-0.875714,42.900837,1000.329],[-0.875691,42.900892,1000.821],[-0.875646,42.900929,1000.909],[-0.875591,42.900964,1002.257],[-0.875539,42.900991,1002.226],[-0.875484,42.901023,1002.249],[-0.875437,42.901065,1002.055],[-0.875384,42.901097,1001.983],[-0.875342,42.901134,1001.988],[-0.87529,42.901172,1002.031],[-0.875247,42.90121,1002.442],[-0.875172,42.901218,1003.827],[-0.875105,42.90122,1005.075],[-0.875043,42.901245,1005.628],[-0.87498,42.901257,1006.92],[-0.874913,42.901285,1007.009],[-0.874878,42.901323,1007.298],[-0.87484,42.901363,1007.237],[-0.874782,42.901398,1007.25],[-0.874749,42.901443,1007.826],[-0.874727,42.901488,1008.434],[-0.874662,42.901513,1010.339],[-0.874599,42.901543,1010.712],[-0.874544,42.901565,1010.853],[-0.874471,42.901578,1010.758],[-0.874411,42.901593,1010.821],[-0.874369,42.901635,1010.441],[-0.874319,42.901668,1010.405],[-0.874259,42.90169,1010.509],[-0.874217,42.90174,1012.513],[-0.874187,42.901793,1014.612],[-0.87415,42.90184,1015.255],[-0.8741,42.901875,1015.651],[-0.87407,42.90192,1014.139],[-0.874015,42.901967,1013.974],[-0.873977,42.902005,1013.977],[-0.873939,42.902045,1013.988],[-0.873907,42.902085,1014.213],[-0.873845,42.902098,1016.052],[-0.873773,42.902098,1018.053],[-0.873725,42.902135,1019.108],[-0.873742,42.902187,1019.509],[-0.873707,42.902225,1020.036],[-0.873699,42.902283,1020.395],[-0.873681,42.902328,1020.448],[-0.873641,42.902366,1020.954],[-0.873584,42.902389,1021.522],[-0.873521,42.902414,1021.897],[-0.873503,42.902457,1023.24],[-0.873508,42.902505,1024.091],[-0.873516,42.902555,1025.116],[-0.873546,42.902602,1027.191],[-0.873543,42.902649,1028.681],[-0.873461,42.902661,1031.119],[-0.873396,42.902668,1032.709],[-0.873341,42.902703,1034.78],[-0.873281,42.90274,1035.269],[-0.873209,42.902767,1036.332],[-0.873162,42.902807,1040.488],[-0.873117,42.902849,1041.346],[-0.8731,42.902894,1041.411],[-0.87306,42.902932,1041.944],[-0.873047,42.902977,1043.255],[-0.87311,42.903,1046.52],[-0.873177,42.902992,1049.413],[-0.87323,42.90302,1049.743],[-0.873222,42.90308,1050.007],[-0.873212,42.903132,1050.409],[-0.873162,42.903165,1050.422],[-0.873167,42.903215,1051.361],[-0.873139,42.903263,1055.754],[-0.873094,42.9033,1056.82],[-0.873076,42.903343,1057.678],[-0.873043,42.903396,1058.413],[-0.87302,42.903438,1059.776],[-0.872993,42.903486,1059.997],[-0.872983,42.903531,1061.762],[-0.872943,42.903568,1062.618],[-0.87289,42.903601,1062.698],[-0.872852,42.903638,1062.617],[-0.872824,42.903685,1062.209],[-0.872774,42.903715,1061.812],[-0.872712,42.903722,1060.831],[-0.872634,42.90372,1062.184],[-0.872582,42.903678,1062.47],[-0.87252,42.903665,1062.338],[-0.872465,42.903628,1062.113],[-0.872425,42.90359,1062.116],[-0.872378,42.903545,1061.617],[-0.87232,42.903515,1061.212],[-0.872265,42.903482,1061.211],[-0.872195,42.903464,1061.821],[-0.872128,42.903476,1063.403],[-0.872073,42.903499,1064.109],[-0.87201,42.903492,1065.482],[-0.871948,42.90348,1067.261],[-0.87188,42.90346,1068.664],[-0.871822,42.903435,1068.83],[-0.871765,42.903413,1068.928],[-0.87169,42.903415,1069.043],[-0.871623,42.903403,1069.196],[-0.871551,42.903393,1069.287],[-0.871493,42.903368,1069.562],[-0.871445,42.90333,1070.459],[-0.8714,42.903293,1071.103],[-0.871357,42.903256,1071.623],[-0.871317,42.903219,1072.909],[-0.871267,42.903174,1073.446],[-0.871207,42.903141,1073.995],[-0.871157,42.903108,1075.478],[-0.871097,42.903093,1075.584],[-0.871044,42.903058,1077.552],[-0.871004,42.903023,1079.427],[-0.870971,42.902976,1080.68],[-0.870938,42.902934,1082.951],[-0.87089,42.902891,1085.846],[-0.870838,42.902846,1088.622],[-0.87078,42.902813,1089.962],[-0.870742,42.902771,1091.308],[-0.8707,42.902733,1091.409],[-0.870655,42.902698,1091.593],[-0.870578,42.902683,1092.462],[-0.87053,42.902651,1092.835],[-0.870525,42.902586,1093.041],[-0.87048,42.902539,1092.689],[-0.870413,42.902541,1092.834],[-0.870356,42.902513,1094.897],[-0.870296,42.902485,1095.228],[-0.870226,42.902473,1095.973],[-0.870259,42.90252,1100.623],[-0.870291,42.902568,1101.183],[-0.870311,42.902613,1101.211],[-0.870344,42.90266,1103.909],[-0.870367,42.902703,1105.153],[-0.870392,42.902758,1105.822],[-0.870434,42.902813,1105.915],[-0.870467,42.902856,1104.661],[-0.870519,42.902881,1103.269],[-0.870564,42.902913,1102.114],[-0.870609,42.90296,1100.837],[-0.870662,42.902985,1100.728],[-0.870692,42.903025,1100.883],[-0.870722,42.903077,1100.737],[-0.870769,42.903109,1101.949],[-0.870806,42.903159,1102.613],[-0.870804,42.903204,1103.709],[-0.870826,42.903254,1103.914],[-0.870823,42.903299,1103.923],[-0.87084,42.903346,1102.226],[-0.870832,42.903391,1100.952],[-0.870822,42.903441,1098.54],[-0.870909,42.903419,1096.725],[-0.870879,42.903479,1099.038],[-0.870816,42.903471,1103.379],[-0.870796,42.903423,1104.184],[-0.870746,42.903396,1104.855],[-0.870681,42.903389,1105.507],[-0.870604,42.903386,1105.817],[-0.870537,42.903386,1107.109],[-0.870474,42.903366,1107.736],[-0.870431,42.903326,1110.145],[-0.870413,42.903278,1114.448],[-0.870375,42.903231,1116.734],[-0.870313,42.903209,1117.692],[-0.870248,42.903199,1119.947],[-0.870181,42.903196,1120.65],[-0.870118,42.903201,1120.671],[-0.870058,42.903213,1120.356],[-0.869995,42.903223,1119.536],[-0.869933,42.903236,1119.617],[-0.869871,42.903251,1119.618],[-0.869794,42.903254,1120.109],[-0.869734,42.903269,1121.164],[-0.869671,42.903281,1122.953],[-0.869609,42.903278,1125.066],[-0.869537,42.903286,1127.742],[-0.86948,42.903268,1130.06],[-0.869422,42.90325,1132.595],[-0.869362,42.90326,1134.558],[-0.869295,42.903282,1136.069],[-0.869228,42.903287,1137.364],[-0.869166,42.903284,1137.883],[-0.869098,42.903277,1138.725],[-0.86903,42.90327,1139.317],[-0.868965,42.903287,1139.509],[-0.868908,42.903307,1140.159],[-0.868848,42.903317,1141.948],[-0.86878,42.903325,1142.991],[-0.868712,42.903327,1143.797],[-0.868645,42.903342,1145.595],[-0.868585,42.903359,1147.44],[-0.86852,42.903359,1148.893],[-0.868452,42.903372,1150.554],[-0.868394,42.9034,1152.749],[-0.868334,42.903418,1155.379],[-0.868271,42.903433,1157.405],[-0.868173,42.903428,1160.025],[-0.868128,42.903463,1160.009],[-0.868088,42.9035,1160.038],[-0.868033,42.903533,1160.067],[-0.867996,42.903571,1157.05],[-0.867951,42.903609,1156.416],[-0.867926,42.903652,1156.774],[-0.867884,42.903694,1157.959],[-0.867832,42.903719,1158.982],[-0.867795,42.903762,1162.013],[-0.867752,42.903799,1163.288],[-0.867735,42.903852,1164.858],[-0.867718,42.903895,1165.152],[-0.867693,42.90394,1165.417],[-0.86766,42.903987,1166.209],[-0.867625,42.904029,1166.556],[-0.867597,42.904084,1166.715],[-0.867569,42.904132,1166.788],[-0.867544,42.904179,1167.484],[-0.867517,42.904221,1168.062],[-0.867477,42.904256,1172.267],[-0.867417,42.904269,1177.78],[-0.867359,42.904254,1181.461],[-0.867306,42.904229,1184.226],[-0.867254,42.904202,1186.873],[-0.867202,42.904177,1187.885],[-0.867142,42.904165,1188.413],[-0.867077,42.904133,1189.909],[-0.866997,42.90412,1191.788],[-0.866925,42.904118,1193.147],[-0.866858,42.904125,1193.76],[-0.866791,42.904132,1194.956],[-0.866736,42.904167,1196.484],[-0.866659,42.90419,1197.139],[-0.866591,42.904193,1197.512],[-0.866514,42.90421,1197.833],[-0.866446,42.904195,1198.218],[-0.866369,42.904197,1198.974],[-0.866311,42.904179,1200.256],[-0.866249,42.904176,1201.221],[-0.866179,42.904169,1202.109],[-0.866114,42.904169,1202.768],[-0.866051,42.904166,1203.897],[-0.865991,42.904153,1205.56],[-0.865914,42.904106,1207.566],[-0.865847,42.904093,1208.624],[-0.865757,42.90407,1211.099],[-0.865692,42.904062,1212.842],[-0.865617,42.904054,1214.913],[-0.865554,42.904051,1216.118],[-0.865494,42.904023,1219.082],[-0.865427,42.904011,1220.943],[-0.865365,42.903999,1222.717],[-0.8653,42.904017,1224.409],[-0.86524,42.904029,1226.039],[-0.865183,42.904009,1227.268],[-0.86513,42.903984,1228.521],[-0.865068,42.903972,1228.837],[-0.865003,42.903984,1229.545],[-0.864926,42.903987,1230.17],[-0.864846,42.903994,1231.693],[-0.864776,42.904016,1232.324],[-0.864714,42.904016,1232.649],[-0.864651,42.904028,1234.196],[-0.864604,42.90407,1234.931],[-0.864559,42.904107,1235.424],[-0.864509,42.904144,1237.009],[-0.864456,42.904179,1237.72],[-0.864411,42.904232,1239.099],[-0.864376,42.904282,1239.722],[-0.864263,42.904275,1240.588],[-0.864168,42.90426,1242.716],[-0.864088,42.904263,1243.361],[-0.864026,42.904273,1243.364],[-0.863959,42.904263,1243.315],[-0.863887,42.904268,1243.27],[-0.86383,42.90429,1241.974],[-0.863767,42.904293,1239.256],[-0.863705,42.90427,1238.821],[-0.863633,42.904272,1238.609],[-0.863561,42.904305,1238.568],[-0.863504,42.904325,1238.697],[-0.863471,42.904367,1238.66],[-0.863423,42.904395,1238.686],[-0.863368,42.904417,1239.214],[-0.863316,42.904442,1241.459],[-0.863304,42.90449,1243.812],[-0.863266,42.904532,1246.083],[-0.863216,42.904567,1247.498],[-0.863163,42.904597,1249.383],[-0.863101,42.904619,1250.925],[-0.863016,42.904659,1254.817],[-0.862961,42.904689,1255.609],[-0.862906,42.904719,1252.339],[-0.862849,42.904754,1252.378],[-0.862797,42.904782,1252.381],[-0.862775,42.904829,1252.397],[-0.862745,42.904871,1251.135],[-0.862698,42.904903,1254.22],[-0.862655,42.904936,1254.473],[-0.862595,42.904954,1254.644],[-0.862548,42.904991,1254.759],[-0.862486,42.904993,1254.672],[-0.862429,42.905021,1254.613],[-0.862389,42.905058,1254.714],[-0.862324,42.90506,1254.809],[-0.862259,42.905053,1255.028],[-0.862167,42.905043,1257.487],[-0.862102,42.905043,1260.06],[-0.862032,42.905035,1263.876],[-0.861969,42.905053,1266.644],[-0.861907,42.905063,1269.269],[-0.86184,42.90507,1271.482],[-0.861778,42.90507,1273.363],[-0.861716,42.90507,1275.658],[-0.861756,42.905113,1279.893],[-0.861784,42.905168,1281.465],[-0.861782,42.905215,1281.721],[-0.861749,42.905255,1281.709],[-0.861702,42.905288,1281.71],[-0.86166,42.905323,1281.919],[-0.8616,42.905336,1283.742],[-0.861568,42.905284,1283.738],[-0.86132,42.905262,1279.756],[-0.861242,42.9052,1277.241],[-0.861119,42.905178,1275.444],[-0.861061,42.905158,1274.275],[-0.860998,42.905173,1272.54],[-0.86094,42.905158,1270.746],[-0.860877,42.905145,1269.488],[-0.860787,42.905108,1268.016],[-0.860725,42.905125,1266.909],[-0.860667,42.905158,1266.125],[-0.86059,42.905171,1265.984],[-0.860528,42.905196,1265.947],[-0.860481,42.905229,1266.233],[-0.860464,42.905292,1266.571],[-0.860412,42.905324,1267.116],[-0.860357,42.905361,1268.759],[-0.860289,42.905398,1271.06],[-0.860246,42.905433,1275.355],[-0.860186,42.90547,1277.347],[-0.859778,42.906063,1273.529],[-0.85956,42.906086,1277.121],[-0.859463,42.906079,1288.309],[-0.859386,42.906094,1291.835],[-0.859321,42.906109,1293.694],[-0.859251,42.906111,1294.717],[-0.859184,42.906129,1296.823],[-0.859107,42.906137,1298.421],[-0.859035,42.906145,1299.546],[-0.858965,42.906143,1302.959],[-0.8589,42.90615,1304.38],[-0.858835,42.906167,1306.815],[-0.858767,42.906187,1309.416],[-0.858705,42.906204,1311.676],[-0.858633,42.906231,1313.013],[-0.85856,42.906239,1314.209],[-0.858497,42.906229,1315.572],[-0.858439,42.906257,1316.951],[-0.858379,42.90624,1318.024],[-0.858319,42.906263,1318.39],[-0.858249,42.906283,1318.378],[-0.858189,42.906295,1318.523],[-0.858124,42.906323,1319.276],[-0.858067,42.906341,1319.817],[-0.858002,42.906354,1320.742],[-0.857925,42.906364,1321.381],[-0.857858,42.906446,1321.961],[-0.857805,42.906476,1325.317],[-0.857777,42.906434,1340.809],[-0.857712,42.906426,1340.639],[-0.857644,42.906431,1336.438],[-0.857582,42.906441,1334.991],[-0.857509,42.906449,1334.077],[-0.857436,42.906472,1333.085],[-0.857374,42.906509,1331.83],[-0.857309,42.906524,1331.873],[-0.857249,42.906542,1331.834],[-0.857191,42.906567,1332.169],[-0.857126,42.906585,1332.936],[-0.857063,42.906605,1334.217],[-0.85702,42.90664,1335.418],[-0.856987,42.90668,1337.209],[-0.856944,42.906717,1338.834],[-0.856901,42.906759,1340.043],[-0.856861,42.906799,1340.946],[-0.856823,42.906836,1341.692],[-0.856766,42.906874,1343.09],[-0.856706,42.906897,1345.485],[-0.856641,42.90689,1346.688],[-0.856568,42.906908,1348.199],[-0.856513,42.906936,1349.524],[-0.856443,42.906943,1350.512],[-0.856378,42.906951,1351.832],[-0.856313,42.906944,1358.005],[-0.856245,42.906951,1358.209],[-0.856185,42.906968,1358.462],[-0.85615,42.907006,1358.491],[-0.856092,42.907028,1358.434],[-0.856032,42.907045,1358.48],[-0.855967,42.907048,1359.718],[-0.855895,42.907048,1361.053],[-0.855837,42.907023,1362.326],[-0.855774,42.90702,1363.687],[-0.855711,42.907018,1365.112],[-0.855646,42.907035,1366.342],[-0.855586,42.907022,1367.822],[-0.855528,42.907007,1369.714],[-0.855455,42.907009,1370.709],[-0.855388,42.906997,1372.335],[-0.855328,42.90698,1373.654],[-0.855275,42.906957,1375.547],[-0.855213,42.906937,1377.183],[-0.855151,42.90692,1378.511],[-0.855091,42.90693,1379.756],[-0.855039,42.906902,1380.789],[-0.854996,42.906865,1382.06],[-0.854956,42.90683,1383.265],[-0.854894,42.906813,1385.658],[-0.854844,42.906786,1387.952],[-0.854784,42.906754,1390.117],[-0.854717,42.906747,1394.709],[-0.854657,42.906734,1396.356],[-0.854594,42.906749,1396.765],[-0.854527,42.906726,1397.448],[-0.854464,42.906709,1398.464],[-0.854391,42.906704,1398.792],[-0.854328,42.906692,1398.757],[-0.854256,42.906685,1399.03],[-0.854189,42.906698,1399.361],[-0.854114,42.906691,1400.686],[-0.854041,42.906693,1401.935],[-0.853976,42.906701,1404.486],[-0.853911,42.906704,1406.214],[-0.853849,42.906709,1406.809],[-0.853779,42.906722,1407.654],[-0.853712,42.90672,1407.953],[-0.853645,42.906725,1408.476],[-0.853577,42.906742,1408.922],[-0.853509,42.906755,1409.01],[-0.853446,42.906753,1409.165],[-0.853381,42.906755,1409.268],[-0.853318,42.906762,1409.429],[-0.85325,42.90674,1411.414],[-0.853215,42.906778,1413.078],[-0.85315,42.906766,1411.733],[-0.853123,42.906724,1411.726],[-0.853068,42.906696,1416.709],[-0.853073,42.906646,1416.768],[-0.853001,42.906633,1416.867],[-0.852946,42.90661,1416.71],[-0.852893,42.906583,1415.716],[-0.852806,42.906568,1415.754],[-0.852741,42.906578,1415.769],[-0.852674,42.906571,1420.972],[-0.852606,42.906589,1423.623],[-0.852543,42.906581,1424.158],[-0.852478,42.906579,1424.432],[-0.852411,42.906574,1425.492],[-0.852351,42.906559,1425.711],[-0.852283,42.906554,1425.909],[-0.852218,42.906542,1426.034],[-0.85216,42.906525,1426.353],[-0.852088,42.90653,1426.556],[-0.852016,42.90652,1426.572],[-0.851951,42.906508,1426.61],[-0.851888,42.906531,1427.395],[-0.851826,42.906539,1427.758],[-0.851758,42.906544,1430.579],[-0.851693,42.906519,1432.314],[-0.851626,42.906536,1434.093],[-0.851563,42.906523,1435.965],[-0.851498,42.906525,1438.021],[-0.851418,42.906538,1439.609],[-0.851373,42.906573,1443.01],[-0.85131,42.906581,1443.739],[-0.851242,42.906583,1445.232],[-0.851189,42.90661,1449.448],[-0.851124,42.906618,1449.476],[-0.851062,42.906611,1451.531],[-0.851009,42.906651,1452.244],[-0.850941,42.906661,1452.735],[-0.850849,42.906634,1452.97],[-0.850791,42.906607,1453.994],[-0.850714,42.906592,1453.957],[-0.850632,42.906595,1457.422],[-0.850555,42.906612,1464.909],[-0.850495,42.906624,1466.13],[-0.850442,42.906647,1467.589],[-0.850384,42.906669,1468.052],[-0.850319,42.906689,1469.028],[-0.850256,42.906692,1471.916],[-0.850249,42.90674,1478.041],[-0.850194,42.90677,1479.284],[-0.850071,42.906803,1482.475],[-0.850009,42.906811,1483.49],[-0.849962,42.906841,1488.831],[-0.849892,42.906836,1492.561],[-0.84984,42.906863,1494.307],[-0.849768,42.906913,1496.209],[-0.849695,42.906925,1496.154],[-0.849633,42.906895,1496.453],[-0.849566,42.906902,1497.766],[-0.849499,42.906905,1500.282],[-0.849419,42.906898,1501.68],[-0.849359,42.906876,1503.225],[-0.849299,42.906863,1504.478],[-0.849237,42.906851,1504.589],[-0.849167,42.906831,1506.474],[-0.849114,42.906803,1516.276],[-0.849042,42.906808,1519.79],[-0.848987,42.906786,1522.019],[-0.848917,42.906774,1522.009],[-0.848862,42.906752,1524.478],[-0.8488,42.906744,1525.747],[-0.848742,42.906714,1527.65],[-0.848685,42.906686,1528.976],[-0.848608,42.906686,1528.094],[-0.848555,42.906659,1528.449],[-0.848502,42.906636,1528.462],[-0.848435,42.906619,1528.423],[-0.848365,42.906606,1531.318],[-0.848302,42.906574,1534.249],[-0.848249,42.906549,1536.902],[-0.848184,42.906536,1538.922],[-0.848122,42.906543,1539.709],[-0.848117,42.906588,1539.545],[-0.848055,42.906578,1539.944],[-0.847995,42.906558,1542.477],[-0.847937,42.906573,1544.863],[-0.847864,42.90658,1547.591],[-0.847797,42.906592,1547.946],[-0.84773,42.906597,1548.219],[-0.847663,42.90659,1548.75],[-0.847603,42.906567,1549.525],[-0.847548,42.906594,1552.697],[-0.847488,42.906604,1553.123],[-0.847426,42.906617,1554.525],[-0.847364,42.906619,1555.009],[-0.847296,42.906617,1554.25],[-0.847229,42.906629,1555.549],[-0.847166,42.906639,1556.262],[-0.847106,42.906654,1558.878],[-0.847048,42.906671,1559.776],[-0.846986,42.906668,1561.531],[-0.846921,42.906665,1564.174],[-0.846854,42.90667,1566.995],[-0.846782,42.906657,1569.78],[-0.846712,42.906667,1571.666],[-0.84665,42.906667,1572.129],[-0.846595,42.906687,1574.921],[-0.846528,42.906709,1579.809],[-0.846468,42.906729,1581.067],[-0.846406,42.906734,1581.086],[-0.846353,42.906762,1581.049],[-0.846286,42.906772,1582.285],[-0.846236,42.906802,1584.593],[-0.846176,42.906827,1587.118],[-0.846148,42.906869,1588.141],[-0.846085,42.906882,1589.512],[-0.84602,42.906895,1594.997],[-0.845963,42.906913,1596.383],[-0.845898,42.90692,1596.325],[-0.845835,42.90694,1596.617],[-0.845745,42.90695,1599.609],[-0.845683,42.906953,1604.979],[-0.845616,42.906955,1605.718],[-0.845551,42.906952,1606.221],[-0.845484,42.906947,1606.817],[-0.845421,42.906954,1607.145],[-0.845359,42.906972,1609.69],[-0.845296,42.906989,1611.173],[-0.845226,42.906996,1613.634],[-0.845153,42.907003,1615.529],[-0.84509,42.907015,1617.534],[-0.845033,42.907037,1618.055],[-0.84496,42.907034,1618.51],[-0.844897,42.907032,1619.809],[-0.844835,42.907042,1622.414],[-0.844772,42.907059,1623.633],[-0.844709,42.907061,1624.636],[-0.844644,42.907078,1624.682],[-0.844579,42.907096,1624.72],[-0.844517,42.907099,1624.815],[-0.84446,42.907127,1624.928],[-0.844388,42.907127,1625.169],[-0.844326,42.907129,1625.424],[-0.844271,42.907149,1626.691],[-0.844209,42.907151,1628.681],[-0.844157,42.907179,1630.019],[-0.8441,42.907157,1632.309],[-0.844043,42.907134,1634.84],[-0.843981,42.907151,1637.019],[-0.843933,42.907183,1640.652],[-0.843936,42.90723,1641.868],[-0.843938,42.907278,1642.316],[-0.843946,42.907325,1642.331],[-0.843881,42.907342,1642.854],[-0.843873,42.907387,1647.565],[-0.843853,42.907434,1649.41],[-0.84382,42.907474,1651.495],[-0.843778,42.907509,1653.249],[-0.843741,42.907554,1655.123],[-0.843674,42.907576,1659.109],[-0.843632,42.907614,1659.47],[-0.843594,42.907654,1659.439],[-0.843546,42.907691,1659.762],[-0.843499,42.907724,1661.098],[-0.843441,42.907754,1663.316],[-0.843384,42.907781,1665.091],[-0.843334,42.907813,1668.194],[-0.843266,42.90781,1669.635],[-0.843196,42.907805,1670.99],[-0.843124,42.907803,1670.939],[-0.843052,42.90781,1670.901],[-0.84299,42.907827,1670.621],[-0.842925,42.907857,1670.909],[-0.842862,42.907865,1671.044],[-0.84279,42.907863,1672.433],[-0.842722,42.907856,1674.386],[-0.842657,42.907841,1675.672],[-0.842592,42.907829,1677.02],[-0.842557,42.907871,1682.295],[-0.84254,42.907921,1682.178],[-0.8425,42.907966,1682.649],[-0.842563,42.907966,1683.614],[-0.8426,42.908003,1683.627],[-0.842572,42.908043,1684.168],[-0.8425,42.908063,1684.514],[-0.842445,42.908085,1688.309],[-0.842378,42.908093,1691.123],[-0.842316,42.908098,1692.112],[-0.842246,42.908098,1693.915],[-0.842178,42.908105,1695.181],[-0.842111,42.908095,1695.419],[-0.842044,42.9081,1695.664],[-0.841982,42.908112,1696.757],[-0.841915,42.908119,1699.628],[-0.841848,42.908119,1700.983],[-0.841781,42.908134,1704.661],[-0.841716,42.908127,1707.121],[-0.841653,42.90813,1709.813],[-0.841581,42.90814,1711.009],[-0.841528,42.908173,1711.487],[-0.841598,42.908183,1713.246],[-0.841535,42.90816,1714.159],[-0.841475,42.90818,1714.775],[-0.841413,42.908185,1715.033],[-0.841348,42.908195,1715.528],[-0.841288,42.908208,1715.421],[-0.841225,42.908206,1715.442],[-0.841153,42.908204,1715.977],[-0.84109,42.908196,1716.747],[-0.841008,42.908209,1717.229],[-0.840948,42.908234,1718.221],[-0.840881,42.908231,1718.309],[-0.840814,42.908236,1718.655],[-0.840751,42.908234,1718.984],[-0.840686,42.908234,1719.897],[-0.840624,42.908222,1720.463],[-0.840556,42.908234,1720.951],[-0.840484,42.908239,1721.846],[-0.840422,42.908257,1723.879],[-0.84037,42.908282,1724.48],[-0.840318,42.908307,1724.535],[-0.840251,42.90832,1726.176],[-0.840191,42.908347,1726.69],[-0.840136,42.908369,1727.119],[-0.840073,42.908376,1728.109],[-0.840003,42.908376,1729.198],[-0.839935,42.908393,1729.337],[-0.839865,42.908395,1729.78],[-0.839798,42.908385,1731.746],[-0.839735,42.908372,1732.814],[-0.83967,42.908369,1734.189],[-0.839595,42.908367,1735.132],[-0.839532,42.908369,1737.173],[-0.83946,42.908362,1737.458],[-0.839395,42.908354,1737.642],[-0.839323,42.908354,1737.722],[-0.839251,42.908349,1738.014],[-0.839178,42.908347,1739.009],[-0.839115,42.908349,1740.325],[-0.839045,42.908354,1740.864],[-0.83898,42.908356,1742.187],[-0.838907,42.908361,1743.553],[-0.838844,42.908354,1744.941],[-0.838782,42.908349,1745.226],[-0.838719,42.908347,1745.529],[-0.838649,42.908355,1746.98],[-0.838586,42.90836,1748.315],[-0.838521,42.908353,1748.588],[-0.838456,42.908348,1748.924],[-0.838394,42.908341,1749.126],[-0.838331,42.908331,1749.309],[-0.838266,42.908338,1750.169],[-0.838204,42.908341,1752.018],[-0.838139,42.908338,1753.741],[-0.838077,42.908335,1755.047],[-0.838007,42.908337,1756.385],[-0.837937,42.908349,1757.11],[-0.837869,42.908351,1758.173],[-0.837806,42.908363,1759.854],[-0.837741,42.908361,1760.549],[-0.837674,42.908354,1761.824],[-0.837596,42.908344,1762.904],[-0.837528,42.908339,1763.814],[-0.837463,42.908341,1764.009],[-0.837393,42.908351,1764.943],[-0.837331,42.908366,1765.932],[-0.837279,42.908391,1766.525],[-0.837221,42.908421,1767.891],[-0.837153,42.908426,1768.759],[-0.83709,42.908436,1769.074],[-0.837022,42.908436,1769.367],[-0.836954,42.908459,1771.268],[-0.836886,42.908447,1772.523],[-0.836818,42.908442,1772.518],[-0.836746,42.90846,1772.598],[-0.836684,42.908452,1772.517],[-0.836614,42.908445,1772.509],[-0.836554,42.908433,1773.342],[-0.836489,42.908421,1773.631],[-0.836426,42.908424,1774.954],[-0.836364,42.908431,1775.16],[-0.836301,42.908424,1775.738],[-0.836233,42.908422,1776.093],[-0.836173,42.908407,1776.346],[-0.836113,42.908394,1777.237],[-0.83605,42.908402,1778.372],[-0.835982,42.908389,1778.712],[-0.835922,42.908372,1779.332],[-0.835857,42.908362,1780.305],[-0.835785,42.908354,1780.709],[-0.835722,42.908349,1780.722],[-0.83565,42.908342,1781.121],[-0.835585,42.908339,1781.194],[-0.835517,42.908329,1781.74],[-0.83545,42.908326,1782.548],[-0.835382,42.908313,1783.133],[-0.835317,42.908303,1784.216],[-0.835252,42.90829,1785.367],[-0.83519,42.908282,1787.112],[-0.835132,42.908264,1789.029],[-0.835065,42.908237,1789.4],[-0.834995,42.908217,1789.82],[-0.83493,42.908204,1790.609],[-0.834873,42.908174,1790.993],[-0.834811,42.908157,1791.232],[-0.834751,42.908144,1791.585],[-0.834698,42.908121,1792.731],[-0.834633,42.908116,1794.089],[-0.834573,42.908094,1795.254],[-0.834515,42.908069,1795.527],[-0.834448,42.908052,1795.778],[-0.834388,42.908039,1795.723],[-0.834323,42.908021,1795.987],[-0.834248,42.908024,1796.842],[-0.834178,42.908029,1797.026],[-0.834106,42.908014,1797.209],[-0.834031,42.907994,1797.359],[-0.833963,42.907981,1797.538],[-0.833901,42.907976,1798.031],[-0.833836,42.907966,1798.837],[-0.833764,42.907969,1800.125],[-0.833692,42.907962,1800.64],[-0.833635,42.907944,1801.043],[-0.83358,42.907924,1801.564],[-0.833507,42.907906,1802.119],[-0.833449,42.907891,1802.285],[-0.833384,42.907869,1802.489],[-0.833324,42.907847,1803.217],[-0.833269,42.90782,1804.509],[-0.833206,42.907805,1805.089],[-0.833154,42.907762,1805.748],[-0.833107,42.907714,1806.611],[-0.833067,42.907672,1807.867],[-0.833034,42.907632,1808.485],[-0.833012,42.907587,1809.32],[-0.832949,42.907549,1809.643],[-0.832896,42.907507,1809.974],[-0.832858,42.907462,1811.649],[-0.83282,42.907425,1812.443],[-0.832783,42.907378,1812.964],[-0.832731,42.907341,1813.11],[-0.832676,42.907301,1813.309],[-0.832626,42.907263,1813.615],[-0.832579,42.907223,1814.344],[-0.832532,42.907191,1814.617],[-0.832469,42.907153,1815.193],[-0.832414,42.90712,1815.621],[-0.832357,42.907093,1816.516],[-0.832299,42.907061,1816.949],[-0.832261,42.907019,1817.28],[-0.832213,42.906986,1817.245],[-0.832171,42.906951,1817.252],[-0.832128,42.906918,1817.053],[-0.832071,42.906886,1816.908],[-0.832009,42.906853,1816.909],[-0.831949,42.906836,1817.226],[-0.831882,42.906829,1817.675],[-0.831819,42.906822,1817.878],[-0.831754,42.90681,1817.844],[-0.831689,42.906808,1817.922],[-0.831632,42.906785,1818.127],[-0.831574,42.906765,1818.82],[-0.831522,42.90673,1819.341],[-0.831485,42.90669,1819.656],[-0.831433,42.906657,1819.662],[-0.83138,42.906632,1819.683],[-0.831313,42.90661,1819.611],[-0.831245,42.90659,1818.809],[-0.831175,42.90657,1818.667],[-0.831105,42.906548,1818.496],[-0.831038,42.906528,1818.499],[-0.830976,42.906513,1818.415],[-0.830908,42.906493,1818.933],[-0.83084,42.906473,1819.018],[-0.830777,42.906456,1819.111],[-0.830719,42.906438,1820.042],[-0.830659,42.906418,1820.637],[-0.830601,42.906388,1821.393],[-0.830538,42.90636,1821.465],[-0.830475,42.90635,1821.421],[-0.830422,42.906322,1821.209],[-0.830365,42.906285,1820.75],[-0.83032,42.90625,1819.949],[-0.830252,42.906233,1819.992],[-0.830185,42.906208,1820.088],[-0.83012,42.906185,1820.136],[-0.83005,42.906177,1820.141],[-0.829982,42.906152,1820.384],[-0.829914,42.906125,1821.295],[-0.829851,42.906113,1821.61],[-0.829789,42.906088,1822.258],[-0.829722,42.906056,1822.552],[-0.829667,42.906026,1823.617],[-0.829615,42.905986,1825.009],[-0.829562,42.905953,1825.686],[-0.82949,42.90593,1826.835],[-0.829435,42.905908,1828.998],[-0.829368,42.905883,1829.654],[-0.829311,42.905858,1830.252],[-0.829261,42.90582,1830.327],[-0.829209,42.90579,1830.42],[-0.829162,42.905752,1830.661],[-0.829107,42.905722,1830.486],[-0.829054,42.905689,1830.369],[-0.829014,42.905652,1830.304],[-0.828971,42.905614,1830.324],[-0.828926,42.905574,1830.109],[-0.828854,42.905562,1830.127],[-0.828812,42.90552,1830.286],[-0.828757,42.905495,1830.429],[-0.8287,42.905473,1830.935],[-0.828647,42.90545,1832.723],[-0.82858,42.90544,1834.138],[-0.828532,42.90541,1835.121],[-0.828487,42.905378,1835.132],[-0.82843,42.905335,1835.197],[-0.828372,42.905303,1834.368],[-0.82831,42.905281,1834.342],[-0.828248,42.905253,1834.326],[-0.82819,42.905233,1834.409],[-0.82813,42.905203,1834.767],[-0.828063,42.905173,1835.346],[-0.828005,42.905138,1835.589],[-0.827958,42.905105,1836.115],[-0.827901,42.905082,1836.673],[-0.827839,42.905062,1837.378],[-0.827781,42.905027,1838.491],[-0.827729,42.905002,1838.712],[-0.827652,42.904999,1838.997],[-0.827585,42.904996,1839.318],[-0.827528,42.904973,1840.098],[-0.827473,42.904948,1841.017],[-0.827421,42.904921,1841.009],[-0.827364,42.904893,1841.032],[-0.827316,42.904865,1841.121],[-0.827253,42.904835,1841.464],[-0.827195,42.904807,1841.42],[-0.827132,42.904777,1841.898],[-0.827082,42.904742,1843.043],[-0.827039,42.904707,1844.476],[-0.826997,42.904662,1845.177],[-0.826952,42.904629,1847.112],[-0.826915,42.904586,1849.975],[-0.826877,42.904543,1851.428],[-0.826825,42.904508,1853.22],[-0.826778,42.904478,1855.109],[-0.826716,42.904455,1856.068],[-0.826654,42.904443,1856.357],[-0.826596,42.904428,1857.33],[-0.826578,42.904473,1857.876],[-0.826626,42.904443,1860.074],[-0.826574,42.904406,1860.419],[-0.826506,42.904389,1860.442],[-0.826433,42.904404,1860.413],[-0.826368,42.904382,1860.128],[-0.826306,42.904364,1856.282],[-0.826243,42.904347,1855.443],[-0.826188,42.904322,1855.417],[-0.826123,42.904292,1855.409],[-0.826058,42.904264,1855.359],[-0.826015,42.904221,1855.128],[-0.825962,42.904198,1854.571],[-0.825904,42.90418,1854.377],[-0.825842,42.904163,1854.415],[-0.82578,42.904138,1854.33],[-0.825727,42.90411,1854.543],[-0.825655,42.904093,1854.414],[-0.825612,42.904055,1854.449],[-0.82555,42.904037,1853.451],[-0.825492,42.904007,1853.201],[-0.825427,42.903962,1853.211],[-0.825445,42.903909,1854.309],[-0.82545,42.903861,1854.336],[-0.825437,42.903813,1854.145],[-0.825394,42.903771,1852.338],[-0.825336,42.903746,1849.464],[-0.825271,42.903723,1847.542],[-0.825218,42.90369,1846.237],[-0.825173,42.903658,1846.14],[-0.82511,42.903623,1846.121],[-0.825047,42.903605,1846.426],[-0.824985,42.903593,1847.729],[-0.824928,42.903565,1849.9],[-0.82487,42.903538,1851.02],[-0.824815,42.903508,1851.009],[-0.82476,42.903481,1851.023],[-0.824712,42.903449,1851.162],[-0.824655,42.903421,1851.125],[-0.824605,42.903384,1851.311],[-0.824553,42.903354,1852.839],[-0.824496,42.903331,1854.144],[-0.824438,42.903306,1854.827],[-0.824386,42.903278,1854.838],[-0.824323,42.903258,1854.913],[-0.824273,42.903228,1854.921],[-0.824211,42.903215,1855.041],[-0.824151,42.903203,1855.105],[-0.824083,42.903191,1855.209],[-0.82403,42.903168,1855.333],[-0.823967,42.90315,1855.392],[-0.82389,42.903138,1855.315],[-0.823818,42.903123,1854.691],[-0.823746,42.903103,1854.499],[-0.823678,42.90307,1854.044],[-0.823618,42.903037,1853.267],[-0.823568,42.90301,1852.318],[-0.823513,42.90299,1850.733],[-0.823463,42.902953,1849.978],[-0.8234,42.902928,1850.033],[-0.823348,42.902898,1850.026],[-0.823288,42.90286,1850.209],[-0.823263,42.902808,1851.068],[-0.82325,42.902755,1851.417],[-0.82321,42.90272,1852.47],[-0.823153,42.9027,1852.726],[-0.823086,42.90271,1852.944],[-0.823013,42.902707,1853.249],[-0.822945,42.902712,1854.782],[-0.822877,42.902697,1856.113],[-0.822814,42.902685,1856.968],[-0.822741,42.90268,1857.144],[-0.822674,42.902678,1857.205],[-0.822606,42.902666,1857.415],[-0.822533,42.902663,1857.809],[-0.82246,42.902653,1858.015],[-0.822392,42.902648,1858.114],[-0.82233,42.902651,1858.557],[-0.822267,42.902649,1861.053],[-0.822202,42.902644,1862.391],[-0.822135,42.902629,1862.966],[-0.822067,42.902617,1863.489],[-0.821997,42.90261,1864.33],[-0.821942,42.90259,1865.095],[-0.821879,42.902593,1865.615],[-0.821819,42.902581,1867.665],[-0.821757,42.902579,1868.211],[-0.821689,42.902574,1869.709],[-0.821619,42.902567,1871.952],[-0.821557,42.902567,1872.021],[-0.821489,42.902562,1872.254],[-0.821426,42.902545,1872.98],[-0.821348,42.902538,1873.388],[-0.821286,42.902536,1874.793],[-0.821219,42.902546,1875.826],[-0.821159,42.902534,1876.687],[-0.821092,42.902527,1877.152],[-0.82102,42.902529,1877.167],[-0.820945,42.902529,1877.681],[-0.820873,42.902514,1877.619],[-0.820813,42.902502,1878.109],[-0.820745,42.902502,1878.297],[-0.820693,42.902527,1879.246],[-0.82063,42.902539,1880.389],[-0.82057,42.902526,1881.145],[-0.820518,42.902553,1882.173],[-0.820453,42.902556,1882.318],[-0.820378,42.902563,1883.761],[-0.820308,42.902561,1884.282],[-0.820245,42.902568,1885.337],[-0.820177,42.902563,1888.779],[-0.820104,42.902555,1890.405],[-0.820042,42.902552,1890.525],[-0.819979,42.902532,1890.509],[-0.819914,42.902535,1890.788],[-0.819846,42.902522,1890.897],[-0.819776,42.902515,1891.33],[-0.819709,42.902522,1891.816],[-0.819651,42.90254,1892.784],[-0.819579,42.902525,1894.469],[-0.819504,42.902525,1894.932],[-0.819432,42.902532,1895.423],[-0.819365,42.902534,1896.428],[-0.8193,42.902539,1897.218],[-0.819233,42.902546,1898.298],[-0.81917,42.902529,1899.817],[-0.819098,42.902516,1901.809],[-0.819035,42.902498,1902.542],[-0.81897,42.902485,1903.361],[-0.818905,42.902498,1903.434],[-0.818835,42.902496,1904.75],[-0.818772,42.902493,1906.568],[-0.818702,42.902476,1907.753],[-0.818637,42.902461,1910.116],[-0.818562,42.902458,1912.437],[-0.818504,42.90248,1914.262],[-0.818437,42.902478,1915.784],[-0.81837,42.90248,1917.207],[-0.818305,42.902483,1917.717],[-0.818238,42.902483,1918.309],[-0.818176,42.902496,1920.269],[-0.818106,42.902486,1922.468],[-0.818041,42.902474,1922.971],[-0.817979,42.902471,1924.347],[-0.817906,42.902461,1925.595],[-0.817843,42.902439,1926.85],[-0.817783,42.902427,1927.873],[-0.817716,42.902405,1928.254],[-0.817651,42.90239,1928.479],[-0.817579,42.902375,1929.568],[-0.817506,42.902365,1931.042],[-0.817444,42.902342,1931.826],[-0.817382,42.902344,1932.709],[-0.817312,42.902359,1935.237],[-0.81725,42.902357,1937.776],[-0.817187,42.902344,1938.549],[-0.817125,42.902336,1938.845],[-0.817065,42.902326,1939.223],[-0.817008,42.902304,1940.578],[-0.81706,42.902342,1946.121],[-0.817105,42.90238,1946.432],[-0.817043,42.902327,1948.967],[-0.816988,42.902304,1946.439],[-0.81702,42.902346,1947.401],[-0.816963,42.902321,1946.821],[-0.816961,42.902366,1946.409],[-0.816896,42.902373,1947.414],[-0.816806,42.902366,1942.873],[-0.816739,42.902366,1942.676],[-0.816677,42.902371,1942.432],[-0.816622,42.902394,1942.42],[-0.816555,42.902404,1942.435],[-0.816478,42.902402,1941.378],[-0.816413,42.902407,1939.549],[-0.816476,42.902392,1940.044],[-0.816414,42.902405,1936.747],[-0.816339,42.902418,1937.229],[-0.816396,42.902385,1936.521],[-0.816461,42.902373,1936.509],[-0.816526,42.902373,1936.145],[-0.816593,42.90239,1939.014],[-0.81666,42.902377,1939.037],[-0.816722,42.902364,1939.063],[-0.816784,42.902341,1939.021],[-0.816846,42.902319,1939.096],[-0.816919,42.902297,1937.499],[-0.816979,42.902284,1943.91],[-0.817024,42.902329,1943.985],[-0.817056,42.902369,1943.995],[-0.817098,42.902412,1943.949],[-0.81716,42.902407,1943.923],[-0.817188,42.902449,1938.609],[-0.817206,42.902406,1934.12],[-0.817254,42.902374,1935.389],[-0.817306,42.902344,1935.392],[-0.817376,42.902319,1935.388],[-0.817434,42.902339,1935.326],[-0.817494,42.902349,1935.361],[-0.817542,42.902379,1935.694],[-0.817607,42.902396,1934.985],[-0.817667,42.902411,1932.43],[-0.817742,42.902413,1932.284],[-0.817809,42.902431,1932.007],[-0.817876,42.902429,1931.717],[-0.817943,42.902449,1931.609],[-0.817996,42.902479,1931.399],[-0.818059,42.902469,1931.178],[-0.818122,42.902484,1930.991],[-0.818185,42.902466,1929.477],[-0.818248,42.902458,1927.775],[-0.818315,42.902465,1925.62],[-0.818375,42.902447,1921.923],[-0.81844,42.902455,1921.064],[-0.818508,42.902472,1920.019],[-0.81857,42.902477,1919.387],[-0.818637,42.902487,1918.942],[-0.8187,42.902499,1918.426],[-0.818775,42.902521,1916.609],[-0.818822,42.902556,1915.159],[-0.818884,42.902563,1914.928],[-0.818952,42.902568,1914.771],[-0.819012,42.902558,1914.547],[-0.819072,42.902538,1913.275],[-0.819139,42.90253,1911.73],[-0.819202,42.902548,1911.093],[-0.819277,42.902545,1909.624],[-0.81935,42.902563,1907.699],[-0.81942,42.90255,1905.522],[-0.819488,42.902553,1904.262],[-0.81956,42.902561,1902.208],[-0.819633,42.902546,1901.709],[-0.819698,42.902551,1901.663],[-0.819761,42.902549,1901.522],[-0.819826,42.902564,1900.555],[-0.819884,42.902582,1898.851],[-0.819951,42.902574,1898.089],[-0.820013,42.902569,1897.624],[-0.820083,42.902566,1897.237],[-0.820156,42.902554,1897.038],[-0.820218,42.902561,1896.663],[-0.820286,42.902564,1895.111],[-0.820353,42.902572,1893.721],[-0.820405,42.902545,1893.303],[-0.820478,42.902543,1892.609],[-0.820543,42.902531,1891.262],[-0.820608,42.902529,1889.471],[-0.820673,42.902527,1887.254],[-0.820738,42.902535,1884.62],[-0.820806,42.902535,1883.498],[-0.820879,42.902533,1883.253],[-0.820942,42.902528,1882.976],[-0.821019,42.902531,1882.547],[-0.821081,42.902551,1881.572],[-0.821143,42.902549,1881.079],[-0.821206,42.902566,1878.905],[-0.821271,42.902591,1878.325],[-0.821349,42.902601,1878.309],[-0.821421,42.902626,1878.168],[-0.821478,42.902644,1878.317],[-0.821548,42.902644,1878.63],[-0.82161,42.902649,1878.636],[-0.821678,42.902651,1878.194],[-0.821746,42.902634,1877.929],[-0.821804,42.902656,1877.742],[-0.821866,42.902664,1877.133],[-0.821934,42.902682,1876.088],[-0.821992,42.902699,1875.976],[-0.822064,42.902697,1875.69],[-0.822127,42.90271,1875.019],[-0.822189,42.902712,1874.409],[-0.822254,42.902694,1874.238],[-0.822321,42.902682,1873.947],[-0.822391,42.902677,1873.18],[-0.822456,42.902655,1872.396],[-0.822518,42.902657,1871.484],[-0.822588,42.902659,1869.549],[-0.822656,42.902672,1866.882],[-0.822728,42.902679,1864.823],[-0.822801,42.902689,1863.848],[-0.822863,42.902672,1863.534],[-0.822938,42.902684,1862.555],[-0.823003,42.902687,1861.41],[-0.823085,42.902694,1859.709],[-0.823152,42.902691,1858.864],[-0.823214,42.902696,1858.353],[-0.823282,42.902683,1857.456],[-0.823359,42.902688,1857.052],[-0.823434,42.902685,1855.98],[-0.823501,42.902703,1855.485],[-0.823546,42.902746,1854.198],[-0.823573,42.902793,1852.859],[-0.823635,42.902838,1852.174],[-0.823688,42.902871,1851.623],[-0.823755,42.902896,1851.683],[-0.823813,42.902938,1851.711],[-0.823866,42.902966,1852.709],[-0.823921,42.902988,1852.933],[-0.823981,42.903016,1853.152],[-0.824034,42.903044,1853.555],[-0.824094,42.903069,1853.691],[-0.824152,42.903101,1854.279],[-0.824192,42.903138,1855.994],[-0.824242,42.903168,1856.297],[-0.824299,42.903203,1856.358],[-0.824359,42.903235,1856.663],[-0.824424,42.903263,1856.777],[-0.824481,42.903291,1857.461],[-0.824529,42.903329,1857.527],[-0.824569,42.903371,1857.509],[-0.824622,42.903409,1857.668],[-0.824675,42.903432,1857.767],[-0.824723,42.903465,1857.84],[-0.824788,42.903487,1857.626],[-0.824826,42.903524,1857.614],[-0.824879,42.903566,1857.519],[-0.824944,42.903594,1857.342],[-0.825019,42.903612,1857.373],[-0.825079,42.90363,1857.248],[-0.825142,42.903638,1857.418],[-0.825215,42.903646,1859.198],[-0.82528,42.903673,1859.217],[-0.825335,42.9037,1859.109],[-0.825393,42.903727,1857.942],[-0.825451,42.90376,1857.391],[-0.825499,42.903798,1856.734],[-0.825557,42.903835,1854.67],[-0.82562,42.903833,1854.488],[-0.825682,42.903833,1854.473],[-0.825759,42.903836,1854.436],[-0.825816,42.903861,1855.347],[-0.825868,42.903886,1856.722],[-0.82592,42.903926,1856.766],[-0.825967,42.903973,1856.729],[-0.826009,42.904006,1856.621],[-0.826052,42.904049,1856.709],[-0.826104,42.904086,1856.897],[-0.826134,42.904129,1856.926],[-0.826172,42.904167,1857.039],[-0.826215,42.904204,1858.375],[-0.826272,42.904224,1858.333],[-0.826325,42.904252,1858.458],[-0.826353,42.904295,1858.431],[-0.826381,42.90434,1858.562],[-0.826444,42.904353,1858.647],[-0.826514,42.904345,1858.821],[-0.826569,42.904372,1859.541],[-0.826597,42.904412,1861.005],[-0.826632,42.904452,1863.009],[-0.826667,42.904492,1863.823],[-0.826734,42.904497,1863.862],[-0.826766,42.904539,1863.825],[-0.826783,42.904582,1862.881],[-0.826828,42.904622,1861.699],[-0.826858,42.904662,1860.684],[-0.826911,42.904689,1858.557],[-0.826941,42.904729,1857.278],[-0.827003,42.904761,1855.383],[-0.827068,42.904779,1854.125],[-0.827136,42.904796,1853.426],[-0.827198,42.904803,1852.108],[-0.827236,42.90476,1850.909],[-0.827298,42.904753,1848.763],[-0.82735,42.904795,1846.722],[-0.827392,42.904833,1845.735],[-0.82745,42.904871,1844.511],[-0.82751,42.904908,1843.189],[-0.827577,42.904925,1842.734],[-0.827649,42.904942,1842.617],[-0.827699,42.904979,1842.578],[-0.827766,42.905006,1842.423],[-0.827819,42.905034,1841.958],[-0.827866,42.905069,1841.752],[-0.827924,42.905102,1841.717],[-0.827982,42.90513,1841.709],[-0.828034,42.905168,1841.766],[-0.828099,42.90518,1841.955],[-0.828172,42.905173,1841.998],[-0.828222,42.905201,1841.834],[-0.828274,42.905231,1841.852],[-0.828321,42.905266,1840.877],[-0.828378,42.905288,1840.58],[-0.82843,42.905315,1840.321],[-0.828488,42.90534,1840.136],[-0.82855,42.90535,1840.099],[-0.828598,42.905388,1839.707],[-0.828648,42.905418,1839.527],[-0.828695,42.90545,1839.309],[-0.82875,42.905488,1839.43],[-0.828805,42.90552,1839.549],[-0.828858,42.905543,1839.682],[-0.828911,42.905583,1839.658],[-0.828974,42.905603,1839.676],[-0.829021,42.90565,1838.931],[-0.829071,42.905682,1838.244],[-0.829128,42.905714,1837.525],[-0.829181,42.905749,1836.57],[-0.829238,42.905776,1836.093],[-0.8293,42.905793,1835.365],[-0.829357,42.905823,1834.821],[-0.829422,42.905838,1834.609],[-0.829484,42.905863,1834.45],[-0.829544,42.905893,1833.939],[-0.829584,42.90593,1832.392],[-0.829629,42.905965,1831.628],[-0.829684,42.906002,1830.846],[-0.829739,42.906032,1830.061],[-0.829792,42.906059,1829.794],[-0.829842,42.906087,1828.995],[-0.829904,42.906102,1828.43],[-0.829976,42.906122,1826.789],[-0.830036,42.906149,1826.206],[-0.830108,42.906159,1825.526],[-0.83017,42.906179,1825.009],[-0.830232,42.906201,1823.589],[-0.830287,42.906226,1823.198],[-0.830345,42.906241,1822.091],[-0.830408,42.906216,1821.017],[-0.830473,42.906204,1820.345],[-0.830541,42.906196,1820.07],[-0.830609,42.906203,1819.053],[-0.830677,42.906215,1818.764],[-0.830742,42.906228,1817.579],[-0.830815,42.906241,1816.378],[-0.830873,42.906259,1815.333],[-0.830936,42.906269,1815.226],[-0.830994,42.906289,1815.209],[-0.831062,42.906297,1815.288],[-0.83113,42.906314,1815.347],[-0.831192,42.906331,1815.37],[-0.831255,42.906338,1815.676],[-0.831322,42.906341,1815.984],[-0.831387,42.906341,1816.419],[-0.831445,42.906366,1816.522],[-0.831502,42.906386,1816.973],[-0.831562,42.906401,1817.388],[-0.831629,42.906418,1817.365],[-0.831697,42.90642,1817.368],[-0.831759,42.906447,1816.314],[-0.831821,42.906474,1815.909],[-0.831866,42.906506,1815.287],[-0.831888,42.906549,1815.276],[-0.831911,42.906591,1815.059],[-0.831959,42.906626,1815.085],[-0.832014,42.906664,1815.663],[-0.832069,42.906701,1815.878],[-0.832132,42.906731,1816.861],[-0.832115,42.906774,1817.142],[-0.832147,42.906819,1818.137],[-0.832194,42.906861,1818.414],[-0.832237,42.906899,1818.754],[-0.832284,42.906934,1818.709],[-0.832312,42.906989,1818.909],[-0.83234,42.907034,1818.952],[-0.83238,42.907081,1819.311],[-0.83243,42.907123,1820.274],[-0.832485,42.907163,1820.89],[-0.832533,42.907196,1821.158],[-0.83259,42.907236,1821.123],[-0.832638,42.907276,1821.126],[-0.832686,42.907309,1820.787],[-0.832728,42.907346,1820.022],[-0.83278,42.907386,1819.014],[-0.832828,42.907424,1818.554],[-0.832866,42.907467,1818.409],[-0.832909,42.907502,1818.309],[-0.832951,42.907537,1817.492],[-0.832991,42.907572,1816.341],[-0.833051,42.907607,1815.634],[-0.833093,42.907644,1815.46],[-0.833128,42.907684,1815.418],[-0.833158,42.907727,1815.443],[-0.833185,42.90777,1815.416],[-0.833247,42.90779,1815.457],[-0.833309,42.907805,1814.572],[-0.833374,42.907833,1813.716],[-0.833434,42.90787,1813.476],[-0.833494,42.907885,1813.213],[-0.833561,42.907902,1813.009],[-0.833624,42.907917,1812.842],[-0.833689,42.907932,1812.571],[-0.833759,42.907945,1810.894],[-0.833839,42.907943,1810.69],[-0.833907,42.907945,1810.398],[-0.833969,42.907962,1808.333],[-0.834031,42.907979,1807.056],[-0.834093,42.907991,1806.467],[-0.83416,42.908008,1805.522],[-0.83423,42.907993,1804.551],[-0.834295,42.907991,1803.801],[-0.83436,42.908008,1802.811],[-0.834405,42.908043,1801.909],[-0.834462,42.908068,1801.346],[-0.834504,42.908108,1801.045],[-0.834547,42.908151,1800.858],[-0.834602,42.908184,1800.574],[-0.83468,42.908202,1800.172],[-0.83474,42.90822,1799.497],[-0.834802,42.908235,1799.27],[-0.83485,42.908265,1798.991],[-0.834915,42.908283,1798.696],[-0.834977,42.908305,1798.493],[-0.835042,42.908325,1797.965],[-0.835109,42.90835,1797.021],[-0.835177,42.908367,1796.609],[-0.835244,42.908372,1796.48],[-0.835316,42.908369,1796.219],[-0.835388,42.908386,1794.022],[-0.835463,42.908398,1792.648],[-0.835526,42.908398,1791.516],[-0.835598,42.908408,1790.891],[-0.835665,42.908413,1789.774],[-0.835732,42.908423,1789.545],[-0.835794,42.908436,1788.56],[-0.835869,42.908448,1787.796],[-0.835931,42.908463,1787.531],[-0.835993,42.90847,1787.124],[-0.836065,42.908477,1786.409],[-0.836133,42.908485,1785.78],[-0.8362,42.908493,1784.879],[-0.836262,42.908491,1784.472],[-0.836332,42.908514,1783.958],[-0.836399,42.908527,1783.336],[-0.836467,42.908542,1782.291],[-0.836524,42.908572,1781.544],[-0.836579,42.908592,1781.485],[-0.836637,42.90861,1781.48],[-0.836719,42.908617,1781.463],[-0.836781,42.908635,1781.444],[-0.836846,42.908647,1781.018],[-0.836911,42.908652,1780.409],[-0.836983,42.90867,1779.597],[-0.837051,42.908688,1779.336],[-0.837116,42.908708,1778.919],[-0.837174,42.908726,1778.765],[-0.837234,42.908736,1778.763],[-0.837306,42.908743,1778.638],[-0.837366,42.90877,1778.661],[-0.837433,42.908788,1778.172],[-0.837505,42.908808,1775.967],[-0.837563,42.908823,1774.839],[-0.837623,42.908843,1774.401],[-0.837698,42.908845,1771.721],[-0.837781,42.908863,1769.909],[-0.837843,42.908883,1769.664],[-0.837926,42.9089,1769.293],[-0.837996,42.908923,1768.496],[-0.838073,42.908925,1768.182],[-0.83814,42.908945,1767.66],[-0.838202,42.908967,1766.745],[-0.83827,42.908979,1766.088],[-0.83833,42.909007,1764.689],[-0.838393,42.908997,1763.854],[-0.83843,42.908955,1763.541],[-0.838458,42.908908,1762.181],[-0.83848,42.908865,1761.809],[-0.838533,42.908822,1761.509],[-0.838581,42.908777,1761.165],[-0.838628,42.908737,1759.234],[-0.838675,42.9087,1758.267],[-0.838727,42.908667,1756.773],[-0.838777,42.908635,1756.121],[-0.838817,42.908588,1755.346],[-0.83887,42.908563,1754.479],[-0.838902,42.908521,1753.72],[-0.838932,42.908473,1752.395],[-0.83897,42.908425,1751.263],[-0.839002,42.908378,1750.044],[-0.83906,42.908356,1749.818],[-0.839115,42.908329,1749.009],[-0.839165,42.908291,1747.657],[-0.83923,42.908286,1746.746],[-0.83929,42.908301,1746.329],[-0.839358,42.908313,1746.225],[-0.839423,42.908331,1746.143],[-0.839498,42.908338,1746.158],[-0.839556,42.908353,1745.951],[-0.839628,42.908351,1744.242],[-0.83969,42.908354,1741.367],[-0.839765,42.908362,1741.182],[-0.839837,42.908384,1740.943],[-0.839899,42.908382,1740.817],[-0.839964,42.908369,1739.609],[-0.840024,42.908351,1737.929],[-0.840081,42.908323,1737.538],[-0.840151,42.908305,1736.791],[-0.840203,42.908277,1736.587],[-0.84025,42.908239,1734.815],[-0.840303,42.908206,1733.28],[-0.84036,42.908174,1732.113],[-0.840427,42.908151,1731.144],[-0.840495,42.908126,1730.419],[-0.840568,42.908123,1728.942],[-0.84064,42.908123,1727.522],[-0.840705,42.908108,1726.814],[-0.840767,42.90808,1725.709],[-0.840807,42.90804,1725.295],[-0.840872,42.908027,1725.074],[-0.840949,42.908032,1723.537],[-0.841016,42.908037,1722.863],[-0.841078,42.90803,1722.691],[-0.84115,42.908018,1722.256],[-0.841217,42.908028,1721.669],[-0.841275,42.908045,1721.89],[-0.84135,42.908035,1721.835],[-0.841417,42.908055,1721.386],[-0.841482,42.90806,1721.26],[-0.841555,42.908063,1720.726],[-0.841618,42.908068,1719.509],[-0.84169,42.908068,1718.839],[-0.841755,42.908073,1718.188],[-0.841823,42.908091,1716.931],[-0.841891,42.908091,1715.487],[-0.841961,42.908094,1713.995],[-0.842023,42.908102,1712.79],[-0.842083,42.908092,1711.063],[-0.842148,42.908085,1709.274],[-0.842211,42.908075,1708.589],[-0.842289,42.908073,1707.742],[-0.842351,42.908053,1706.222],[-0.842424,42.908048,1703.914],[-0.842496,42.908026,1701.909],[-0.842563,42.908014,1699.255],[-0.842641,42.908009,1698.124],[-0.842714,42.908011,1696.827],[-0.842784,42.908013,1694.253],[-0.842856,42.908005,1692.731],[-0.842926,42.907997,1689.116],[-0.842979,42.907972,1688.199],[-0.842939,42.907937,1687.84],[-0.842879,42.907909,1687.365],[-0.842889,42.907856,1686.682],[-0.842917,42.907809,1685.643],[-0.842985,42.907806,1684.417],[-0.843055,42.907791,1683.209],[-0.84313,42.907791,1681.769],[-0.843198,42.907814,1679.738],[-0.843276,42.907809,1678.361],[-0.843338,42.907792,1676.487],[-0.843398,42.90777,1674.395],[-0.843473,42.90776,1673.47],[-0.843516,42.907717,1672.943],[-0.843573,42.907674,1672.894],[-0.843621,42.907639,1672.679],[-0.843653,42.907597,1670.343],[-0.843701,42.907559,1666.364],[-0.843758,42.907526,1665.41],[-0.843785,42.907483,1664.509],[-0.843847,42.907473,1664.045],[-0.843909,42.907478,1662.424],[-0.843969,42.907493,1660.477],[-0.844034,42.90751,1659.593],[-0.844106,42.907512,1658.831],[-0.844164,42.907537,1657.546],[-0.844231,42.907544,1656.259],[-0.844291,42.907522,1654.43],[-0.844366,42.907525,1652.925],[-0.844434,42.907527,1650.669],[-0.844504,42.907517,1646.404],[-0.844564,42.907482,1642.424],[-0.844627,42.907467,1641.209],[-0.844674,42.907437,1640.577],[-0.844719,42.907397,1638.776],[-0.844761,42.907347,1637.159],[-0.844773,42.9073,1636.165],[-0.844791,42.907253,1635.813],[-0.844816,42.907208,1635.618],[-0.844856,42.907166,1635.171],[-0.844891,42.907124,1633.952],[-0.844934,42.907089,1633.247],[-0.844996,42.907052,1632.125],[-0.845051,42.907015,1630.426],[-0.845106,42.906985,1629.508],[-0.845169,42.906985,1628.109],[-0.845246,42.906992,1626.423],[-0.845314,42.907015,1624.482],[-0.845359,42.906983,1623.595],[-0.845399,42.906946,1622.631],[-0.845461,42.906938,1621.559],[-0.845558,42.906946,1616.084],[-0.845625,42.906954,1614.717],[-0.845695,42.906961,1614.718],[-0.845757,42.906949,1614.723],[-0.845819,42.906946,1614.426],[-0.845861,42.906903,1613.047],[-0.845923,42.906883,1612.111],[-0.845988,42.906886,1610.609],[-0.84605,42.906863,1609.643],[-0.846113,42.906873,1608.312],[-0.846176,42.906876,1603.115],[-0.846211,42.906838,1599.861],[-0.846266,42.906805,1598.449],[-0.846329,42.906782,1597.864],[-0.846392,42.906764,1596.837],[-0.846452,42.906726,1595.528],[-0.846517,42.906709,1595.073],[-0.846579,42.906701,1593.787],[-0.846639,42.906689,1590.942],[-0.846709,42.906689,1587.426],[-0.846777,42.906682,1585.109],[-0.846842,42.906682,1584.749],[-0.846915,42.906679,1583.718],[-0.84697,42.906659,1583.111],[-0.847033,42.906669,1581.587],[-0.847096,42.906652,1578.565],[-0.847164,42.906637,1576.04],[-0.847221,42.906617,1574.593],[-0.847288,42.906607,1572.144],[-0.847351,42.906617,1569.679],[-0.847418,42.906624,1566.881],[-0.847483,42.906599,1565.461],[-0.847553,42.906586,1563.517],[-0.847625,42.906594,1561.309],[-0.847705,42.906612,1559.589],[-0.84776,42.906635,1559.438],[-0.847825,42.906632,1559.231],[-0.84792,42.906639,1558.597],[-0.84799,42.906644,1558.595],[-0.84805,42.906632,1557.31],[-0.848122,42.906624,1555.153],[-0.84817,42.906596,1551.934],[-0.848232,42.906578,1549.669],[-0.8483,42.90661,1549.131],[-0.848353,42.906637,1547.161],[-0.848416,42.90663,1546.307],[-0.848479,42.906648,1545.409],[-0.848549,42.90666,1544.534],[-0.848614,42.906672,1543.393],[-0.848666,42.906705,1542.116],[-0.848738,42.906717,1540.822],[-0.848796,42.906737,1540.16],[-0.848844,42.906765,1539.675],[-0.848904,42.90678,1539.128],[-0.848969,42.90679,1537.829],[-0.849034,42.906815,1535.484],[-0.849104,42.906822,1533.242],[-0.849174,42.906839,1530.722],[-0.849226,42.906876,1528.414],[-0.849303,42.906893,1526.709],[-0.84937,42.906896,1524.775],[-0.849435,42.906903,1523.344],[-0.849497,42.906916,1521.967],[-0.84956,42.906928,1519.973],[-0.84962,42.906938,1518.271],[-0.849683,42.90694,1517.656],[-0.849743,42.906922,1516.259],[-0.849805,42.906914,1515.11],[-0.849872,42.906897,1511.975],[-0.849934,42.906897,1508.839],[-0.849997,42.906879,1505.701],[-0.850044,42.906844,1502.421],[-0.850112,42.906829,1499.909],[-0.850179,42.906811,1499.014],[-0.850216,42.906769,1498.523],[-0.850274,42.906751,1498.176],[-0.850324,42.906716,1496.252],[-0.850381,42.906689,1495.04],[-0.850429,42.906661,1493.875],[-0.850492,42.906646,1492.858],[-0.850557,42.906629,1491.589],[-0.850619,42.906626,1488.034],[-0.850686,42.906629,1484.939],[-0.850748,42.906622,1482.001],[-0.850821,42.906627,1479.121],[-0.850891,42.906624,1476.909],[-0.850961,42.906642,1472.194],[-0.851029,42.906634,1469.383],[-0.851094,42.906652,1466.836],[-0.851159,42.906657,1465.352],[-0.851222,42.906645,1464.29],[-0.851277,42.90662,1463.295],[-0.851345,42.906595,1462.368],[-0.851368,42.906547,1460.569],[-0.851428,42.906569,1456.274],[-0.851493,42.906579,1453.976],[-0.85156,42.906571,1451.99],[-0.851623,42.906559,1450.519],[-0.851681,42.906541,1449.509],[-0.851744,42.906559,1448.298],[-0.851821,42.906569,1446.357],[-0.851884,42.906561,1444.78],[-0.851949,42.906554,1444.246],[-0.852019,42.906539,1443.514],[-0.852096,42.906536,1442.729],[-0.852164,42.906548,1442.382],[-0.852239,42.906548,1440.993],[-0.852309,42.906546,1439.598],[-0.852369,42.906536,1438.188],[-0.852442,42.906544,1437.424],[-0.852497,42.906564,1436.126],[-0.85256,42.906579,1435.609],[-0.85262,42.906607,1434.669],[-0.85269,42.906604,1434.128],[-0.852758,42.906602,1433.921],[-0.852825,42.906609,1433.687],[-0.85289,42.906606,1433.465],[-0.852957,42.906614,1431.92],[-0.853015,42.906634,1431.083],[-0.853073,42.906666,1429.594],[-0.853115,42.906706,1427.689],[-0.853145,42.906748,1426.265],[-0.853215,42.906741,1426.068],[-0.853283,42.906728,1425.214],[-0.853345,42.906735,1423.909],[-0.853415,42.906758,1421.537],[-0.853485,42.90675,1420.326],[-0.853558,42.906752,1419.169],[-0.853621,42.906735,1417.975],[-0.853688,42.906717,1415.063],[-0.853756,42.906732,1414.228],[-0.853831,42.906727,1413.721],[-0.853891,42.906699,1413.162],[-0.853966,42.906689,1412.677],[-0.854046,42.906682,1411.672],[-0.854116,42.906685,1411.213],[-0.854181,42.906693,1409.914],[-0.854244,42.906693,1408.709],[-0.854309,42.906706,1408.738],[-0.854367,42.906723,1408.047],[-0.854422,42.906745,1408.15],[-0.854495,42.906755,1408.256],[-0.854573,42.906778,1407.774],[-0.854636,42.906786,1407.759],[-0.854704,42.906796,1407.692],[-0.854781,42.906811,1407.463],[-0.854844,42.906809,1404.448],[-0.854922,42.906821,1401.392],[-0.854984,42.906851,1399.973],[-0.855051,42.906879,1397.32],[-0.855118,42.906896,1396.009],[-0.855151,42.906941,1392.46],[-0.855193,42.906978,1389.299],[-0.855256,42.907005,1388.112],[-0.855326,42.90702,1386.258],[-0.855398,42.907045,1384.256],[-0.85547,42.907032,1381.711],[-0.85553,42.907022,1379.754],[-0.855595,42.907015,1379.135],[-0.855655,42.907027,1378.42],[-0.855727,42.907029,1378.113],[-0.855799,42.907026,1377.943],[-0.855869,42.907034,1377.207],[-0.855929,42.907046,1376.909],[-0.856002,42.907061,1375.772],[-0.856067,42.907058,1374.841],[-0.856114,42.907021,1374.454],[-0.856167,42.906998,1373.34],[-0.856235,42.906973,1371.428],[-0.856298,42.906988,1370.423],[-0.856361,42.906986,1369.766],[-0.856436,42.906979,1368.087],[-0.856504,42.906977,1367.382],[-0.856564,42.906954,1365.798],[-0.856636,42.906936,1364.115],[-0.856706,42.906939,1362.426],[-0.856766,42.906927,1361.009],[-0.856829,42.906899,1359.82],[-0.856882,42.906857,1358.559],[-0.856917,42.90681,1356.442],[-0.856929,42.906762,1354.498],[-0.856964,42.90672,1353.616],[-0.856989,42.906675,1353.311],[-0.857027,42.906638,1352.414],[-0.857089,42.906615,1352.215],[-0.857149,42.906585,1351.54],[-0.857227,42.906567,1350.141],[-0.857299,42.906545,1348.581],[-0.857364,42.906523,1346.809],[-0.857421,42.9065,1345.809],[-0.857484,42.906473,1344.615],[-0.857549,42.906461,1343.974],[-0.857627,42.906459,1343.717],[-0.857694,42.906446,1343.623],[-0.857751,42.906426,1342.261],[-0.857816,42.906424,1340.866],[-0.857883,42.906421,1339.869],[-0.857953,42.906399,1337.39],[-0.858018,42.906391,1337.375],[-0.858086,42.906376,1337.385],[-0.858148,42.906361,1337.289],[-0.858201,42.906328,1337.017],[-0.858274,42.906331,1334.909],[-0.858341,42.906323,1334.529],[-0.858403,42.906318,1334.558],[-0.85847,42.90631,1334.571],[-0.858543,42.906315,1334.747],[-0.858615,42.906293,1334.765],[-0.858697,42.90628,1334.92],[-0.858779,42.906265,1334.543],[-0.858832,42.906225,1332.074],[-0.858894,42.906193,1331.079],[-0.858957,42.906173,1331.017],[-0.859019,42.906161,1331.087],[-0.859081,42.906153,1331.015],[-0.859154,42.906141,1331.409],[-0.859216,42.906126,1331.452],[-0.859281,42.906116,1331.781],[-0.859351,42.906118,1331.744],[-0.859416,42.906121,1331.42],[-0.859484,42.906124,1331.018],[-0.859804,42.906089,1330.433],[-0.859899,42.906029,1330.136],[-0.859926,42.905974,1329.167],[-0.859939,42.905929,1328.972],[-0.859971,42.905886,1328.616],[-0.859956,42.905841,1328.476],[-0.859983,42.905778,1327.013],[-0.859991,42.905723,1325.909],[-0.859994,42.905678,1325.762],[-0.860012,42.905635,1325.281],[-0.860014,42.905527,1322.424],[-0.859991,42.905485,1322.26],[-0.859951,42.90545,1322.078],[-0.860031,42.905367,1318.283],[-0.860068,42.905325,1314.966],[-0.86012,42.905298,1313.847],[-0.860198,42.9053,1313.672],[-0.860265,42.905305,1313.181],[-0.86034,42.9053,1312.961],[-0.860407,42.905307,1312.517],[-0.860465,42.90533,1312.309],[-0.860535,42.905337,1312.119],[-0.860607,42.905319,1312.118],[-0.860674,42.905321,1312.071],[-0.860737,42.905311,1311.757],[-0.860809,42.905324,1311.115],[-0.860877,42.905327,1310.44],[-0.860949,42.905325,1308.493],[-0.861016,42.905333,1308.134],[-0.861089,42.905341,1308.139],[-0.861151,42.905336,1308.064],[-0.861224,42.905336,1308.006],[-0.861292,42.905318,1307.916],[-0.861362,42.905326,1307.909],[-0.861439,42.905343,1307.887],[-0.861501,42.905351,1307.346],[-0.861579,42.905369,1305.229],[-0.861641,42.905374,1304.065],[-0.861701,42.905337,1302.943],[-0.861748,42.905299,1301.928],[-0.861805,42.905266,1298.541],[-0.861815,42.905218,1295.152],[-0.861808,42.905165,1293.817],[-0.861765,42.905115,1291.883],[-0.861707,42.905098,1290.425],[-0.861769,42.905096,1287.717],[-0.861836,42.905084,1286.509],[-0.861906,42.905092,1285.449],[-0.861968,42.90508,1284.038],[-0.862048,42.905072,1283.271],[-0.862111,42.905069,1280.827],[-0.862173,42.905057,1280.695],[-0.862241,42.905049,1280.22],[-0.862308,42.905057,1278.873],[-0.862376,42.905057,1278.714],[-0.862431,42.905035,1278.689],[-0.862504,42.905022,1278.335],[-0.862579,42.905004,1277.986],[-0.862632,42.904976,1276.314],[-0.862692,42.904958,1273.609],[-0.86272,42.904913,1270.194],[-0.862763,42.904878,1266.623],[-0.862811,42.904836,1263.056],[-0.862868,42.904816,1261.832],[-0.862926,42.904786,1260.16],[-0.862991,42.904743,1259.475],[-0.863058,42.90473,1257.828],[-0.863126,42.904698,1257.369],[-0.863193,42.904681,1256.844],[-0.863246,42.904641,1256.738],[-0.863281,42.904581,1256.77],[-0.863311,42.904533,1256.717],[-0.863339,42.90449,1256.609],[-0.863379,42.904452,1256.714],[-0.863392,42.904394,1256.483],[-0.863427,42.904354,1255.986],[-0.86348,42.904326,1253.842],[-0.863532,42.904293,1253.24],[-0.863587,42.904271,1252.785],[-0.863655,42.904264,1250.638],[-0.863737,42.904261,1249.779],[-0.863819,42.904249,1248.784],[-0.863881,42.904261,1246.333],[-0.863944,42.904251,1244.423],[-0.864007,42.904266,1242.415],[-0.864059,42.904291,1241.709],[-0.864121,42.904298,1241.764],[-0.864173,42.904328,1241.423],[-0.864238,42.904343,1240.756],[-0.864291,42.904306,1240.382],[-0.864344,42.904269,1238.98],[-0.864412,42.904262,1238.665],[-0.864462,42.90423,1238.138],[-0.864517,42.904202,1236.849],[-0.864575,42.904172,1234.784],[-0.864642,42.90414,1232.762],[-0.864709,42.904125,1231.783],[-0.864774,42.904105,1229.811],[-0.864846,42.90408,1228.709],[-0.864911,42.904062,1226.297],[-0.864984,42.904059,1226.096],[-0.865052,42.904057,1226.099],[-0.865124,42.904045,1226.035],[-0.865186,42.90404,1226.353],[-0.865273,42.904033,1228.268],[-0.86534,42.904038,1229.691],[-0.865408,42.904038,1229.622],[-0.865481,42.904048,1229.627],[-0.865544,42.904058,1229.656],[-0.865612,42.904075,1229.659],[-0.865664,42.904112,1229.514],[-0.865741,42.904125,1227.209],[-0.865808,42.904115,1227.116],[-0.865876,42.904125,1226.935],[-0.865949,42.904137,1225.968],[-0.866007,42.904162,1225.964],[-0.866092,42.904157,1224.722],[-0.86616,42.904169,1221.787],[-0.866242,42.904179,1220.27],[-0.866302,42.904202,1217.541],[-0.866355,42.904232,1215.886],[-0.866423,42.904245,1213.497],[-0.866495,42.904253,1210.923],[-0.866563,42.904245,1207.925],[-0.86661,42.904212,1206.709],[-0.866675,42.904199,1205.22],[-0.866748,42.904196,1204.979],[-0.866821,42.904166,1203.132],[-0.866896,42.904178,1202.358],[-0.866984,42.904186,1201.596],[-0.867054,42.904184,1198.931],[-0.867099,42.904227,1196.064],[-0.867157,42.904249,1195.185],[-0.867227,42.904241,1195.05],[-0.867289,42.904256,1195.014],[-0.867347,42.904273,1195.154],[-0.867405,42.904303,1195.509],[-0.867478,42.904291,1195.809],[-0.867538,42.904281,1195.842],[-0.867566,42.904226,1195.191],[-0.867599,42.904184,1194.024],[-0.867616,42.904137,1193.35],[-0.867648,42.904097,1192.378],[-0.867666,42.904052,1191.783],[-0.867691,42.904007,1189.326],[-0.867721,42.903967,1187.987],[-0.867733,42.903914,1185.582],[-0.86775,42.903856,1185.095],[-0.867773,42.903803,1184.649],[-0.867798,42.903751,1184.323],[-0.867853,42.903721,1184.109],[-0.86792,42.903726,1181.95],[-0.867962,42.903693,1180.499],[-0.867979,42.903646,1178.242],[-0.868009,42.903603,1176.728],[-0.868059,42.90357,1175.746],[-0.868122,42.903545,1174.781],[-0.868182,42.903517,1172.064],[-0.86824,42.903497,1168.935],[-0.8683,42.903465,1166.25],[-0.868368,42.903445,1165.023],[-0.868435,42.903437,1163.683],[-0.868497,42.90343,1162.611],[-0.868564,42.903433,1161.609],[-0.868622,42.903413,1160.053],[-0.868682,42.903398,1158.952],[-0.868754,42.903386,1158.585],[-0.868816,42.903368,1155.661],[-0.868886,42.903353,1154.089],[-0.868949,42.903328,1152.384],[-0.869032,42.90332,1150.017],[-0.869095,42.903308,1147.798],[-0.869162,42.903313,1145.993],[-0.869227,42.903358,1142.119],[-0.869152,42.903323,1139.809],[-0.869252,42.903353,1143.419],[-0.869322,42.903318,1143.409],[-0.869395,42.903303,1143.472],[-0.86945,42.903283,1143.421],[-0.869522,42.903288,1141.874],[-0.869587,42.903296,1141.87],[-0.86966,42.903291,1140.228],[-0.869732,42.903291,1140.153],[-0.86979,42.903276,1139.526],[-0.869865,42.903273,1138.847],[-0.869935,42.903265,1136.852],[-0.870002,42.903265,1134.364],[-0.870064,42.90325,1131.806],[-0.870132,42.903248,1130.416],[-0.870195,42.903273,1128.909],[-0.87026,42.903278,1127.857],[-0.870318,42.903298,1127.186],[-0.87038,42.90332,1125.959],[-0.87041,42.903362,1125.255],[-0.870412,42.90341,1122.943],[-0.870475,42.903415,1120.878],[-0.87055,42.903425,1118.881],[-0.870617,42.903435,1117.082],[-0.87068,42.903435,1115.587],[-0.87076,42.903453,1113.855],[-0.870825,42.903486,1111.607],[-0.870875,42.903519,1109.417],[-0.870885,42.903472,1106.809],[-0.870868,42.903425,1104.796],[-0.870836,42.90337,1102.645],[-0.870811,42.903328,1102.328],[-0.870779,42.903283,1102.364],[-0.870751,42.903225,1102.032],[-0.870719,42.90318,1103.217],[-0.870711,42.903123,1103.94],[-0.870679,42.903076,1104.041],[-0.870634,42.903028,1104.586],[-0.870596,42.902985,1104.525],[-0.870534,42.902957,1104.526],[-0.870492,42.902917,1103.808],[-0.870452,42.902877,1101.409],[-0.870459,42.902825,1100.243],[-0.870499,42.902788,1099.092],[-0.870559,42.902776,1097.355],[-0.870616,42.902801,1094.841],[-0.870684,42.902813,1093.589],[-0.870747,42.902838,1092.554],[-0.8708,42.90288,1092.277],[-0.870853,42.902913,1091.388],[-0.870896,42.902948,1091.133],[-0.870943,42.90298,1091.042],[-0.87099,42.90302,1089.822],[-0.871045,42.903062,1089.714],[-0.871098,42.903109,1088.709],[-0.87114,42.903149,1088.325],[-0.871213,42.903177,1088.154],[-0.871276,42.90322,1087.937],[-0.871326,42.903262,1086.883],[-0.871384,42.903304,1085.471],[-0.871432,42.903344,1084.166],[-0.871495,42.903371,1083.549],[-0.871553,42.903398,1083.81],[-0.871615,42.90341,1083.765],[-0.871662,42.903447,1083.711],[-0.871707,42.903484,1083.621],[-0.871772,42.903501,1083.703],[-0.871837,42.903508,1081.209],[-0.871905,42.903516,1078.842],[-0.871978,42.903536,1075.741],[-0.872048,42.903556,1072.664],[-0.872123,42.903561,1070.24],[-0.872191,42.903553,1068.738],[-0.872258,42.903558,1067.423],[-0.872325,42.903566,1066.186],[-0.872373,42.903594,1066.077],[-0.872421,42.903631,1063.592],[-0.872468,42.903661,1062.125],[-0.87248,42.903708,1062.026],[-0.87254,42.903746,1061.908],[-0.872593,42.903788,1060.409],[-0.872655,42.903785,1059.243],[-0.872717,42.903768,1059.282],[-0.87278,42.903768,1059.325],[-0.872822,42.903735,1059.811],[-0.872819,42.903688,1060.689],[-0.872852,42.903645,1060.824],[-0.87289,42.903608,1061.387],[-0.872907,42.903565,1061.488],[-0.872932,42.903512,1061.823],[-0.872959,42.90346,1061.943],[-0.873007,42.903417,1062.764],[-0.873042,42.903369,1063.31],[-0.873064,42.903316,1064.009],[-0.873072,42.903264,1065.095],[-0.873134,42.903237,1064.644],[-0.873181,42.903204,1064.647],[-0.873208,42.903157,1061.873],[-0.873175,42.903115,1058.461],[-0.873103,42.903113,1057.016],[-0.873035,42.903091,1055.799],[-0.872978,42.903069,1054.53],[-0.87296,42.903024,1053.455],[-0.872995,42.902984,1053.256],[-0.873043,42.902946,1050.559],[-0.873083,42.902911,1044.614],[-0.873125,42.902874,1040.509],[-0.873168,42.902832,1039.526],[-0.873225,42.902804,1038.345],[-0.87329,42.902786,1036.688],[-0.873365,42.902758,1034.394],[-0.873428,42.902738,1033.382],[-0.873473,42.902695,1031.987],[-0.873461,42.902642,1031.52],[-0.873461,42.902585,1031.531],[-0.873454,42.902537,1031.846],[-0.873494,42.902487,1032.027],[-0.873537,42.902447,1032.168],[-0.873577,42.902412,1032.614],[-0.873595,42.902367,1034.409],[-0.873638,42.902327,1034.493],[-0.873655,42.902284,1034.522],[-0.873693,42.902241,1034.585],[-0.87374,42.902209,1034.591],[-0.873742,42.902164,1033.819],[-0.873794,42.902136,1033.564],[-0.873857,42.902138,1032.917],[-0.873925,42.902121,1031.818],[-0.873973,42.902088,1031.583],[-0.874003,42.902038,1030.952],[-0.874038,42.902,1028.553],[-0.874095,42.90197,1026.808],[-0.874152,42.90194,1026.109],[-0.874195,42.901897,1025.626],[-0.874233,42.901852,1025.355],[-0.874261,42.901809,1025.178],[-0.874304,42.901767,1024.194],[-0.874347,42.901709,1023.942],[-0.87441,42.901702,1023.647],[-0.874477,42.901665,1023.65],[-0.874547,42.901643,1023.781],[-0.87462,42.901626,1022.856],[-0.874678,42.901606,1021.331],[-0.874718,42.901568,1020.061],[-0.87478,42.901536,1017.907],[-0.874817,42.901491,1017.209],[-0.874849,42.901446,1017.184],[-0.874876,42.901401,1017.093],[-0.874924,42.901349,1017.066],[-0.875007,42.901339,1017.322],[-0.875087,42.901311,1017.68],[-0.875157,42.901279,1018.065],[-0.875207,42.901252,1018.828],[-0.875239,42.90121,1019.169],[-0.875286,42.901152,1019.094],[-0.875331,42.901112,1018.929],[-0.875394,42.901087,1017.9],[-0.875452,42.901049,1017.72],[-0.875492,42.901014,1017.309],[-0.875544,42.900984,1017.043],[-0.875566,42.900941,1016.452],[-0.875583,42.900898,1016.095],[-0.87562,42.900861,1013.931],[-0.87563,42.900806,1012.659],[-0.875678,42.900763,1011.954],[-0.87574,42.900738,1011.267],[-0.875802,42.90071,1010.718],[-0.87585,42.90068,1010.053],[-0.87592,42.900655,1009.279],[-0.875978,42.90064,1009.005],[-0.876036,42.900623,1008.625],[-0.876096,42.9006,1008.609],[-0.876164,42.90058,1005.558],[-0.876224,42.900553,1003.337],[-0.876271,42.900516,1002.13],[-0.876326,42.900496,1002.296],[-0.876394,42.900458,1001.994],[-0.876462,42.90043,1002.219],[-0.876527,42.900435,1002.832],[-0.876589,42.900432,1002.453],[-0.876654,42.900414,1001.928],[-0.876724,42.900401,999.886],[-0.876787,42.900374,999.06],[-0.876854,42.900354,996.026],[-0.876914,42.900341,992.809],[-0.876989,42.900326,989.859],[-0.877049,42.900316,988.778],[-0.877119,42.900291,988.121],[-0.877211,42.900276,987.717],[-0.877283,42.900256,987.255],[-0.877346,42.900228,984.48],[-0.877413,42.900208,982.063],[-0.87748,42.90022,981.774],[-0.877535,42.90024,981.229],[-0.877608,42.900258,980.274],[-0.877681,42.900278,979.056],[-0.877731,42.900305,976.121],[-0.877761,42.900347,973.309],[-0.877824,42.900367,970.898],[-0.877874,42.900399,966.967],[-0.877937,42.900412,964.31],[-0.878004,42.900395,962.666],[-0.878066,42.900383,962.484],[-0.878133,42.900376,962.429],[-0.878208,42.900374,962.372],[-0.878271,42.900359,962.343],[-0.878331,42.900371,961.988],[-0.878389,42.900386,959.051],[-0.878476,42.900379,955.501],[-0.878538,42.900369,954.011],[-0.878601,42.900384,951.409],[-0.878676,42.900399,948.956],[-0.878738,42.900424,948.175],[-0.878808,42.900417,947.078],[-0.878888,42.900422,947.184],[-0.878941,42.900445,947.042],[-0.879009,42.900467,948.517],[-0.879084,42.90048,949.39],[-0.879149,42.900497,949.241],[-0.879219,42.90052,948.786],[-0.879286,42.900545,948.638],[-0.879333,42.900577,947.37],[-0.879398,42.900574,946.117],[-0.879465,42.900581,945.709],[-0.879528,42.900581,945.094],[-0.879608,42.900589,943.853],[-0.879671,42.900602,943.726],[-0.879734,42.900619,943.512],[-0.879807,42.900636,946.55],[-0.879874,42.900644,946.525],[-0.879941,42.900662,946.528],[-0.880009,42.900667,946.349],[-0.880079,42.90067,945.854],[-0.880154,42.900688,943.965],[-0.880252,42.900703,943.868],[-0.880322,42.900703,943.514],[-0.88037,42.900673,942.709],[-0.880438,42.900673,941.917],[-0.880501,42.900671,940.786],[-0.880564,42.900679,941.589],[-0.880622,42.900659,942.825],[-0.88069,42.900671,944.033],[-0.880752,42.900681,944.188],[-0.880825,42.900696,944.121],[-0.880883,42.900723,943.382],[-0.880928,42.900756,941.527],[-0.88096,42.900796,940.957],[-0.881023,42.900803,940.7],[-0.881091,42.900821,939.82],[-0.881159,42.900838,938.609],[-0.881224,42.900858,937.766],[-0.881296,42.900885,936.095],[-0.881356,42.900903,934.848],[-0.881424,42.900926,933.354],[-0.881486,42.900953,931.372],[-0.881559,42.90098,929.237],[-0.881621,42.900992,928.35],[-0.881686,42.901017,928.631],[-0.881758,42.90103,928.696],[-0.881826,42.901052,928.691],[-0.881891,42.901075,928.681],[-0.881964,42.901088,928.319],[-0.882032,42.901108,926.909],[-0.882095,42.901125,926.55],[-0.882163,42.90115,926.069],[-0.882236,42.901168,925.632],[-0.882299,42.901186,924.818],[-0.882356,42.901204,924.646],[-0.882426,42.901216,924.681],[-0.882503,42.901224,924.644],[-0.882578,42.901246,924.765],[-0.88264,42.901258,924.89],[-0.882712,42.901261,924.846],[-0.882777,42.901264,924.988],[-0.882849,42.901264,924.916],[-0.882912,42.901272,924.909],[-0.882974,42.901275,924.975],[-0.883039,42.901287,924.984],[-0.883111,42.90129,924.927],[-0.883179,42.901303,925.393],[-0.883241,42.901318,926.421],[-0.883306,42.901333,927.086],[-0.883381,42.901346,927.239],[-0.883444,42.901373,927.37],[-0.883504,42.9014,927.325],[-0.883566,42.901422,927.428],[-0.883631,42.901435,925.889],[-0.883688,42.901462,925.617],[-0.883753,42.90148,925.609],[-0.883815,42.901495,927.363],[-0.883887,42.9015,929.282],[-0.883964,42.901503,930.225],[-0.884037,42.901511,931.071],[-0.884107,42.901521,931.049],[-0.88418,42.901531,931.014],[-0.884243,42.901543,930.547]]}}]}