{"type":"FeatureCollection","features":[{"type":"Feature","properties":{"ruta_id":"105856169","nombre":"LEGATE (870 m) desde LEKAROZ","blog_url":"https://www.rutasporelmonte.com/legate-870-m-desde-lekaroz/"},"geometry":{"type":"LineString","coordinates":[[-1.539663,43.145428,246.651],[-1.539651,43.145285,246.601],[-1.539608,43.145412,246.611],[-1.53971,43.145369,246.609],[-1.539785,43.145409,246.686],[-1.539752,43.145462,246.685],[-1.539729,43.145505,246.69],[-1.539707,43.145552,246.613],[-1.539679,43.1456,246.69],[-1.539667,43.145652,246.691],[-1.53968,43.145699,246.656],[-1.539702,43.145747,246.691],[-1.539692,43.1458,246.684],[-1.539692,43.145855,246.651],[-1.53969,43.145907,246.601],[-1.539722,43.145955,246.611],[-1.539719,43.146015,246.609],[-1.539759,43.146055,246.616],[-1.539801,43.146097,246.645],[-1.539784,43.146145,246.61],[-1.539789,43.146195,246.673],[-1.539794,43.146247,246.68],[-1.539824,43.146299,246.621],[-1.539829,43.146347,246.696],[-1.539876,43.146399,246.611],[-1.539911,43.146442,246.654],[-1.539941,43.146485,246.635],[-1.539941,43.146542,246.686],[-1.540008,43.146562,241.814],[-1.54008,43.146547,240.809],[-1.540143,43.14656,243.424],[-1.540195,43.146587,246.063],[-1.540223,43.146644,246.018],[-1.540198,43.146704,244.381],[-1.540175,43.146746,243.718],[-1.540198,43.146794,244.249],[-1.540246,43.146837,244.924],[-1.540298,43.146867,245.249],[-1.540348,43.146904,243.612],[-1.540418,43.146931,242.981],[-1.540438,43.146979,244.561],[-1.540463,43.147024,245.017],[-1.540501,43.147062,243.309],[-1.540513,43.14711,243.199],[-1.540505,43.147157,244.418],[-1.540488,43.147204,244.313],[-1.540516,43.147257,241.936],[-1.540568,43.1473,238.813],[-1.54057,43.147348,239.234],[-1.540595,43.147395,235.029],[-1.54061,43.147453,234.824],[-1.540623,43.147505,234.167],[-1.540645,43.147553,234.014],[-1.540668,43.147596,233.654],[-1.540691,43.147651,233.509],[-1.540724,43.147696,234.109],[-1.540757,43.147741,233.682],[-1.5408,43.147779,232.931],[-1.540853,43.147821,232.476],[-1.540903,43.147848,231.899],[-1.540968,43.147853,231.166],[-1.541005,43.147898,231.657],[-1.54103,43.147943,231.492],[-1.54108,43.147976,230.597],[-1.541128,43.148013,230.35],[-1.541186,43.148041,230.126],[-1.541244,43.148068,230.847],[-1.541304,43.14809,230.011],[-1.541366,43.148125,229.609],[-1.541423,43.148158,229.863],[-1.541463,43.1482,228.972],[-1.541493,43.148243,228.357],[-1.541506,43.14829,228.19],[-1.541511,43.148337,227.887],[-1.541524,43.148385,227.728],[-1.541547,43.148432,227.413],[-1.541562,43.14848,228.438],[-1.541582,43.148528,228.491],[-1.54161,43.148568,227.695],[-1.541648,43.148621,227.549],[-1.541691,43.148664,226.023],[-1.541721,43.148707,225.509],[-1.541749,43.14875,224.42],[-1.541756,43.148803,224.729],[-1.541784,43.148848,225.294],[-1.541801,43.148903,223.177],[-1.541816,43.148951,224.484],[-1.541843,43.149001,223.585],[-1.541855,43.149193,216.59],[-1.541875,43.149245,215.625],[-1.541885,43.149293,215.758],[-1.541905,43.149338,216.859],[-1.541915,43.149385,216.303],[-1.541925,43.149435,216.323],[-1.54191,43.149487,216.909],[-1.541912,43.149542,217.166],[-1.541932,43.149594,217.175],[-1.541954,43.149644,218.23],[-1.541987,43.149691,218.593],[-1.542,43.149738,219.08],[-1.542018,43.149825,220.721],[-1.542026,43.149925,220.366],[-1.542061,43.14997,220.471],[-1.542089,43.15003,219.874],[-1.542141,43.150057,219.482],[-1.542193,43.1501,218.343],[-1.542258,43.15011,218.417],[-1.542316,43.150142,218.409],[-1.542363,43.150179,218.699],[-1.542403,43.150222,219.018],[-1.54244,43.150272,220.093],[-1.542472,43.150319,220.186],[-1.542469,43.150369,220.913],[-1.542466,43.150422,221.644],[-1.542498,43.150475,221.189],[-1.542495,43.15052,222.434],[-1.542487,43.150572,222.417],[-1.542454,43.150737,220.655],[-1.542431,43.150802,219.707],[-1.542453,43.150849,220.317],[-1.542471,43.150899,221.209],[-1.542473,43.150944,221.156],[-1.542471,43.151001,220.685],[-1.542504,43.151053,219.32],[-1.542507,43.151101,219.283],[-1.542545,43.151143,218.47],[-1.542563,43.15119,217.271],[-1.542585,43.151233,214.896],[-1.542635,43.151263,213.641],[-1.542657,43.151323,213.054],[-1.542699,43.151358,214.499],[-1.542721,43.151413,213.607],[-1.542726,43.15147,211.427],[-1.542743,43.151517,211.809],[-1.542741,43.151584,213.43],[-1.542744,43.151629,212.819],[-1.542766,43.151676,215.554],[-1.542806,43.151719,218.967],[-1.542854,43.151764,219.514],[-1.542884,43.151812,220.425],[-1.542897,43.151867,222.77],[-1.542932,43.151914,224.995],[-1.542952,43.151961,226.368],[-1.543009,43.152003,227.623],[-1.543037,43.152048,229.483],[-1.543094,43.152068,227.911],[-1.543139,43.152111,226.309],[-1.543156,43.152156,226.053],[-1.543198,43.152189,225.472],[-1.543235,43.152232,224.857],[-1.543302,43.15224,225.55],[-1.543369,43.152245,224.847],[-1.543444,43.152237,224.878],[-1.543494,43.15221,223.413],[-1.543562,43.152203,219.898],[-1.543627,43.152205,218.351],[-1.543697,43.15221,219.212],[-1.543769,43.152207,219.532],[-1.543831,43.152219,221.105],[-1.543899,43.152211,229.009],[-1.543961,43.152236,227.592],[-1.544021,43.152256,226.211],[-1.544101,43.152256,227.166],[-1.544166,43.152264,229.889],[-1.544229,43.152249,231.466],[-1.544301,43.152251,233.517],[-1.544378,43.152264,235.222],[-1.544455,43.152279,236.277],[-1.54452,43.152297,235.53],[-1.54459,43.152307,234.668],[-1.544652,43.152309,235.142],[-1.544695,43.152349,235.226],[-1.544763,43.152374,233.209],[-1.544821,43.152424,233.717],[-1.544883,43.152434,233.816],[-1.544943,43.152452,233.551],[-1.544998,43.152494,235.644],[-1.545051,43.152531,237.911],[-1.545159,43.152526,245.292],[-1.545206,43.152556,246.517],[-1.545268,43.152584,246.872],[-1.545331,43.152584,248.765],[-1.545376,43.152627,250.222],[-1.545426,43.152662,250.662],[-1.545481,43.15269,249.808],[-1.545546,43.15272,248.209],[-1.545604,43.152743,246.123],[-1.545666,43.152768,245.512],[-1.545728,43.152791,247.937],[-1.545793,43.152816,249.76],[-1.545855,43.152834,250.737],[-1.545908,43.152867,253.798],[-1.54597,43.152894,255.233],[-1.546033,43.152889,258.658],[-1.546095,43.152901,262.061],[-1.546577,43.153106,270.753],[-1.547199,43.153358,266.604],[-1.547256,43.153385,267.814],[-1.547318,43.153398,268.609],[-1.547385,43.153411,270.566],[-1.547418,43.153453,273.085],[-1.547685,43.153571,274.26],[-1.547835,43.153623,277.753],[-1.547933,43.153693,281.64],[-1.547983,43.153723,281.731],[-1.548033,43.15375,281.886],[-1.548088,43.153773,281.631],[-1.548153,43.15379,281.734],[-1.54823,43.153817,284.479],[-1.548283,43.153844,285.305],[-1.548363,43.153852,285.925],[-1.548418,43.153889,284.709],[-1.54848,43.153919,285.178],[-1.548538,43.153939,285.427],[-1.54859,43.153967,286.892],[-1.548812,43.154052,289.495],[-1.54888,43.154072,290.182],[-1.548943,43.154075,291.523],[-1.549221,43.154168,293.668],[-1.549354,43.15418,295.543],[-1.549576,43.154215,299.936],[-1.549656,43.154215,302.572],[-1.549721,43.154218,303.513],[-1.549804,43.154246,303.314],[-1.549862,43.154269,303.709],[-1.549932,43.154261,309.588],[-1.549972,43.154296,309.397],[-1.55028,43.154411,309.532],[-1.550542,43.154524,307.655],[-1.55062,43.154577,307.952],[-1.55065,43.15462,311.333],[-1.550637,43.154667,313.238],[-1.550599,43.154709,316.653],[-1.550537,43.154706,318.456],[-1.550479,43.154688,319.298],[-1.550409,43.154698,320.815],[-1.550361,43.154668,323.926],[-1.550293,43.154665,325.909],[-1.550233,43.154688,325.16],[-1.550166,43.154703,325.049],[-1.550123,43.154738,326.084],[-1.550083,43.154773,329.547],[-1.550125,43.154808,331.264],[-1.550182,43.154833,333.765],[-1.550244,43.154866,335.28],[-1.550302,43.154889,336.535],[-1.550357,43.154914,337.558],[-1.550407,43.154944,338.772],[-1.550472,43.154982,339.913],[-1.550534,43.155012,338.214],[-1.550592,43.155057,336.909],[-1.55064,43.155097,335.858],[-1.550705,43.155097,335.087],[-1.550765,43.155124,337.112],[-1.55083,43.155142,339.375],[-1.550888,43.155164,340.682],[-1.550958,43.155186,342.713],[-1.55098,43.155229,351.658],[-1.551015,43.155191,352.463],[-1.551033,43.155243,352.086],[-1.551101,43.15533,351.647],[-1.551166,43.15534,353.229],[-1.551223,43.155358,353.821],[-1.551283,43.155405,355.409],[-1.551321,43.155442,357.035],[-1.551381,43.155457,360.714],[-1.551436,43.155499,362.949],[-1.551494,43.155534,363.572],[-1.551546,43.155562,364.099],[-1.551608,43.155552,363.93],[-1.551691,43.155554,362.565],[-1.551773,43.155576,361.18],[-1.551873,43.155578,364.073],[-1.551935,43.155586,365.075],[-1.55201,43.155604,367.628],[-1.552362,43.155609,368.42],[-1.552439,43.155634,368.009],[-1.552509,43.155619,366.528],[-1.552571,43.155632,366.817],[-1.552638,43.155644,367.612],[-1.5527,43.155649,368.345],[-1.552755,43.155681,369.842],[-1.552852,43.155751,372.073],[-1.552922,43.155778,374.058],[-1.55303,43.155816,378.083],[-1.553093,43.155833,379.836],[-1.553145,43.15586,379.612],[-1.55321,43.155875,379.632],[-1.553272,43.155893,380.205],[-1.553329,43.155916,381.809],[-1.553377,43.155954,383.272],[-1.553374,43.155999,384.151],[-1.553369,43.156046,386.236],[-1.553321,43.156086,388.839],[-1.553274,43.156118,390.796],[-1.553249,43.156161,392.457],[-1.553207,43.156194,395.422],[-1.553154,43.156224,397.037],[-1.553109,43.156256,398.87],[-1.553077,43.156308,398.469],[-1.553045,43.156358,398.704],[-1.552998,43.156393,399.824],[-1.553006,43.156438,399.709],[-1.553054,43.156471,398.787],[-1.553122,43.156513,397.846],[-1.553182,43.156493,399.561],[-1.553245,43.156493,399.534],[-1.553317,43.156505,401.111],[-1.553385,43.156523,401.782],[-1.553447,43.156541,402.427],[-1.553504,43.156566,403.012],[-1.553541,43.156606,403.945],[-1.553578,43.156648,405.184],[-1.553626,43.156691,407.507],[-1.553629,43.156741,408.917],[-1.553679,43.156811,410.809],[-1.553706,43.156854,412.229],[-1.553779,43.156896,410.648],[-1.553799,43.156954,409.523],[-1.553729,43.156967,423.376],[-1.553726,43.157012,423.093],[-1.553668,43.157035,423.314],[-1.553608,43.157068,420.549],[-1.55355,43.157086,419.214],[-1.553485,43.157101,420.237],[-1.55343,43.157131,420.954],[-1.553377,43.157164,421.656],[-1.55333,43.157201,423.611],[-1.553295,43.157239,424.409],[-1.553248,43.157274,423.326],[-1.553198,43.157311,424.435],[-1.55314,43.157329,425.15],[-1.553092,43.157357,427.653],[-1.553054,43.157394,430.44],[-1.553037,43.157442,434.511],[-1.553024,43.157487,433.226],[-1.553087,43.157524,432.471],[-1.553159,43.157532,431.824],[-1.553222,43.157525,431.179],[-1.553289,43.157533,431.405],[-1.553346,43.157571,431.225],[-1.553401,43.157601,431.309],[-1.553449,43.157639,432.428],[-1.553496,43.157677,433.347],[-1.553549,43.157709,434.962],[-1.553607,43.157751,435.845],[-1.553645,43.157789,436.432],[-1.553702,43.157822,436.623],[-1.553749,43.157862,438.888],[-1.553796,43.157895,440.723],[-1.553844,43.157938,444.126],[-1.553906,43.157963,447.584],[-1.553949,43.158001,446.907],[-1.553979,43.158044,446.717],[-1.554019,43.158082,446.909],[-1.554064,43.158115,446.679],[-1.554109,43.158158,446.928],[-1.554147,43.158196,447.663],[-1.554187,43.158233,447.856],[-1.554232,43.158268,447.913],[-1.554287,43.158301,448.364],[-1.554344,43.158326,449.349],[-1.554391,43.158361,449.324],[-1.554456,43.158389,450.457],[-1.554514,43.158421,451.959],[-1.554556,43.158456,454.103],[-1.554618,43.158478,458.623],[-1.554656,43.15852,459.909],[-1.554693,43.158562,462.516],[-1.554668,43.158604,465.225],[-1.554613,43.158629,466.29],[-1.554551,43.158661,467.093],[-1.554504,43.158693,469.76],[-1.554464,43.158736,471.471],[-1.554402,43.158774,472.766],[-1.553544,43.159019,495.471],[-1.553476,43.159042,496.114],[-1.553418,43.159067,497.081],[-1.553383,43.15911,495.961],[-1.553403,43.159153,496.017],[-1.55342,43.159221,494.009],[-1.553522,43.159324,492.089],[-1.553582,43.159357,491.178],[-1.5536,43.159402,491.173],[-1.553635,43.15944,491.176],[-1.553678,43.159473,491.253],[-1.55372,43.159506,492.284],[-1.553725,43.159558,493.559],[-1.553758,43.159603,495.524],[-1.553793,43.159653,497.457],[-1.553846,43.159685,498.976],[-1.553893,43.159715,499.89],[-1.553941,43.15975,505.719],[-1.553979,43.159795,506.409],[-1.554004,43.159838,506.298],[-1.554034,43.159881,505.147],[-1.554087,43.159911,504.382],[-1.554129,43.159949,504.675],[-1.554167,43.159986,505.382],[-1.554205,43.160024,506.883],[-1.554263,43.160059,506.778],[-1.55431,43.160091,506.693],[-1.554368,43.160116,507.736],[-1.554403,43.160163,509.739],[-1.554455,43.1602,511.801],[-1.554507,43.160228,513.221],[-1.554527,43.160276,514.209],[-1.554565,43.160314,514.914],[-1.554608,43.160352,514.963],[-1.554656,43.160384,516.048],[-1.554699,43.160424,516.321],[-1.554722,43.160466,518.828],[-1.554779,43.160531,527.689],[-1.554784,43.160579,531.184],[-1.554807,43.160626,530.829],[-1.554819,43.160673,529.052],[-1.554836,43.16072,527.547],[-1.554863,43.160767,526.129],[-1.55491,43.160804,525.421],[-1.55495,43.160841,525.109],[-1.555008,43.160889,524.845],[-1.555056,43.160927,524.134],[-1.555116,43.160949,525.389],[-1.555173,43.160967,525.272],[-1.555228,43.161004,525.039],[-1.555286,43.161027,524.52],[-1.555353,43.161045,523.035],[-1.555408,43.161082,523.08],[-1.555476,43.161107,522.813],[-1.555534,43.161147,522.958],[-1.555564,43.161189,527.852],[-1.555631,43.161164,528.817],[-1.555694,43.161186,528.909],[-1.555771,43.161178,528.736],[-1.555844,43.161171,529.485],[-1.555907,43.161193,528.96],[-1.555964,43.161216,529.333],[-1.556024,43.161233,530.66],[-1.556081,43.161255,532.441],[-1.556139,43.161272,532.556],[-1.556191,43.16131,532.361],[-1.556241,43.16134,532.274],[-1.556299,43.161368,533.189],[-1.556362,43.161403,534.106],[-1.556409,43.161433,535.526],[-1.556454,43.161468,536.509],[-1.556509,43.161503,537.299],[-1.556551,43.161543,538.918],[-1.556594,43.161581,539.163],[-1.556654,43.161606,539.646],[-1.556711,43.161639,542.543],[-1.556746,43.161682,545.024],[-1.556811,43.161704,545.169],[-1.556874,43.161721,544.354],[-1.556924,43.161748,543.177],[-1.556977,43.16178,544.342],[-1.557027,43.161818,545.022],[-1.557055,43.161866,545.814],[-1.557092,43.161904,547.109],[-1.55714,43.161937,547.355],[-1.557183,43.161974,547.274],[-1.557203,43.162021,548.069],[-1.557253,43.162056,549.042],[-1.557298,43.162093,550.239],[-1.557333,43.162136,552.06],[-1.557378,43.162176,552.555],[-1.557408,43.162216,553.26],[-1.557458,43.162258,555.083],[-1.557503,43.162301,556.889],[-1.557546,43.162334,557.906],[-1.557604,43.162357,558.426],[-1.557651,43.162387,558.909],[-1.557711,43.162422,559.449],[-1.557743,43.162462,560.458],[-1.557785,43.162505,561.373],[-1.557813,43.162553,563.036],[-1.557851,43.162601,564.473],[-1.557884,43.162641,565.074],[-1.557939,43.162666,565.619],[-1.557976,43.162713,566.394],[-1.558008,43.162756,566.917],[-1.558036,43.162803,566.846],[-1.558064,43.162843,565.688],[-1.558089,43.16289,565.316],[-1.558106,43.162938,565.009],[-1.558118,43.162988,565.375],[-1.558141,43.163031,565.934],[-1.558163,43.163081,566.359],[-1.558201,43.163134,568.512],[-1.558261,43.163166,569.489],[-1.558303,43.163199,569.76],[-1.55834,43.163246,570.135],[-1.558373,43.163298,570.11],[-1.558381,43.163353,569.033],[-1.558406,43.163398,570.125],[-1.558436,43.163443,568.326],[-1.558454,43.163493,566.608],[-1.558486,43.163536,564.309],[-1.558511,43.163584,563.593],[-1.558548,43.163627,562.992],[-1.558585,43.163674,562.517],[-1.558638,43.163702,563.81],[-1.558678,43.163747,565.467],[-1.558703,43.16379,566.448],[-1.558761,43.163823,566.983],[-1.558784,43.163871,567.948],[-1.558826,43.163916,569.451],[-1.558873,43.163949,571.519],[-1.558916,43.163986,574.509],[-1.558944,43.164034,577.019],[-1.558972,43.164089,579.009],[-1.558989,43.164134,580.282],[-1.559032,43.164167,580.041],[-1.559039,43.164215,580.556],[-1.559096,43.164238,581.569],[-1.559116,43.164288,582.756],[-1.559143,43.164333,584.417],[-1.559178,43.164371,586.242],[-1.559211,43.164418,586.267],[-1.559241,43.164468,585.26],[-1.559278,43.164506,584.874],[-1.559308,43.164546,584.256],[-1.559328,43.164599,583.721],[-1.559356,43.164651,586.309],[-1.559381,43.164694,587.948],[-1.559371,43.164742,588.057],[-1.559346,43.164794,588.172],[-1.559324,43.164842,589.275],[-1.559301,43.164894,592.222],[-1.559284,43.164944,594.863],[-1.559279,43.164997,597.218],[-1.559291,43.165044,599.353],[-1.559323,43.165091,600.846],[-1.559363,43.165138,600.874],[-1.559393,43.165188,600.656],[-1.55943,43.165231,600.521],[-1.559458,43.165279,599.909],[-1.559485,43.165326,601.048],[-1.55947,43.165378,601.327],[-1.559433,43.165331,603.962],[-1.559453,43.165381,603.725],[-1.55948,43.165423,603.222],[-1.559513,43.165468,603.893],[-1.559573,43.165511,603.898],[-1.559623,43.165546,604.833],[-1.559671,43.165584,605.666],[-1.559714,43.165632,606.549],[-1.559724,43.165689,606.402],[-1.559762,43.165729,604.922],[-1.559782,43.165772,605.209],[-1.559804,43.165815,606.035],[-1.559807,43.16586,606.324],[-1.559817,43.165908,608.659],[-1.559852,43.165946,611.632],[-1.55988,43.165988,614.559],[-1.559897,43.166033,616.89],[-1.55989,43.166078,619.845],[-1.559887,43.166128,620.09],[-1.559899,43.166178,621.223],[-1.559907,43.166225,622.298],[-1.55995,43.166262,623.615],[-1.55997,43.16634,626.526],[-1.560018,43.166428,628.409],[-1.56005,43.166488,624.93],[-1.560072,43.166531,624.279],[-1.560102,43.166593,626.374],[-1.560137,43.166636,628.557],[-1.560169,43.166683,630.534],[-1.560209,43.166731,630.155],[-1.560289,43.166863,633.36],[-1.560299,43.166908,634.125],[-1.560344,43.166976,636.478],[-1.560352,43.167028,640.177],[-1.56039,43.167101,641.361],[-1.560393,43.167149,642.527],[-1.56037,43.167192,645.009],[-1.560378,43.16724,645.888],[-1.560375,43.167288,646.467],[-1.560397,43.167338,648.132],[-1.560424,43.167381,653.135],[-1.560464,43.167428,654.012],[-1.560529,43.167496,655.313],[-1.560546,43.167553,656.288],[-1.560579,43.167598,656.693],[-1.560622,43.16764,657.096],[-1.560665,43.167677,658.352],[-1.560725,43.167689,659.753],[-1.560762,43.167732,660.108],[-1.56079,43.167774,662.809],[-1.56082,43.167826,666.376],[-1.560845,43.167871,667.195],[-1.560875,43.167911,667.25],[-1.560892,43.167954,668.983],[-1.560909,43.168001,669.55],[-1.560966,43.168038,669.521],[-1.561011,43.16807,671.246],[-1.561064,43.168095,672.991],[-1.561106,43.168132,672.644],[-1.561138,43.168179,673.493],[-1.561181,43.168212,674.365],[-1.561246,43.168227,674.821],[-1.561308,43.168239,676.609],[-1.56138,43.168239,676.73],[-1.56143,43.168269,675.569],[-1.561482,43.168297,674.414],[-1.561534,43.168327,672.387],[-1.561581,43.168357,670.824],[-1.561626,43.16839,670.845],[-1.561673,43.16842,671.32],[-1.561728,43.168448,672.985],[-1.561786,43.168468,673.468],[-1.561844,43.168501,672.126],[-1.561884,43.168539,672.747],[-1.561944,43.168557,674.511],[-1.562007,43.168572,675.409],[-1.562065,43.168587,676.363],[-1.56211,43.168624,677.472],[-1.562148,43.168662,679.377],[-1.562211,43.16868,680.84],[-1.562278,43.168708,681.727],[-1.562331,43.168738,682.578],[-1.562391,43.168765,683.533],[-1.562444,43.168797,684.588],[-1.562492,43.168827,685.151],[-1.562557,43.168852,686.468],[-1.562597,43.16889,686.142],[-1.562664,43.168907,686.526],[-1.562722,43.168924,687.509],[-1.56278,43.168941,688.417],[-1.56283,43.168976,690.976],[-1.562885,43.169004,691.941],[-1.562948,43.169019,691.174],[-1.563011,43.169046,690.961],[-1.563068,43.169076,691.452],[-1.563125,43.169103,692.077],[-1.563183,43.169126,694.952],[-1.563248,43.169138,696.875],[-1.563313,43.16915,695.673],[-1.563373,43.169188,695.985],[-1.563426,43.169218,695.713],[-1.563484,43.169235,695.809],[-1.563536,43.169268,695.878],[-1.563603,43.169285,694.657],[-1.563708,43.169292,695.692],[-1.563773,43.169317,698.255],[-1.563848,43.16937,702.382],[-1.56391,43.16937,707.153],[-1.563962,43.169408,709.728],[-1.564009,43.16945,710.453],[-1.564069,43.169472,710.536],[-1.564122,43.169505,711.019],[-1.564089,43.169545,713.909],[-1.564017,43.169545,715.319],[-1.563949,43.169555,719.009],[-1.563891,43.169577,721.242],[-1.563841,43.169615,717.041],[-1.563773,43.16963,717.466],[-1.563698,43.169655,718.869],[-1.563633,43.169672,718.936],[-1.56356,43.169685,719.437],[-1.563502,43.169718,718.672],[-1.563445,43.169745,719.217],[-1.56339,43.16977,721.48],[-1.56333,43.169788,722.695],[-1.563295,43.169826,724.049],[-1.563258,43.169863,725.923],[-1.563191,43.169888,727.409],[-1.563136,43.169918,729.28],[-1.563106,43.169965,730.469],[-1.563048,43.170005,732.664],[-1.56301,43.170043,733.087],[-1.563008,43.170098,734.094],[-1.563011,43.170143,735.415],[-1.563006,43.170188,738.68],[-1.563006,43.170235,739.325],[-1.563053,43.170287,742.728],[-1.563053,43.17035,745.576],[-1.563093,43.170388,747.59],[-1.563158,43.170396,746.819],[-1.563223,43.170436,747.309],[-1.563301,43.170471,744.548],[-1.563359,43.170491,745.957],[-1.563422,43.170508,748.332],[-1.563484,43.17053,750.285],[-1.563531,43.17056,751.242],[-1.563584,43.170585,753.793],[-1.563626,43.170618,756.098],[-1.563673,43.170648,758.173],[-1.56373,43.170683,757.276],[-1.563775,43.17073,758.815],[-1.563828,43.170767,761.165],[-1.563891,43.170785,765.011],[-1.563938,43.170817,766.809],[-1.563986,43.170852,769.892],[-1.564028,43.170892,770.681],[-1.564083,43.17092,770.676],[-1.564093,43.170965,776.419],[-1.564156,43.17097,774.656],[-1.564204,43.171005,776.057],[-1.564247,43.171045,777.072],[-1.564275,43.17109,778.597],[-1.564303,43.171133,779.37],[-1.564325,43.171181,780.771],[-1.564392,43.171194,778.341],[-1.564422,43.171234,777.015],[-1.56449,43.171241,778.909],[-1.564545,43.171264,779.548],[-1.564603,43.171284,782.537],[-1.56465,43.171324,786.292],[-1.564695,43.171361,791.945],[-1.564737,43.171399,794.322],[-1.564799,43.171414,793.233],[-1.564862,43.171431,792.828],[-1.564904,43.171466,792.413],[-1.564967,43.171481,792.036],[-1.565027,43.171494,790.723],[-1.56509,43.171501,790.483],[-1.565152,43.171516,793.211],[-1.565182,43.171563,795.109],[-1.56522,43.171601,796.673],[-1.56527,43.171628,797.562],[-1.565318,43.171663,799.067],[-1.565376,43.171678,800.37],[-1.565413,43.171718,802.157],[-1.565458,43.171751,803.518],[-1.565501,43.171786,805.273],[-1.565566,43.171806,805.968],[-1.565628,43.171811,804.771],[-1.565691,43.171823,804.099],[-1.565753,43.171848,804.807],[-1.565821,43.17186,806.727],[-1.565868,43.171893,808.409],[-1.565898,43.171938,810.93],[-1.56591,43.171985,813.369],[-1.565985,43.171998,810.234],[-1.566017,43.172045,810.747],[-1.566059,43.172082,811.324],[-1.566122,43.172084,812.665],[-1.56618,43.172111,814.57],[-1.566245,43.172121,814.995],[-1.566285,43.172158,818.958],[-1.566337,43.172185,822.332],[-1.566377,43.172225,824.092],[-1.566419,43.172262,825.811],[-1.566472,43.172285,825.809],[-1.566537,43.17228,827.384],[-1.566599,43.172307,829.843],[-1.566646,43.17234,830.638],[-1.566703,43.172362,832.021],[-1.566758,43.172395,833.788],[-1.566816,43.17241,835.669],[-1.566879,43.17244,836.254],[-1.566912,43.172485,835.799],[-1.566962,43.172513,834.722],[-1.567027,43.172528,835.167],[-1.56708,43.172558,837.581],[-1.56713,43.172588,839.819],[-1.567183,43.172611,841.609],[-1.567248,43.172621,841.657],[-1.567311,43.172641,842.496],[-1.567358,43.172673,843.921],[-1.567418,43.172701,844.444],[-1.567463,43.172734,846.161],[-1.567503,43.172781,851.742],[-1.56751,43.172833,854.617],[-1.567513,43.172881,856.912],[-1.567478,43.172924,860.965],[-1.567455,43.172971,862.381],[-1.567435,43.173016,864.061],[-1.567415,43.173068,864.817],[-1.5674,43.173115,865.309],[-1.567393,43.173168,864.419],[-1.567365,43.173218,864.248],[-1.56737,43.17327,864.853],[-1.56736,43.17332,865.256],[-1.567372,43.173365,866.093],[-1.567369,43.173418,868.374],[-1.567366,43.173463,869.259],[-1.567359,43.173513,871.124],[-1.567366,43.17356,872.157],[-1.567373,43.173613,872.417],[-1.567381,43.173665,872.087],[-1.567383,43.173713,871.115],[-1.5674,43.173756,870.709],[-1.567415,43.173804,870.272],[-1.567462,43.173839,870.421],[-1.567512,43.173872,871.976],[-1.567577,43.17388,867.269],[-1.567544,43.173918,872.526],[-1.567569,43.17386,872.667],[-1.567554,43.173927,874.172],[-1.567511,43.17396,872.627],[-1.567441,43.173973,872.84],[-1.567476,43.17393,868.258],[-1.567531,43.173907,866.952],[-1.567461,43.173927,869.517],[-1.567426,43.173965,874.909],[-1.567456,43.173923,867.116],[-1.567484,43.17388,866.615],[-1.567444,43.17384,867.88],[-1.567444,43.173785,864.593],[-1.567462,43.173738,861.34],[-1.56747,43.17369,856.611],[-1.567493,43.173648,854.956],[-1.567501,43.173591,855.991],[-1.567504,43.173544,858.014],[-1.567479,43.173499,859.474],[-1.567417,43.173461,861.756],[-1.5674,43.173411,861.221],[-1.567402,43.173359,859.909],[-1.567405,43.173307,858.558],[-1.56741,43.173255,857.397],[-1.567403,43.173205,855.912],[-1.567426,43.173162,855.235],[-1.567436,43.173107,855.232],[-1.567443,43.173052,854.963],[-1.56747,43.173,855.078],[-1.5675,43.172955,855.113],[-1.567487,43.172908,855.886],[-1.56746,43.172866,855.828],[-1.567432,43.172823,856.089],[-1.567372,43.172793,856.517],[-1.567297,43.172761,855.309],[-1.56724,43.172738,854.243],[-1.567185,43.1727,853.042],[-1.567133,43.172655,851.157],[-1.567096,43.172602,849.02],[-1.567053,43.172555,847.137],[-1.567005,43.17252,846.238],[-1.566942,43.17249,844.553],[-1.566877,43.17245,843.268],[-1.56681,43.172405,842.051],[-1.566753,43.172367,840.834],[-1.566691,43.172354,839.955],[-1.566611,43.172327,838.21],[-1.566554,43.172309,837.509],[-1.566484,43.172276,835.984],[-1.566417,43.172256,833.553],[-1.566359,43.172218,831.758],[-1.566316,43.17217,828.191],[-1.566258,43.172137,827.828],[-1.56619,43.172105,826.239],[-1.566132,43.172078,824.134],[-1.566054,43.172048,822.059],[-1.565977,43.172011,819.742],[-1.565899,43.171974,817.394],[-1.565836,43.171961,817.057],[-1.565768,43.171939,815.722],[-1.565746,43.171892,814.309],[-1.565679,43.171865,814.48],[-1.565604,43.17184,813.219],[-1.565562,43.171802,811.784],[-1.5655,43.171785,809.097],[-1.565427,43.171767,807.174],[-1.565382,43.171732,805.715],[-1.56533,43.171704,803.64],[-1.565278,43.171677,801.985],[-1.56523,43.171649,799.868],[-1.565177,43.171611,798.668],[-1.565125,43.171574,797.842],[-1.56507,43.171549,796.226],[-1.565008,43.171511,793.909],[-1.564948,43.171488,791.447],[-1.564895,43.17146,790.956],[-1.56484,43.171427,789.541],[-1.564783,43.171407,788.884],[-1.564736,43.171374,786.851],[-1.564686,43.171334,784.732],[-1.564636,43.171301,783.027],[-1.564578,43.171274,782.112],[-1.564518,43.171246,781.425],[-1.564455,43.171223,780.467],[-1.5644,43.171195,779.881],[-1.564342,43.17116,780.019],[-1.564297,43.171125,779.909],[-1.564264,43.171085,779.737],[-1.564211,43.17106,780.226],[-1.564171,43.171022,780.491],[-1.564128,43.170975,780.814],[-1.564086,43.170938,779.141],[-1.564046,43.1709,777.552],[-1.564009,43.170858,776.487],[-1.563947,43.170825,775.722],[-1.563897,43.170798,773.685],[-1.56385,43.170768,772.315],[-1.563802,43.170736,770.165],[-1.563757,43.170701,768.811],[-1.563707,43.170674,768.309],[-1.56365,43.170634,766.882],[-1.563603,43.170599,766.111],[-1.563558,43.170566,764.796],[-1.563508,43.170533,762.759],[-1.563436,43.17052,761.736],[-1.563369,43.170493,759.967],[-1.563307,43.17046,757.432],[-1.563269,43.170422,755.567],[-1.563196,43.170405,752.89],[-1.563124,43.170385,750.979],[-1.563091,43.170345,749.005],[-1.563088,43.170298,746.525],[-1.563076,43.170253,744.209],[-1.563046,43.170206,741.838],[-1.563039,43.170156,738.757],[-1.563027,43.170101,736.652],[-1.563044,43.170053,734.375],[-1.563092,43.170013,731.032],[-1.563132,43.169971,728.543],[-1.563179,43.169941,726.168],[-1.563221,43.169906,724.373],[-1.563293,43.169899,722.826],[-1.56334,43.169864,722.647],[-1.563397,43.169839,721.129],[-1.56344,43.169804,719.321],[-1.563462,43.169759,718.609],[-1.56353,43.169739,716.185],[-1.563592,43.169716,714.134],[-1.563664,43.169693,712.419],[-1.563726,43.169673,711.422],[-1.563801,43.169645,710.079],[-1.563864,43.169633,709.75],[-1.563929,43.169615,710.095],[-1.563996,43.169603,709.86],[-1.564081,43.169596,709.993],[-1.564139,43.169576,708.591],[-1.564161,43.169531,708.281],[-1.564104,43.169479,707.419],[-1.564054,43.169446,706.109],[-1.563989,43.169416,705.13],[-1.563929,43.169398,705.279],[-1.563864,43.169381,705.664],[-1.563802,43.169358,704.817],[-1.563764,43.169318,703.924],[-1.563709,43.169288,703.945],[-1.563649,43.169265,704.25],[-1.563587,43.169245,702.915],[-1.563527,43.169228,701.998],[-1.563462,43.169205,701.125],[-1.563395,43.16918,701.326],[-1.563328,43.169162,702.108],[-1.563268,43.169147,700.909],[-1.563211,43.169125,699.843],[-1.563156,43.1691,698.262],[-1.563101,43.169073,696.377],[-1.563034,43.169063,697.52],[-1.562964,43.16904,695.237],[-1.562896,43.169015,693.798],[-1.562829,43.168987,691.743],[-1.562772,43.16896,690.418],[-1.562702,43.168933,688.931],[-1.562634,43.168891,687.733],[-1.562579,43.168866,686.223],[-1.562522,43.168841,684.515],[-1.562457,43.168811,681.209],[-1.562405,43.168778,679.694],[-1.562348,43.16875,679.213],[-1.562285,43.168722,677.248],[-1.562225,43.168695,676.261],[-1.562173,43.168667,675.018],[-1.56212,43.168642,674.579],[-1.562053,43.168615,673.064],[-1.561991,43.168588,673.689],[-1.561924,43.168561,674.952],[-1.561851,43.168533,674.689],[-1.561799,43.168505,673.806],[-1.561744,43.168468,673.926],[-1.561684,43.16844,673.409],[-1.561631,43.168413,672.659],[-1.561586,43.168371,671.568],[-1.561529,43.168336,670.673],[-1.561472,43.168308,669.846],[-1.561419,43.168285,668.723],[-1.561366,43.168255,666.044],[-1.561308,43.168232,665.539],[-1.561245,43.16821,666.474],[-1.561192,43.168172,666.717],[-1.561145,43.168125,667.312],[-1.561103,43.168087,665.932],[-1.561046,43.168049,664.105],[-1.560996,43.168011,663.009],[-1.560941,43.167983,661.512],[-1.560909,43.167941,659.311],[-1.560879,43.167899,658.266],[-1.560866,43.167851,656.889],[-1.560841,43.167808,655.746],[-1.560803,43.167765,655.077],[-1.560781,43.167718,655.312],[-1.560734,43.167681,654.697],[-1.560686,43.167651,653.13],[-1.560654,43.167606,653.214],[-1.560627,43.167559,651.354],[-1.560589,43.167519,651.509],[-1.560554,43.167476,651.209],[-1.560512,43.167438,650.412],[-1.560479,43.167398,648.431],[-1.560429,43.167348,648.336],[-1.560414,43.1673,647.899],[-1.560396,43.167257,647.166],[-1.560394,43.167207,646.127],[-1.560382,43.167159,643.972],[-1.560385,43.167114,641.417],[-1.560393,43.167069,639.88],[-1.560375,43.167016,635.475],[-1.560363,43.166966,634.528],[-1.56033,43.166919,633.42],[-1.560312,43.166876,633.809],[-1.560277,43.166831,633.518],[-1.560252,43.166784,632.167],[-1.560225,43.166736,630.282],[-1.560198,43.166693,627.935],[-1.560168,43.166646,627.152],[-1.560151,43.166596,629.273],[-1.560118,43.166551,627.738],[-1.560081,43.166514,626.423],[-1.560063,43.166469,625.876],[-1.560011,43.166426,624.863],[-1.560006,43.166378,624.244],[-1.560001,43.166333,622.818],[-1.559951,43.166295,621.709],[-1.559928,43.16625,620.227],[-1.559911,43.166203,618.886],[-1.559904,43.166156,617.411],[-1.559889,43.166086,616.344],[-1.559894,43.166031,615.041],[-1.559877,43.165971,613.542],[-1.55987,43.165926,612.057],[-1.559828,43.165878,611.122],[-1.559821,43.16583,610.265],[-1.559793,43.165777,609.299],[-1.55976,43.16572,607.107],[-1.559708,43.165677,604.427],[-1.55967,43.165639,603.409],[-1.55964,43.165599,603.06],[-1.559602,43.165554,601.349],[-1.559557,43.165509,600.624],[-1.55952,43.165461,599.377],[-1.559492,43.165421,598.884],[-1.559477,43.165374,599.065],[-1.559454,43.165322,598.79],[-1.559434,43.165277,598.255],[-1.559407,43.165232,597.458],[-1.559364,43.165185,595.246],[-1.559342,43.165135,594.988],[-1.559325,43.165088,595.316],[-1.559337,43.165038,594.309],[-1.559327,43.164993,593.795],[-1.55933,43.164948,594.294],[-1.55934,43.164903,592.859],[-1.559358,43.164855,591.352],[-1.559381,43.164807,589.969],[-1.559384,43.164754,589.01],[-1.559404,43.164711,588.135],[-1.559382,43.164663,588.68],[-1.559352,43.164616,588.383],[-1.559314,43.164563,587.371],[-1.559269,43.16452,586.541],[-1.559224,43.164487,585.015],[-1.559206,43.164435,583.309],[-1.559169,43.164387,582.678],[-1.559142,43.164344,582.287],[-1.559122,43.164301,582.282],[-1.55907,43.164258,581.995],[-1.559028,43.164216,580.852],[-1.559023,43.164164,581.253],[-1.558986,43.164126,579.338],[-1.558964,43.164078,578.433],[-1.558946,43.164035,577.696],[-1.558914,43.163987,576.415],[-1.558876,43.163942,575.465],[-1.558834,43.1639,573.111],[-1.558789,43.163862,571.109],[-1.558737,43.163827,570.032],[-1.5587,43.163782,569.861],[-1.558653,43.163747,569.756],[-1.55862,43.163707,569.589],[-1.558585,43.163659,569.276],[-1.558547,43.163621,568.317],[-1.558519,43.163576,567.682],[-1.558497,43.163531,566.647],[-1.558465,43.163483,566.79],[-1.558445,43.163435,566.949],[-1.558408,43.16339,567.002],[-1.558373,43.163347,566.822],[-1.558346,43.163299,566.509],[-1.558301,43.163256,566.155],[-1.558259,43.163219,566.224],[-1.558227,43.163177,566.299],[-1.558195,43.163135,566.612],[-1.558175,43.163087,567.319],[-1.558155,43.163039,567.56],[-1.558142,43.162987,567.095],[-1.558127,43.162939,566.35],[-1.558104,43.162889,564.933],[-1.558082,43.162837,563.913],[-1.558059,43.16279,562.643],[-1.558026,43.16274,561.407],[-1.557991,43.162698,560.709],[-1.557953,43.162658,559.522],[-1.557916,43.162616,558.471],[-1.557881,43.162571,557.886],[-1.557839,43.162536,557.359],[-1.557776,43.162489,555.856],[-1.557736,43.162452,555.737],[-1.557691,43.162419,554.922],[-1.557646,43.162384,554.527],[-1.557588,43.162351,553.64],[-1.55753,43.162311,552.462],[-1.557487,43.162278,550.683],[-1.557444,43.162243,550.011],[-1.557407,43.162203,549.309],[-1.55736,43.16217,547.847],[-1.55732,43.162135,546.946],[-1.557272,43.162085,546.111],[-1.557225,43.16204,545.284],[-1.557187,43.161987,544.361],[-1.557137,43.161939,542.962],[-1.557089,43.161892,542.267],[-1.557052,43.161849,541.532],[-1.55701,43.161811,542.385],[-1.556957,43.161781,542.692],[-1.556905,43.161756,542.073],[-1.556837,43.161724,541.02],[-1.556782,43.161692,540.409],[-1.556727,43.161654,539.72],[-1.556672,43.161624,539.259],[-1.556615,43.161586,538.744],[-1.556542,43.161543,537.417],[-1.556492,43.161503,536.364],[-1.556422,43.16146,535.375],[-1.55637,43.161427,533.92],[-1.556328,43.161394,529.725],[-1.556283,43.161361,528.378],[-1.55622,43.161333,527.638],[-1.556157,43.161311,527.47],[-1.556099,43.161293,526.717],[-1.556027,43.161261,525.009],[-1.555965,43.161229,523.254],[-1.555903,43.161219,523.243],[-1.555821,43.161221,523.268],[-1.555759,43.161223,522.611],[-1.555684,43.1612,521.188],[-1.555607,43.161183,518.379],[-1.55554,43.16117,517.054],[-1.55549,43.161125,517.559],[-1.555432,43.161088,517.552],[-1.555384,43.161053,516.127],[-1.555317,43.161033,514.368],[-1.555257,43.161011,513.314],[-1.555185,43.160981,511.909],[-1.555123,43.160948,511.813],[-1.555066,43.16091,512.972],[-1.555003,43.160887,513.547],[-1.554963,43.160835,514.13],[-1.554938,43.160793,513.947],[-1.554918,43.160745,513.448],[-1.554898,43.160693,512.433],[-1.554876,43.16065,512.788],[-1.554844,43.160603,513.751],[-1.554802,43.160556,514.051],[-1.554762,43.160504,512.901],[-1.554709,43.160461,513.511],[-1.554662,43.160423,513.909],[-1.554624,43.160385,514.176],[-1.554562,43.160343,514.125],[-1.554517,43.160306,512.91],[-1.554475,43.160271,511.693],[-1.554432,43.160231,510.46],[-1.554395,43.160184,509.541],[-1.554345,43.160149,508.736],[-1.554297,43.160119,508.241],[-1.554257,43.160082,506.484],[-1.554207,43.16005,505.778],[-1.55416,43.160015,504.833],[-1.554115,43.15997,503.026],[-1.554058,43.159922,501.109],[-1.554018,43.159879,500.418],[-1.553993,43.159834,499.327],[-1.553946,43.159792,497.812],[-1.553894,43.159754,496.725],[-1.553841,43.159712,495.292],[-1.553801,43.159675,493.283],[-1.553773,43.159632,491.568],[-1.553728,43.159582,489.183],[-1.553706,43.159539,487.866],[-1.553668,43.159482,487.483],[-1.553633,43.159444,486.725],[-1.553573,43.159409,486.517],[-1.553526,43.159361,485.909],[-1.553483,43.159314,484.259],[-1.553455,43.159256,481.858],[-1.553443,43.159199,479.873],[-1.553448,43.159147,476.716],[-1.553471,43.159095,473.513],[-1.553514,43.15906,471.564],[-1.553582,43.159038,469.499],[-1.553649,43.159023,468.184],[-1.553712,43.159015,466.787],[-1.55378,43.158992,465.795],[-1.55384,43.158969,465.349],[-1.553903,43.158939,463.023],[-1.553966,43.158946,461.109],[-1.554033,43.158954,460.04],[-1.5541,43.158931,457.739],[-1.554175,43.158929,456.694],[-1.554232,43.158902,455.657],[-1.554295,43.158877,455.094],[-1.554347,43.158847,454.295],[-1.554402,43.158804,452.22],[-1.554465,43.158796,451.555],[-1.554527,43.158769,451.258],[-1.554589,43.158734,450.784],[-1.554626,43.158697,448.607],[-1.554671,43.158647,447.917],[-1.554671,43.158585,449.409],[-1.554631,43.158543,448.769],[-1.554586,43.158506,448.688],[-1.554529,43.158478,449.373],[-1.554484,43.158445,450.156],[-1.554432,43.158413,450.663],[-1.554377,43.158378,450.924],[-1.554327,43.158345,450.469],[-1.554259,43.15832,449.774],[-1.554212,43.158282,448.967],[-1.554162,43.158245,448.157],[-1.55412,43.158212,447.6],[-1.554067,43.158165,447.62],[-1.554034,43.158125,447.109],[-1.553976,43.158065,445.776],[-1.553933,43.15802,444.295],[-1.55389,43.157987,443.74],[-1.553835,43.157954,443.223],[-1.553755,43.157912,442.76],[-1.5537,43.157882,441.821],[-1.553647,43.157852,441.326],[-1.553605,43.157814,440.331],[-1.553562,43.157779,438.754],[-1.553509,43.157751,437.234],[-1.553454,43.157726,437.055],[-1.553407,43.157693,437.21],[-1.55336,43.157653,436.309],[-1.55332,43.157613,434.254],[-1.553268,43.157578,431.423],[-1.553223,43.157546,430.038],[-1.553158,43.157529,428.771],[-1.553081,43.157532,427.638],[-1.553043,43.157494,425.669],[-1.553043,43.157441,422.744],[-1.553096,43.157408,422.719],[-1.553118,43.15736,419.462],[-1.553168,43.157327,415.849],[-1.553218,43.157295,413.702],[-1.553273,43.15726,412.922],[-1.553315,43.157223,412.009],[-1.553377,43.157196,409.265],[-1.553425,43.157164,407.634],[-1.553482,43.157139,406.369],[-1.553539,43.157119,405.912],[-1.553619,43.157104,405.119],[-1.553674,43.157077,403.62],[-1.553732,43.157045,401.495],[-1.55375,43.15699,400.21],[-1.55375,43.156938,400.883],[-1.553723,43.156895,401.392],[-1.553683,43.156855,400.873],[-1.553656,43.156808,400.22],[-1.553633,43.156756,399.609],[-1.553583,43.156714,402.98],[-1.553558,43.156667,403.859],[-1.553561,43.15662,403.564],[-1.553494,43.156592,403.077],[-1.553427,43.156562,402.994],[-1.553367,43.156542,402.925],[-1.553305,43.156539,401.54],[-1.553238,43.156542,398.935],[-1.553168,43.15654,396.028],[-1.553101,43.156537,394.133],[-1.553048,43.15651,392.423],[-1.553018,43.156462,390.415],[-1.553006,43.156407,388.809],[-1.553028,43.156354,387.184],[-1.553061,43.156307,384.783],[-1.553113,43.15626,381.698],[-1.553171,43.156215,379.961],[-1.553218,43.156182,378.788],[-1.55326,43.156142,376.939],[-1.553313,43.156094,376.364],[-1.553348,43.156047,375.629],[-1.553373,43.155999,376.672],[-1.553335,43.155944,380.127],[-1.553272,43.155907,380.168],[-1.553207,43.155887,380.314],[-1.553159,43.155857,380.209],[-1.553106,43.155832,379.233],[-1.553029,43.155819,378.052],[-1.552967,43.155812,376.337],[-1.552899,43.155789,375.84],[-1.552839,43.155761,374.847],[-1.552782,43.155731,373.768],[-1.552719,43.155719,372.473],[-1.552652,43.155707,370.448],[-1.55257,43.155687,369.241],[-1.552505,43.155662,368.674],[-1.552443,43.155642,368.556],[-1.552375,43.155657,368.421],[-1.552303,43.15566,367.009],[-1.552236,43.155655,366.278],[-1.552171,43.155645,364.417],[-1.552104,43.155633,364.332],[-1.552031,43.155623,363.945],[-1.551966,43.155623,363.452],[-1.551898,43.155616,362.293],[-1.551825,43.155601,361.228],[-1.55176,43.155594,360.413],[-1.551683,43.155582,359.216],[-1.551605,43.155562,357.411],[-1.551545,43.155544,355.921],[-1.55148,43.155526,353.703],[-1.551413,43.155501,351.709],[-1.551358,43.155466,350.752],[-1.55129,43.155431,349.991],[-1.551233,43.155393,348.316],[-1.551186,43.155358,346.239],[-1.551133,43.155326,345.096],[-1.551065,43.155296,344.137],[-1.551003,43.155269,342.782],[-1.55094,43.155241,341.037],[-1.55089,43.155214,339.62],[-1.550813,43.155186,338.486],[-1.550746,43.155158,338.06],[-1.550694,43.155131,337.126],[-1.550637,43.155099,336.909],[-1.550575,43.155079,336.799],[-1.550522,43.155051,336.088],[-1.550469,43.155009,335.793],[-1.550419,43.154974,335.526],[-1.550364,43.154942,335.053],[-1.550319,43.154904,334.874],[-1.550259,43.154886,333.839],[-1.550172,43.154886,333.044],[-1.550109,43.154853,331.897],[-1.550059,43.154811,331.186],[-1.550039,43.154756,330.46],[-1.550092,43.154719,329.926],[-1.550155,43.154722,328.109],[-1.550233,43.154724,325.589],[-1.550311,43.154722,322.778],[-1.550388,43.154737,321.383],[-1.550451,43.154752,320.146],[-1.550528,43.154749,317.963],[-1.550576,43.154712,316.684],[-1.550611,43.154662,315.879],[-1.550581,43.154615,314.754],[-1.550498,43.154577,312.567],[-1.550428,43.154534,311.277],[-1.550351,43.154501,309.961],[-1.550294,43.154483,309.027],[-1.550226,43.15447,308.509],[-1.550163,43.154448,307.918],[-1.5501,43.154418,306.737],[-1.550035,43.154383,305.542],[-1.549957,43.15436,304.385],[-1.549879,43.154335,302.622],[-1.549811,43.154308,301.753],[-1.549734,43.154283,301.388],[-1.549669,43.154258,301.293],[-1.549607,43.15424,300.246],[-1.54953,43.154227,298.673],[-1.549467,43.154199,298.285],[-1.549392,43.154187,297.013],[-1.54933,43.15418,296.009],[-1.549265,43.154168,295.228],[-1.549203,43.15417,293.847],[-1.549141,43.154173,293.042],[-1.549039,43.15415,292.485],[-1.548976,43.154148,291.642],[-1.548913,43.15413,291.363],[-1.548853,43.154102,291.268],[-1.548788,43.154097,290.073],[-1.548726,43.154069,289.496],[-1.548658,43.154034,288.712],[-1.548605,43.153996,288.332],[-1.548557,43.153964,288.105],[-1.548505,43.153934,287.409],[-1.548445,43.153914,285.742],[-1.548383,43.153894,284.531],[-1.548313,43.153877,283.516],[-1.548251,43.153869,282.059],[-1.548186,43.153869,281.146],[-1.548119,43.153847,280.057],[-1.548061,43.153822,279.112],[-1.547999,43.153794,278.177],[-1.547924,43.153749,276.92],[-1.547856,43.153737,274.343],[-1.547801,43.15369,270.264],[-1.547744,43.153662,268.61],[-1.547697,43.153622,268.109],[-1.547637,43.153595,267.825],[-1.547575,43.15356,269.834],[-1.547535,43.153517,270.949],[-1.547472,43.153485,271.042],[-1.54741,43.153463,269.819],[-1.547352,43.15342,268.25],[-1.5473,43.153385,267.515],[-1.547237,43.153355,265.94],[-1.547164,43.153333,265.073],[-1.547091,43.1533,263.697],[-1.547028,43.15327,262.723],[-1.54698,43.153242,262.225],[-1.546907,43.153209,261.309],[-1.546832,43.153189,260.29],[-1.546765,43.153167,259.229],[-1.546703,43.153155,257.594],[-1.546616,43.153142,254.937],[-1.546539,43.153127,253.714],[-1.546456,43.153097,252.365],[-1.546371,43.153067,250.36],[-1.546293,43.153044,249.495],[-1.546226,43.153016,248.328],[-1.546153,43.152988,247.731],[-1.546078,43.152963,247.761],[-1.546005,43.15296,245.507],[-1.545952,43.152937,244.609],[-1.545897,43.152907,243.374],[-1.545837,43.15288,241.683],[-1.545775,43.152858,240.898],[-1.545703,43.152845,240.881],[-1.545643,43.152828,240.028],[-1.545575,43.152803,239.599],[-1.545507,43.152791,239.094],[-1.545444,43.152761,236.159],[-1.545394,43.152733,233.872],[-1.545336,43.152705,233.695],[-1.545271,43.152667,234.049],[-1.545226,43.152635,234.423],[-1.545151,43.152622,230.209],[-1.545093,43.152599,225.61],[-1.545041,43.152567,223.919],[-1.544999,43.152534,222.834],[-1.544947,43.152496,220.557],[-1.544887,43.152459,217.434],[-1.54481,43.152439,215.055],[-1.54475,43.152416,213.62],[-1.544683,43.152384,213.365],[-1.544623,43.152372,214.218],[-1.544558,43.152347,215.148],[-1.544475,43.152335,214.161],[-1.544397,43.15232,213.717],[-1.544314,43.152307,213.609],[-1.544234,43.152302,212.755],[-1.544159,43.152294,212.394],[-1.544067,43.152301,212.029],[-1.543994,43.152288,211.992],[-1.543947,43.15225,213.319],[-1.543932,43.152192,212.39],[-1.543932,43.152139,211.545],[-1.543934,43.152094,209.88],[-1.543924,43.152042,207.313],[-1.543896,43.151999,207.783],[-1.543898,43.152044,208.025],[-1.543915,43.152094,209.417],[-1.543925,43.152146,213.709],[-1.543903,43.152193,216.399],[-1.543845,43.152213,216.888],[-1.543775,43.152233,215.823],[-1.543705,43.152245,214.836],[-1.543635,43.15224,214.993],[-1.543573,43.152235,215.254],[-1.543495,43.152237,215.749],[-1.543438,43.152267,214.364],[-1.543378,43.152285,213.557],[-1.54331,43.152292,213.463],[-1.54324,43.152297,213.344],[-1.543183,43.152272,213.018],[-1.543191,43.152322,217.409],[-1.543134,43.152275,217.457],[-1.543109,43.152217,216.816],[-1.543099,43.152164,215.561],[-1.543092,43.152112,213.844],[-1.54306,43.152072,212.861],[-1.543018,43.152024,212.772],[-1.542978,43.151976,212.477],[-1.542936,43.151933,212.572],[-1.542921,43.151886,211.135],[-1.542868,43.151849,214.554],[-1.542836,43.151802,216.256],[-1.542831,43.151757,215.811],[-1.542819,43.151709,214.309],[-1.542792,43.151667,212.936],[-1.542744,43.151632,210.915],[-1.542716,43.151582,210.45],[-1.542701,43.151535,209.913],[-1.542673,43.151482,207.98],[-1.542626,43.151447,205.451],[-1.542619,43.1514,203.466],[-1.542597,43.151352,201.891],[-1.542582,43.151305,201.054],[-1.542547,43.151257,202.134],[-1.542557,43.151202,203.455],[-1.542555,43.151149,203.31],[-1.542532,43.151104,204.309],[-1.542522,43.151047,204.884],[-1.542504,43.151002,204.813],[-1.542484,43.150955,206.158],[-1.542469,43.150908,207.691],[-1.542461,43.150855,208.138],[-1.542449,43.150808,208.159],[-1.542457,43.150763,209.144],[-1.542434,43.150703,209.919],[-1.542419,43.150655,208.852],[-1.542422,43.150603,208.979],[-1.54243,43.150558,209.505],[-1.542427,43.150496,210.325],[-1.542459,43.150438,211.309],[-1.542462,43.150388,212.058],[-1.542457,43.150336,212.347],[-1.542432,43.150286,212.372],[-1.542395,43.150243,212.845],[-1.54235,43.150198,214.212],[-1.542288,43.150161,215.653],[-1.542226,43.150128,215.918],[-1.542171,43.150091,217.253],[-1.542126,43.150059,218.046],[-1.542079,43.150024,218.057],[-1.542037,43.149989,219.2],[-1.542002,43.149951,218.42],[-1.542,43.149901,218.209],[-1.542005,43.149854,218.046],[-1.541988,43.149801,218.275],[-1.541973,43.149754,218.64],[-1.541971,43.149709,217.833],[-1.541968,43.149662,217.87],[-1.541958,43.149604,216.961],[-1.541943,43.149557,216.636],[-1.541916,43.149505,216.151],[-1.541888,43.149463,216.024],[-1.541876,43.14941,215.688],[-1.541863,43.149362,216.724],[-1.541826,43.149314,216.726],[-1.541816,43.149257,215.509],[-1.541811,43.149207,215.279],[-1.541809,43.149149,213.678],[-1.541806,43.149096,213.243],[-1.541791,43.149048,213.996],[-1.541763,43.149,214.273],[-1.541741,43.148952,213.894],[-1.541734,43.148904,213.799],[-1.541729,43.148857,214.934],[-1.541714,43.148809,214.937],[-1.541689,43.148767,215.384],[-1.541652,43.148724,215.507],[-1.541619,43.148679,216.717],[-1.541597,43.148632,217.509],[-1.541579,43.148574,220.359],[-1.541559,43.148521,219.558],[-1.541539,43.148469,218.413],[-1.541527,43.148416,219.036],[-1.541522,43.148364,218.813],[-1.541504,43.148319,218.794],[-1.541461,43.148272,219.329],[-1.541421,43.148235,221.264],[-1.541379,43.148195,223.197],[-1.541327,43.148163,225.184],[-1.541274,43.14813,226.307],[-1.541222,43.148095,225.917],[-1.54117,43.14807,227.709],[-1.541125,43.148038,228.949],[-1.541077,43.148008,229.558],[-1.541034,43.147966,228.153],[-1.540989,43.147933,228.586],[-1.540931,43.147895,229.833],[-1.540888,43.14785,229.794],[-1.540841,43.147815,229.579],[-1.540774,43.147788,230.754],[-1.540727,43.147736,232.337],[-1.54071,43.147693,231.911],[-1.540678,43.147653,231.221],[-1.540656,43.147606,229.503],[-1.540634,43.147561,227.909],[-1.540609,43.147519,227.982],[-1.540591,43.147472,230.031],[-1.540563,43.147425,231.026],[-1.540556,43.147375,230.379],[-1.540543,43.147322,229.176],[-1.540546,43.147267,227.777],[-1.540524,43.14722,227.952],[-1.540499,43.147175,228.147],[-1.540494,43.147125,228.15],[-1.540496,43.14707,228.357],[-1.540473,43.147027,228.2],[-1.540428,43.146989,228.32],[-1.540381,43.146957,228.509],[-1.540326,43.146919,230.426],[-1.540274,43.146884,231.865],[-1.540227,43.146841,232.65],[-1.540179,43.146809,233.013],[-1.540147,43.146751,230.94],[-1.540134,43.146706,229.791],[-1.540087,43.146668,228.816],[-1.54003,43.146636,227.711],[-1.539992,43.146593,229.064],[-1.539957,43.146555,230.064],[-1.539925,43.146505,231.206],[-1.539907,43.14645,231.516],[-1.539904,43.14639,232.609],[-1.539807,43.146175,233.557],[-1.539752,43.146147,233.956],[-1.539712,43.146089,234.621],[-1.53971,43.146042,234.814],[-1.539702,43.145989,235.681],[-1.53969,43.145931,235.752],[-1.53968,43.145873,233.927],[-1.539637,43.145821,236.192],[-1.539625,43.145774,239.485],[-1.539622,43.145727,239.687],[-1.539622,43.145682,239.742],[-1.539617,43.145617,239.326],[-1.539619,43.145557,239.509],[-1.539634,43.14551,240.369],[-1.539617,43.145458,238.948]]}}]}