{"type":"FeatureCollection","features":[{"type":"Feature","properties":{"ruta_id":"106797317","nombre":"OTSOGORRIGAINA (1920 m) desde LARRAU","blog_url":"https://www.rutasporelmonte.com/otsogorrigaina-desde-larrau/"},"geometry":{"type":"LineString","coordinates":[[-0.994078,42.974318,1583.435],[-0.993985,42.97429,1582.786],[-0.994013,42.974352,1583.014],[-0.993953,42.974337,1582.509],[-0.993891,42.974334,1582.074],[-0.993841,42.974302,1581.113],[-0.993801,42.974267,1580.539],[-0.993751,42.974232,1579.99],[-0.993689,42.974207,1579.322],[-0.993652,42.974167,1579.45],[-0.993597,42.974132,1578.126],[-0.99354,42.974105,1576.884],[-0.993505,42.974053,1575.75],[-0.993448,42.974018,1574.625],[-0.993376,42.974013,1573.926],[-0.993313,42.973988,1573.308],[-0.993245,42.973983,1572.909],[-0.993177,42.97399,1572.553],[-0.993104,42.973987,1572.232],[-0.993034,42.973977,1572.018],[-0.992959,42.973982,1571.519],[-0.992896,42.973994,1571.071],[-0.992824,42.973972,1571.199],[-0.992757,42.973962,1571.145],[-0.992692,42.973949,1571.313],[-0.99263,42.973931,1571.769],[-0.992573,42.973911,1572.378],[-0.99251,42.973898,1572.733],[-0.992443,42.973886,1572.926],[-0.992381,42.973878,1572.809],[-0.992308,42.97387,1572.788],[-0.992248,42.973858,1572.687],[-0.992186,42.973843,1572.723],[-0.992118,42.973816,1573.034],[-0.992053,42.973806,1573.496],[-0.991986,42.973788,1574.024],[-0.991913,42.973768,1574.61],[-0.991845,42.973746,1575.368],[-0.991785,42.973726,1575.994],[-0.991723,42.973696,1576.951],[-0.991656,42.973678,1577.801],[-0.991601,42.973656,1578.511],[-0.991534,42.973633,1579.409],[-0.991471,42.97361,1580.416],[-0.991411,42.973592,1580.725],[-0.991349,42.97358,1581.041],[-0.991289,42.97356,1581.322],[-0.991222,42.973537,1581.784],[-0.991164,42.973517,1582.262],[-0.991094,42.97349,1582.898],[-0.991036,42.973468,1583.116],[-0.990981,42.973436,1583.662],[-0.990904,42.973418,1584.369],[-0.990861,42.973383,1585.404],[-0.990831,42.973341,1586.824],[-0.990779,42.973298,1586.409],[-0.990732,42.973268,1586.287],[-0.990667,42.973255,1586.566],[-0.990604,42.973227,1586.952],[-0.990539,42.973197,1587.573],[-0.990484,42.973172,1588.015],[-0.990436,42.973135,1588.943],[-0.990391,42.973098,1590.189],[-0.990338,42.973068,1591.637],[-0.99028,42.97304,1592.733],[-0.99023,42.97301,1592.498],[-0.990177,42.972973,1592.415],[-0.990117,42.972946,1592.926],[-0.99006,42.972909,1593.809],[-0.990008,42.972872,1595.26],[-0.99006,42.972904,1593.989],[-0.990008,42.972874,1595.125],[-0.98995,42.972844,1595.716],[-0.989892,42.972817,1596.468],[-0.989837,42.97278,1597.516],[-0.989782,42.972747,1597.672],[-0.989732,42.97272,1597.75],[-0.989684,42.972685,1597.326],[-0.989622,42.972668,1596.677],[-0.989562,42.972635,1596.161],[-0.989497,42.972622,1595.627],[-0.98944,42.972604,1595.209],[-0.989367,42.972589,1594.468],[-0.989299,42.972589,1593.537],[-0.989236,42.972599,1592.493],[-0.989169,42.972599,1591.574],[-0.989101,42.972589,1590.716],[-0.989024,42.972584,1589.724],[-0.988964,42.972571,1589.18],[-0.988902,42.972568,1588.288],[-0.988835,42.972566,1587.694],[-0.988758,42.972564,1587.024],[-0.9887,42.972599,1585.304],[-0.988633,42.972594,1584.814],[-0.988581,42.972567,1585.209],[-0.988516,42.97255,1585.163],[-0.988448,42.972542,1584.632],[-0.988363,42.972529,1584.228],[-0.988301,42.972522,1584.059],[-0.988228,42.972522,1583.781],[-0.988163,42.972519,1583.549],[-0.9881,42.972521,1583.185],[-0.988033,42.972526,1582.653],[-0.987973,42.972536,1581.899],[-0.987906,42.972516,1582.631],[-0.987846,42.972494,1583.061],[-0.987759,42.972479,1582.307],[-0.987697,42.972459,1581.809],[-0.987635,42.972441,1581.554],[-0.987562,42.972433,1581.743],[-0.987489,42.972421,1582.019],[-0.987421,42.972409,1582.43],[-0.987349,42.972397,1583.152],[-0.987282,42.97239,1583.83],[-0.987214,42.972387,1584.636],[-0.987144,42.972374,1586.024],[-0.987081,42.972359,1587.32],[-0.987019,42.972352,1588.625],[-0.986957,42.97232,1590.326],[-0.986892,42.972312,1591.608],[-0.98683,42.972297,1593.009],[-0.98677,42.97228,1594.423],[-0.986723,42.97225,1596.152],[-0.986656,42.972242,1597.598],[-0.986584,42.972227,1598.499],[-0.986516,42.972212,1598.621],[-0.986439,42.972212,1599.139],[-0.986371,42.97219,1598.535],[-0.986311,42.972163,1597.573],[-0.986249,42.972161,1597.729],[-0.986182,42.972149,1597.685],[-0.986114,42.972136,1597.589],[-0.986054,42.972121,1597.217],[-0.985984,42.972118,1597.309],[-0.985897,42.972101,1597.679],[-0.985822,42.972083,1598.188],[-0.985749,42.972073,1599.224],[-0.985812,42.972078,1598.395],[-0.98574,42.972083,1599.287],[-0.985683,42.972055,1600.695],[-0.985616,42.972042,1602.131],[-0.985558,42.972027,1603.779],[-0.98549,42.972015,1605.755],[-0.985432,42.971995,1608.183],[-0.985379,42.971972,1610.625],[-0.985316,42.971957,1613.217],[-0.985256,42.97194,1615.409],[-0.985188,42.971943,1617.219],[-0.985126,42.971933,1618.598],[-0.985061,42.971928,1620.164],[-0.984998,42.971926,1621.735],[-0.984931,42.971913,1623.517],[-0.984868,42.971921,1625.565],[-0.984803,42.971901,1627.311],[-0.984741,42.971886,1629.249],[-0.984683,42.971868,1630.135],[-0.98462,42.971858,1630.836],[-0.984562,42.971838,1631.817],[-0.984502,42.971823,1633.018],[-0.984439,42.971823,1634.109],[-0.984377,42.971813,1636.044],[-0.984315,42.971795,1638.133],[-0.984248,42.971778,1640.259],[-0.984195,42.971746,1642.39],[-0.984133,42.971734,1643.782],[-0.984088,42.971699,1645.22],[-0.984025,42.971677,1646.786],[-0.983967,42.971647,1647.864],[-0.983924,42.971607,1648.68],[-0.983876,42.971565,1649.599],[-0.983826,42.971533,1650.007],[-0.983773,42.97151,1650.727],[-0.983718,42.971483,1651.709],[-0.983675,42.971446,1652.99],[-0.983632,42.971404,1654.349],[-0.983592,42.971361,1654.875],[-0.983547,42.971319,1654.546],[-0.98349,42.971287,1654.538],[-0.98345,42.971244,1654.676],[-0.983412,42.971206,1654.962],[-0.983349,42.971181,1655.43],[-0.983287,42.971166,1655.416],[-0.983219,42.971148,1655.238],[-0.983161,42.97113,1655.27],[-0.983091,42.971107,1655.117],[-0.983029,42.971094,1654.709],[-0.982961,42.971076,1654.274],[-0.982884,42.971068,1653.983],[-0.982816,42.97105,1653.459],[-0.982763,42.971025,1653.06],[-0.9827,42.971012,1652.412],[-0.982635,42.970984,1651.84],[-0.982573,42.970976,1651.416],[-0.982523,42.970946,1651.114],[-0.982448,42.970921,1650.63],[-0.982383,42.970913,1650.027],[-0.982315,42.970903,1649.568],[-0.982257,42.970875,1649.114],[-0.982179,42.970847,1648.609],[-0.982119,42.970827,1648.013],[-0.982042,42.97081,1647.082],[-0.981965,42.970788,1645.828],[-0.9819,42.970773,1644.989],[-0.981832,42.970748,1643.781],[-0.981767,42.970726,1642.799],[-0.981684,42.970698,1641.775],[-0.981612,42.970678,1640.863],[-0.98153,42.970661,1640.029],[-0.981453,42.970631,1639.244],[-0.981376,42.970616,1638.505],[-0.981313,42.970593,1637.515],[-0.98124,42.97056,1636.409],[-0.981178,42.970528,1634.895],[-0.98113,42.970498,1633.564],[-0.981082,42.97047,1632.23],[-0.981032,42.970443,1630.951],[-0.980972,42.970418,1629.863],[-0.980932,42.97037,1628.631],[-0.98089,42.970337,1627.947],[-0.980845,42.970299,1627.295],[-0.980818,42.970257,1626.141],[-0.980773,42.970214,1624.323],[-0.980711,42.970206,1623.483],[-0.980673,42.970153,1621.711],[-0.98063,42.970118,1620.609],[-0.980585,42.970078,1619.593],[-0.980545,42.970035,1618.552],[-0.980505,42.969992,1617.118],[-0.98047,42.969945,1615.889],[-0.980425,42.969907,1614.641],[-0.980375,42.969854,1613.319],[-0.98032,42.969802,1612.115],[-0.980273,42.969757,1611.323],[-0.98022,42.969714,1610.369],[-0.980157,42.969677,1609.323],[-0.980109,42.969644,1608.783],[-0.980037,42.969596,1608.211],[-0.979979,42.969559,1607.709],[-0.979912,42.969536,1606.963],[-0.97985,42.969511,1606.392],[-0.979802,42.969478,1605.838],[-0.97976,42.969441,1605.479],[-0.979693,42.969398,1604.271],[-0.979638,42.969356,1603.179],[-0.979575,42.969319,1602.245],[-0.979532,42.969282,1601.683],[-0.979474,42.96925,1601.069],[-0.979409,42.969222,1600.397],[-0.979366,42.969185,1600.023],[-0.979319,42.969142,1599.725],[-0.979292,42.9691,1599.509],[-0.979255,42.96905,1599.42],[-0.979237,42.969003,1599.529],[-0.979175,42.968968,1599.595],[-0.979122,42.96894,1599.116],[-0.979057,42.968913,1598.638],[-0.978989,42.968881,1598.026],[-0.978919,42.968864,1597.132],[-0.978852,42.968852,1596.45],[-0.978779,42.968842,1595.636],[-0.978721,42.968822,1595.022],[-0.978644,42.968804,1594.362],[-0.978576,42.968789,1593.708],[-0.978514,42.968774,1593.109],[-0.978452,42.968752,1592.683],[-0.978399,42.968715,1592.262],[-0.978349,42.968665,1591.988],[-0.978314,42.96862,1591.839],[-0.978294,42.968573,1590.931],[-0.978264,42.968528,1589.929],[-0.978247,42.968478,1588.865],[-0.978209,42.968433,1587.863],[-0.978167,42.9684,1587.299],[-0.978115,42.968373,1586.692],[-0.978055,42.968346,1586.273],[-0.977993,42.968319,1584.92],[-0.977946,42.968267,1582.909],[-0.977891,42.968245,1581.75],[-0.977853,42.968205,1580.399],[-0.977793,42.968175,1579.195],[-0.977733,42.968145,1577.796],[-0.977666,42.96812,1576.288],[-0.977619,42.968085,1574.986],[-0.977572,42.968053,1573.712],[-0.97752,42.968021,1572.36],[-0.977462,42.967979,1570.556],[-0.977414,42.967934,1568.867],[-0.977386,42.967889,1567.581],[-0.977358,42.967849,1566.419],[-0.977341,42.967804,1565.409],[-0.977294,42.967761,1564.057],[-0.977266,42.967718,1562.796],[-0.977236,42.967666,1561.282],[-0.977206,42.967626,1560.063],[-0.977171,42.967581,1558.755],[-0.977151,42.967528,1557.433],[-0.977113,42.967486,1556.299],[-0.977051,42.967439,1554.817],[-0.977006,42.967392,1553.613],[-0.976973,42.967344,1552.664],[-0.976926,42.967309,1551.706],[-0.976878,42.967269,1550.716],[-0.976845,42.967229,1549.809],[-0.97681,42.967174,1548.657],[-0.976783,42.967129,1547.896],[-0.976753,42.967082,1547.052],[-0.976721,42.967035,1546.213],[-0.976688,42.966992,1545.635],[-0.976663,42.966944,1545.023],[-0.97664,42.966902,1544.239],[-0.976612,42.966847,1543.347],[-0.976595,42.966799,1542.723],[-0.976572,42.966749,1542.087],[-0.976555,42.966696,1541.342],[-0.976535,42.966648,1540.726],[-0.976528,42.966601,1540.109],[-0.976501,42.966543,1539.399],[-0.976463,42.966483,1538.728],[-0.976431,42.96643,1538.284],[-0.976401,42.966385,1537.925],[-0.976353,42.96634,1537.497],[-0.976315,42.9663,1537.045],[-0.976313,42.966252,1536.781],[-0.976293,42.966199,1536.419],[-0.976253,42.966154,1536.225],[-0.976221,42.966111,1536.058],[-0.976201,42.966064,1535.852],[-0.976161,42.966019,1535.617],[-0.976129,42.965979,1535.509],[-0.976106,42.965932,1535.346],[-0.976089,42.965884,1535.195],[-0.976056,42.965841,1535.051],[-0.976029,42.965796,1535.372],[-0.976021,42.965749,1535.784],[-0.975998,42.965701,1536.162],[-0.975973,42.965653,1536.648],[-0.975936,42.965611,1537.196],[-0.975919,42.965566,1537.682],[-0.975894,42.965509,1538.273],[-0.975871,42.965461,1538.885],[-0.975849,42.965406,1539.513],[-0.975839,42.965356,1540.109],[-0.975831,42.965306,1540.718],[-0.975808,42.965254,1541.327],[-0.975786,42.965209,1541.943],[-0.975759,42.965164,1542.794],[-0.975727,42.965121,1543.596],[-0.97571,42.965078,1544.474],[-0.975687,42.965033,1545.45],[-0.97566,42.964981,1546.698],[-0.975623,42.964941,1547.614],[-0.975625,42.964893,1548.522],[-0.975587,42.964845,1549.962],[-0.975567,42.964802,1551.108],[-0.975535,42.96476,1552.209],[-0.975523,42.964715,1553.263],[-0.975508,42.964667,1554.312],[-0.97547,42.964629,1555.388],[-0.97542,42.964601,1556.389],[-0.975383,42.964559,1557.611],[-0.975376,42.964511,1559.019],[-0.975378,42.964459,1560.545],[-0.975323,42.964434,1561.883],[-0.975296,42.964387,1563.629],[-0.975313,42.964337,1565.019],[-0.975306,42.964285,1566.709],[-0.975304,42.964237,1568.319],[-0.975302,42.96419,1569.809],[-0.975279,42.964147,1571.422],[-0.975284,42.964099,1572.361],[-0.975262,42.964049,1572.827],[-0.975237,42.963997,1572.738],[-0.975229,42.963947,1573.53],[-0.975219,42.963899,1574.238],[-0.975206,42.963846,1574.594],[-0.975189,42.963803,1574.692],[-0.975162,42.963758,1574.578],[-0.975147,42.96371,1575.188],[-0.975122,42.963657,1575.724],[-0.97511,42.96361,1576.626],[-0.975092,42.963563,1577.109],[-0.975069,42.96352,1577.699],[-0.975031,42.96348,1578.378],[-0.975001,42.963438,1579.414],[-0.974953,42.963406,1579.635],[-0.974886,42.963383,1579.757],[-0.974828,42.963348,1580.755],[-0.974775,42.963316,1581.281],[-0.974725,42.963279,1581.479],[-0.974668,42.963241,1580.815],[-0.974628,42.963198,1580.935],[-0.97458,42.963156,1581.486],[-0.974557,42.963104,1582.814],[-0.974519,42.963061,1584.309],[-0.974486,42.963016,1584.164],[-0.974434,42.962984,1583.983],[-0.974359,42.962964,1583.089],[-0.974286,42.962961,1582.35],[-0.974218,42.962956,1581.832],[-0.974156,42.962948,1581.25],[-0.974091,42.962923,1580.336],[-0.974029,42.962893,1579.934],[-0.973964,42.962876,1579.47],[-0.973891,42.962859,1579.015],[-0.973828,42.962841,1578.865],[-0.973751,42.962829,1578.311],[-0.973681,42.962811,1578.309],[-0.973616,42.962793,1578.492],[-0.973539,42.962783,1578.021],[-0.973466,42.96277,1577.417],[-0.973404,42.962762,1576.718],[-0.973331,42.962747,1575.87],[-0.973283,42.962719,1575.068],[-0.973245,42.962679,1574.484],[-0.973185,42.962646,1573.692],[-0.973115,42.962631,1572.868],[-0.973052,42.962616,1572.186],[-0.972985,42.962599,1571.06],[-0.972943,42.962562,1570.826],[-0.97287,42.962569,1569.509],[-0.972803,42.962577,1568.279],[-0.972755,42.962545,1568.238],[-0.972703,42.962512,1568.264],[-0.972638,42.962495,1567.565],[-0.97257,42.962477,1566.487],[-0.972512,42.962462,1565.565],[-0.97244,42.962452,1564.411],[-0.972382,42.962434,1563.759],[-0.972324,42.962406,1563.235],[-0.972259,42.962384,1562.689],[-0.972189,42.962392,1561.406],[-0.972127,42.962389,1560.426],[-0.972065,42.962381,1559.509],[-0.971975,42.962354,1558.719],[-0.971915,42.962316,1559.168],[-0.971857,42.962288,1559.434],[-0.971799,42.962266,1559.635],[-0.971744,42.962241,1560.067],[-0.971679,42.962226,1560.075],[-0.971591,42.962209,1559.431],[-0.971521,42.962201,1558.929],[-0.971459,42.962184,1558.455],[-0.971396,42.962171,1557.997],[-0.971326,42.962153,1557.123],[-0.971264,42.962143,1556.525],[-0.971189,42.962123,1555.709],[-0.971137,42.962093,1555.24],[-0.971067,42.962081,1554.859],[-0.971005,42.962081,1554.425],[-0.970932,42.962068,1554.166],[-0.970874,42.962051,1554.068],[-0.970812,42.962031,1554.116],[-0.970757,42.962008,1554.542],[-0.970685,42.96199,1554.92],[-0.970628,42.961972,1555.356],[-0.970575,42.961949,1555.877],[-0.970535,42.961911,1556.061],[-0.970468,42.961906,1556.027],[-0.970406,42.961901,1556.109],[-0.970338,42.961889,1556.298],[-0.970273,42.961867,1556.347],[-0.970228,42.961829,1556.623],[-0.970163,42.961822,1556.884],[-0.970096,42.961809,1557.146],[-0.970028,42.961797,1557.554],[-0.969961,42.961775,1557.92],[-0.969899,42.961767,1558.148],[-0.969834,42.961747,1558.624],[-0.969777,42.961724,1559.061],[-0.969724,42.961699,1559.521],[-0.969654,42.961681,1560.313],[-0.969582,42.961666,1561.009],[-0.96952,42.961646,1561.667],[-0.969458,42.961641,1562.186],[-0.969395,42.961634,1562.692],[-0.969328,42.961622,1563.383],[-0.969256,42.961629,1563.885],[-0.969196,42.961641,1564.133],[-0.969134,42.961629,1564.749],[-0.969069,42.961631,1564.987],[-0.968982,42.961631,1565.323],[-0.968912,42.961643,1565.329],[-0.968845,42.96162,1566.2],[-0.968783,42.961592,1567.12],[-0.968723,42.96158,1567.809],[-0.968661,42.961577,1568.393],[-0.968599,42.961557,1569.012],[-0.968536,42.961557,1569.168],[-0.968459,42.961549,1569.329],[-0.968387,42.961527,1569.921],[-0.968329,42.961504,1570.589],[-0.968262,42.961496,1570.985],[-0.968199,42.961498,1571.183],[-0.968139,42.961485,1571.679],[-0.968076,42.961475,1572.177],[-0.968003,42.96146,1572.461],[-0.967943,42.961443,1572.827],[-0.96788,42.961425,1573.109],[-0.967815,42.96142,1573.228],[-0.967752,42.961408,1573.547],[-0.967682,42.961395,1573.893],[-0.96762,42.96139,1574.034],[-0.967557,42.961385,1574.136],[-0.967489,42.961372,1574.354],[-0.967546,42.961394,1573.98],[-0.967481,42.961381,1574.158],[-0.967418,42.961361,1574.334],[-0.967346,42.961369,1573.929],[-0.967283,42.961354,1574.1],[-0.967221,42.961336,1574.32],[-0.967159,42.961318,1574.609],[-0.967104,42.961281,1575.363],[-0.967049,42.961256,1575.742],[-0.966982,42.961239,1575.968],[-0.966914,42.961217,1576.339],[-0.966849,42.961204,1576.461],[-0.966776,42.961197,1576.469],[-0.966706,42.961184,1576.565],[-0.966646,42.961172,1576.633],[-0.966581,42.961159,1576.729],[-0.966519,42.961144,1576.829],[-0.966457,42.961124,1577.0],[-0.966394,42.961111,1577.02],[-0.966336,42.961096,1577.209],[-0.966256,42.961081,1577.483],[-0.966189,42.961068,1577.612],[-0.966129,42.961056,1577.878],[-0.966066,42.961044,1577.889],[-0.965996,42.961036,1577.811],[-0.965943,42.960999,1578.399],[-0.965875,42.960977,1578.565],[-0.965822,42.960945,1579.093],[-0.965765,42.960913,1579.679],[-0.965697,42.960891,1580.063],[-0.965624,42.960876,1580.244],[-0.965559,42.960864,1580.418],[-0.965489,42.960844,1581.009],[-0.965416,42.960832,1581.587],[-0.965358,42.960809,1581.466],[-0.965286,42.960789,1581.552],[-0.965211,42.960771,1581.453],[-0.965143,42.960748,1581.435],[-0.96508,42.960725,1581.413],[-0.965015,42.960698,1581.549],[-0.964967,42.960668,1581.617],[-0.964904,42.960641,1581.983],[-0.964834,42.960619,1582.334],[-0.964784,42.960592,1582.655],[-0.964721,42.960577,1583.01],[-0.964653,42.960569,1583.709],[-0.964595,42.960546,1584.374],[-0.964528,42.960513,1584.613],[-0.964466,42.960486,1585.039],[-0.964401,42.960466,1585.79],[-0.964333,42.960441,1586.462],[-0.964286,42.960411,1586.76],[-0.964233,42.960378,1587.176],[-0.964178,42.960353,1587.654],[-0.964123,42.96032,1588.15],[-0.964073,42.96029,1588.525],[-0.964018,42.960262,1588.926],[-0.963963,42.960235,1589.208],[-0.9639,42.960213,1589.709],[-0.96384,42.960183,1589.943],[-0.963782,42.960156,1590.232],[-0.963699,42.960154,1591.278],[-0.963647,42.960122,1591.279],[-0.963585,42.960099,1591.471],[-0.96352,42.960077,1591.679],[-0.963455,42.960057,1591.945],[-0.963383,42.960047,1592.583],[-0.963311,42.960019,1592.749],[-0.963249,42.960002,1593.063],[-0.963211,42.959964,1592.744],[-0.963161,42.959937,1592.818],[-0.963108,42.959907,1593.009],[-0.963056,42.959882,1593.377],[-0.962993,42.95985,1593.776],[-0.962935,42.959822,1594.222],[-0.962893,42.959789,1594.343],[-0.962836,42.959754,1594.665],[-0.962769,42.959727,1595.283],[-0.962724,42.95969,1595.429],[-0.962691,42.959647,1595.467],[-0.962654,42.95961,1595.633],[-0.962609,42.959572,1595.818],[-0.962569,42.959532,1596.098],[-0.962511,42.959509,1596.517],[-0.962468,42.959472,1596.909],[-0.96241,42.959444,1597.682],[-0.962355,42.959411,1598.661],[-0.962307,42.959374,1599.437],[-0.962269,42.959331,1600.188],[-0.962227,42.959296,1600.92],[-0.962195,42.959251,1601.628],[-0.962163,42.959206,1602.384],[-0.962131,42.959159,1603.092],[-0.962096,42.959121,1603.958],[-0.962076,42.959071,1604.549],[-0.962051,42.959028,1605.302],[-0.962031,42.958983,1606.022],[-0.962006,42.958941,1606.909],[-0.961984,42.958894,1607.815],[-0.961982,42.958847,1608.424],[-0.961982,42.958797,1608.92],[-0.961967,42.958749,1609.941],[-0.961937,42.958704,1611.233],[-0.961937,42.958659,1611.711],[-0.961942,42.958604,1612.297],[-0.961957,42.958556,1612.665],[-0.96196,42.958504,1613.531],[-0.961957,42.958457,1614.445],[-0.961967,42.958409,1615.047],[-0.961972,42.958364,1615.711],[-0.961979,42.958314,1616.309],[-0.961984,42.958264,1616.985],[-0.961976,42.958212,1617.984],[-0.961974,42.958167,1618.64],[-0.962004,42.958119,1618.591],[-0.962026,42.958066,1618.893],[-0.962033,42.958014,1619.541],[-0.962051,42.957969,1619.927],[-0.962054,42.957924,1620.675],[-0.962042,42.957872,1621.851],[-0.962049,42.95782,1622.647],[-0.962086,42.957777,1622.429],[-0.962073,42.957732,1623.221],[-0.96207,42.957682,1623.609],[-0.962058,42.957637,1624.385],[-0.962046,42.95759,1624.924],[-0.962066,42.957542,1624.92],[-0.962061,42.957494,1625.321],[-0.962016,42.957451,1626.183],[-0.961959,42.957418,1626.821],[-0.961897,42.957385,1627.497],[-0.961845,42.957347,1627.745],[-0.96179,42.957319,1627.981],[-0.961742,42.957289,1628.188],[-0.961687,42.957266,1628.224],[-0.961624,42.957239,1628.326],[-0.961567,42.957217,1628.309],[-0.961499,42.957205,1628.369],[-0.961432,42.957188,1628.238],[-0.96136,42.95718,1628.364],[-0.961293,42.957168,1628.235],[-0.96122,42.957163,1628.397],[-0.961152,42.957158,1628.395],[-0.961082,42.95717,1628.751],[-0.96101,42.957153,1628.279],[-0.96094,42.957136,1627.645],[-0.960872,42.957123,1627.252],[-0.9608,42.957131,1627.253],[-0.960723,42.957131,1626.708],[-0.960646,42.957136,1626.409],[-0.960581,42.957139,1626.116],[-0.960518,42.957154,1626.125],[-0.960443,42.957156,1625.971],[-0.960376,42.957161,1625.852],[-0.960301,42.957173,1625.854],[-0.960233,42.957183,1625.782],[-0.960165,42.957186,1625.318],[-0.960087,42.957191,1624.826],[-0.960012,42.957206,1624.752],[-0.959942,42.957204,1624.137],[-0.959864,42.957216,1623.949],[-0.959789,42.957223,1623.513],[-0.959719,42.957218,1622.909],[-0.959652,42.957223,1622.854],[-0.95959,42.957228,1622.623],[-0.95951,42.957215,1622.169],[-0.959438,42.95721,1621.87],[-0.959376,42.95719,1621.772],[-0.959319,42.957172,1621.52],[-0.959251,42.957164,1621.686],[-0.959176,42.957152,1621.754],[-0.959114,42.957125,1621.56],[-0.959049,42.957103,1621.539],[-0.958992,42.957066,1621.201],[-0.958934,42.957049,1621.221],[-0.958869,42.957031,1621.509],[-0.958797,42.957011,1622.064],[-0.95873,42.956984,1622.363],[-0.958672,42.956967,1622.759],[-0.958607,42.956945,1623.11],[-0.958542,42.956922,1623.482],[-0.958489,42.956899,1623.77],[-0.958424,42.956867,1623.916],[-0.958362,42.956842,1624.254],[-0.9583,42.956825,1624.68],[-0.958238,42.956812,1625.163],[-0.958175,42.956794,1625.544],[-0.958095,42.956782,1626.218],[-0.958033,42.956764,1626.609],[-0.957971,42.956749,1626.837],[-0.957903,42.956736,1627.136],[-0.957835,42.956719,1627.342],[-0.957772,42.956694,1627.493],[-0.95771,42.956676,1627.665],[-0.957653,42.956658,1627.863],[-0.957595,42.956636,1628.079],[-0.957518,42.956623,1628.417],[-0.957445,42.956611,1628.653],[-0.957367,42.956603,1628.728],[-0.957297,42.956601,1628.889],[-0.95722,42.956598,1629.017],[-0.957158,42.956601,1629.209],[-0.957095,42.956603,1629.343],[-0.957023,42.956601,1629.442],[-0.956948,42.956598,1629.538],[-0.956881,42.956603,1629.639],[-0.956811,42.956616,1629.871],[-0.956731,42.956624,1630.059],[-0.956669,42.956632,1630.165],[-0.956599,42.956635,1630.013],[-0.956524,42.956652,1630.119],[-0.956462,42.95667,1630.494],[-0.956399,42.956672,1630.257],[-0.956326,42.956677,1630.122],[-0.956263,42.956684,1630.009],[-0.956186,42.956691,1630.01],[-0.956114,42.956704,1630.159],[-0.956039,42.956714,1630.415],[-0.955964,42.956724,1630.716],[-0.955902,42.956727,1630.718],[-0.95583,42.956734,1630.996],[-0.955755,42.956736,1630.792],[-0.955678,42.956741,1630.66],[-0.955605,42.956733,1630.126],[-0.95553,42.956736,1629.943],[-0.955467,42.956733,1629.764],[-0.955394,42.956741,1629.71],[-0.955317,42.956744,1629.609],[-0.955255,42.956751,1629.735],[-0.955187,42.956764,1630.084],[-0.955125,42.956774,1630.33],[-0.955057,42.956781,1630.451],[-0.954987,42.956786,1630.493],[-0.954925,42.956799,1630.521],[-0.954855,42.956799,1630.377],[-0.954783,42.956812,1630.475],[-0.95472,42.956825,1630.621],[-0.954642,42.956833,1630.755],[-0.954567,42.956846,1631.007],[-0.9545,42.956866,1631.517],[-0.954428,42.956876,1631.709],[-0.954368,42.956891,1632.046],[-0.954308,42.956906,1632.355],[-0.954243,42.956909,1632.161],[-0.954178,42.956921,1632.392],[-0.9541,42.956933,1632.494],[-0.954028,42.956928,1632.032],[-0.953961,42.956936,1632.078],[-0.953894,42.956943,1632.056],[-0.953819,42.956956,1632.732],[-0.953757,42.956956,1632.913],[-0.953685,42.956961,1633.443],[-0.95362,42.956964,1633.707],[-0.953552,42.956966,1634.109],[-0.953484,42.956961,1634.172],[-0.953414,42.956944,1633.771],[-0.953351,42.956937,1633.637],[-0.953286,42.956939,1634.198],[-0.953224,42.956934,1634.45],[-0.953161,42.956924,1634.418],[-0.953098,42.956911,1634.444],[-0.953025,42.956898,1634.472],[-0.952965,42.956888,1634.568],[-0.952905,42.95687,1634.342],[-0.952838,42.956862,1634.522],[-0.952761,42.956844,1634.614],[-0.952699,42.956832,1634.909],[-0.952637,42.956817,1635.015],[-0.952565,42.956804,1635.264],[-0.952498,42.956789,1635.39],[-0.952433,42.956774,1635.421],[-0.952363,42.956766,1635.843],[-0.952293,42.956758,1636.231],[-0.952223,42.95675,1636.677],[-0.952156,42.956747,1637.565],[-0.952098,42.956724,1637.521],[-0.952033,42.956701,1637.763],[-0.951966,42.956679,1638.144],[-0.951906,42.956661,1638.418],[-0.951848,42.956641,1638.509],[-0.951781,42.956619,1638.767],[-0.951713,42.956594,1638.956],[-0.951648,42.956566,1639.192],[-0.951588,42.956543,1639.423],[-0.951516,42.956525,1640.125],[-0.951458,42.956505,1640.573],[-0.951405,42.956478,1640.649],[-0.951342,42.956446,1640.667],[-0.951282,42.956414,1640.733],[-0.951217,42.956392,1641.252],[-0.951154,42.956365,1641.753],[-0.951106,42.956335,1641.908],[-0.951041,42.956303,1642.409],[-0.950979,42.95628,1643.036],[-0.950916,42.956257,1643.795],[-0.950866,42.956229,1644.071],[-0.950803,42.956202,1644.392],[-0.95075,42.956174,1644.454],[-0.950688,42.956159,1644.962],[-0.950621,42.956136,1645.518],[-0.950556,42.956113,1646.096],[-0.950499,42.956085,1646.052],[-0.950429,42.956075,1646.634],[-0.950362,42.956063,1647.155],[-0.950309,42.956038,1647.11],[-0.950247,42.95602,1647.309],[-0.950172,42.956013,1647.684],[-0.950102,42.955995,1647.813],[-0.950037,42.955988,1648.169],[-0.949962,42.955991,1648.47],[-0.949897,42.955971,1648.272],[-0.949824,42.955968,1648.33],[-0.949757,42.955958,1648.356],[-0.949699,42.95594,1648.344],[-0.949632,42.955922,1648.46],[-0.949575,42.955895,1648.524],[-0.94952,42.955872,1648.704],[-0.94946,42.955852,1649.014],[-0.94941,42.955824,1649.009],[-0.949347,42.955807,1648.963],[-0.94928,42.955785,1648.842],[-0.949222,42.95576,1648.718],[-0.949169,42.955735,1648.639],[-0.949101,42.955717,1648.531],[-0.949051,42.955687,1648.379],[-0.948999,42.955662,1648.345],[-0.948942,42.955635,1648.353],[-0.948884,42.95561,1648.489],[-0.948829,42.955585,1648.491],[-0.948756,42.955565,1648.581],[-0.948696,42.955553,1648.719],[-0.948634,42.955535,1648.609],[-0.948569,42.955517,1648.52],[-0.948501,42.955497,1648.279],[-0.948431,42.955475,1648.055],[-0.948361,42.955457,1647.986],[-0.948298,42.955464,1648.028],[-0.948241,42.955494,1648.246],[-0.948173,42.955474,1648.062],[-0.94813,42.955436,1647.94],[-0.948088,42.955394,1647.966],[-0.948045,42.955357,1648.042],[-0.948005,42.955322,1648.322],[-0.947948,42.95529,1648.714],[-0.947883,42.955263,1649.209],[-0.947823,42.955235,1649.575],[-0.947765,42.955213,1649.894],[-0.947713,42.955186,1649.76],[-0.947668,42.955153,1649.741],[-0.947598,42.95513,1649.853],[-0.947551,42.955097,1649.931],[-0.947489,42.955084,1650.077],[-0.947422,42.955064,1650.415],[-0.947369,42.955036,1650.831],[-0.947309,42.955016,1651.325],[-0.947246,42.954986,1651.926],[-0.947169,42.954959,1652.408],[-0.947116,42.954932,1652.809],[-0.947069,42.954892,1653.493],[-0.947022,42.954852,1654.082],[-0.946969,42.954819,1654.898],[-0.946912,42.954784,1655.569],[-0.946865,42.954742,1656.361],[-0.946825,42.9547,1657.059],[-0.946775,42.954668,1657.765],[-0.946738,42.954625,1658.423],[-0.946688,42.954597,1659.129],[-0.946641,42.95455,1660.112],[-0.946596,42.954515,1660.932],[-0.946559,42.954475,1661.705],[-0.946509,42.954437,1662.809],[-0.946474,42.954397,1663.572],[-0.946457,42.954354,1664.291],[-0.946425,42.954312,1665.077],[-0.946378,42.954272,1666.028],[-0.946333,42.954237,1666.92],[-0.946291,42.954197,1668.038],[-0.946249,42.95416,1669.164],[-0.946207,42.954117,1670.122],[-0.946157,42.954084,1671.248],[-0.946095,42.954062,1672.441],[-0.946043,42.954027,1673.781],[-0.945996,42.953994,1675.109],[-0.945968,42.953951,1676.509],[-0.945936,42.953908,1678.045],[-0.945886,42.953878,1679.854],[-0.945861,42.953833,1680.92],[-0.945799,42.953813,1682.431],[-0.945746,42.95379,1683.783],[-0.945696,42.953755,1685.451],[-0.945648,42.95372,1687.397],[-0.945621,42.953672,1689.245],[-0.945589,42.95363,1691.491],[-0.945529,42.953613,1693.213],[-0.945469,42.953591,1693.643],[-0.945404,42.953583,1694.407],[-0.945349,42.953556,1694.909],[-0.945297,42.953519,1695.782],[-0.945239,42.953491,1696.581],[-0.945172,42.953468,1697.367],[-0.945124,42.953435,1698.238],[-0.945051,42.953423,1699.38],[-0.944991,42.953433,1700.058],[-0.944924,42.953428,1700.874],[-0.944861,42.953431,1701.412],[-0.944791,42.953423,1702.358],[-0.944713,42.953413,1703.259],[-0.944646,42.953416,1703.903],[-0.944579,42.953419,1704.623],[-0.944504,42.953427,1705.309],[-0.944439,42.953429,1706.076],[-0.944374,42.953441,1706.695],[-0.944314,42.953453,1707.161],[-0.944241,42.953456,1707.962],[-0.944174,42.953469,1708.594],[-0.944106,42.953494,1709.062],[-0.944033,42.953499,1709.848],[-0.943971,42.953501,1710.696],[-0.943906,42.953518,1711.112],[-0.943839,42.95353,1711.818],[-0.943772,42.95354,1712.598],[-0.9437,42.953548,1713.317],[-0.943633,42.953555,1713.909],[-0.943561,42.953552,1715.122],[-0.943489,42.953554,1716.211],[-0.943419,42.953562,1717.277],[-0.943342,42.953569,1718.378],[-0.94327,42.953574,1719.56],[-0.943208,42.953569,1720.688],[-0.943131,42.953577,1721.824],[-0.943073,42.953605,1722.752],[-0.942995,42.953628,1723.318],[-0.942932,42.953646,1723.636],[-0.94287,42.953668,1723.917],[-0.942805,42.95367,1724.618],[-0.942748,42.95369,1724.909],[-0.942686,42.953687,1725.614],[-0.942609,42.95367,1726.843],[-0.942534,42.953662,1727.769],[-0.942471,42.953669,1728.23],[-0.942408,42.953696,1728.232],[-0.942345,42.953706,1728.68],[-0.942278,42.953713,1729.196],[-0.942213,42.953701,1729.824],[-0.942155,42.953723,1730.03],[-0.942083,42.953738,1730.457],[-0.942035,42.953766,1730.5],[-0.941972,42.953786,1730.82],[-0.941914,42.953808,1731.209],[-0.941841,42.953833,1731.936],[-0.941779,42.953835,1732.745],[-0.941714,42.953842,1733.541],[-0.941647,42.953842,1734.542],[-0.941575,42.953837,1735.734],[-0.941512,42.953817,1736.652],[-0.941465,42.95378,1737.278],[-0.941415,42.95375,1737.746],[-0.941363,42.953723,1738.282],[-0.941301,42.953705,1738.938],[-0.941238,42.953695,1739.77],[-0.941171,42.9537,1740.717],[-0.941109,42.953705,1741.709],[-0.941041,42.953695,1742.764],[-0.940974,42.953697,1743.963],[-0.940912,42.953692,1744.869],[-0.940845,42.953692,1746.02],[-0.940775,42.953704,1746.692],[-0.940703,42.953712,1747.18],[-0.940633,42.953724,1747.676],[-0.940573,42.953734,1748.124],[-0.940498,42.953744,1748.58],[-0.940436,42.953754,1748.829],[-0.940369,42.953754,1748.9],[-0.940302,42.953749,1748.92],[-0.940235,42.953747,1749.009],[-0.940162,42.953744,1749.023],[-0.940095,42.953726,1748.782],[-0.940025,42.953718,1748.618],[-0.939953,42.95371,1748.429],[-0.939883,42.953708,1748.381],[-0.939813,42.953705,1748.149],[-0.939745,42.953698,1747.925],[-0.93968,42.953698,1747.923],[-0.93961,42.953708,1748.269],[-0.939532,42.953708,1748.355],[-0.93947,42.95371,1748.407],[-0.93939,42.95371,1748.617],[-0.939328,42.953715,1748.909],[-0.939263,42.95372,1749.196],[-0.939196,42.953723,1749.375],[-0.939124,42.953728,1749.421],[-0.939056,42.953716,1749.212],[-0.938989,42.953704,1749.184],[-0.938922,42.953686,1749.032],[-0.938849,42.953674,1748.818],[-0.938802,42.953639,1748.746],[-0.938735,42.953626,1748.472],[-0.938677,42.953604,1748.037],[-0.938619,42.953589,1747.449],[-0.938549,42.953596,1747.213],[-0.938479,42.953588,1746.509],[-0.938416,42.953586,1746.134],[-0.938344,42.953584,1745.733],[-0.938261,42.953581,1745.459],[-0.938184,42.953574,1745.16],[-0.938114,42.953557,1744.762],[-0.938034,42.953555,1744.88],[-0.937957,42.953555,1745.336],[-0.937882,42.953548,1745.864],[-0.93782,42.953541,1746.21],[-0.937757,42.953541,1746.666],[-0.937684,42.953534,1747.129],[-0.937612,42.953531,1747.621],[-0.937537,42.953533,1748.209],[-0.93747,42.953538,1748.717],[-0.937395,42.953535,1749.356],[-0.937333,42.95354,1749.852],[-0.937258,42.95355,1750.543],[-0.937183,42.953562,1751.345],[-0.937118,42.95357,1752.033],[-0.937051,42.953572,1752.879],[-0.936981,42.953572,1753.657],[-0.936919,42.953564,1754.313],[-0.936852,42.953549,1755.144],[-0.936779,42.953529,1756.005],[-0.936712,42.953512,1756.815],[-0.936645,42.953504,1757.709],[-0.936585,42.953479,1758.735],[-0.93653,42.953452,1759.584],[-0.936472,42.953429,1760.59],[-0.936415,42.953407,1761.461],[-0.936353,42.953384,1762.373],[-0.936293,42.953354,1763.361],[-0.936236,42.953319,1764.227],[-0.936181,42.953294,1765.015],[-0.936124,42.953269,1766.031],[-0.936064,42.953249,1767.278],[-0.936011,42.953221,1768.233],[-0.935939,42.953213,1769.526],[-0.935866,42.953216,1770.809],[-0.935804,42.953221,1771.958],[-0.935742,42.953229,1772.817],[-0.935675,42.953234,1773.863],[-0.935603,42.953234,1775.094],[-0.935531,42.953226,1776.146],[-0.935463,42.953219,1777.264],[-0.935395,42.953204,1778.21],[-0.935323,42.953186,1779.448],[-0.935263,42.953176,1780.314],[-0.935206,42.953156,1781.218],[-0.935138,42.953134,1782.398],[-0.935076,42.953126,1783.217],[-0.935011,42.953114,1784.209],[-0.934953,42.953084,1785.272],[-0.934893,42.953071,1786.081],[-0.934821,42.953046,1787.047],[-0.934758,42.953034,1787.748],[-0.934696,42.953019,1788.39],[-0.934626,42.953006,1788.978],[-0.934561,42.952993,1789.564],[-0.934504,42.952971,1790.122],[-0.934444,42.952954,1790.768],[-0.934379,42.952934,1791.368],[-0.934317,42.952909,1792.042],[-0.934267,42.952879,1792.526],[-0.934214,42.952852,1793.109],[-0.934157,42.952824,1793.727],[-0.934095,42.952799,1794.146],[-0.934073,42.952847,1793.882],[-0.934011,42.952859,1793.863],[-0.933941,42.952866,1793.995],[-0.933869,42.952873,1793.883],[-0.933804,42.952893,1793.159],[-0.933732,42.952911,1792.497],[-0.933675,42.952944,1791.883],[-0.933613,42.952949,1791.427],[-0.933551,42.952956,1791.168],[-0.933488,42.952971,1790.714],[-0.933425,42.952986,1790.409],[-0.933363,42.953024,1790.163],[-0.933301,42.953044,1789.642],[-0.933236,42.953062,1788.988],[-0.933171,42.953084,1788.259],[-0.933108,42.953112,1787.551],[-0.93304,42.953117,1786.839],[-0.932978,42.953147,1786.375],[-0.932921,42.953169,1785.763],[-0.932861,42.953182,1785.239],[-0.932789,42.953212,1784.788],[-0.932729,42.953245,1784.424],[-0.932656,42.953258,1784.126],[-0.932601,42.953283,1784.209],[-0.932539,42.953295,1784.389],[-0.932539,42.953295,1784.348],[-0.932472,42.953308,1784.334],[-0.932415,42.953336,1784.765],[-0.932337,42.953346,1784.547],[-0.932277,42.953364,1784.555],[-0.932209,42.953389,1784.541],[-0.932151,42.953422,1784.499],[-0.932093,42.953445,1784.565],[-0.932031,42.953468,1784.728],[-0.931964,42.953488,1785.189],[-0.931892,42.9535,1785.317],[-0.931825,42.953528,1786.409],[-0.931768,42.953548,1787.463],[-0.9317,42.953563,1788.342],[-0.931633,42.953578,1789.278],[-0.931563,42.953598,1790.629],[-0.931495,42.95361,1791.551],[-0.931438,42.95363,1791.799],[-0.931378,42.953643,1791.915],[-0.931316,42.953656,1792.263],[-0.931248,42.953669,1792.569],[-0.931178,42.953684,1792.974],[-0.931106,42.953706,1793.456],[-0.931046,42.953721,1793.621],[-0.930979,42.953738,1793.909],[-0.930921,42.953753,1794.218],[-0.930856,42.953775,1794.767],[-0.930796,42.953787,1795.193],[-0.930734,42.953799,1795.554],[-0.930669,42.953807,1796.056],[-0.930611,42.953822,1796.524],[-0.930549,42.953842,1797.21],[-0.930487,42.953859,1797.758],[-0.93042,42.953874,1798.294],[-0.930358,42.953886,1798.723],[-0.93029,42.953889,1799.083],[-0.930213,42.953886,1799.211],[-0.930151,42.953888,1799.409],[-0.930089,42.953901,1799.413],[-0.930027,42.953904,1799.672],[-0.929965,42.953916,1799.568],[-0.929897,42.953918,1799.799],[-0.929829,42.953925,1799.871],[-0.929757,42.953932,1799.969],[-0.929685,42.953935,1800.195],[-0.929618,42.953942,1800.223],[-0.92955,42.953964,1800.099],[-0.929477,42.953974,1800.073],[-0.929414,42.953987,1800.085],[-0.929356,42.954005,1799.913],[-0.929299,42.954035,1799.609],[-0.929226,42.954053,1799.728],[-0.929158,42.954063,1799.937],[-0.929096,42.954076,1799.713],[-0.929026,42.954079,1799.894],[-0.928953,42.954087,1799.956],[-0.928881,42.954084,1800.034],[-0.928819,42.954086,1800.19],[-0.928754,42.954086,1800.248],[-0.928689,42.954099,1800.484],[-0.928619,42.954106,1800.535],[-0.928556,42.954114,1800.986],[-0.928494,42.954131,1801.314],[-0.928429,42.954141,1801.609],[-0.928364,42.954146,1801.934],[-0.928292,42.954163,1802.083],[-0.92823,42.95417,1801.989],[-0.92816,42.954177,1801.85],[-0.928092,42.954184,1801.612],[-0.928025,42.954177,1801.96],[-0.92796,42.954182,1802.026],[-0.927892,42.95418,1802.334],[-0.92782,42.954187,1802.37],[-0.92775,42.9542,1802.239],[-0.927677,42.954195,1802.301],[-0.927604,42.954187,1802.521],[-0.927531,42.954194,1802.409],[-0.927454,42.954197,1802.594],[-0.927391,42.954194,1802.833],[-0.927326,42.954181,1803.389],[-0.927253,42.954179,1803.69],[-0.927181,42.954176,1803.852],[-0.927119,42.954168,1804.03],[-0.927061,42.954148,1803.216],[-0.926993,42.95415,1803.344],[-0.92693,42.95415,1803.55],[-0.92686,42.954148,1804.047],[-0.92679,42.954141,1804.329],[-0.92672,42.954146,1805.021],[-0.92665,42.954148,1805.609],[-0.926575,42.954146,1805.965],[-0.926508,42.954143,1806.184],[-0.926446,42.954151,1806.59],[-0.926374,42.954149,1807.071],[-0.926301,42.954151,1808.183],[-0.926239,42.954143,1808.981],[-0.926164,42.95415,1810.057],[-0.926094,42.95417,1811.265],[-0.926029,42.954192,1812.091],[-0.925969,42.954225,1812.764],[-0.925917,42.954262,1813.306],[-0.925865,42.954299,1814.016],[-0.925813,42.954332,1814.709],[-0.92576,42.954355,1815.537],[-0.925698,42.954365,1816.436],[-0.925638,42.954395,1817.172],[-0.925578,42.954408,1817.943],[-0.925516,42.954425,1818.765],[-0.925454,42.954418,1819.623],[-0.925392,42.954413,1820.599],[-0.925322,42.95443,1821.427],[-0.925257,42.954435,1822.283],[-0.925192,42.954442,1822.933],[-0.925129,42.95445,1823.623],[-0.925067,42.954463,1824.115],[-0.925004,42.95447,1824.809],[-0.924946,42.954485,1825.344],[-0.924874,42.9545,1826.033],[-0.924814,42.954517,1826.529],[-0.924749,42.95453,1827.11],[-0.924686,42.954555,1827.612],[-0.924628,42.95457,1828.14],[-0.924553,42.954585,1828.876],[-0.924483,42.954582,1829.674],[-0.92441,42.954595,1830.17],[-0.924338,42.954605,1830.468],[-0.924268,42.95462,1830.942],[-0.924201,42.954633,1831.526],[-0.924133,42.954645,1832.109],[-0.924065,42.954648,1832.357],[-0.924,42.954666,1833.436],[-0.92393,42.954686,1835.142],[-0.923863,42.954701,1836.643],[-0.923793,42.954716,1838.215],[-0.923721,42.954729,1839.213],[-0.923663,42.954747,1839.829],[-0.923595,42.954765,1840.447],[-0.923522,42.954777,1840.743],[-0.923464,42.954794,1841.261],[-0.923406,42.954824,1842.121],[-0.923344,42.954842,1842.913],[-0.923286,42.954865,1844.109],[-0.923219,42.954887,1845.547],[-0.923161,42.954905,1846.916],[-0.923106,42.954928,1848.462],[-0.923046,42.954948,1850.153],[-0.922981,42.954963,1851.655],[-0.922919,42.954981,1853.523],[-0.922854,42.954998,1855.519],[-0.922797,42.955018,1856.887],[-0.922732,42.955033,1857.923],[-0.922669,42.955041,1858.985],[-0.922602,42.955063,1860.189],[-0.922549,42.955095,1861.317],[-0.922489,42.955118,1862.409],[-0.922431,42.955138,1863.519],[-0.922378,42.955165,1864.668],[-0.922336,42.955202,1865.864],[-0.922283,42.955225,1867.095],[-0.922238,42.955258,1868.497],[-0.922183,42.955288,1869.745],[-0.92212,42.955306,1871.011],[-0.92206,42.955333,1872.289],[-0.922002,42.955358,1873.515],[-0.921942,42.955388,1874.833],[-0.921887,42.955413,1876.223],[-0.921839,42.955453,1877.515],[-0.921779,42.955471,1879.009],[-0.921722,42.955501,1880.424],[-0.921654,42.955516,1881.993],[-0.921592,42.955528,1883.159],[-0.921522,42.955545,1884.55],[-0.921479,42.955578,1885.662],[-0.921429,42.955615,1886.93],[-0.921374,42.955642,1888.286],[-0.921322,42.955674,1889.694],[-0.921267,42.955696,1890.92],[-0.921222,42.955729,1892.314],[-0.921164,42.955744,1893.654],[-0.921094,42.955761,1895.209],[-0.921046,42.955789,1896.509],[-0.920999,42.955822,1897.812],[-0.920964,42.955879,1899.241],[-0.920916,42.955914,1900.537],[-0.920864,42.955946,1902.088],[-0.920797,42.955968,1903.68],[-0.92076,42.956006,1904.868],[-0.920702,42.956029,1906.254],[-0.920655,42.956066,1907.652],[-0.9206,42.956101,1909.178],[-0.920552,42.956131,1910.145],[-0.920504,42.956183,1910.947],[-0.920447,42.956205,1911.611],[-0.920434,42.956257,1912.109],[-0.920431,42.956302,1912.365],[-0.920428,42.956349,1912.664],[-0.920423,42.956394,1912.91],[-0.920416,42.956444,1912.781],[-0.920408,42.956494,1912.673],[-0.920371,42.956539,1912.961],[-0.920358,42.956586,1912.987],[-0.920341,42.956631,1913.045],[-0.920324,42.956676,1913.011],[-0.920306,42.956721,1912.746],[-0.920289,42.956766,1912.488],[-0.920276,42.956813,1911.916],[-0.920249,42.956863,1911.709],[-0.920232,42.956911,1911.335],[-0.920212,42.956963,1911.074],[-0.920189,42.957008,1910.82],[-0.920174,42.957056,1910.491],[-0.920169,42.957103,1909.853],[-0.920159,42.95716,1909.161],[-0.920161,42.957212,1908.427],[-0.920171,42.957265,1907.165],[-0.920176,42.957317,1905.851],[-0.920188,42.957362,1904.866],[-0.92021,42.957414,1904.229],[-0.920233,42.957467,1903.921],[-0.920255,42.957519,1903.909],[-0.920272,42.957566,1903.867],[-0.920292,42.957614,1903.386],[-0.920319,42.957661,1902.582],[-0.920332,42.957709,1901.953],[-0.920355,42.957752,1901.555],[-0.920357,42.9578,1901.963],[-0.920364,42.957845,1903.159],[-0.920361,42.957898,1904.627],[-0.920343,42.957948,1906.283],[-0.92032,42.957993,1908.012],[-0.920273,42.958035,1910.232],[-0.920256,42.958078,1910.905],[-0.920209,42.958115,1910.609],[-0.920157,42.958153,1910.492],[-0.920109,42.958181,1910.361],[-0.920026,42.958183,1909.587],[-0.920008,42.958228,1910.298],[-0.920056,42.9582,1910.18],[-0.920119,42.95819,1910.518],[-0.920162,42.958155,1910.524],[-0.920204,42.958108,1910.512],[-0.920234,42.958068,1910.538],[-0.920259,42.958025,1909.612],[-0.920322,42.958005,1908.332],[-0.920375,42.957977,1906.505],[-0.920392,42.957932,1905.109],[-0.920424,42.957885,1903.822],[-0.920442,42.957835,1902.781],[-0.920445,42.95779,1901.857],[-0.92049,42.957758,1901.888],[-0.920507,42.957713,1901.85],[-0.92056,42.957673,1901.598],[-0.920618,42.957643,1899.844],[-0.920665,42.957603,1898.512],[-0.920713,42.957555,1897.138],[-0.920761,42.95752,1895.867],[-0.920803,42.957487,1894.881],[-0.920851,42.957452,1893.719],[-0.920904,42.957404,1892.309],[-0.920956,42.957369,1890.937],[-0.920998,42.957319,1889.936],[-0.921048,42.957291,1888.632],[-0.921095,42.957261,1887.383],[-0.921167,42.957228,1885.425],[-0.921224,42.957193,1884.273],[-0.921277,42.95716,1883.329],[-0.921319,42.957127,1882.637],[-0.921359,42.957085,1882.373],[-0.921401,42.957035,1882.018],[-0.921446,42.956998,1881.498],[-0.921496,42.95697,1880.517],[-0.921546,42.956938,1879.609],[-0.921591,42.9569,1879.092],[-0.921628,42.956863,1878.611],[-0.921661,42.956818,1878.487],[-0.921699,42.956776,1878.018],[-0.921741,42.956739,1877.42],[-0.921804,42.956726,1875.668],[-0.921857,42.956681,1874.684],[-0.921894,42.956643,1873.912],[-0.921944,42.95661,1872.698],[-0.921989,42.956577,1871.772],[-0.922044,42.95654,1870.513],[-0.922086,42.956507,1869.614],[-0.922104,42.956457,1869.709],[-0.922166,42.956429,1868.258],[-0.922228,42.956396,1866.827],[-0.922288,42.956386,1865.473],[-0.922355,42.956388,1863.794],[-0.922408,42.956361,1862.526],[-0.922478,42.956331,1861.084],[-0.922543,42.956294,1859.59],[-0.9226,42.956272,1858.158],[-0.922665,42.956282,1856.244],[-0.922733,42.956259,1854.684],[-0.922788,42.956224,1853.507],[-0.922856,42.956209,1852.017],[-0.922928,42.956194,1850.309],[-0.92299,42.956172,1849.069],[-0.923053,42.956144,1847.748],[-0.923101,42.956116,1847.094],[-0.923159,42.956089,1846.065],[-0.923216,42.956064,1844.997],[-0.923261,42.956031,1844.265],[-0.923318,42.956001,1843.181],[-0.923385,42.955981,1841.719],[-0.923427,42.955943,1841.125],[-0.923489,42.955931,1839.785],[-0.923557,42.955924,1838.389],[-0.923595,42.955967,1836.917],[-0.923658,42.955977,1835.409],[-0.923713,42.955939,1834.799],[-0.923751,42.955899,1834.348],[-0.923804,42.955862,1833.554],[-0.923854,42.95582,1832.915],[-0.923911,42.955775,1831.987],[-0.923946,42.955737,1831.395],[-0.923984,42.9557,1830.741],[-0.924037,42.955677,1829.739],[-0.924102,42.95565,1828.555],[-0.924149,42.95562,1827.722],[-0.924197,42.955582,1827.062],[-0.924247,42.955542,1826.408],[-0.924307,42.9555,1825.509],[-0.924364,42.95546,1824.773],[-0.924404,42.955425,1824.212],[-0.924454,42.955397,1823.518],[-0.924504,42.955359,1823.099],[-0.924574,42.955334,1822.051],[-0.924611,42.955284,1821.989],[-0.924668,42.955244,1821.425],[-0.924726,42.955212,1820.923],[-0.924786,42.955179,1820.329],[-0.924859,42.955156,1819.318],[-0.924907,42.955126,1818.998],[-0.924955,42.955088,1818.517],[-0.925005,42.955048,1818.209],[-0.925068,42.955006,1817.922],[-0.925128,42.954976,1817.511],[-0.925175,42.954939,1817.487],[-0.925215,42.954902,1817.388],[-0.925257,42.954865,1817.21],[-0.925302,42.954832,1817.158],[-0.925369,42.954799,1816.624],[-0.925431,42.954762,1816.292],[-0.925481,42.954719,1816.128],[-0.925519,42.954681,1816.049],[-0.925581,42.954658,1815.302],[-0.925638,42.954631,1814.822],[-0.925683,42.954596,1814.509],[-0.92571,42.954546,1814.715],[-0.92574,42.954504,1814.724],[-0.92579,42.954472,1814.39],[-0.925833,42.954419,1814.131],[-0.925853,42.954372,1813.953],[-0.925878,42.954325,1813.771],[-0.925955,42.954267,1812.777],[-0.92606,42.954199,1811.515],[-0.926125,42.954169,1810.881],[-0.926193,42.954131,1809.487],[-0.926258,42.954091,1807.942],[-0.926328,42.954078,1806.726],[-0.926405,42.954085,1805.709],[-0.926483,42.954087,1805.239],[-0.926563,42.954089,1804.778],[-0.926641,42.954096,1804.474],[-0.926716,42.954103,1803.975],[-0.926781,42.95411,1803.457],[-0.926844,42.954127,1803.465],[-0.926924,42.954139,1803.191],[-0.927004,42.954147,1803.269],[-0.927081,42.95416,1803.715],[-0.927161,42.95417,1803.997],[-0.927238,42.954173,1803.823],[-0.927305,42.95418,1803.425],[-0.927375,42.954183,1803.109],[-0.927472,42.95419,1802.67],[-0.927549,42.954197,1802.379],[-0.927624,42.954197,1802.365],[-0.927697,42.954199,1802.256],[-0.927772,42.954194,1802.318],[-0.927837,42.954186,1802.326],[-0.927904,42.954193,1801.982],[-0.927974,42.9542,1801.52],[-0.928049,42.954202,1801.366],[-0.928121,42.954204,1801.256],[-0.928188,42.954204,1801.159],[-0.928265,42.954191,1801.414],[-0.928323,42.954174,1801.809],[-0.928385,42.954159,1801.836],[-0.928448,42.954147,1801.555],[-0.928515,42.95414,1801.281],[-0.92858,42.954125,1800.832],[-0.928647,42.954118,1800.684],[-0.928724,42.954116,1800.492],[-0.928801,42.954116,1800.258],[-0.928871,42.954123,1800.036],[-0.928954,42.954123,1799.712],[-0.929019,42.95412,1799.577],[-0.929084,42.954122,1799.261],[-0.929149,42.954114,1799.027],[-0.929217,42.954116,1798.609],[-0.929304,42.954114,1798.148],[-0.929377,42.954111,1797.697],[-0.929449,42.954111,1797.283],[-0.929521,42.954109,1797.094],[-0.929588,42.954096,1797.076],[-0.929653,42.954088,1796.944],[-0.929715,42.954096,1796.66],[-0.929778,42.954103,1796.248],[-0.929858,42.954118,1795.684],[-0.929923,42.954128,1795.126],[-0.93001,42.954143,1794.547],[-0.930087,42.95415,1794.011],[-0.930152,42.954148,1793.909],[-0.930214,42.95417,1793.113],[-0.930276,42.954172,1792.972],[-0.930354,42.95417,1792.648],[-0.930424,42.954172,1792.349],[-0.930521,42.95416,1792.321],[-0.930598,42.954152,1792.299],[-0.930598,42.954152,1792.265],[-0.930671,42.95414,1792.123],[-0.930763,42.954125,1792.079],[-0.93085,42.954117,1791.833],[-0.930918,42.954115,1791.323],[-0.930991,42.954108,1790.915],[-0.931069,42.954121,1790.109],[-0.931069,42.954121,1790.174],[-0.931069,42.954121,1790.133],[-0.931069,42.954121,1790.169],[-0.931069,42.954121,1790.15],[-0.931139,42.954108,1789.892],[-0.931196,42.954081,1789.89],[-0.931256,42.954043,1790.036],[-0.931288,42.954,1790.334],[-0.931336,42.953958,1790.56],[-0.931374,42.953918,1790.728],[-0.931419,42.953886,1790.889],[-0.931461,42.953851,1790.717],[-0.931518,42.953813,1790.509],[-0.931581,42.953788,1790.293],[-0.931646,42.953768,1790.072],[-0.931701,42.953745,1789.898],[-0.931754,42.95372,1789.679],[-0.931821,42.953687,1789.381],[-0.931874,42.95365,1789.289],[-0.931934,42.953623,1789.015],[-0.931999,42.953593,1788.133],[-0.932057,42.953563,1787.189],[-0.93212,42.953531,1786.271],[-0.932172,42.953498,1785.741],[-0.932234,42.953475,1785.515],[-0.932299,42.953452,1785.209],[-0.932364,42.95342,1785.018],[-0.932421,42.953397,1784.947],[-0.932484,42.953367,1785.073],[-0.932547,42.953339,1785.014],[-0.932604,42.953316,1784.746],[-0.932667,42.953309,1784.724],[-0.932735,42.953279,1784.74],[-0.9328,42.953261,1784.928],[-0.932867,42.953251,1785.424],[-0.932939,42.953218,1786.073],[-0.933001,42.9532,1786.585],[-0.933073,42.953175,1787.113],[-0.933135,42.953157,1787.609],[-0.933185,42.953127,1788.228],[-0.93324,42.953104,1788.847],[-0.933315,42.953091,1789.663],[-0.933385,42.953076,1790.074],[-0.933458,42.953068,1790.486],[-0.93352,42.953056,1790.754],[-0.933583,42.953024,1791.07],[-0.933635,42.952999,1791.398],[-0.933697,42.952964,1791.824],[-0.93375,42.952941,1792.396],[-0.933808,42.952913,1793.031],[-0.933866,42.952888,1793.624],[-0.933921,42.952863,1794.009],[-0.933999,42.952845,1794.08],[-0.934062,42.952852,1793.749],[-0.934132,42.952859,1793.575],[-0.934212,42.952869,1793.096],[-0.934275,42.952886,1792.448],[-0.93434,42.952921,1791.726],[-0.934407,42.952954,1791.072],[-0.934474,42.952976,1790.35],[-0.934537,42.952998,1789.746],[-0.934604,42.953008,1789.156],[-0.934674,42.953016,1788.559],[-0.934737,42.953018,1788.014],[-0.934802,42.95304,1787.209],[-0.93486,42.953068,1786.436],[-0.934918,42.953093,1785.545],[-0.934983,42.953105,1784.751],[-0.93506,42.953125,1783.432],[-0.935118,42.953142,1782.554],[-0.935178,42.953164,1781.572],[-0.935236,42.953189,1780.648],[-0.935293,42.953221,1779.676],[-0.935358,42.953229,1778.662],[-0.935425,42.953232,1777.637],[-0.935488,42.953249,1776.649],[-0.935555,42.953261,1775.513],[-0.93563,42.953256,1774.409],[-0.935697,42.953256,1773.434],[-0.935779,42.953243,1772.223],[-0.935869,42.953236,1770.719],[-0.935949,42.953231,1769.34],[-0.936017,42.953254,1768.082],[-0.936074,42.953282,1766.95],[-0.936132,42.953309,1765.856],[-0.936207,42.953342,1764.674],[-0.93627,42.953377,1763.57],[-0.936323,42.953405,1762.691],[-0.936373,42.953432,1761.981],[-0.936435,42.953464,1760.919],[-0.936498,42.953492,1759.909],[-0.936568,42.95352,1758.74],[-0.936646,42.953542,1757.519],[-0.936718,42.95356,1756.675],[-0.936778,42.953582,1755.956],[-0.93685,42.953592,1755.068],[-0.936918,42.953609,1754.366],[-0.936988,42.953624,1753.432],[-0.93706,42.953636,1752.57],[-0.937133,42.953638,1751.796],[-0.937213,42.953633,1750.962],[-0.937285,42.953628,1750.483],[-0.937352,42.953623,1750.011],[-0.937414,42.953633,1749.509],[-0.937492,42.953641,1748.837],[-0.937564,42.953649,1748.326],[-0.937627,42.953637,1747.942],[-0.937694,42.953622,1747.613],[-0.937766,42.953609,1747.145],[-0.937839,42.953592,1746.473],[-0.937909,42.953595,1745.989],[-0.937981,42.953592,1745.467],[-0.938044,42.95359,1744.923],[-0.938116,42.953583,1745.033],[-0.938179,42.95359,1745.223],[-0.938239,42.953605,1745.615],[-0.938304,42.953617,1745.909],[-0.938377,42.953624,1746.314],[-0.938449,42.953624,1746.843],[-0.938514,42.953626,1747.379],[-0.938582,42.953621,1747.89],[-0.938657,42.953613,1748.252],[-0.938732,42.953596,1747.84],[-0.938795,42.953583,1747.336],[-0.938872,42.953566,1746.484],[-0.938934,42.953591,1747.74],[-0.939006,42.953606,1748.678],[-0.939074,42.953618,1749.033],[-0.939147,42.953651,1749.126],[-0.939217,42.953653,1748.909],[-0.939284,42.95367,1748.658],[-0.939362,42.953678,1748.317],[-0.939424,42.95369,1748.283],[-0.939482,42.953705,1748.314],[-0.939547,42.953687,1747.986],[-0.939614,42.953694,1747.924],[-0.939691,42.953687,1747.72],[-0.939763,42.953684,1747.698],[-0.939831,42.953691,1747.884],[-0.939913,42.953699,1748.162],[-0.93997,42.953717,1748.683],[-0.94004,42.95373,1748.911],[-0.940097,42.95375,1749.309],[-0.940157,42.953763,1749.677],[-0.940222,42.953775,1749.896],[-0.940289,42.953785,1750.072],[-0.940359,42.953802,1750.223],[-0.940429,42.953792,1749.755],[-0.940504,42.953772,1749.063],[-0.940566,42.95377,1748.839],[-0.940636,42.953778,1748.547],[-0.940708,42.953765,1747.923],[-0.940775,42.953755,1747.415],[-0.940862,42.953748,1746.565],[-0.940924,42.953736,1745.311],[-0.940992,42.953723,1744.009],[-0.941069,42.953721,1742.752],[-0.941157,42.953723,1741.341],[-0.941249,42.95372,1739.967],[-0.941342,42.953712,1738.458],[-0.941424,42.953714,1737.35],[-0.941496,42.953726,1736.658],[-0.941576,42.953733,1735.694],[-0.941661,42.953735,1734.692],[-0.941739,42.953737,1733.858],[-0.941832,42.953727,1732.993],[-0.941915,42.953734,1732.065],[-0.941992,42.953739,1731.221],[-0.942062,42.953759,1730.309],[-0.942149,42.953761,1729.57],[-0.942234,42.953759,1728.849],[-0.942311,42.953746,1728.355],[-0.942393,42.953733,1727.756],[-0.94247,42.953723,1727.228],[-0.942545,42.953715,1726.696],[-0.942618,42.953707,1726.062],[-0.942686,42.9537,1725.44],[-0.942763,42.953697,1724.656],[-0.942828,42.953689,1724.087],[-0.942893,42.953682,1723.442],[-0.942958,42.95367,1722.926],[-0.943021,42.95365,1722.609],[-0.943081,42.95364,1721.999],[-0.943144,42.953623,1721.268],[-0.943222,42.953615,1719.924],[-0.943299,42.953607,1718.725],[-0.943379,42.953599,1717.377],[-0.943441,42.953589,1716.425],[-0.943503,42.953589,1715.381],[-0.943576,42.953592,1714.079],[-0.943649,42.953592,1713.045],[-0.943724,42.953599,1712.011],[-0.943796,42.953606,1711.121],[-0.943871,42.953614,1710.103],[-0.943936,42.953621,1709.209],[-0.944003,42.953628,1708.342],[-0.944073,42.953636,1707.341],[-0.944145,42.953644,1706.377],[-0.944213,42.953659,1705.138],[-0.94427,42.953682,1703.86],[-0.944317,42.953739,1701.738],[-0.944332,42.953792,1700.094],[-0.944367,42.95385,1698.092],[-0.944405,42.953907,1695.848],[-0.944447,42.953964,1693.596],[-0.944495,42.954012,1691.431],[-0.944563,42.954049,1689.424],[-0.944633,42.954082,1687.509],[-0.944701,42.954115,1685.72],[-0.944778,42.95415,1683.979],[-0.944848,42.95418,1682.315],[-0.944913,42.954202,1681.026],[-0.944976,42.954224,1679.868],[-0.945033,42.954247,1678.776],[-0.945088,42.954279,1677.532],[-0.945148,42.954309,1676.34],[-0.945193,42.954347,1675.176],[-0.945255,42.954389,1673.694],[-0.94532,42.954421,1672.357],[-0.945382,42.954449,1671.122],[-0.945445,42.954474,1670.009],[-0.945508,42.954507,1668.71],[-0.94557,42.954532,1667.729],[-0.94563,42.95455,1666.945],[-0.945688,42.954568,1666.176],[-0.945748,42.95459,1665.338],[-0.945808,42.954605,1664.746],[-0.945868,42.954623,1663.922],[-0.945946,42.95462,1663.47],[-0.946008,42.954627,1662.836],[-0.946071,42.95465,1661.833],[-0.946134,42.954662,1661.223],[-0.946202,42.954677,1660.615],[-0.946267,42.954692,1660.009],[-0.946345,42.954714,1659.364],[-0.946403,42.954737,1658.773],[-0.946463,42.954747,1658.339],[-0.946526,42.954767,1657.81],[-0.946588,42.954794,1657.232],[-0.946646,42.954827,1656.55],[-0.946716,42.95485,1655.916],[-0.946786,42.95487,1655.254],[-0.946854,42.954887,1654.76],[-0.946912,42.954909,1654.192],[-0.946975,42.954931,1653.673],[-0.947042,42.954954,1653.02],[-0.947104,42.954974,1652.609],[-0.947159,42.955002,1652.26],[-0.947214,42.95503,1651.759],[-0.947271,42.95506,1651.185],[-0.947343,42.955083,1650.636],[-0.947408,42.95511,1650.388],[-0.947473,42.955132,1650.156],[-0.947545,42.95516,1649.942],[-0.947603,42.955177,1649.92],[-0.94767,42.955197,1649.826],[-0.947745,42.955215,1649.823],[-0.947785,42.95525,1649.883],[-0.947842,42.955282,1649.511],[-0.947897,42.955305,1649.009],[-0.947962,42.95532,1648.553],[-0.948034,42.955347,1648.132],[-0.948089,42.955369,1647.978],[-0.948152,42.955382,1647.799],[-0.948224,42.955392,1647.511],[-0.948274,42.955419,1647.669],[-0.948354,42.955447,1647.895],[-0.948412,42.955469,1648.093],[-0.948472,42.955486,1648.169],[-0.948552,42.955508,1648.414],[-0.948624,42.955531,1648.654],[-0.948694,42.955549,1648.609],[-0.948752,42.955572,1648.609],[-0.948827,42.955587,1648.472],[-0.948889,42.955614,1648.421],[-0.948947,42.955631,1648.287],[-0.949007,42.955656,1648.248],[-0.949065,42.955688,1648.33],[-0.949123,42.955716,1648.478],[-0.949183,42.955743,1648.634],[-0.949243,42.955775,1648.882],[-0.949291,42.955807,1649.198],[-0.949356,42.955835,1649.351],[-0.949419,42.955862,1649.201],[-0.949487,42.95588,1648.911],[-0.949562,42.955913,1648.709],[-0.949627,42.955945,1648.676],[-0.949692,42.955972,1648.675],[-0.949772,42.955974,1648.441],[-0.949844,42.955997,1648.722],[-0.949904,42.95601,1648.884],[-0.949979,42.956013,1648.982],[-0.950054,42.95602,1648.648],[-0.950134,42.95601,1647.996],[-0.950209,42.956012,1647.422],[-0.950279,42.956024,1647.124],[-0.950347,42.956046,1646.804],[-0.950412,42.956059,1646.414],[-0.950475,42.956067,1645.909],[-0.950537,42.956074,1645.423],[-0.950595,42.956101,1645.292],[-0.950638,42.956134,1645.268],[-0.950693,42.956174,1645.289],[-0.950761,42.956207,1644.981],[-0.950823,42.956232,1644.799],[-0.950888,42.956249,1644.095],[-0.95094,42.956284,1643.823],[-0.951002,42.956312,1643.359],[-0.951062,42.956337,1642.871],[-0.951117,42.956365,1642.441],[-0.951179,42.956403,1642.215],[-0.951224,42.956436,1642.309],[-0.951291,42.956444,1641.418],[-0.951354,42.956462,1640.967],[-0.951404,42.956495,1641.273],[-0.951469,42.956527,1641.074],[-0.951524,42.956557,1641.026],[-0.951594,42.95658,1640.574],[-0.951657,42.956598,1639.92],[-0.951719,42.956623,1639.838],[-0.951776,42.956651,1639.974],[-0.951839,42.956674,1639.897],[-0.951894,42.956706,1640.123],[-0.951949,42.956728,1640.125],[-0.952021,42.956746,1639.609],[-0.952089,42.956756,1638.98],[-0.952157,42.956771,1638.559],[-0.95224,42.956776,1637.545],[-0.952312,42.956799,1637.746],[-0.952385,42.956809,1637.418],[-0.952457,42.956814,1636.886],[-0.952515,42.956829,1636.832],[-0.95258,42.956834,1636.36],[-0.952645,42.956856,1636.496],[-0.952713,42.956873,1636.285],[-0.952775,42.956871,1635.489],[-0.952838,42.956881,1635.217],[-0.952908,42.956893,1635.109],[-0.952968,42.95691,1635.369],[-0.953033,42.95692,1635.298],[-0.953098,42.95694,1635.594],[-0.953151,42.956967,1636.355],[-0.953231,42.956979,1636.327],[-0.953301,42.956986,1636.075],[-0.953378,42.956981,1635.451],[-0.953436,42.956998,1635.929],[-0.953511,42.957001,1635.785],[-0.953579,42.957003,1635.528],[-0.953649,42.956995,1634.989],[-0.953729,42.956983,1634.117],[-0.953792,42.956965,1633.209],[-0.953859,42.956965,1632.983],[-0.953929,42.95696,1632.842],[-0.953999,42.956955,1632.838],[-0.954067,42.956953,1633.029],[-0.954137,42.95695,1633.121],[-0.954207,42.95694,1633.019],[-0.954274,42.95693,1632.965],[-0.954352,42.956913,1632.683],[-0.95441,42.956895,1632.389],[-0.954473,42.956888,1632.215],[-0.954533,42.956873,1631.865],[-0.954598,42.95687,1631.711],[-0.95466,42.95686,1631.509],[-0.954722,42.956845,1631.112],[-0.954785,42.956845,1631.451],[-0.954853,42.95684,1631.557],[-0.954926,42.956828,1631.448],[-0.954989,42.956826,1631.59],[-0.955056,42.956826,1631.758],[-0.955121,42.956821,1631.794],[-0.955194,42.956808,1631.432],[-0.955256,42.956803,1631.468],[-0.955336,42.956793,1631.266],[-0.955398,42.956788,1631.229],[-0.955463,42.956788,1631.321],[-0.955525,42.956776,1631.109],[-0.955593,42.956769,1631.147],[-0.955648,42.956746,1630.646],[-0.955713,42.956754,1631.142],[-0.955788,42.956752,1631.353],[-0.955853,42.956755,1631.545],[-0.955923,42.956758,1631.643],[-0.955993,42.956753,1631.569],[-0.956066,42.956738,1631.167],[-0.956139,42.956726,1630.833],[-0.956216,42.956713,1630.794],[-0.956293,42.956703,1630.757],[-0.956365,42.956688,1630.522],[-0.956423,42.956671,1630.209],[-0.956486,42.956669,1630.49],[-0.956564,42.956659,1630.489],[-0.956636,42.956642,1630.385],[-0.956703,42.956629,1630.136],[-0.956765,42.956627,1630.148],[-0.95683,42.956624,1630.096],[-0.956897,42.956604,1629.632],[-0.956962,42.956597,1629.54],[-0.957025,42.956597,1629.446],[-0.957093,42.956594,1629.293],[-0.957155,42.956591,1629.065],[-0.95722,42.956584,1628.821],[-0.957292,42.956577,1628.509],[-0.95735,42.956595,1628.65],[-0.957418,42.956602,1628.559],[-0.957485,42.956609,1628.435],[-0.957558,42.956626,1628.116],[-0.957628,42.956653,1627.988],[-0.95769,42.956676,1627.876],[-0.957757,42.956693,1627.552],[-0.957822,42.956711,1627.35],[-0.957887,42.956738,1627.216],[-0.957949,42.956751,1627.059],[-0.958022,42.956776,1626.803],[-0.95809,42.956789,1626.423],[-0.958175,42.956804,1625.709],[-0.958237,42.956829,1625.466],[-0.958304,42.956849,1624.965],[-0.958362,42.956869,1624.621],[-0.958429,42.956891,1624.292],[-0.958497,42.956911,1623.864],[-0.958572,42.956934,1623.332],[-0.95863,42.956957,1623.048],[-0.958687,42.95698,1622.726],[-0.95875,42.957003,1622.392],[-0.958812,42.957043,1622.249],[-0.958882,42.957061,1621.802],[-0.958962,42.957088,1621.722],[-0.959042,42.957108,1621.609],[-0.959092,42.95714,1621.935],[-0.959157,42.957165,1622.094],[-0.959229,42.957192,1622.27],[-0.959286,42.957215,1622.411],[-0.959354,42.957238,1622.643],[-0.959419,42.957248,1622.511],[-0.959487,42.957255,1622.717],[-0.959552,42.957265,1623.235],[-0.959629,42.957265,1623.471],[-0.959699,42.957257,1623.534],[-0.959762,42.957252,1623.855],[-0.959834,42.957244,1624.21],[-0.959906,42.957231,1624.509],[-0.959971,42.957229,1624.974],[-0.960044,42.957224,1625.353],[-0.960104,42.957204,1625.339],[-0.960182,42.957201,1625.82],[-0.960254,42.957194,1626.142],[-0.960322,42.957194,1626.42],[-0.9604,42.957184,1626.556],[-0.960475,42.957182,1626.764],[-0.960557,42.957172,1626.71],[-0.960627,42.957164,1627.013],[-0.960687,42.957152,1627.143],[-0.96075,42.957144,1627.207],[-0.960823,42.957142,1627.609],[-0.96089,42.957142,1627.712],[-0.960958,42.957149,1628.041],[-0.961031,42.957156,1628.397],[-0.961101,42.957161,1628.468],[-0.961164,42.957158,1628.36],[-0.961227,42.957158,1628.248],[-0.961302,42.957166,1628.284],[-0.961364,42.957184,1628.412],[-0.961437,42.957197,1628.418],[-0.961499,42.95721,1628.431],[-0.961557,42.957225,1628.461],[-0.961635,42.957247,1628.307],[-0.961692,42.957285,1628.309],[-0.961749,42.957313,1628.264],[-0.961791,42.95735,1628.183],[-0.961849,42.957382,1627.769],[-0.961891,42.95742,1627.53],[-0.961938,42.95745,1627.192],[-0.961993,42.957493,1626.35],[-0.962033,42.957548,1625.426],[-0.962051,42.957593,1624.764],[-0.962063,42.957638,1624.26],[-0.962073,42.957683,1623.637],[-0.962083,42.957736,1622.949],[-0.962086,42.957791,1622.213],[-0.962089,42.957838,1621.309],[-0.962069,42.957881,1621.074],[-0.962044,42.957929,1620.863],[-0.962054,42.957976,1619.739],[-0.962057,42.958023,1618.81],[-0.962039,42.95807,1618.422],[-0.962027,42.958115,1618.02],[-0.962002,42.958163,1617.916],[-0.96197,42.958211,1618.144],[-0.96197,42.958268,1617.28],[-0.961975,42.958313,1616.477],[-0.96197,42.958375,1615.561],[-0.961957,42.958425,1615.027],[-0.96196,42.958475,1614.009],[-0.961945,42.95853,1613.418],[-0.961955,42.958585,1612.257],[-0.961952,42.95863,1611.643],[-0.961945,42.958675,1611.394],[-0.961947,42.958722,1610.716],[-0.961964,42.958772,1609.784],[-0.961987,42.95882,1608.55],[-0.961989,42.95887,1607.948],[-0.961992,42.958925,1607.434],[-0.962,42.958978,1606.938],[-0.96202,42.959028,1606.17],[-0.962052,42.959085,1605.017],[-0.962087,42.959133,1604.009],[-0.962102,42.959181,1603.644],[-0.962139,42.959233,1602.823],[-0.962169,42.959276,1602.249],[-0.962222,42.959301,1601.09],[-0.962254,42.959343,1600.472],[-0.962296,42.95938,1599.68],[-0.962313,42.959427,1599.346],[-0.962361,42.959457,1598.664],[-0.962406,42.959492,1598.16],[-0.962446,42.959539,1597.941],[-0.962494,42.959567,1597.481],[-0.962561,42.959595,1596.709],[-0.962616,42.959627,1596.309],[-0.962661,42.959667,1596.185],[-0.962711,42.959699,1595.744],[-0.962754,42.959744,1595.71],[-0.962791,42.959786,1595.781],[-0.962854,42.959819,1595.373],[-0.962914,42.959854,1594.991],[-0.962974,42.959882,1594.517],[-0.963032,42.959915,1594.125],[-0.963094,42.959945,1593.761],[-0.963162,42.959965,1593.247],[-0.963224,42.959987,1592.929],[-0.963292,42.960012,1592.721],[-0.963364,42.960034,1592.409],[-0.963401,42.960071,1592.845],[-0.963459,42.960099,1592.884],[-0.963527,42.960114,1592.42],[-0.963597,42.960131,1592.031],[-0.963665,42.960149,1591.543],[-0.963735,42.960167,1591.051],[-0.963793,42.960184,1590.637],[-0.963868,42.960226,1590.455],[-0.963925,42.960261,1590.221],[-0.963992,42.960288,1589.637],[-0.964054,42.960318,1589.149],[-0.964117,42.960353,1588.513],[-0.964172,42.960381,1588.009],[-0.964232,42.960409,1587.564],[-0.964294,42.960441,1586.913],[-0.964352,42.960474,1586.579],[-0.964407,42.960502,1586.08],[-0.964462,42.960537,1585.622],[-0.964524,42.960569,1585.16],[-0.964572,42.960597,1584.646],[-0.964634,42.960607,1584.084],[-0.964709,42.960622,1583.11],[-0.964781,42.960642,1582.678],[-0.964836,42.960679,1582.433],[-0.964893,42.960706,1582.126],[-0.964956,42.960729,1581.809],[-0.965028,42.960752,1581.688],[-0.965083,42.96078,1581.727],[-0.965136,42.960808,1581.893],[-0.965196,42.960828,1582.094],[-0.965258,42.960841,1581.996],[-0.965325,42.960853,1581.514],[-0.965383,42.960871,1580.95],[-0.965448,42.960883,1580.598],[-0.965508,42.960903,1579.934],[-0.965575,42.96092,1579.461],[-0.965647,42.960945,1579.021],[-0.965715,42.960967,1578.613],[-0.965787,42.96099,1578.209],[-0.965842,42.961013,1577.887],[-0.965897,42.961038,1577.586],[-0.965962,42.961061,1577.362],[-0.96603,42.961069,1577.463],[-0.9661,42.961082,1577.495],[-0.966175,42.9611,1577.223],[-0.966243,42.961117,1576.969],[-0.966315,42.961132,1576.557],[-0.966375,42.961155,1576.163],[-0.966433,42.961173,1575.858],[-0.966495,42.96119,1575.752],[-0.966567,42.961207,1575.617],[-0.966634,42.961224,1575.409],[-0.966697,42.961234,1575.446],[-0.96676,42.961241,1575.425],[-0.966832,42.961253,1575.291],[-0.966915,42.961268,1575.062],[-0.966978,42.96129,1574.614],[-0.96704,42.96132,1574.162],[-0.9671,42.961342,1573.748],[-0.967167,42.961359,1573.656],[-0.967234,42.961381,1573.232],[-0.967294,42.961398,1573.061],[-0.967364,42.961406,1573.021],[-0.967432,42.961413,1573.113],[-0.967494,42.96143,1572.809],[-0.967571,42.961442,1572.587],[-0.967636,42.96144,1572.686],[-0.967708,42.961448,1572.522],[-0.96778,42.961463,1572.153],[-0.96785,42.961476,1571.955],[-0.967918,42.961494,1571.553],[-0.967993,42.961514,1571.249],[-0.968063,42.961517,1571.217],[-0.968133,42.961529,1570.723],[-0.968203,42.961546,1570.111],[-0.968266,42.961549,1569.821],[-0.968336,42.961562,1569.303],[-0.968413,42.961575,1568.909],[-0.968481,42.961603,1568.342],[-0.968553,42.961616,1568.051],[-0.968631,42.961633,1567.527],[-0.968693,42.961656,1566.668],[-0.968765,42.961656,1566.18],[-0.968842,42.961669,1565.398],[-0.968912,42.961672,1564.894],[-0.968984,42.961674,1564.542],[-0.969046,42.961687,1564.168],[-0.969121,42.961695,1563.782],[-0.969196,42.9617,1563.243],[-0.969266,42.961705,1562.617],[-0.969346,42.9617,1562.209],[-0.969419,42.961695,1561.819],[-0.969497,42.961703,1561.148],[-0.969564,42.961726,1560.394],[-0.969624,42.961739,1559.745],[-0.969689,42.961757,1558.927],[-0.969764,42.961779,1558.365],[-0.969827,42.961791,1558.061],[-0.969887,42.961814,1557.639],[-0.96997,42.961829,1557.395],[-0.970028,42.961847,1557.046],[-0.970095,42.961849,1556.888],[-0.970165,42.961861,1556.516],[-0.970232,42.961888,1556.309],[-0.970292,42.961903,1556.195],[-0.97035,42.96192,1556.164],[-0.970403,42.961948,1555.94],[-0.970466,42.96197,1555.521],[-0.970539,42.961987,1555.283],[-0.970602,42.962004,1554.811],[-0.970672,42.962012,1554.677],[-0.970747,42.962022,1554.315],[-0.970815,42.96204,1554.011],[-0.970882,42.962063,1553.949],[-0.970944,42.962086,1554.102],[-0.971004,42.962104,1554.322],[-0.971067,42.962117,1554.709],[-0.97114,42.96214,1555.315],[-0.971205,42.962157,1555.984],[-0.97127,42.962174,1556.66],[-0.971327,42.962192,1557.231],[-0.971399,42.962204,1558.043],[-0.971464,42.962222,1558.511],[-0.971529,42.962235,1558.577],[-0.971592,42.962253,1558.425],[-0.971652,42.962266,1558.511],[-0.971714,42.962274,1558.722],[-0.971779,42.962287,1558.862],[-0.971852,42.9623,1559.008],[-0.971917,42.962308,1559.309],[-0.971987,42.96232,1559.853],[-0.972049,42.962327,1560.522],[-0.972111,42.962342,1561.118],[-0.972176,42.962367,1561.649],[-0.972238,42.962379,1562.451],[-0.972295,42.962407,1562.769],[-0.972353,42.962439,1563.165],[-0.972418,42.962461,1563.923],[-0.972476,42.962478,1564.759],[-0.972539,42.962496,1565.713],[-0.972596,42.962514,1566.143],[-0.972661,42.962531,1566.707],[-0.972719,42.962553,1567.209],[-0.972781,42.962568,1568.122],[-0.972849,42.962568,1569.291],[-0.972919,42.962571,1570.327],[-0.972979,42.962593,1571.078],[-0.973037,42.962613,1571.81],[-0.973085,42.962646,1572.348],[-0.973152,42.962663,1573.154],[-0.973217,42.962688,1574.052],[-0.973252,42.962728,1574.558],[-0.973304,42.962765,1575.474],[-0.973364,42.962777,1576.356],[-0.973432,42.962789,1576.521],[-0.973502,42.962792,1577.209],[-0.97357,42.962795,1577.888],[-0.973635,42.96281,1577.997],[-0.973697,42.962828,1577.993],[-0.973762,42.962831,1578.484],[-0.973829,42.962851,1578.556],[-0.973889,42.962871,1578.774],[-0.973961,42.962881,1579.22],[-0.974023,42.962884,1579.948],[-0.974083,42.962894,1580.514],[-0.974146,42.962911,1581.228],[-0.974206,42.962944,1581.789],[-0.974273,42.962962,1582.217],[-0.974336,42.962989,1582.909],[-0.974391,42.963026,1583.933],[-0.974431,42.963061,1584.622],[-0.974491,42.963071,1584.198],[-0.974539,42.963101,1582.999],[-0.974584,42.963133,1582.051],[-0.974631,42.963163,1581.619],[-0.974681,42.963198,1581.515],[-0.974719,42.963241,1581.643],[-0.974772,42.963281,1581.469],[-0.974842,42.963308,1581.419],[-0.974914,42.963336,1581.609],[-0.974947,42.963376,1580.519],[-0.974972,42.963421,1579.409],[-0.975014,42.963461,1578.862],[-0.975066,42.963494,1578.121],[-0.975109,42.963537,1577.667],[-0.975136,42.963584,1577.338],[-0.975161,42.963632,1576.91],[-0.975179,42.963687,1576.348],[-0.975197,42.963737,1575.934],[-0.975217,42.963792,1575.732],[-0.975245,42.963842,1576.148],[-0.975263,42.963885,1576.446],[-0.975283,42.963933,1575.988],[-0.9753,42.96398,1574.616],[-0.975322,42.964028,1573.109],[-0.97533,42.964083,1571.885],[-0.975323,42.964141,1570.774],[-0.975303,42.964188,1569.98],[-0.975268,42.964235,1568.221],[-0.975266,42.964292,1566.363],[-0.975249,42.964337,1563.921],[-0.975249,42.964385,1562.317],[-0.975234,42.964435,1559.895],[-0.975254,42.964487,1559.391],[-0.975281,42.964529,1559.268],[-0.975309,42.964582,1557.442],[-0.975334,42.964627,1555.926],[-0.975342,42.964674,1554.409],[-0.975377,42.964719,1553.177],[-0.975404,42.964767,1551.826],[-0.975444,42.964817,1550.522],[-0.975462,42.964862,1549.523],[-0.97547,42.964912,1548.325],[-0.975497,42.964967,1547.263],[-0.975545,42.965002,1546.829],[-0.975568,42.965054,1545.667],[-0.975591,42.965097,1544.423],[-0.975611,42.965142,1543.363],[-0.975638,42.965189,1542.244],[-0.97567,42.965234,1541.318],[-0.975693,42.965281,1540.409],[-0.975716,42.965329,1539.717],[-0.975746,42.965382,1539.156],[-0.975768,42.965425,1538.792],[-0.975793,42.965483,1538.213],[-0.975825,42.965523,1538.275],[-0.97584,42.965571,1537.883],[-0.975862,42.965621,1537.249],[-0.975897,42.965659,1536.747],[-0.975914,42.965707,1536.243],[-0.975939,42.965762,1535.787],[-0.975952,42.965809,1535.242],[-0.975957,42.965854,1534.926],[-0.975964,42.965911,1534.709],[-0.975999,42.965956,1534.769],[-0.976046,42.966008,1535.038],[-0.976066,42.966053,1535.344],[-0.976088,42.96611,1535.785],[-0.97613,42.966157,1536.067],[-0.976155,42.966205,1536.135],[-0.976187,42.966257,1536.351],[-0.976219,42.966299,1536.549],[-0.976249,42.966347,1536.845],[-0.976277,42.966395,1537.232],[-0.976307,42.966437,1537.892],[-0.976354,42.966469,1538.511],[-0.976377,42.966516,1539.209],[-0.976417,42.966559,1539.874],[-0.976455,42.966596,1540.193],[-0.976498,42.966638,1540.619],[-0.976513,42.966685,1541.27],[-0.976525,42.966732,1541.722],[-0.976553,42.966775,1542.28],[-0.976575,42.966822,1542.966],[-0.976592,42.966869,1543.564],[-0.976617,42.966922,1544.36],[-0.976632,42.966972,1545.145],[-0.976662,42.967022,1546.147],[-0.97669,42.967067,1546.811],[-0.976702,42.967114,1547.509],[-0.976732,42.967154,1548.125],[-0.97676,42.967194,1548.994],[-0.976777,42.967237,1549.63],[-0.976817,42.967275,1550.471],[-0.976857,42.967318,1551.473],[-0.976904,42.96736,1552.691],[-0.976956,42.967398,1553.857],[-0.977013,42.967431,1554.625],[-0.977061,42.967466,1555.511],[-0.977098,42.967506,1556.787],[-0.977138,42.967546,1557.742],[-0.977168,42.967598,1559.126],[-0.977193,42.967651,1560.509],[-0.977215,42.967698,1561.919],[-0.977238,42.967745,1563.368],[-0.977278,42.96779,1564.634],[-0.977311,42.967835,1565.715],[-0.977351,42.967882,1567.087],[-0.977376,42.967929,1568.285],[-0.977414,42.967969,1569.641],[-0.977447,42.968012,1571.029],[-0.9775,42.968045,1572.755],[-0.97755,42.968073,1573.961],[-0.977608,42.968095,1575.021],[-0.977658,42.968125,1576.213],[-0.977718,42.968155,1577.709],[-0.977771,42.968187,1579.297],[-0.977826,42.968217,1580.436],[-0.977888,42.968244,1581.712],[-0.977868,42.968291,1582.883],[-0.977938,42.968301,1583.855],[-0.97799,42.968326,1585.143],[-0.978052,42.968341,1586.199],[-0.97811,42.968361,1586.457],[-0.97817,42.968391,1587.013],[-0.978203,42.968431,1587.882],[-0.978251,42.968478,1588.843],[-0.978309,42.968503,1589.617],[-0.978366,42.968535,1590.509],[-0.978413,42.96857,1591.629],[-0.97848,42.96859,1592.568],[-0.97854,42.968623,1593.514],[-0.978605,42.96865,1594.095],[-0.978665,42.968668,1594.397],[-0.97873,42.968693,1594.795],[-0.978775,42.968726,1595.141],[-0.978827,42.968758,1595.659],[-0.97888,42.96879,1596.295],[-0.978942,42.968805,1596.948],[-0.978997,42.968837,1597.661],[-0.979047,42.968872,1598.517],[-0.979094,42.968904,1599.109],[-0.979141,42.968934,1599.495],[-0.979198,42.968966,1599.514],[-0.979255,42.968996,1599.67],[-0.979305,42.969028,1599.761],[-0.979352,42.969066,1600.063],[-0.979399,42.969101,1600.431],[-0.979444,42.969136,1600.967],[-0.979471,42.969179,1601.265],[-0.979511,42.969222,1601.471],[-0.979549,42.969267,1601.892],[-0.979572,42.969309,1602.173],[-0.979609,42.969354,1602.72],[-0.979651,42.969389,1603.509],[-0.979704,42.969429,1604.66],[-0.979749,42.969466,1605.239],[-0.979797,42.969499,1605.735],[-0.979845,42.969529,1606.226],[-0.97989,42.969564,1606.668],[-0.979955,42.969594,1607.416],[-0.980012,42.969612,1608.192],[-0.98007,42.969647,1608.54],[-0.98007,42.969647,1608.556],[-0.980117,42.969679,1609.022],[-0.980162,42.969716,1609.762],[-0.980214,42.969759,1610.608],[-0.980262,42.969801,1611.609],[-0.9803,42.969846,1612.573],[-0.980328,42.969886,1613.332],[-0.980376,42.969923,1614.328],[-0.980428,42.96996,1615.599],[-0.980481,42.970003,1617.081],[-0.980504,42.97005,1618.079],[-0.980516,42.970102,1619.085],[-0.980548,42.970144,1620.423],[-0.980573,42.970186,1621.529],[-0.980603,42.970226,1622.669],[-0.980658,42.970258,1624.004],[-0.98072,42.970273,1625.224],[-0.980793,42.970333,1626.809],[-0.980848,42.970356,1627.987],[-0.980908,42.970381,1628.626],[-0.980945,42.970419,1629.582],[-0.980993,42.970452,1630.723],[-0.981046,42.970489,1632.245],[-0.981099,42.970526,1634.063],[-0.981147,42.970564,1635.549],[-0.981207,42.970594,1636.497],[-0.981274,42.970614,1637.323],[-0.981339,42.970631,1638.271],[-0.981402,42.970643,1639.041],[-0.98146,42.970663,1639.615],[-0.981515,42.970685,1640.309],[-0.981577,42.970703,1641.078],[-0.98164,42.97072,1641.877],[-0.981707,42.970735,1642.533],[-0.981772,42.970755,1643.444],[-0.98183,42.970773,1644.366],[-0.981898,42.970791,1645.434],[-0.981956,42.970811,1646.45],[-0.982028,42.970828,1647.428],[-0.982091,42.970848,1648.064],[-0.982151,42.970865,1648.392],[-0.982214,42.970873,1648.873],[-0.982281,42.970893,1649.32],[-0.982349,42.97092,1649.709],[-0.982409,42.970945,1650.21],[-0.982471,42.970967,1650.749],[-0.982544,42.970977,1651.215],[-0.982606,42.970994,1651.736],[-0.982656,42.971021,1652.178],[-0.982704,42.971059,1652.836],[-0.982756,42.971096,1653.612],[-0.982821,42.971113,1654.18],[-0.982884,42.971126,1654.166],[-0.982947,42.971138,1654.142],[-0.983019,42.971153,1654.222],[-0.983081,42.971161,1654.414],[-0.983144,42.971176,1654.509],[-0.983216,42.971198,1654.735],[-0.983284,42.971216,1654.984],[-0.983339,42.971238,1655.16],[-0.983392,42.971265,1654.721],[-0.983449,42.971292,1654.573],[-0.983506,42.97132,1654.531],[-0.983563,42.97135,1654.617],[-0.9836,42.971392,1654.925],[-0.98365,42.971434,1653.481],[-0.983707,42.971462,1652.113],[-0.983754,42.971494,1651.143],[-0.983814,42.971529,1650.207],[-0.983872,42.971552,1649.509],[-0.983927,42.971584,1648.592],[-0.983982,42.971609,1647.591],[-0.98403,42.971637,1646.817],[-0.984082,42.97167,1646.118],[-0.984134,42.971705,1644.51],[-0.984201,42.971735,1642.598],[-0.984278,42.971752,1640.294],[-0.984338,42.971764,1638.482],[-0.984398,42.971779,1636.578],[-0.984473,42.971779,1634.777],[-0.984533,42.971789,1633.361],[-0.9846,42.971794,1631.827],[-0.984665,42.971821,1630.509],[-0.984727,42.971831,1629.418],[-0.98479,42.971846,1627.397],[-0.984853,42.971858,1625.323],[-0.984921,42.971868,1623.284],[-0.984984,42.971891,1621.586],[-0.985039,42.971914,1620.444],[-0.985091,42.971946,1619.64],[-0.985156,42.971958,1617.258],[-0.985219,42.97196,1615.594],[-0.985282,42.971967,1613.594],[-0.985347,42.971965,1611.957],[-0.985414,42.971972,1609.722],[-0.985472,42.972004,1606.709],[-0.985532,42.972017,1604.71],[-0.9856,42.972034,1602.659],[-0.98566,42.972054,1601.075],[-0.985728,42.972061,1599.816],[-0.985791,42.972071,1598.788],[-0.985848,42.972098,1597.866],[-0.985908,42.972111,1597.582],[-0.985988,42.972121,1597.45],[-0.98606,42.972129,1597.426],[-0.986132,42.972139,1597.565],[-0.986205,42.972146,1597.368],[-0.986262,42.972169,1597.914],[-0.986317,42.972192,1598.709],[-0.986375,42.972215,1599.777],[-0.98644,42.972228,1599.486],[-0.986513,42.972241,1598.382],[-0.986581,42.972243,1597.973],[-0.986639,42.972261,1597.085],[-0.986706,42.972266,1596.053],[-0.986779,42.972283,1594.249],[-0.986849,42.972301,1592.587],[-0.986922,42.972313,1591.173],[-0.986984,42.97233,1589.624],[-0.987046,42.972357,1588.004],[-0.987113,42.972374,1586.614],[-0.987173,42.972387,1585.309],[-0.98724,42.97239,1584.293],[-0.987318,42.972403,1583.442],[-0.987388,42.97241,1582.858],[-0.987466,42.972418,1582.129],[-0.987528,42.972418,1581.631],[-0.98759,42.972433,1581.679],[-0.987655,42.972453,1581.865],[-0.987713,42.97248,1582.413],[-0.987778,42.972492,1582.789],[-0.987855,42.972494,1583.028],[-0.987918,42.972502,1583.489],[-0.987995,42.97252,1582.817],[-0.988058,42.972533,1582.309],[-0.988121,42.972528,1582.983],[-0.988181,42.972545,1582.482],[-0.988243,42.972555,1582.358],[-0.98831,42.972558,1582.689],[-0.988378,42.972558,1583.251],[-0.98844,42.972566,1583.639],[-0.988502,42.972591,1583.455],[-0.988565,42.972598,1583.973],[-0.988637,42.972581,1585.339],[-0.988699,42.972588,1585.798],[-0.988772,42.972588,1586.415],[-0.988847,42.972595,1586.926],[-0.988909,42.972588,1587.809],[-0.988976,42.972578,1589.17],[-0.989038,42.972585,1589.919],[-0.98911,42.97259,1590.885],[-0.989182,42.972598,1591.796],[-0.989247,42.972598,1592.698],[-0.989315,42.9726,1593.536],[-0.989382,42.972605,1594.472],[-0.989452,42.972622,1595.23],[-0.98951,42.972604,1595.816],[-0.989573,42.972626,1596.297],[-0.98965,42.972636,1596.823],[-0.989712,42.972661,1597.525],[-0.989754,42.972706,1597.509],[-0.989804,42.972734,1597.43],[-0.989854,42.972761,1597.489],[-0.989897,42.972811,1596.515],[-0.989955,42.972834,1596.056],[-0.990007,42.972876,1595.158],[-0.990052,42.972916,1593.986],[-0.9901,42.972958,1593.092],[-0.990145,42.972991,1592.67],[-0.990215,42.973021,1592.546],[-0.99027,42.973049,1592.951],[-0.990318,42.973077,1591.701],[-0.990383,42.973117,1589.811],[-0.99043,42.973147,1588.709],[-0.990502,42.973155,1588.166],[-0.990554,42.973183,1587.565],[-0.990606,42.97321,1586.961],[-0.990663,42.973247,1586.572],[-0.990716,42.973275,1586.484],[-0.990774,42.973292,1586.342],[-0.990841,42.973324,1586.798],[-0.990888,42.973354,1585.976],[-0.99093,42.973392,1584.722],[-0.990978,42.973425,1583.822],[-0.991046,42.973458,1583.262],[-0.991123,42.973488,1582.808],[-0.991185,42.973508,1582.109],[-0.991248,42.973533,1581.573],[-0.991306,42.973553,1581.152],[-0.991369,42.973563,1580.818],[-0.991434,42.973578,1580.319],[-0.991497,42.973596,1580.061],[-0.991564,42.973621,1579.569],[-0.991631,42.973644,1578.655],[-0.991699,42.973664,1577.793],[-0.991769,42.973684,1576.629],[-0.991832,42.973706,1575.749],[-0.991894,42.973728,1575.002],[-0.991959,42.973745,1574.422],[-0.992019,42.97376,1573.709],[-0.992087,42.973782,1573.165],[-0.992159,42.973807,1572.684],[-0.992222,42.973829,1572.46],[-0.99229,42.973852,1572.581],[-0.992368,42.973867,1572.693],[-0.992456,42.973897,1572.791],[-0.992524,42.973905,1572.467],[-0.992602,42.97392,1572.075],[-0.992659,42.973942,1571.491],[-0.992719,42.973957,1571.157],[-0.992791,42.973959,1571.3],[-0.992854,42.973974,1571.22],[-0.992921,42.973994,1571.109],[-0.992989,42.974011,1571.336],[-0.993052,42.974028,1571.515],[-0.993119,42.97405,1571.821],[-0.993184,42.974058,1572.332],[-0.993259,42.974066,1573.024],[-0.993331,42.974068,1573.612],[-0.993409,42.974066,1574.668],[-0.993484,42.974078,1575.746],[-0.993557,42.974083,1576.882],[-0.993624,42.974091,1577.824],[-0.993676,42.974116,1578.704],[-0.993731,42.974149,1579.914],[-0.993769,42.974186,1580.609],[-0.993821,42.974216,1581.033],[-0.993866,42.974256,1581.642],[-0.993916,42.974299,1582.258]]}}]}