{"type":"FeatureCollection","features":[{"type":"Feature","properties":{"ruta_id":"106865604","nombre":"TTUTTURRE desde el parking de ALBI","blog_url":"https://www.rutasporelmonte.com/ttutturre-1290-m-desde-parking-de-albi/"},"geometry":{"type":"LineString","coordinates":[[-1.994832,42.96314,978.113],[-1.994897,42.963067,978.143],[-1.9949,42.962995,978.107],[-1.99503,42.963032,978.109],[-1.995075,42.96312,978.192],[-1.995143,42.96291,978.191],[-1.995155,42.962955,978.157],[-1.995152,42.96291,978.199],[-1.995192,42.962873,978.137],[-1.995242,42.962843,978.166],[-1.995307,42.962826,978.147],[-1.99538,42.962804,978.111],[-1.99546,42.962796,978.125],[-1.995525,42.962806,978.124],[-1.995597,42.962801,978.104],[-1.995662,42.962806,978.114],[-1.995745,42.962801,978.109],[-1.995797,42.962769,978.133],[-1.995857,42.962749,978.162],[-1.995932,42.962741,978.198],[-1.995994,42.962728,978.15],[-1.996069,42.962718,978.178],[-1.996144,42.962701,978.187],[-1.996219,42.962679,978.118],[-1.996286,42.962664,978.132],[-1.996354,42.962661,978.156],[-1.996404,42.962626,978.131],[-1.996479,42.962614,978.161],[-1.996534,42.962641,978.107],[-1.996607,42.962629,978.109],[-1.996674,42.962631,978.194],[-1.996739,42.962649,993.233],[-1.996801,42.962654,991.139],[-1.996876,42.962651,991.821],[-1.996953,42.962656,991.389],[-1.997021,42.962668,991.678],[-1.997094,42.96266,993.959],[-1.997161,42.96267,992.963],[-1.997229,42.962693,992.537],[-1.997302,42.962706,991.152],[-1.997377,42.962716,991.153],[-1.997444,42.962721,989.308],[-1.997504,42.962736,987.809],[-1.997566,42.962763,987.516],[-1.997618,42.962795,987.875],[-1.997636,42.962878,989.221],[-1.997646,42.962928,989.263],[-1.997666,42.962985,989.991],[-1.997648,42.963038,992.59],[-1.997638,42.963083,993.611],[-1.997606,42.963136,994.365],[-1.997571,42.963178,994.119],[-1.997529,42.963211,993.925],[-1.997474,42.963253,995.226],[-1.997456,42.963301,994.808],[-1.997421,42.963341,995.909],[-1.997383,42.963391,998.213],[-1.99735,42.963434,999.712],[-1.99731,42.963482,999.778],[-1.997273,42.96353,999.39],[-1.997228,42.963567,997.658],[-1.997185,42.96361,995.757],[-1.997168,42.963655,992.448],[-1.99718,42.963712,990.992],[-1.997212,42.963762,989.786],[-1.99723,42.96381,988.292],[-1.997237,42.96386,988.373],[-1.997242,42.963907,988.02],[-1.997255,42.963952,987.609],[-1.997242,42.963905,979.39],[-1.997315,42.964055,979.719],[-1.997377,42.964073,978.045],[-1.997439,42.964091,980.697],[-1.997491,42.964129,981.775],[-1.997558,42.964151,981.484],[-1.997628,42.964171,980.435],[-1.997708,42.964188,979.519],[-1.997766,42.964213,979.463],[-1.997833,42.964228,979.326],[-1.997905,42.964221,979.847],[-1.997973,42.964203,978.611],[-1.99805,42.964203,978.809],[-1.998112,42.964211,981.493],[-1.998182,42.964224,985.062],[-1.998259,42.964226,986.618],[-1.998327,42.964223,990.64],[-1.99839,42.964208,992.158],[-1.99845,42.964198,990.567],[-1.998497,42.964168,990.228],[-1.998534,42.964118,990.452],[-1.998571,42.964073,989.496],[-1.998594,42.964031,989.656],[-1.998644,42.963986,991.659],[-1.998681,42.963946,993.114],[-1.998723,42.963904,994.509],[-1.998761,42.963856,994.766],[-1.998816,42.963826,995.245],[-1.998883,42.963843,995.071],[-1.998958,42.963856,994.163],[-1.99903,42.963869,993.411],[-1.999092,42.963877,992.19],[-1.999159,42.96388,990.471],[-1.999234,42.963888,988.775],[-1.999304,42.963876,987.769],[-1.999377,42.963869,986.849],[-1.999454,42.963856,986.202],[-1.999522,42.963859,987.122],[-1.999582,42.963849,985.509],[-1.999627,42.963809,985.665],[-1.99969,42.963807,988.494],[-1.999743,42.963837,989.55],[-1.999806,42.963867,990.452],[-1.999856,42.963899,992.21],[-1.999888,42.963944,994.659],[-1.999931,42.963982,997.27],[-1.999981,42.964015,997.194],[-2.000026,42.964053,996.318],[-2.000066,42.96409,995.771],[-2.000106,42.964127,996.141],[-2.000136,42.964169,998.015],[-2.000188,42.964206,996.609],[-2.000258,42.964224,994.998],[-2.000335,42.964246,993.887],[-2.00039,42.964268,993.713],[-2.000438,42.964316,993.665],[-2.000466,42.964359,994.423],[-2.000498,42.964409,995.022],[-2.000531,42.964449,996.533],[-2.000594,42.964481,997.747],[-2.000622,42.964529,997.841],[-2.000642,42.964572,998.147],[-2.000679,42.964622,998.029],[-2.000704,42.964665,997.721],[-2.000704,42.96471,997.209],[-2.000727,42.96476,996.575],[-2.000714,42.964805,995.554],[-2.000676,42.964855,994.56],[-2.000633,42.9649,993.712],[-2.000576,42.964933,992.82],[-2.000524,42.96496,990.989],[-2.000504,42.965008,989.57],[-2.000512,42.96506,988.564],[-2.000522,42.965108,988.168],[-2.000542,42.965161,988.237],[-2.000572,42.965216,988.449],[-2.000627,42.965251,988.013],[-2.000687,42.965288,986.609],[-2.000744,42.96533,985.224],[-2.000809,42.965358,985.183],[-2.000867,42.965393,985.129],[-2.000907,42.96543,986.281],[-2.000967,42.965453,986.729],[-2.001032,42.965486,986.328],[-2.00109,42.965503,985.869],[-2.001158,42.965511,985.843],[-2.001216,42.965538,985.197],[-2.001293,42.965543,984.072],[-2.001361,42.965555,983.813],[-2.001423,42.965565,984.314],[-2.001485,42.96557,983.909],[-2.001548,42.965567,983.828],[-2.00161,42.965577,984.357],[-2.001687,42.96559,986.363],[-2.001752,42.965598,987.195],[-2.001817,42.96561,989.253],[-2.0019,42.965618,993.492],[-2.001963,42.965613,995.483],[-2.002028,42.965608,996.727],[-2.002093,42.965636,999.121],[-2.002148,42.965669,1000.047],[-2.002156,42.965716,999.029],[-2.002143,42.965773,997.221],[-2.002125,42.965818,996.109],[-2.002092,42.965858,995.425],[-2.002049,42.96591,994.194],[-2.002009,42.965957,994.67],[-2.001962,42.966002,995.112],[-2.001929,42.966044,995.41],[-2.001877,42.966092,995.759],[-2.001822,42.966124,995.27],[-2.001759,42.966132,995.234],[-2.001701,42.966172,995.268],[-2.001639,42.966214,995.155],[-2.001586,42.966246,995.607],[-2.001561,42.966291,996.117],[-2.001524,42.966339,996.509],[-2.001477,42.966384,997.036],[-2.00142,42.966419,997.965],[-2.0014,42.966462,998.641],[-2.001373,42.96651,999.123],[-2.001371,42.96656,999.331],[-2.001354,42.966605,1000.08],[-2.001311,42.966653,1000.551],[-2.001268,42.966696,1001.455],[-2.001218,42.966734,1001.539],[-2.00117,42.966767,1000.839],[-2.001107,42.966805,1001.001],[-2.001045,42.966833,1000.521],[-2.000985,42.966861,999.709],[-2.000958,42.966903,1000.214],[-2.00091,42.966943,1000.953],[-2.000848,42.966976,1001.089],[-2.000785,42.966994,1001.371],[-2.00072,42.967004,1002.149],[-2.00065,42.967016,1003.858],[-2.000537,42.967063,1009.329],[-2.000454,42.967051,1009.453],[-2.000386,42.967058,1008.337],[-2.000326,42.967043,1007.492],[-2.000256,42.967066,1006.673],[-2.000188,42.967079,1007.72],[-2.000113,42.967079,1007.409],[-2.000053,42.967066,1007.84],[-2.000008,42.967034,1007.149],[-1.999935,42.967042,1007.185],[-1.999863,42.967035,1006.227],[-1.999791,42.967035,1006.085],[-1.999736,42.967063,1006.044],[-1.999669,42.967071,1006.025],[-1.999596,42.967083,1008.259],[-1.999551,42.967133,1010.643],[-1.999504,42.967178,1012.598],[-1.999442,42.967201,1011.815],[-1.999379,42.967381,1008.426],[-1.999384,42.967436,1010.309],[-1.999401,42.967481,1012.29],[-1.999426,42.967524,1011.969],[-1.999438,42.967576,1011.465],[-1.999495,42.967541,1012.737],[-1.999423,42.967543,1010.925],[-1.999411,42.96761,1012.684],[-1.999406,42.967682,1012.725],[-1.999406,42.967727,1014.229],[-1.999414,42.967784,1015.513],[-1.999454,42.967827,1017.117],[-1.999501,42.967859,1018.887],[-1.999564,42.967896,1019.215],[-1.999614,42.967936,1019.109],[-1.999667,42.967971,1020.882],[-1.99973,42.967998,1022.241],[-1.999798,42.968025,1023.257],[-1.999833,42.96807,1023.659],[-1.999853,42.96813,1024.687],[-1.99986,42.96818,1026.646],[-1.999863,42.968238,1027.187],[-1.999881,42.968291,1028.181],[-1.999904,42.968334,1028.165],[-1.999912,42.968379,1028.829],[-1.999947,42.968417,1029.7],[-1.999999,42.968455,1031.12],[-2.000047,42.968488,1032.409],[-2.000102,42.968513,1033.693],[-2.000155,42.96855,1035.982],[-2.000202,42.968597,1037.948],[-2.000259,42.968629,1038.79],[-2.000297,42.968672,1038.558],[-2.000335,42.968714,1038.117],[-2.000382,42.968744,1037.458],[-2.000422,42.968792,1037.112],[-2.000467,42.96883,1036.556],[-2.000462,42.968882,1037.788],[-2.000409,42.968915,1038.824],[-2.000376,42.968958,1041.126],[-2.000316,42.96898,1044.909],[-2.000244,42.969,1046.699],[-2.000186,42.969015,1047.288],[-2.000149,42.969057,1045.874],[-2.000112,42.969094,1045.056],[-2.000049,42.969114,1044.844],[-1.999992,42.969154,1046.133],[-1.999945,42.969187,1048.274],[-1.999905,42.969227,1050.138],[-1.999853,42.969259,1051.172],[-1.999813,42.969294,1052.158],[-1.999758,42.969337,1053.052],[-1.99972,42.969377,1052.917],[-1.99968,42.969415,1053.109],[-1.999625,42.969442,1053.486],[-1.999593,42.969484,1052.485],[-1.999566,42.969534,1051.911],[-1.999533,42.969574,1053.143],[-1.999501,42.969621,1054.481],[-1.999446,42.969656,1055.86],[-1.999381,42.969684,1056.531],[-1.999366,42.969736,1057.395],[-1.999321,42.969771,1058.289],[-1.999278,42.969813,1059.857],[-1.999221,42.969831,1061.1],[-1.999163,42.969869,1061.82],[-1.999133,42.969916,1062.109],[-1.99908,42.969951,1062.146],[-1.999022,42.969971,1062.955],[-1.998979,42.970009,1063.041],[-1.998946,42.970049,1062.893],[-1.998899,42.970087,1063.491],[-1.998861,42.970127,1063.35],[-1.998808,42.970159,1061.891],[-1.998773,42.970204,1061.215],[-1.998723,42.970244,1062.729],[-1.99867,42.970279,1065.185],[-1.998617,42.970302,1069.189],[-1.998575,42.970337,1072.517],[-1.998537,42.970377,1075.509],[-1.998515,42.970425,1076.749],[-1.998503,42.97047,1080.648],[-1.9985,42.97052,1081.654],[-1.998518,42.970567,1079.046],[-1.998531,42.970612,1080.064],[-1.998558,42.970655,1078.783],[-1.998585,42.9707,1076.464],[-1.998608,42.970748,1072.578],[-1.998588,42.970795,1070.112],[-1.998561,42.970845,1069.477],[-1.998549,42.970893,1071.461],[-1.998509,42.97094,1073.527],[-1.998486,42.970983,1076.009],[-1.998496,42.971033,1077.528],[-1.998531,42.971073,1078.967],[-1.998594,42.971096,1080.033],[-1.998641,42.971129,1082.755],[-1.998674,42.971171,1083.843],[-1.998711,42.971211,1085.342],[-1.998724,42.971256,1083.293],[-1.998736,42.971306,1085.127],[-1.998738,42.971353,1085.581],[-1.998763,42.971405,1085.641],[-1.998798,42.971453,1086.781],[-1.998826,42.971503,1087.009],[-1.998839,42.971551,1087.109],[-1.998852,42.971603,1087.515],[-1.998875,42.971646,1087.914],[-1.998878,42.971698,1088.11],[-1.998868,42.971743,1088.422],[-1.99884,42.971791,1089.31],[-1.998818,42.971838,1089.989],[-1.998806,42.971886,1090.06],[-1.998818,42.971936,1091.014],[-1.998828,42.971981,1093.938],[-1.99886,42.972023,1095.352],[-1.9989,42.97206,1096.853],[-1.998877,42.972108,1097.608],[-1.998904,42.972153,1098.509],[-1.998967,42.972173,1098.676],[-1.999027,42.97216,1100.075],[-1.999049,42.97223,1101.531],[-1.999124,42.972227,1103.613],[-1.999192,42.972239,1105.981],[-1.999239,42.972206,1109.11],[-1.999174,42.972264,1102.971],[-1.999184,42.972309,1099.995],[-1.999234,42.972279,1097.259],[-1.999267,42.972332,1102.174],[-1.999287,42.972384,1103.056],[-1.999324,42.972432,1103.421],[-1.999381,42.972464,1104.709],[-1.999423,42.972506,1106.058],[-1.99945,42.972556,1108.237],[-1.999453,42.972604,1109.823],[-1.999501,42.972641,1110.475],[-1.999566,42.972644,1111.493],[-1.999628,42.972646,1112.672],[-1.999683,42.972668,1114.373],[-1.999753,42.972686,1114.467],[-1.999828,42.972679,1113.831],[-1.99989,42.972691,1114.316],[-1.999943,42.972721,1114.676],[-2.0,42.972753,1116.413],[-2.000025,42.972805,1117.109],[-2.000062,42.972853,1118.392],[-2.000085,42.972901,1120.411],[-2.000135,42.972934,1119.967],[-2.000173,42.973017,1119.769],[-2.000198,42.973067,1118.567],[-2.00023,42.973114,1118.236],[-2.000258,42.973162,1119.137],[-2.000285,42.973207,1119.291],[-2.000328,42.973252,1119.235],[-2.000353,42.973304,1119.647],[-2.000395,42.973339,1118.829],[-2.000418,42.973381,1118.621],[-2.000466,42.973409,1118.509],[-2.000514,42.973454,1118.215],[-2.000586,42.973456,1119.064],[-2.000641,42.973491,1117.87],[-2.000704,42.973489,1118.362],[-2.000762,42.973464,1119.17],[-2.000829,42.973469,1118.589],[-2.000891,42.973496,1117.26],[-2.000938,42.973529,1118.514],[-2.000996,42.973547,1119.988],[-2.001054,42.973562,1120.831],[-2.001107,42.973585,1121.361],[-2.001154,42.973617,1120.507],[-2.001201,42.97366,1119.509],[-2.001218,42.973715,1118.544],[-2.001231,42.973767,1118.933],[-2.001213,42.973814,1118.529],[-2.001221,42.973859,1118.631],[-2.001221,42.973909,1117.449],[-2.001181,42.973946,1117.728],[-2.001159,42.973998,1118.259],[-2.001114,42.974033,1119.593],[-2.001069,42.97407,1120.737],[-2.001024,42.974115,1123.234],[-2.000977,42.974145,1124.055],[-2.000899,42.974158,1124.91],[-2.000831,42.974171,1125.909],[-2.000764,42.974186,1126.324],[-2.000699,42.974204,1128.873],[-2.000641,42.974219,1130.919],[-2.000569,42.974241,1133.251],[-2.000521,42.974273,1134.489],[-2.000463,42.974296,1134.518],[-2.000396,42.974313,1133.039],[-2.000326,42.974335,1132.233],[-2.000256,42.974343,1131.567],[-2.000189,42.974346,1131.698],[-2.000124,42.974356,1131.015],[-2.000059,42.974364,1128.826],[-2.000007,42.974391,1126.809],[-1.999945,42.974403,1123.07],[-1.999887,42.974425,1118.659],[-1.999844,42.974458,1117.665],[-1.999807,42.974501,1119.017],[-1.999769,42.974546,1119.555],[-1.999717,42.974583,1120.884],[-1.999689,42.974623,1120.775],[-1.999644,42.97466,1120.399],[-1.999607,42.974697,1120.893],[-1.99954,42.974722,1120.995],[-1.999485,42.97476,1120.349],[-1.99943,42.974792,1124.123],[-1.999395,42.974845,1126.109],[-1.999352,42.974883,1127.41],[-1.999315,42.974921,1127.839],[-1.99929,42.974969,1127.645],[-1.999275,42.975016,1127.867],[-1.999262,42.975064,1128.095],[-1.999245,42.975111,1130.184],[-1.99919,42.975134,1130.035],[-1.999138,42.975164,1129.939],[-1.999115,42.975214,1129.153],[-1.999088,42.975257,1128.632],[-1.999058,42.975309,1128.592],[-1.999035,42.975359,1129.811],[-1.999028,42.975404,1130.509],[-1.999023,42.975452,1131.234],[-1.999053,42.9755,1131.323],[-1.99909,42.975542,1134.899],[-1.999128,42.975587,1133.121],[-1.999123,42.975632,1133.189],[-1.999161,42.97568,1136.178],[-1.999209,42.975715,1138.259],[-1.999219,42.97577,1138.643],[-1.999219,42.975818,1139.677],[-1.999221,42.975866,1139.957],[-1.999216,42.975911,1139.3],[-1.999204,42.975963,1138.62],[-1.999199,42.976013,1137.109],[-1.999207,42.976063,1136.256],[-1.999192,42.976125,1135.935],[-1.999209,42.976177,1135.731],[-1.999211,42.976232,1135.643],[-1.999224,42.976289,1136.151],[-1.999246,42.976339,1135.16],[-1.999263,42.976392,1136.621],[-1.999281,42.976437,1137.545],[-1.999326,42.976477,1139.619],[-1.999298,42.976527,1140.892],[-1.999315,42.976575,1138.073],[-1.999303,42.976625,1138.32],[-1.999285,42.976677,1138.409],[-1.999258,42.976725,1140.19],[-1.999223,42.976773,1143.689],[-1.999176,42.976808,1144.265],[-1.999151,42.976855,1145.457],[-1.999138,42.976905,1147.185],[-1.999111,42.976947,1147.844],[-1.999086,42.97699,1148.265],[-1.999061,42.977038,1148.959],[-1.999036,42.977088,1150.453],[-1.999016,42.977135,1152.011],[-1.998986,42.97718,1153.521],[-1.998973,42.97723,1154.603],[-1.998951,42.977275,1154.209],[-1.998931,42.977327,1153.422],[-1.998898,42.97737,1152.781],[-1.998851,42.977405,1154.167],[-1.998838,42.977452,1155.229],[-1.998818,42.977499,1155.377],[-1.998778,42.977544,1155.816],[-1.99875,42.977594,1156.137],[-1.99872,42.977639,1156.941],[-1.998682,42.977682,1158.025],[-1.998654,42.977729,1159.013],[-1.998631,42.977779,1159.143],[-1.998601,42.977824,1159.207],[-1.998568,42.977866,1160.109],[-1.998551,42.977909,1160.232],[-1.998534,42.977952,1161.341],[-1.998494,42.977992,1162.597],[-1.998481,42.978037,1165.519],[-1.998464,42.97809,1167.687],[-1.998431,42.97813,1168.426],[-1.998393,42.978168,1168.957],[-1.998378,42.978218,1169.471],[-1.998403,42.978265,1170.375],[-1.998396,42.978313,1170.296],[-1.998399,42.978363,1171.631],[-1.998386,42.978411,1173.824],[-1.998341,42.978449,1176.009],[-1.998313,42.978492,1177.85],[-1.998316,42.97854,1179.719],[-1.998308,42.978592,1177.635],[-1.998325,42.978637,1177.157],[-1.998328,42.978694,1177.425],[-1.998326,42.978739,1178.354],[-1.998356,42.978789,1177.985],[-1.998373,42.978834,1178.089],[-1.9984,42.978879,1178.343],[-1.998417,42.978926,1178.891],[-1.998409,42.978976,1180.681],[-1.998372,42.979016,1181.719],[-1.998377,42.979063,1183.609],[-1.998385,42.97911,1185.44],[-1.99839,42.97916,1187.069],[-1.998367,42.979208,1188.035],[-1.998349,42.979256,1188.457],[-1.998331,42.979303,1188.945],[-1.998328,42.979353,1189.214],[-1.998311,42.979401,1191.715],[-1.998281,42.979441,1194.359],[-1.998291,42.979491,1191.453],[-1.998293,42.979536,1190.613],[-1.998276,42.979586,1190.443],[-1.998241,42.979628,1193.207],[-1.998221,42.979681,1195.309],[-1.998204,42.979733,1194.592],[-1.998196,42.97979,1194.161],[-1.998188,42.97984,1194.587],[-1.998151,42.979883,1193.659],[-1.998134,42.97993,1192.837],[-1.998126,42.979977,1192.186],[-1.998108,42.980025,1192.417],[-1.99808,42.980067,1191.771],[-1.998047,42.980114,1190.225],[-1.998022,42.980164,1189.758],[-1.997982,42.980216,1191.552],[-1.997942,42.980261,1192.517],[-1.997915,42.980311,1193.109],[-1.99789,42.980353,1194.346],[-1.997878,42.980398,1194.555],[-1.997875,42.980453,1194.111],[-1.997912,42.980505,1190.823],[-1.997925,42.98055,1189.451],[-1.997938,42.980612,1190.44],[-1.997968,42.980665,1190.471],[-1.99795,42.980708,1192.185],[-1.997933,42.980751,1192.389],[-1.997918,42.980803,1192.987],[-1.997911,42.980851,1193.242],[-1.997919,42.980909,1192.426],[-1.997916,42.980956,1191.009],[-1.997918,42.981004,1190.199],[-1.997911,42.981052,1188.928],[-1.997914,42.981104,1188.724],[-1.997904,42.981154,1188.816],[-1.997906,42.981209,1189.284],[-1.997903,42.981261,1189.013],[-1.997885,42.981311,1188.214],[-1.997862,42.981363,1185.738],[-1.997805,42.981393,1185.462],[-1.997742,42.981396,1185.358],[-1.997672,42.981379,1182.252],[-1.99763,42.981416,1180.317],[-1.997557,42.981406,1181.009],[-1.997497,42.981374,1179.156],[-1.99745,42.981344,1175.925],[-1.997402,42.981389,1176.131],[-1.997372,42.981429,1178.013],[-1.997369,42.981476,1180.611],[-1.997346,42.981519,1182.08],[-1.997338,42.981571,1182.491],[-1.99732,42.981623,1183.315],[-1.997288,42.981665,1182.089],[-1.997271,42.98171,1180.262],[-1.997254,42.981758,1180.183],[-1.997231,42.9818,1180.511],[-1.997216,42.981855,1181.609],[-1.997178,42.981893,1181.117],[-1.99712,42.981923,1180.896],[-1.997093,42.981965,1181.992],[-1.997076,42.98201,1183.064],[-1.997044,42.982052,1181.722],[-1.996991,42.982082,1182.441],[-1.996953,42.982119,1182.382],[-1.99693,42.982161,1182.446],[-1.996885,42.982193,1181.74],[-1.996827,42.982226,1179.599],[-1.996765,42.982256,1179.407],[-1.996715,42.982296,1178.527],[-1.996672,42.982329,1179.109],[-1.99661,42.982364,1179.57],[-1.996548,42.982386,1179.139],[-1.996486,42.982413,1179.365],[-1.996426,42.982433,1179.967],[-1.996358,42.98246,1179.675],[-1.996315,42.9825,1181.464],[-1.996258,42.982535,1181.765],[-1.996231,42.982577,1181.649],[-1.996171,42.982609,1181.333],[-1.996133,42.982646,1182.053],[-1.996063,42.982639,1181.904],[-1.995976,42.982662,1182.714],[-1.995944,42.982704,1181.509],[-1.995901,42.982749,1181.886],[-1.995864,42.982797,1181.115],[-1.995846,42.98284,1180.211],[-1.995831,42.98289,1179.443],[-1.995789,42.98293,1178.791],[-1.995731,42.982965,1178.51],[-1.995674,42.982988,1179.241],[-1.995631,42.983021,1181.025],[-1.995584,42.983053,1182.149],[-1.995534,42.983095,1183.743],[-1.995522,42.983145,1184.164],[-1.995517,42.98319,1183.71],[-1.995467,42.983225,1181.609],[-1.995414,42.983258,1181.035],[-1.995356,42.983285,1179.894],[-1.995293,42.983307,1179.57],[-1.995243,42.983339,1179.382],[-1.995266,42.983397,1180.16],[-1.995276,42.983442,1180.219],[-1.995254,42.983487,1179.86],[-1.995226,42.983529,1178.684],[-1.995248,42.983582,1176.998],[-1.995293,42.98363,1176.762],[-1.995296,42.983677,1177.583],[-1.995298,42.983725,1177.911],[-1.995258,42.98376,1178.009],[-1.995198,42.983785,1179.317],[-1.99516,42.983832,1176.836],[-1.995088,42.983844,1174.012],[-1.995046,42.983879,1173.314],[-1.995028,42.983931,1172.972],[-1.99499,42.983968,1171.951],[-1.994923,42.983968,1170.722],[-1.994856,42.983965,1170.486],[-1.994788,42.983967,1170.32],[-1.994716,42.983982,1171.125],[-1.994653,42.98398,1171.426],[-1.994593,42.984003,1171.908],[-1.99457,42.984048,1172.509],[-1.994515,42.984083,1172.543],[-1.994455,42.984111,1173.262],[-1.994402,42.984146,1173.948],[-1.994344,42.984189,1173.41],[-1.994294,42.984227,1173.938],[-1.994271,42.984277,1173.117],[-1.994231,42.984312,1173.758],[-1.994168,42.984344,1173.882],[-1.994116,42.984376,1173.926],[-1.994083,42.984423,1173.563],[-1.994041,42.984463,1173.644],[-1.994028,42.984513,1173.218],[-1.99396,42.984513,1169.509],[-1.993902,42.984493,1169.357],[-1.993837,42.984478,1169.346],[-1.993762,42.984476,1169.782],[-1.9937,42.984461,1170.634],[-1.99363,42.984458,1170.742],[-1.993558,42.984446,1170.651],[-1.993495,42.984436,1168.492],[-1.993433,42.984408,1167.316],[-1.993368,42.98439,1165.53],[-1.993305,42.9844,1165.017],[-1.993243,42.9844,1165.287],[-1.993181,42.984422,1164.815],[-1.993118,42.98443,1165.909],[-1.993053,42.984437,1167.432],[-1.99298,42.984424,1168.241],[-1.992912,42.984411,1168.277],[-1.992859,42.984386,1167.779],[-1.992792,42.984386,1166.077],[-1.992722,42.984391,1166.026],[-1.992652,42.984386,1165.927],[-1.992587,42.984386,1166.341],[-1.992524,42.984391,1166.925],[-1.992462,42.984404,1167.879],[-1.992389,42.984414,1167.705],[-1.992331,42.984434,1167.125],[-1.992266,42.984452,1165.609],[-1.992206,42.984477,1165.328],[-1.992154,42.984505,1165.197],[-1.992089,42.984513,1163.823],[-1.992026,42.984526,1162.915],[-1.991978,42.984563,1162.943],[-1.991936,42.984598,1163.882],[-1.991869,42.984621,1164.233],[-1.991801,42.984641,1165.627],[-1.991736,42.984661,1164.181],[-1.991681,42.984699,1163.461],[-1.991654,42.984742,1162.921],[-1.991621,42.984784,1163.313],[-1.991556,42.984806,1163.509],[-1.991499,42.984846,1163.517],[-1.991446,42.984874,1162.746],[-1.991391,42.984901,1162.862],[-1.991349,42.984934,1163.834],[-1.991284,42.984942,1163.272],[-1.991267,42.984987,1162.771],[-1.991225,42.98503,1162.462],[-1.991205,42.985075,1161.386],[-1.991145,42.985085,1161.07],[-1.99108,42.985113,1161.942],[-1.991012,42.985133,1162.822],[-1.990979,42.985178,1163.014],[-1.990932,42.985215,1164.109],[-1.990882,42.985242,1165.185],[-1.990845,42.985282,1165.314],[-1.990808,42.985319,1165.43],[-1.990766,42.985354,1164.642],[-1.990716,42.985382,1163.78],[-1.990673,42.985417,1162.929],[-1.990638,42.985455,1162.19],[-1.9906,42.985495,1162.594],[-1.990562,42.985535,1163.148],[-1.990542,42.985582,1163.584],[-1.990502,42.98563,1163.507],[-1.990469,42.985675,1163.517],[-1.990429,42.985715,1163.409],[-1.990381,42.985757,1163.999],[-1.990364,42.985809,1163.598],[-1.990351,42.985857,1164.114],[-1.990346,42.985915,1164.496],[-1.990309,42.985953,1164.054],[-1.990307,42.986003,1164.113],[-1.990269,42.986048,1165.074],[-1.990251,42.986096,1165.578],[-1.990214,42.986138,1166.122],[-1.990152,42.986163,1164.793],[-1.990112,42.986203,1163.865],[-1.990049,42.986208,1165.521],[-1.989986,42.986233,1165.109],[-1.989993,42.986285,1163.18],[-1.98995,42.986318,1162.949],[-1.989905,42.98635,1163.245],[-1.989848,42.986383,1162.917],[-1.989783,42.986408,1163.365],[-1.989773,42.986455,1165.584],[-1.989791,42.986505,1164.995],[-1.989811,42.98656,1165.119],[-1.989838,42.986603,1166.133],[-1.98985,42.986653,1166.962],[-1.989818,42.986695,1167.183],[-1.989796,42.986743,1166.511],[-1.989769,42.986793,1166.109],[-1.989726,42.986831,1167.497],[-1.989699,42.986874,1166.476],[-1.989669,42.986917,1165.772],[-1.989619,42.986965,1162.974],[-1.989559,42.986978,1163.152],[-1.989521,42.986936,1162.371],[-1.989476,42.986894,1160.632],[-1.989416,42.986869,1158.716],[-1.989356,42.986846,1156.11],[-1.989311,42.986878,1154.061],[-1.989298,42.986928,1153.321],[-1.989305,42.986978,1152.613],[-1.989312,42.987026,1151.009],[-1.989369,42.987066,1148.077],[-1.989386,42.987116,1142.526],[-1.989358,42.987168,1142.052],[-1.989376,42.987211,1139.844],[-1.989394,42.987259,1141.192],[-1.989377,42.987306,1146.091],[-1.989344,42.987359,1147.442],[-1.989341,42.987412,1149.866],[-1.989369,42.98746,1151.36],[-1.989319,42.987487,1153.553],[-1.989309,42.987537,1157.304],[-1.989251,42.987562,1159.114],[-1.989233,42.987607,1159.409],[-1.98918,42.987635,1161.946],[-1.989122,42.987668,1166.475],[-1.989067,42.987691,1166.851],[-1.989027,42.987729,1168.193],[-1.98903,42.987779,1167.141],[-1.989038,42.987829,1166.47],[-1.989035,42.987874,1164.341],[-1.989075,42.987909,1161.255],[-1.989138,42.987916,1158.439],[-1.9892,42.987926,1157.041],[-1.98921,42.987974,1157.081],[-1.989227,42.988021,1157.309],[-1.989232,42.988074,1159.909],[-1.989224,42.988127,1161.455],[-1.989221,42.988174,1162.744],[-1.989179,42.988211,1167.96],[-1.989057,42.988284,1194.462],[-1.989067,42.988237,1189.79],[-1.989219,42.988207,1163.989],[-1.989244,42.988252,1162.82],[-1.989304,42.988277,1161.824],[-1.989347,42.988312,1158.858],[-1.989325,42.988355,1157.883],[-1.989265,42.988387,1156.725],[-1.989242,42.988439,1157.117],[-1.989235,42.988491,1156.809],[-1.989262,42.988541,1156.279],[-1.989282,42.988586,1154.748],[-1.989304,42.988634,1155.274],[-1.989344,42.988672,1155.386],[-1.989367,42.988724,1157.794],[-1.989342,42.988769,1159.393],[-1.989304,42.988809,1158.194],[-1.989306,42.988867,1156.988],[-1.989274,42.988907,1153.212],[-1.989294,42.988964,1150.835],[-1.989301,42.989014,1149.786],[-1.989318,42.989059,1146.114],[-1.989256,42.989072,1145.109],[-1.989196,42.989115,1145.714],[-1.989166,42.989158,1146.213],[-1.989113,42.989188,1147.329],[-1.989055,42.989225,1146.531],[-1.989037,42.989268,1145.689],[-1.988979,42.989296,1145.778],[-1.988916,42.989294,1145.939],[-1.988854,42.989302,1145.343],[-1.988811,42.989339,1144.427],[-1.988788,42.989386,1144.964],[-1.98877,42.989431,1144.606],[-1.988747,42.989484,1145.316],[-1.98872,42.989531,1146.209],[-1.988712,42.989581,1146.917],[-1.988715,42.989626,1150.396],[-1.988695,42.989671,1150.392],[-1.988687,42.989718,1150.554],[-1.988645,42.989758,1151.622],[-1.988608,42.9898,1152.161],[-1.988603,42.989845,1151.822],[-1.988566,42.989882,1154.856],[-1.988534,42.989929,1155.67],[-1.988554,42.989974,1156.312],[-1.988617,42.990002,1152.032],[-1.988659,42.990045,1152.605],[-1.988687,42.990093,1152.709],[-1.98872,42.990133,1153.322],[-1.988768,42.990175,1154.531],[-1.9888,42.990223,1155.747],[-1.988857,42.990248,1157.749],[-1.988894,42.990286,1159.417],[-1.988942,42.990316,1161.626],[-1.988982,42.990351,1164.717],[-1.989025,42.990393,1166.281],[-1.989027,42.990443,1167.775],[-1.989072,42.990483,1170.998],[-1.989084,42.990528,1173.215],[-1.989114,42.990573,1173.926],[-1.989151,42.99061,1177.409],[-1.989196,42.990645,1180.47],[-1.989201,42.99069,1184.539],[-1.989211,42.990735,1187.425],[-1.989249,42.990772,1190.157],[-1.989277,42.990812,1191.475],[-1.989325,42.990842,1192.784],[-1.989322,42.990889,1192.795],[-1.989305,42.990936,1195.059],[-1.989335,42.990978,1197.273],[-1.989353,42.991023,1199.513],[-1.98939,42.99106,1201.643],[-1.989453,42.991068,1205.407],[-1.989511,42.991088,1208.009],[-1.989479,42.99113,1209.852],[-1.989476,42.99118,1212.111],[-1.989459,42.99124,1219.287],[-1.989494,42.991197,1215.869],[-1.989516,42.991245,1215.137],[-1.989541,42.991292,1216.436],[-1.989499,42.991327,1218.317],[-1.989537,42.991367,1221.831],[-1.989579,42.991409,1222.065],[-1.989561,42.991457,1224.443],[-1.989584,42.991527,1230.064],[-1.989592,42.991579,1230.61],[-1.989545,42.991611,1233.609],[-1.98957,42.991653,1234.875],[-1.989627,42.991701,1239.514],[-1.989669,42.991738,1239.56],[-1.989692,42.991783,1240.812],[-1.989744,42.99181,1242.02],[-1.989806,42.991822,1243.279],[-1.989851,42.991772,1246.65],[-1.989911,42.99179,1249.494],[-1.989971,42.991817,1250.758],[-1.990036,42.991822,1253.923],[-1.990088,42.99186,1253.483],[-1.990055,42.991898,1256.811],[-1.99006,42.991945,1264.409],[-1.990125,42.991938,1265.853],[-1.990128,42.991891,1266.662],[-1.990198,42.991848,1267.078],[-1.990205,42.991893,1269.95],[-1.990268,42.991886,1274.818],[-1.990306,42.991849,1276.927],[-1.990288,42.991806,1277.678],[-1.9903,42.991759,1281.122],[-1.990303,42.991714,1282.566],[-1.990325,42.991669,1284.017],[-1.990308,42.991619,1285.287],[-1.99028,42.991662,1286.615],[-1.990245,42.991704,1284.909],[-1.990263,42.991754,1284.452],[-1.990306,42.991789,1282.931],[-1.990363,42.991766,1280.837],[-1.990395,42.991724,1278.829],[-1.990408,42.991674,1276.497],[-1.990438,42.991632,1276.136],[-1.990463,42.99159,1274.187],[-1.99052,42.99156,1272.651],[-1.99059,42.991547,1272.395],[-1.990647,42.991524,1270.635],[-1.990687,42.991482,1266.786],[-1.990722,42.991427,1264.114],[-1.990775,42.991399,1263.509],[-1.990812,42.991362,1261.634],[-1.990865,42.991334,1256.123],[-1.990913,42.991297,1251.389],[-1.990945,42.991252,1246.691],[-1.990997,42.991217,1246.419],[-1.991057,42.991205,1245.498],[-1.99112,42.991192,1240.469],[-1.991157,42.991155,1240.393],[-1.991194,42.991118,1239.347],[-1.991232,42.991075,1238.064],[-1.99127,42.991028,1234.806],[-1.991318,42.990985,1230.916],[-1.991376,42.990958,1229.209],[-1.991433,42.990938,1227.037],[-1.99149,42.990916,1225.816],[-1.991527,42.990874,1223.862],[-1.991559,42.990827,1223.534],[-1.991592,42.990789,1221.262],[-1.991655,42.990784,1219.731],[-1.9917,42.990752,1214.262],[-1.991745,42.99072,1210.976],[-1.991803,42.990705,1207.62],[-1.991868,42.990692,1206.379],[-1.991906,42.990654,1204.905],[-1.991966,42.990632,1203.125],[-1.992011,42.990592,1200.509],[-1.992071,42.990562,1210.678],[-1.992133,42.990557,1211.737],[-1.992196,42.990544,1210.023],[-1.992246,42.990517,1208.565],[-1.992308,42.990497,1206.153],[-1.992355,42.99046,1203.732],[-1.992388,42.990417,1202.533],[-1.992411,42.990362,1202.437],[-1.992429,42.990299,1206.471],[-1.992477,42.990201,1198.536],[-1.992514,42.990163,1199.517],[-1.992497,42.99012,1201.018],[-1.992439,42.9901,1199.009],[-1.992429,42.990053,1197.384],[-1.992437,42.990006,1197.123],[-1.992459,42.989956,1196.199],[-1.992427,42.989914,1196.741],[-1.992424,42.989869,1196.849],[-1.992462,42.989829,1195.658],[-1.992452,42.989777,1193.829],[-1.992392,42.98975,1192.823],[-1.992342,42.989722,1189.457],[-1.992285,42.989699,1187.431],[-1.992247,42.989656,1187.461],[-1.992207,42.989621,1187.607],[-1.992157,42.989589,1186.309],[-1.99213,42.989542,1186.014],[-1.992117,42.989485,1186.783],[-1.992107,42.989438,1185.679],[-1.992077,42.989393,1183.471],[-1.992049,42.989351,1180.989],[-1.991987,42.989343,1177.738],[-1.991935,42.989371,1176.529],[-1.991858,42.989353,1177.993],[-1.991805,42.98933,1180.437],[-1.991763,42.989295,1179.283],[-1.991725,42.98925,1184.125],[-1.9917,42.989197,1184.617],[-1.991718,42.989145,1184.909],[-1.991786,42.989152,1184.129],[-1.991858,42.989149,1184.518],[-1.991918,42.989137,1184.474],[-1.991946,42.989094,1188.956],[-1.991948,42.989047,1190.574],[-1.991968,42.989,1191.413],[-1.991996,42.988958,1194.914],[-1.991986,42.988913,1199.228],[-1.992008,42.988868,1198.592],[-1.99203,42.988823,1199.427],[-1.992077,42.988793,1199.668],[-1.992097,42.98875,1200.714],[-1.99214,42.988712,1202.209],[-1.992153,42.988664,1203.893],[-1.992185,42.988619,1207.362],[-1.992248,42.988599,1207.198],[-1.992293,42.988564,1207.42],[-1.992333,42.988527,1206.838],[-1.992395,42.988519,1207.857],[-1.992452,42.988491,1210.788],[-1.992505,42.988461,1212.972],[-1.992548,42.988413,1213.916],[-1.992593,42.988376,1213.945],[-1.992648,42.988341,1215.547],[-1.992688,42.988303,1214.711],[-1.992756,42.988278,1215.309],[-1.992809,42.988248,1216.715],[-1.992871,42.988228,1217.864],[-1.992934,42.988218,1219.17],[-1.992984,42.988178,1219.672],[-1.993034,42.988145,1220.26],[-1.993082,42.988113,1221.199],[-1.993127,42.98808,1221.65],[-1.99321,42.988072,1220.444],[-1.993267,42.988042,1222.638],[-1.993334,42.988022,1222.695],[-1.993309,42.987979,1226.749],[-1.993239,42.987989,1225.623],[-1.993187,42.987946,1225.709],[-1.993162,42.987903,1229.36],[-1.993192,42.987856,1230.959],[-1.993252,42.987846,1224.665],[-1.99328,42.987803,1224.187],[-1.993313,42.987763,1226.935],[-1.993361,42.987733,1230.754],[-1.993406,42.987701,1234.255],[-1.993404,42.987656,1235.139],[-1.993411,42.987604,1237.653],[-1.993464,42.987566,1238.595],[-1.993522,42.987548,1239.549],[-1.993569,42.987505,1242.523],[-1.993604,42.987463,1244.309],[-1.993659,42.987425,1245.38],[-1.993724,42.987393,1245.469],[-1.993754,42.987348,1246.035],[-1.993762,42.9873,1242.077],[-1.993817,42.987267,1241.935],[-1.99387,42.987244,1242.284],[-1.99391,42.987209,1241.635],[-1.993977,42.987192,1241.579],[-1.994037,42.987167,1242.273],[-1.994049,42.98712,1242.291],[-1.994062,42.987073,1241.481],[-1.994087,42.987015,1242.319],[-1.994099,42.986968,1241.609],[-1.994127,42.986926,1242.03],[-1.994127,42.986874,1243.449],[-1.994187,42.986837,1244.075],[-1.99421,42.986787,1241.817],[-1.994262,42.986739,1239.825],[-1.99431,42.986697,1237.634],[-1.994357,42.986667,1237.315],[-1.994405,42.986632,1236.659],[-1.99446,42.986592,1236.333],[-1.994533,42.986589,1235.297],[-1.994593,42.986569,1233.923],[-1.99465,42.986536,1229.225],[-1.994717,42.986514,1227.109],[-1.994719,42.986467,1226.19],[-1.994691,42.986425,1225.529],[-1.994658,42.986387,1224.965],[-1.994635,42.98634,1226.227],[-1.994615,42.986297,1225.925],[-1.994572,42.986259,1227.124],[-1.994535,42.986214,1222.975],[-1.994595,42.986184,1222.619],[-1.994647,42.986156,1221.983],[-1.994704,42.986124,1221.682],[-1.994727,42.986082,1220.643],[-1.994764,42.986032,1218.417],[-1.994797,42.985994,1216.609],[-1.994802,42.985946,1214.259],[-1.994804,42.985896,1212.178],[-1.994842,42.985859,1210.664],[-1.994864,42.985812,1207.916],[-1.994851,42.985764,1204.994],[-1.994853,42.985717,1202.413],[-1.99489,42.98568,1201.344],[-1.994958,42.98566,1200.238],[-1.995016,42.98563,1198.352],[-1.995093,42.985617,1198.982],[-1.995165,42.985604,1200.143],[-1.995232,42.985579,1200.117],[-1.995305,42.985552,1197.609],[-1.995365,42.985542,1195.989],[-1.99541,42.985494,1194.348],[-1.995438,42.985446,1193.884],[-1.995456,42.985398,1193.046],[-1.995469,42.98535,1191.794],[-1.995477,42.985305,1190.833],[-1.995489,42.985255,1191.144],[-1.995512,42.985207,1190.738],[-1.99548,42.985162,1190.892],[-1.995477,42.985117,1191.356],[-1.995434,42.98508,1192.459],[-1.995412,42.985033,1193.114],[-1.995385,42.984985,1191.909],[-1.995365,42.98493,1191.976],[-1.995362,42.984882,1190.725],[-1.995347,42.984832,1190.131],[-1.995344,42.984785,1189.673],[-1.995337,42.984728,1187.791],[-1.995319,42.984683,1186.79],[-1.995311,42.984633,1185.671],[-1.995289,42.984583,1185.065],[-1.995266,42.984531,1183.349],[-1.995273,42.984484,1182.927],[-1.995266,42.984437,1181.368],[-1.995238,42.984377,1179.414],[-1.995191,42.984325,1178.509],[-1.995168,42.984273,1177.163],[-1.995153,42.984228,1175.732],[-1.995113,42.984193,1175.328],[-1.99507,42.984138,1175.65],[-1.995042,42.984091,1175.438],[-1.995007,42.984044,1174.997],[-1.99501,42.983994,1179.888],[-1.995025,42.983932,1175.392],[-1.995015,42.98388,1176.136],[-1.99507,42.983845,1176.076],[-1.99513,42.98382,1175.49],[-1.995197,42.983817,1175.819],[-1.995254,42.983789,1177.809],[-1.995266,42.983742,1178.128],[-1.995324,42.983719,1180.837],[-1.995282,42.983674,1181.483],[-1.995274,42.983624,1181.125],[-1.995242,42.983582,1180.053],[-1.995235,42.98353,1179.252],[-1.995262,42.983488,1180.013],[-1.995294,42.983443,1181.237],[-1.995331,42.983401,1182.791],[-1.995389,42.983363,1184.075],[-1.995444,42.983328,1184.028],[-1.995516,42.983306,1184.32],[-1.995571,42.983278,1183.709],[-1.995641,42.983286,1183.258],[-1.995708,42.983298,1182.857],[-1.995783,42.9833,1183.673],[-1.995851,42.983302,1183.855],[-1.995918,42.983282,1184.093],[-1.995986,42.983264,1184.072],[-1.996051,42.983266,1183.493],[-1.996111,42.983244,1182.477],[-1.996173,42.983221,1181.761],[-1.996235,42.983213,1181.295],[-1.996298,42.98319,1180.449],[-1.996345,42.983158,1179.223],[-1.996415,42.983135,1177.909],[-1.996473,42.983112,1177.43],[-1.996533,42.983082,1177.349],[-1.996591,42.98305,1176.545],[-1.996641,42.983023,1177.927],[-1.996611,42.982976,1177.745],[-1.996576,42.982933,1177.544],[-1.996539,42.982888,1177.565],[-1.996506,42.982846,1177.399],[-1.996511,42.982786,1176.713],[-1.996526,42.982733,1177.014],[-1.996539,42.982688,1178.654],[-1.996547,42.98264,1179.509],[-1.996542,42.982593,1180.509],[-1.99659,42.982556,1180.982],[-1.996643,42.982519,1180.771],[-1.996693,42.982481,1182.347],[-1.99673,42.982441,1181.249],[-1.996782,42.982413,1181.697],[-1.996784,42.982363,1182.436],[-1.996814,42.982321,1183.137],[-1.996817,42.982273,1183.881],[-1.99684,42.982225,1184.465],[-1.996833,42.982178,1184.839],[-1.996868,42.982138,1185.601],[-1.996905,42.9821,1186.421],[-1.996932,42.982057,1187.409],[-1.996952,42.982009,1187.834],[-1.996995,42.981974,1187.453],[-1.997012,42.981926,1187.079],[-1.997047,42.981883,1186.281],[-1.997102,42.981841,1186.579],[-1.997155,42.981803,1185.868],[-1.997192,42.981761,1186.989],[-1.997229,42.981724,1188.153],[-1.997257,42.981679,1188.687],[-1.997269,42.981634,1186.332],[-1.997282,42.981584,1186.592],[-1.997302,42.981534,1185.111],[-1.997322,42.981489,1185.809],[-1.997339,42.981436,1185.394],[-1.997357,42.981389,1184.813],[-1.997372,42.981334,1186.039],[-1.997409,42.981294,1185.711],[-1.997456,42.981257,1185.469],[-1.997504,42.981212,1186.938],[-1.997517,42.981167,1186.159],[-1.997515,42.981117,1186.963],[-1.997528,42.981065,1187.147],[-1.99756,42.981017,1188.639],[-1.99759,42.980974,1188.501],[-1.997643,42.980932,1188.321],[-1.997666,42.980882,1189.409],[-1.997688,42.980834,1190.224],[-1.997716,42.980792,1190.273],[-1.997733,42.980735,1190.819],[-1.997745,42.980678,1191.471],[-1.997748,42.980626,1192.919],[-1.997746,42.980576,1194.158],[-1.997773,42.980529,1194.839],[-1.997781,42.980482,1192.393],[-1.997803,42.980437,1192.137],[-1.997821,42.98039,1190.599],[-1.997818,42.98033,1189.107],[-1.997843,42.980285,1190.127],[-1.997898,42.980245,1188.909],[-1.997935,42.980198,1189.89],[-1.997963,42.980151,1190.679],[-1.997983,42.980101,1191.085],[-1.998023,42.980061,1190.017],[-1.998048,42.980013,1189.665],[-1.998056,42.97996,1189.684],[-1.998078,42.979908,1190.475],[-1.9981,42.979865,1191.229],[-1.998128,42.979812,1193.183],[-1.99815,42.979769,1195.574],[-1.998165,42.979717,1196.056],[-1.998178,42.979667,1197.821],[-1.998221,42.979627,1196.809],[-1.998253,42.979575,1197.318],[-1.99831,42.979545,1197.537],[-1.998343,42.979505,1196.083],[-1.998323,42.979452,1196.325],[-1.99833,42.979399,1196.153],[-1.99832,42.979347,1196.162],[-1.998317,42.979295,1194.843],[-1.998315,42.97925,1193.437],[-1.998355,42.979205,1192.671],[-1.998378,42.979163,1191.963],[-1.998396,42.97911,1192.444],[-1.998404,42.979057,1192.118],[-1.998414,42.979012,1190.809],[-1.998419,42.978965,1190.267],[-1.998399,42.978922,1190.256],[-1.998382,42.978872,1190.422],[-1.998364,42.97882,1189.984],[-1.998369,42.97877,1184.052],[-1.998326,42.978733,1185.551],[-1.998324,42.978678,1187.892],[-1.998302,42.978628,1188.266],[-1.998294,42.978581,1186.13],[-1.998297,42.978533,1184.592],[-1.998307,42.978488,1182.973],[-1.998335,42.978446,1180.62],[-1.998357,42.978403,1179.109],[-1.99838,42.978353,1178.32],[-1.9984,42.978296,1175.139],[-1.998432,42.978256,1173.845],[-1.998444,42.978209,1172.797],[-1.998486,42.978169,1172.045],[-1.998496,42.978122,1170.444],[-1.998491,42.978067,1170.345],[-1.998499,42.978017,1168.649],[-1.998519,42.977967,1165.953],[-1.998552,42.97792,1164.458],[-1.998569,42.977873,1162.652],[-1.998609,42.977825,1161.517],[-1.998629,42.977772,1160.609],[-1.998662,42.977724,1161.826],[-1.998694,42.977672,1162.175],[-1.998709,42.977625,1161.571],[-1.998736,42.977582,1160.273],[-1.998769,42.977532,1159.611],[-1.998796,42.977479,1159.67],[-1.998833,42.977437,1159.271],[-1.998865,42.97738,1156.895],[-1.998903,42.977332,1157.559],[-1.998928,42.977285,1157.296],[-1.998951,42.97724,1156.731],[-1.998974,42.977187,1157.224],[-1.999001,42.977134,1156.109],[-1.999026,42.977092,1154.57],[-1.999054,42.977052,1153.889],[-1.999071,42.976997,1152.255],[-1.999086,42.976944,1152.877],[-1.999118,42.976896,1151.635],[-1.999161,42.976854,1150.564],[-1.999199,42.976814,1149.545],[-1.999227,42.976769,1147.869],[-1.999275,42.976727,1146.743],[-1.999298,42.976684,1146.143],[-1.999293,42.976629,1144.464],[-1.999278,42.976582,1143.31],[-1.999278,42.97653,1142.309],[-1.999278,42.976478,1142.155],[-1.999261,42.976435,1142.214],[-1.999228,42.976385,1142.13],[-1.999228,42.976333,1141.682],[-1.999203,42.976283,1141.15],[-1.999181,42.976238,1142.259],[-1.999193,42.976183,1142.07],[-1.999183,42.97613,1141.394],[-1.99917,42.97608,1141.518],[-1.999183,42.97603,1141.123],[-1.999186,42.975975,1140.783],[-1.999193,42.975925,1140.511],[-1.999178,42.975878,1140.709],[-1.99918,42.975833,1141.113],[-1.999195,42.975776,1140.712],[-1.999187,42.975724,1140.388],[-1.999145,42.975687,1139.59],[-1.999122,42.975645,1140.048],[-1.999099,42.9756,1140.827],[-1.999079,42.975553,1140.988],[-1.999054,42.975501,1140.472],[-1.999021,42.975461,1139.376],[-1.999013,42.975408,1137.657],[-1.999023,42.975353,1138.8],[-1.999038,42.975301,1139.92],[-1.999065,42.975259,1140.409],[-1.999113,42.975219,1141.316],[-1.999143,42.975177,1141.545],[-1.999166,42.975124,1141.421],[-1.999193,42.975077,1141.543],[-1.999223,42.975037,1141.231],[-1.999263,42.974995,1141.48],[-1.999298,42.974955,1141.261],[-1.999325,42.974912,1140.635],[-1.999353,42.974867,1140.019],[-1.999378,42.974815,1138.326],[-1.999411,42.974777,1137.047],[-1.999458,42.974739,1135.411],[-1.999511,42.974707,1134.609],[-1.999559,42.974679,1133.093],[-1.999622,42.974661,1132.072],[-1.999679,42.974638,1132.848],[-1.999717,42.974601,1133.15],[-1.999745,42.974561,1133.118],[-1.999777,42.974516,1132.457],[-1.999825,42.974478,1130.868],[-1.999858,42.974438,1128.342],[-1.999896,42.974401,1126.016],[-1.999924,42.974358,1123.466],[-1.999991,42.974336,1120.929],[-2.000056,42.974334,1120.121],[-2.000118,42.974324,1120.409],[-2.000188,42.974321,1121.837],[-2.000255,42.974329,1122.826],[-2.000322,42.974332,1125.832],[-2.000392,42.974325,1129.854],[-2.000455,42.974302,1132.942],[-2.000518,42.974285,1133.881],[-2.000575,42.974255,1133.722],[-2.000597,42.974208,1133.146],[-2.000662,42.974195,1131.32],[-2.000722,42.974183,1131.285],[-2.000784,42.974173,1130.889],[-2.000847,42.974156,1129.417],[-2.000907,42.974146,1128.909],[-2.000967,42.974133,1126.669],[-2.00099,42.974091,1125.488],[-2.001027,42.974049,1124.624],[-2.001072,42.974012,1123.226],[-2.001092,42.973965,1122.124],[-2.001139,42.973935,1123.223],[-2.001162,42.973882,1124.754],[-2.001182,42.973827,1124.368],[-2.001194,42.97378,1123.762],[-2.001217,42.973728,1123.476],[-2.0012,42.973668,1122.89],[-2.001158,42.97363,1122.219],[-2.001105,42.973587,1122.809],[-2.001057,42.973552,1122.758],[-2.000997,42.973539,1123.217],[-2.000934,42.973507,1123.433],[-2.000876,42.973482,1122.765],[-2.000816,42.973462,1121.533],[-2.000749,42.973447,1120.032],[-2.000687,42.973462,1118.393],[-2.000624,42.973465,1113.567],[-2.000557,42.973453,1114.141],[-2.000494,42.973453,1113.421],[-2.000452,42.973418,1114.141],[-2.00041,42.973368,1115.505],[-2.000375,42.973325,1115.909],[-2.000332,42.973285,1116.483],[-2.000294,42.973235,1117.262],[-2.000251,42.97319,1118.658],[-2.000218,42.97314,1117.61],[-2.000195,42.973098,1118.178],[-2.00016,42.973051,1119.777],[-2.000143,42.973003,1119.618],[-2.000118,42.97296,1118.352],[-2.000088,42.972918,1117.656],[-2.000051,42.972873,1117.131],[-2.000034,42.97282,1116.661],[-1.999991,42.972775,1114.907],[-1.999949,42.972715,1114.309],[-1.999879,42.972683,1114.354],[-1.999807,42.972665,1115.953],[-1.999742,42.97266,1116.999],[-1.999679,42.972692,1118.431],[-1.999617,42.972667,1121.339],[-1.999565,42.972642,1119.938],[-1.999503,42.972645,1119.449],[-1.999436,42.972622,1118.473],[-1.999411,42.972579,1115.427],[-1.999381,42.972539,1108.629],[-1.999334,42.972506,1106.2],[-1.999332,42.972461,1108.02],[-1.999259,42.972389,1112.809],[-1.999247,42.972287,1118.013],[-1.999095,42.972182,1120.622],[-1.999033,42.972159,1121.138],[-1.998955,42.972141,1119.34],[-1.99888,42.972123,1117.958],[-1.998875,42.972078,1113.867],[-1.998832,42.972038,1112.018],[-1.99881,42.971995,1110.342],[-1.998792,42.971943,1108.766],[-1.998759,42.971901,1106.632],[-1.998754,42.971856,1104.092],[-1.998777,42.971811,1102.911],[-1.998809,42.971769,1102.209],[-1.998844,42.971726,1100.794],[-1.998862,42.971681,1098.713],[-1.99884,42.971638,1097.859],[-1.998827,42.971586,1093.921],[-1.998822,42.971533,1092.079],[-1.998814,42.971485,1090.938],[-1.998794,42.971442,1091.039],[-1.998767,42.971399,1088.443],[-1.998749,42.971351,1086.097],[-1.998719,42.971303,1084.153],[-1.998681,42.97126,1083.004],[-1.998663,42.971215,1082.314],[-1.998648,42.97117,1081.109],[-1.998625,42.971122,1081.036],[-1.998597,42.971082,1080.675],[-1.99856,42.971044,1081.221],[-1.998542,42.971001,1080.153],[-1.998542,42.970956,1080.181],[-1.998545,42.970904,1081.02],[-1.998548,42.970852,1082.351],[-1.998561,42.970797,1083.215],[-1.998581,42.970742,1085.689],[-1.998586,42.970687,1087.389],[-1.998576,42.970632,1087.506],[-1.998539,42.970577,1088.626],[-1.998557,42.970522,1088.409],[-1.998539,42.970469,1086.079],[-1.998512,42.970426,1086.098],[-1.998564,42.970396,1084.614],[-1.998617,42.970371,1083.426],[-1.998652,42.970331,1082.844],[-1.99869,42.970293,1082.413],[-1.99874,42.970246,1081.644],[-1.998758,42.970198,1081.028],[-1.998773,42.970148,1080.212],[-1.998826,42.970118,1080.196],[-1.998888,42.970088,1079.231],[-1.998948,42.970046,1078.324],[-1.998998,42.970003,1077.009],[-1.99905,42.969971,1075.95],[-1.99909,42.969934,1075.189],[-1.99915,42.969906,1072.475],[-1.999205,42.969869,1070.687],[-1.999267,42.969837,1068.675],[-1.999305,42.969797,1068.074],[-1.99935,42.969757,1067.655],[-1.99939,42.969717,1066.219],[-1.999438,42.969677,1063.473],[-1.99948,42.969642,1060.137],[-1.999513,42.969599,1058.249],[-1.999558,42.969557,1057.713],[-1.999603,42.969512,1058.609],[-1.999623,42.969462,1059.444],[-1.999673,42.969415,1060.523],[-1.999708,42.969375,1059.599],[-1.999763,42.969347,1056.711],[-1.999821,42.969319,1056.189],[-1.999869,42.969282,1055.238],[-1.999914,42.969249,1054.049],[-1.999922,42.969196,1055.073],[-1.999977,42.969143,1054.967],[-2.000035,42.969098,1057.864],[-2.000083,42.969065,1059.606],[-2.000128,42.969032,1060.516],[-2.000188,42.968999,1061.809],[-2.000241,42.968972,1061.697],[-2.000294,42.96893,1062.286],[-2.000346,42.968882,1061.522],[-2.000343,42.96883,1060.344],[-2.00033,42.968782,1060.262],[-2.000312,42.968737,1060.611],[-2.000252,42.968702,1061.322],[-2.000204,42.96867,1062.426],[-2.000177,42.968627,1060.64],[-2.000139,42.968577,1060.013],[-2.000086,42.968544,1059.043],[-2.000033,42.968519,1058.507],[-1.999976,42.968494,1057.709],[-1.999906,42.968467,1056.022],[-1.999894,42.96841,1054.211],[-1.999882,42.968353,1052.517],[-1.999865,42.968301,1048.999],[-1.99986,42.968254,1046.497],[-1.999825,42.968204,1044.256],[-1.999817,42.968154,1042.387],[-1.999802,42.968101,1040.631],[-1.999769,42.968063,1039.585],[-1.999727,42.968028,1038.115],[-1.999675,42.967995,1036.265],[-1.999613,42.967965,1033.111],[-1.999561,42.967925,1029.909],[-1.999513,42.967882,1028.942],[-1.999485,42.96783,1028.671],[-1.999462,42.967775,1027.767],[-1.999434,42.967722,1027.169],[-1.999407,42.967674,1025.777],[-1.999405,42.967629,1024.536],[-1.999398,42.967584,1024.077],[-1.99939,42.967536,1022.261],[-1.99937,42.967474,1020.365],[-1.999363,42.967421,1019.235],[-1.999356,42.967376,1017.486],[-1.999351,42.967319,1013.214],[-1.999363,42.967272,1010.809],[-1.999403,42.967235,1010.514],[-1.999443,42.967198,1011.323],[-1.99949,42.967163,1010.279],[-1.999545,42.967138,1009.081],[-1.999615,42.967118,1005.919],[-1.999677,42.967081,1005.858],[-1.99976,42.967068,1006.589],[-1.999835,42.967071,1007.673],[-1.999897,42.967078,1009.567],[-1.999964,42.967095,1008.447],[-2.000029,42.967085,1006.929],[-2.000097,42.967082,1005.621],[-2.000174,42.96707,1005.109],[-2.000252,42.967053,1005.245],[-2.000322,42.967036,1003.564],[-2.000397,42.967018,1002.13],[-2.000465,42.967015,1000.262],[-2.00054,42.96701,999.52],[-2.000607,42.967005,996.449],[-2.00067,42.966998,996.15],[-2.000735,42.96699,996.044],[-2.0008,42.966977,996.468],[-2.000867,42.966967,996.448],[-2.000937,42.966949,995.561],[-2.000999,42.966912,995.317],[-2.001041,42.966864,993.609],[-2.001061,42.966816,993.665],[-2.001116,42.966793,994.384],[-2.001171,42.96677,994.98],[-2.001224,42.966747,995.182],[-2.001274,42.966704,995.66],[-2.001317,42.966671,996.329],[-2.001337,42.966621,997.34],[-2.001359,42.966568,998.694],[-2.001369,42.966523,999.788],[-2.001391,42.966478,1000.017],[-2.001401,42.966428,999.087],[-2.001429,42.966388,1000.015],[-2.001472,42.966345,1001.609],[-2.001524,42.966298,1002.072],[-2.001567,42.966256,1001.611],[-2.001594,42.966213,1001.647],[-2.001631,42.966168,1001.239],[-2.001689,42.966135,999.977],[-2.001746,42.96611,998.886],[-2.001791,42.96607,998.627],[-2.001853,42.966048,998.011],[-2.001916,42.966013,998.675],[-2.001966,42.965976,997.671],[-2.002011,42.965941,997.941],[-2.002029,42.965893,999.315],[-2.002079,42.965846,1000.109],[-2.002106,42.965804,999.658],[-2.002136,42.965756,999.547],[-2.002146,42.965706,998.973],[-2.002113,42.965659,998.725],[-2.002065,42.965627,998.543],[-2.001998,42.965602,999.412],[-2.001928,42.965589,999.633],[-2.001861,42.965589,999.027],[-2.001799,42.965591,999.121],[-2.001724,42.965591,997.921],[-2.001647,42.965586,997.541],[-2.001575,42.965581,996.905],[-2.001515,42.965568,995.409],[-2.001453,42.965555,993.993],[-2.00138,42.965552,991.542],[-2.001325,42.965525,990.158],[-2.00126,42.965527,988.75],[-2.001195,42.965515,988.328],[-2.001118,42.965507,986.837],[-2.001073,42.965475,987.498],[-2.001006,42.965438,988.652],[-2.000943,42.965411,988.846],[-2.000875,42.965384,989.775],[-2.00081,42.965351,989.128],[-2.000742,42.965319,989.12],[-2.000679,42.965274,988.309],[-2.000622,42.965247,986.818],[-2.000569,42.965222,986.277],[-2.000532,42.96518,986.423],[-2.000525,42.96513,986.285],[-2.00051,42.965083,987.723],[-2.000508,42.96503,989.652],[-2.000521,42.964972,991.193],[-2.000558,42.964919,992.077],[-2.000603,42.964879,991.491],[-2.000643,42.964836,991.994],[-2.000673,42.964784,994.257],[-2.000691,42.964741,996.022],[-2.000686,42.964694,995.809],[-2.000656,42.964652,995.29],[-2.000621,42.964614,996.349],[-2.000598,42.964567,998.735],[-2.000573,42.964524,996.357],[-2.000546,42.964471,995.355],[-2.000514,42.964423,994.074],[-2.000446,42.964378,992.515],[-2.000399,42.96433,992.499],[-2.000352,42.96429,992.973],[-2.000302,42.964258,992.299],[-2.00024,42.964235,993.607],[-2.000165,42.96419,994.427],[-2.000098,42.964128,994.909],[-2.000048,42.964081,994.48],[-2.000006,42.964041,995.049],[-1.999944,42.963999,996.395],[-1.999902,42.963959,998.197],[-1.999844,42.963924,999.395],[-1.999777,42.963892,1000.514],[-1.999717,42.96387,1001.985],[-1.99966,42.963847,1002.839],[-1.999592,42.963839,1002.253],[-1.999519,42.963841,1000.986],[-1.999444,42.963866,999.26],[-1.999371,42.963876,999.026],[-1.999311,42.963893,999.309],[-1.999246,42.96389,997.019],[-1.999189,42.963868,995.238],[-1.999119,42.963863,992.964],[-1.999046,42.963863,991.776],[-1.998973,42.96386,990.714],[-1.998901,42.963853,989.843],[-1.998829,42.963853,987.464],[-1.998786,42.96389,985.838],[-1.998746,42.96393,985.182],[-1.998699,42.963962,984.678],[-1.998639,42.963989,986.033],[-1.998592,42.964037,987.426],[-1.998562,42.964089,986.609],[-1.998519,42.964122,986.158],[-1.998467,42.964157,985.727],[-1.998422,42.964194,985.613],[-1.998355,42.964182,984.695],[-1.998283,42.96418,984.523],[-1.998223,42.964213,985.022],[-1.998155,42.964226,984.023],[-1.998082,42.964216,983.237],[-1.998019,42.964216,983.561],[-1.997942,42.964204,983.762],[-1.997872,42.964197,985.283],[-1.997792,42.964194,986.211],[-1.99773,42.964181,987.309],[-1.997653,42.964163,987.597],[-1.997586,42.964148,986.566],[-1.997516,42.964151,985.922],[-1.997468,42.964108,986.154],[-1.997341,42.964033,985.962],[-1.997296,42.963988,985.171],[-1.997251,42.963938,984.372],[-1.997216,42.963895,983.666],[-1.997199,42.963843,982.02],[-1.997167,42.963801,982.771],[-1.99713,42.963758,983.341],[-1.997125,42.963698,983.615],[-1.997125,42.963646,983.609],[-1.997147,42.963603,982.978],[-1.997159,42.963558,982.647],[-1.997182,42.963516,982.923],[-1.997229,42.963474,984.145],[-1.997279,42.963441,984.563],[-1.997309,42.963399,985.472],[-1.997324,42.963347,986.053],[-1.997384,42.963277,986.877],[-1.997426,42.96323,987.011],[-1.997468,42.963177,986.932],[-1.99752,42.963137,985.792],[-1.99756,42.963095,984.311],[-1.997567,42.96305,983.809],[-1.99755,42.962998,984.394],[-1.99757,42.962953,984.533],[-1.997563,42.962908,984.719],[-1.997538,42.962861,984.651],[-1.99747,42.962809,984.889],[-1.997078,42.962681,982.788],[-1.996993,42.962676,982.879],[-1.996925,42.962668,982.573],[-1.996852,42.96265,982.077],[-1.996784,42.962647,981.478],[-1.996721,42.962649,981.333],[-1.996648,42.962662,981.026],[-1.996575,42.96268,980.209],[-1.99651,42.96269,976.688],[-1.996447,42.962703,974.837],[-1.99638,42.962715,974.163],[-1.996308,42.962717,973.385],[-1.996241,42.962722,974.433],[-1.996166,42.962719,975.422],[-1.996093,42.962736,976.083],[-1.996026,42.962749,974.827],[-1.995949,42.962761,973.991],[-1.995891,42.962781,974.331],[-1.995833,42.962801,974.361],[-1.995785,42.962831,974.807],[-1.995715,42.962831,973.709],[-1.995653,42.962813,977.464],[-1.995595,42.962796,977.473],[-1.995525,42.962798,978.019],[-1.995455,42.962803,977.271],[-1.995383,42.96283,975.089],[-1.995311,42.962848,972.658]]}}]}