{"type":"FeatureCollection","features":[{"type":"Feature","properties":{"ruta_id":"108152429","nombre":"PICO ANAYET y VÉRTICE de ANAYET desde parking PORTALET circular","blog_url":"https://www.rutasporelmonte.com/pico-vertice-anayet-desde-portalet/"},"geometry":{"type":"LineString","coordinates":[[-0.414122,42.800955,1768.372],[-0.414275,42.80105,1770.113],[-0.414253,42.801157,1772.514],[-0.414193,42.801107,1771.809],[-0.414135,42.801164,1773.198],[-0.414208,42.801159,1772.767],[-0.414203,42.801114,1771.975],[-0.414215,42.801067,1770.788],[-0.414225,42.801012,1769.372],[-0.414243,42.800962,1768.059],[-0.414251,42.800914,1766.771],[-0.414259,42.800864,1765.499],[-0.414261,42.800807,1764.286],[-0.414256,42.800752,1763.273],[-0.414238,42.800702,1762.485],[-0.414221,42.800645,1761.413],[-0.414221,42.800587,1760.409],[-0.414219,42.800539,1759.668],[-0.414217,42.800491,1758.817],[-0.414194,42.800438,1758.215],[-0.414186,42.80038,1757.468],[-0.414173,42.800333,1756.882],[-0.414158,42.800281,1756.199],[-0.41414,42.800238,1755.741],[-0.414128,42.800186,1755.199],[-0.414115,42.800136,1754.576],[-0.414103,42.800088,1754.072],[-0.414091,42.800033,1753.313],[-0.414084,42.79998,1752.714],[-0.414067,42.799933,1752.409],[-0.414055,42.799888,1752.278],[-0.414058,42.799826,1751.567],[-0.414016,42.799779,1751.765],[-0.413991,42.799726,1751.678],[-0.413958,42.799671,1751.362],[-0.41395,42.799618,1750.639],[-0.413948,42.79957,1750.061],[-0.413918,42.799527,1749.859],[-0.413911,42.799475,1749.146],[-0.413911,42.799425,1748.447],[-0.413911,42.799378,1747.729],[-0.413923,42.79933,1746.921],[-0.41396,42.799283,1745.709],[-0.414002,42.79924,1744.435],[-0.41406,42.799202,1743.034],[-0.414077,42.799159,1742.212],[-0.414107,42.799107,1741.665],[-0.414165,42.799087,1740.799],[-0.414228,42.799069,1740.896],[-0.414298,42.799041,1741.098],[-0.414356,42.799018,1741.276],[-0.414416,42.798975,1741.543],[-0.414474,42.798947,1742.162],[-0.414534,42.798917,1742.883],[-0.414604,42.798887,1743.711],[-0.414664,42.798852,1744.509],[-0.414716,42.798809,1745.217],[-0.414708,42.798759,1745.316],[-0.414716,42.798709,1745.694],[-0.414711,42.798656,1745.847],[-0.414716,42.798606,1746.031],[-0.414721,42.798561,1746.028],[-0.414708,42.798511,1745.92],[-0.414696,42.798458,1745.948],[-0.414693,42.79841,1745.935],[-0.414713,42.798358,1746.097],[-0.414721,42.798303,1745.723],[-0.414726,42.798251,1745.125],[-0.414734,42.798193,1744.509],[-0.414749,42.798148,1744.21],[-0.414764,42.798098,1743.749],[-0.414766,42.798053,1743.367],[-0.414771,42.798,1742.75],[-0.414781,42.797953,1742.234],[-0.414819,42.797898,1741.871],[-0.414867,42.797861,1741.623],[-0.41493,42.797824,1741.471],[-0.414975,42.797789,1741.198],[-0.415025,42.797751,1741.298],[-0.415093,42.797716,1741.615],[-0.415138,42.797684,1741.826],[-0.415173,42.797642,1741.909],[-0.415231,42.797615,1742.24],[-0.415264,42.797573,1742.289],[-0.415309,42.797535,1742.467],[-0.415356,42.797497,1742.68],[-0.415413,42.797464,1743.014],[-0.415475,42.797429,1743.581],[-0.415528,42.797396,1743.863],[-0.415586,42.797361,1744.321],[-0.415624,42.797313,1744.778],[-0.415686,42.79728,1745.482],[-0.415749,42.797258,1746.143],[-0.415821,42.797228,1746.917],[-0.415886,42.79721,1747.609],[-0.415933,42.79718,1748.029],[-0.415988,42.79716,1748.578],[-0.416046,42.797137,1749.126],[-0.416098,42.79711,1749.539],[-0.41617,42.797083,1750.163],[-0.416227,42.797043,1750.55],[-0.416275,42.797006,1750.762],[-0.416325,42.796973,1750.84],[-0.41637,42.796926,1750.997],[-0.416422,42.796893,1751.437],[-0.416464,42.796843,1751.849],[-0.416487,42.796796,1752.113],[-0.416517,42.796753,1752.409],[-0.416575,42.796726,1753.064],[-0.416618,42.796689,1753.563],[-0.416663,42.796646,1754.051],[-0.416708,42.796609,1754.764],[-0.416741,42.796571,1755.138],[-0.416786,42.796536,1755.855],[-0.416839,42.796499,1756.547],[-0.416884,42.796466,1757.125],[-0.416916,42.796424,1757.652],[-0.416963,42.796379,1758.227],[-0.417011,42.796334,1758.668],[-0.417046,42.796291,1759.014],[-0.417103,42.796261,1759.309],[-0.417138,42.796214,1759.673],[-0.417171,42.796176,1759.862],[-0.417218,42.796144,1760.07],[-0.417275,42.796116,1760.683],[-0.417317,42.796081,1761.187],[-0.417369,42.796044,1761.784],[-0.417422,42.796007,1762.396],[-0.41745,42.795967,1762.674],[-0.417492,42.795932,1762.941],[-0.417555,42.7959,1763.441],[-0.417612,42.795882,1763.981],[-0.417659,42.795852,1764.209],[-0.417716,42.795825,1764.609],[-0.417779,42.795797,1765.085],[-0.417841,42.79578,1765.694],[-0.417906,42.795768,1766.312],[-0.417961,42.795746,1766.885],[-0.418011,42.795718,1767.289],[-0.418044,42.795671,1767.316],[-0.418062,42.795624,1767.338],[-0.418069,42.795571,1767.276],[-0.418051,42.795514,1767.473],[-0.418056,42.795467,1768.096],[-0.418058,42.795422,1768.531],[-0.418051,42.795377,1768.924],[-0.418049,42.795319,1769.509],[-0.418067,42.795276,1770.19],[-0.418077,42.795231,1772.129],[-0.418129,42.795206,1773.367],[-0.418139,42.795156,1775.48],[-0.418159,42.795111,1777.414],[-0.418211,42.795074,1779.041],[-0.418229,42.795026,1780.913],[-0.418271,42.794993,1782.371],[-0.418308,42.794955,1783.678],[-0.418358,42.794923,1784.713],[-0.418423,42.794915,1784.843],[-0.418483,42.794888,1785.707],[-0.418535,42.794858,1786.809],[-0.418573,42.79482,1788.282],[-0.418618,42.794783,1789.671],[-0.418673,42.79476,1790.769],[-0.418675,42.794707,1792.732],[-0.418682,42.79466,1794.216],[-0.418702,42.794615,1795.533],[-0.418707,42.79456,1797.275],[-0.41873,42.79451,1798.783],[-0.418733,42.794457,1800.26],[-0.418751,42.794407,1801.212],[-0.418793,42.79437,1801.932],[-0.418793,42.794323,1802.805],[-0.418776,42.794275,1803.809],[-0.418779,42.79422,1804.942],[-0.418791,42.79417,1805.991],[-0.418801,42.794122,1807.729],[-0.418824,42.794072,1809.372],[-0.418842,42.794029,1810.576],[-0.418847,42.793979,1812.093],[-0.418859,42.793929,1813.165],[-0.418849,42.793876,1815.423],[-0.418857,42.793831,1817.59],[-0.418884,42.793786,1819.155],[-0.418894,42.793739,1821.607],[-0.418882,42.793694,1824.317],[-0.418887,42.793647,1827.009],[-0.418895,42.7936,1829.146],[-0.418888,42.793555,1830.235],[-0.418885,42.79351,1831.293],[-0.41889,42.79346,1832.326],[-0.418882,42.793413,1833.34],[-0.41888,42.793365,1834.327],[-0.418868,42.793317,1835.479],[-0.418886,42.793274,1836.357],[-0.418874,42.793227,1837.384],[-0.418892,42.79318,1838.379],[-0.418932,42.793145,1839.105],[-0.418972,42.793105,1839.925],[-0.419027,42.79307,1840.709],[-0.419074,42.793038,1841.348],[-0.419109,42.792993,1841.917],[-0.419154,42.792948,1842.565],[-0.419199,42.792915,1843.188],[-0.419244,42.79288,1843.682],[-0.419277,42.792838,1844.259],[-0.419327,42.79281,1844.611],[-0.419374,42.792775,1845.059],[-0.419417,42.792738,1845.346],[-0.419472,42.792716,1845.654],[-0.419529,42.792689,1846.056],[-0.419582,42.792662,1846.511],[-0.419639,42.792632,1847.109],[-0.419699,42.792595,1847.836],[-0.419754,42.792563,1848.675],[-0.419801,42.792525,1849.553],[-0.419853,42.792493,1850.596],[-0.4199,42.79246,1851.35],[-0.419943,42.792425,1852.137],[-0.419978,42.792387,1853.059],[-0.42003,42.792359,1853.757],[-0.420082,42.792316,1854.694],[-0.420125,42.792271,1855.421],[-0.420158,42.792226,1856.141],[-0.420188,42.792183,1857.005],[-0.420225,42.792138,1857.909],[-0.420235,42.792086,1858.733],[-0.420272,42.792038,1859.632],[-0.420294,42.791988,1860.45],[-0.420306,42.791941,1861.223],[-0.420326,42.791894,1862.867],[-0.420358,42.791847,1864.444],[-0.4204,42.791807,1865.926],[-0.42045,42.79178,1866.984],[-0.420485,42.79174,1868.471],[-0.420507,42.791697,1869.866],[-0.420557,42.791662,1871.129],[-0.420604,42.791622,1872.321],[-0.420659,42.791589,1873.109],[-0.420709,42.791547,1874.227],[-0.420759,42.791515,1875.036],[-0.420807,42.791482,1875.754],[-0.420869,42.791462,1876.177],[-0.420919,42.791429,1876.861],[-0.420966,42.791391,1877.538],[-0.420988,42.791346,1878.34],[-0.421018,42.791306,1878.828],[-0.42104,42.791256,1879.525],[-0.421068,42.791211,1880.018],[-0.42108,42.791163,1880.698],[-0.421077,42.791116,1881.417],[-0.421079,42.791061,1882.409],[-0.421076,42.791014,1883.422],[-0.421076,42.790966,1884.391],[-0.421086,42.790919,1885.229],[-0.421104,42.790876,1886.182],[-0.421104,42.790826,1887.246],[-0.421104,42.790779,1888.523],[-0.421121,42.790732,1890.025],[-0.421128,42.790682,1891.533],[-0.421133,42.790635,1892.94],[-0.421138,42.790588,1894.335],[-0.421145,42.790541,1895.886],[-0.42117,42.790496,1897.314],[-0.421198,42.790453,1898.709],[-0.421215,42.79041,1899.994],[-0.421223,42.790362,1901.243],[-0.421248,42.79032,1902.461],[-0.421263,42.790275,1903.624],[-0.421278,42.79023,1904.378],[-0.421263,42.790185,1904.975],[-0.421265,42.790135,1905.677],[-0.421267,42.790085,1906.335],[-0.421259,42.790028,1907.162],[-0.421261,42.789981,1907.829],[-0.421273,42.789928,1908.4],[-0.421288,42.789878,1909.02],[-0.421298,42.789825,1909.609],[-0.421283,42.789778,1910.163],[-0.421263,42.789735,1910.812],[-0.421268,42.789683,1911.64],[-0.421246,42.78964,1912.583],[-0.421236,42.789592,1913.487],[-0.421221,42.789545,1914.324],[-0.421179,42.789512,1914.916],[-0.421152,42.789469,1915.654],[-0.42116,42.789422,1916.511],[-0.421177,42.789377,1917.485],[-0.421185,42.789329,1918.589],[-0.421188,42.789284,1919.517],[-0.421211,42.789234,1920.909],[-0.421253,42.789197,1922.399],[-0.421301,42.789165,1923.868],[-0.421329,42.789122,1924.966],[-0.421379,42.789092,1926.279],[-0.421421,42.789049,1927.743],[-0.421453,42.789009,1929.29],[-0.421516,42.788994,1930.922],[-0.421578,42.788974,1932.92],[-0.421635,42.788947,1935.137],[-0.421692,42.788927,1937.071],[-0.421747,42.7889,1938.741],[-0.421805,42.788878,1940.315],[-0.421865,42.788868,1941.409],[-0.421932,42.788868,1942.438],[-0.421995,42.788841,1943.937],[-0.422045,42.788814,1945.295],[-0.422107,42.788807,1946.278],[-0.422167,42.788795,1947.312],[-0.422224,42.788777,1948.449],[-0.422282,42.78876,1949.271],[-0.422327,42.788728,1950.239],[-0.422397,42.788711,1951.136],[-0.422447,42.788684,1952.012],[-0.422484,42.788637,1953.332],[-0.422509,42.788589,1954.405],[-0.422569,42.788579,1954.909],[-0.422601,42.788539,1955.832],[-0.422628,42.788494,1957.031],[-0.422685,42.788472,1957.869],[-0.422745,42.788462,1958.572],[-0.422807,42.788429,1959.796],[-0.422864,42.788401,1960.513],[-0.422929,42.788369,1961.675],[-0.422992,42.788349,1962.383],[-0.423055,42.788334,1963.03],[-0.423117,42.788327,1963.228],[-0.423185,42.788302,1964.189],[-0.423252,42.788277,1964.917],[-0.423324,42.788274,1964.909],[-0.423389,42.788254,1965.783],[-0.423457,42.788246,1966.042],[-0.423524,42.788239,1966.32],[-0.423592,42.788227,1966.763],[-0.423657,42.788234,1966.737],[-0.423704,42.788196,1967.814],[-0.423769,42.788183,1968.416],[-0.423834,42.788168,1969.074],[-0.423909,42.788168,1969.351],[-0.423964,42.78814,1970.253],[-0.424031,42.788125,1971.004],[-0.424108,42.788117,1971.714],[-0.424163,42.788092,1972.809],[-0.424215,42.788067,1974.096],[-0.424203,42.788019,1975.675],[-0.424158,42.787979,1976.743],[-0.4241,42.787952,1977.146],[-0.42403,42.787925,1977.34],[-0.423982,42.787897,1977.637],[-0.423937,42.787864,1978.189],[-0.423884,42.787834,1978.397],[-0.423839,42.787802,1978.894],[-0.423776,42.787769,1979.062],[-0.423739,42.787722,1979.583],[-0.423679,42.787679,1979.611],[-0.423642,42.787632,1980.009],[-0.423595,42.787589,1980.597],[-0.423555,42.787547,1981.466],[-0.423512,42.787512,1982.214],[-0.423445,42.78749,1982.867],[-0.423387,42.787463,1983.621],[-0.423335,42.787431,1984.558],[-0.423285,42.787396,1985.49],[-0.423228,42.787374,1986.028],[-0.423183,42.787336,1986.755],[-0.423141,42.787299,1987.268],[-0.423116,42.787252,1987.842],[-0.423111,42.787199,1988.626],[-0.423124,42.787151,1989.509],[-0.423136,42.787104,1990.387],[-0.423153,42.787061,1991.086],[-0.423185,42.787011,1991.984],[-0.423212,42.786968,1992.677],[-0.423235,42.786926,1993.661],[-0.423262,42.786879,1995.178],[-0.423277,42.786831,1996.75],[-0.423307,42.786789,1998.058],[-0.423334,42.786747,1999.435],[-0.423349,42.7867,2000.887],[-0.423379,42.786657,2001.842],[-0.423404,42.786612,2003.226],[-0.423421,42.786564,2004.809],[-0.423444,42.786522,2006.349],[-0.423457,42.786477,2008.078],[-0.423449,42.786432,2009.846],[-0.423457,42.786384,2011.659],[-0.423469,42.786334,2013.683],[-0.423449,42.786286,2015.23],[-0.423444,42.786241,2016.772],[-0.423464,42.786189,2018.92],[-0.423454,42.786144,2020.437],[-0.423471,42.786092,2022.793],[-0.423463,42.786045,2024.165],[-0.423453,42.785993,2025.721],[-0.423438,42.785943,2027.009],[-0.423438,42.785893,2028.74],[-0.423423,42.785846,2029.849],[-0.423395,42.785806,2030.177],[-0.42337,42.785763,2030.62],[-0.423353,42.785718,2031.564],[-0.423356,42.785673,2033.131],[-0.423333,42.785631,2033.693],[-0.423305,42.785584,2035.091],[-0.423262,42.785549,2036.018],[-0.423209,42.785512,2037.122],[-0.423146,42.785517,2036.662],[-0.423083,42.785509,2036.508],[-0.423011,42.785501,2036.509],[-0.422949,42.785491,2036.773],[-0.422899,42.785463,2037.132],[-0.422856,42.785426,2037.46],[-0.422816,42.785464,2036.813],[-0.422766,42.785502,2036.327],[-0.422726,42.785537,2035.984],[-0.422774,42.785505,2036.326],[-0.422797,42.785457,2036.814],[-0.422777,42.785414,2037.071],[-0.422724,42.785387,2036.763],[-0.422716,42.785334,2036.844],[-0.422696,42.785284,2036.818],[-0.422646,42.785256,2035.809],[-0.422618,42.785216,2034.797],[-0.422683,42.785219,2035.926],[-0.422681,42.785171,2035.324],[-0.422716,42.785133,2035.637],[-0.422769,42.785095,2036.581],[-0.422806,42.785052,2037.558],[-0.422843,42.785009,2038.82],[-0.422878,42.784967,2039.248],[-0.422913,42.784925,2039.425],[-0.422948,42.784887,2039.853],[-0.422976,42.78484,2039.604],[-0.423001,42.784797,2039.514],[-0.423019,42.784754,2039.109],[-0.423067,42.784714,2040.486],[-0.423077,42.784669,2039.855],[-0.423124,42.784637,2041.553],[-0.423157,42.784594,2042.116],[-0.423189,42.784552,2042.64],[-0.423216,42.78451,2042.947],[-0.423246,42.78447,2043.349],[-0.423296,42.78443,2045.097],[-0.423276,42.784382,2043.534],[-0.423278,42.784334,2043.227],[-0.42328,42.784287,2042.868],[-0.423315,42.784242,2044.014],[-0.423325,42.784194,2043.909],[-0.423353,42.784154,2045.133],[-0.423353,42.784106,2045.832],[-0.423326,42.784064,2045.13],[-0.423324,42.784019,2045.743],[-0.423291,42.783976,2044.767],[-0.423263,42.783928,2044.084],[-0.4233,42.783888,2046.376],[-0.423278,42.783841,2045.774],[-0.423295,42.783794,2046.981],[-0.42328,42.783744,2046.864],[-0.423253,42.783702,2046.106],[-0.423238,42.783654,2046.016],[-0.42323,42.783606,2046.309],[-0.423207,42.783556,2045.987],[-0.423187,42.783511,2045.716],[-0.423204,42.783458,2046.624],[-0.423222,42.783415,2047.467],[-0.42324,42.78337,2048.151],[-0.42327,42.78333,2048.888],[-0.423325,42.783297,2049.34],[-0.423388,42.783244,2048.848],[-0.423431,42.783209,2048.585],[-0.423476,42.783174,2048.451],[-0.423529,42.783147,2048.501],[-0.423601,42.78312,2048.911],[-0.423664,42.783102,2049.309],[-0.423732,42.783077,2049.536],[-0.423795,42.78306,2049.785],[-0.423852,42.783042,2049.563],[-0.423894,42.783002,2048.576],[-0.423946,42.782967,2047.91],[-0.424003,42.782939,2047.527],[-0.424065,42.782932,2047.719],[-0.424135,42.782929,2048.137],[-0.424202,42.782949,2049.244],[-0.424275,42.782957,2049.985],[-0.424335,42.782944,2050.089],[-0.424395,42.782916,2049.617],[-0.424457,42.782913,2049.809],[-0.424542,42.782915,2049.699],[-0.42461,42.782895,2048.758],[-0.424642,42.782847,2046.936],[-0.424695,42.78282,2045.749],[-0.424755,42.782808,2044.853],[-0.424813,42.78279,2043.54],[-0.424866,42.782758,2041.852],[-0.424926,42.782745,2040.81],[-0.424993,42.782725,2039.757],[-0.425055,42.782728,2040.147],[-0.425123,42.78274,2040.929],[-0.42519,42.782713,2040.621],[-0.425235,42.78268,2039.909],[-0.425295,42.782657,2039.785],[-0.425337,42.782615,2038.754],[-0.425389,42.782585,2038.132],[-0.425446,42.78256,2037.655],[-0.425478,42.782518,2036.379],[-0.425528,42.782488,2035.566],[-0.425585,42.782461,2034.778],[-0.425622,42.782416,2033.356],[-0.425647,42.782373,2031.923],[-0.425699,42.782343,2031.217],[-0.425761,42.782355,2031.987],[-0.425819,42.782337,2031.615],[-0.425832,42.78229,2030.209],[-0.425889,42.782255,2029.592],[-0.425952,42.782233,2029.211],[-0.426005,42.782208,2028.939],[-0.42606,42.782183,2028.682],[-0.426108,42.782141,2027.966],[-0.426151,42.782103,2027.623],[-0.426168,42.782058,2026.635],[-0.426208,42.782023,2026.243],[-0.426281,42.782018,2027.08],[-0.426331,42.781973,2026.335],[-0.426351,42.78193,2025.386],[-0.426366,42.781885,2024.514],[-0.426424,42.78185,2024.909],[-0.426472,42.781812,2025.254],[-0.42652,42.781777,2025.623],[-0.426563,42.781737,2025.621],[-0.426605,42.781699,2025.514],[-0.426647,42.781666,2025.678],[-0.42669,42.781631,2026.145],[-0.426727,42.781594,2026.447],[-0.426774,42.781554,2026.735],[-0.426836,42.781519,2027.132],[-0.426898,42.781494,2027.687],[-0.426956,42.781476,2028.042],[-0.427023,42.781461,2028.726],[-0.427088,42.781456,2029.609],[-0.427151,42.781451,2030.579],[-0.427213,42.781456,2031.778],[-0.427273,42.781443,2032.266],[-0.427341,42.78144,2033.379],[-0.427409,42.781452,2034.953],[-0.427472,42.781442,2035.61],[-0.42754,42.78144,2036.742],[-0.427613,42.78143,2037.72],[-0.427681,42.781413,2038.217],[-0.427734,42.78138,2038.064],[-0.427797,42.781355,2038.906],[-0.427842,42.781308,2039.316],[-0.427885,42.781273,2039.809],[-0.427935,42.781235,2040.597],[-0.427977,42.781197,2040.876],[-0.428019,42.781164,2041.374],[-0.428072,42.781131,2042.097],[-0.428119,42.781098,2042.771],[-0.428169,42.781065,2043.828],[-0.428219,42.781035,2044.81],[-0.428267,42.781,2045.718],[-0.428294,42.780957,2045.815],[-0.428327,42.780914,2046.051],[-0.428355,42.780874,2046.001],[-0.428385,42.780832,2045.911],[-0.428437,42.780799,2046.209],[-0.42848,42.780762,2046.446],[-0.428537,42.780734,2046.995],[-0.428604,42.780716,2047.813],[-0.428656,42.780689,2048.316],[-0.428726,42.780656,2049.18],[-0.428793,42.780633,2050.157],[-0.428821,42.780585,2050.069],[-0.428828,42.780538,2049.997],[-0.428846,42.780493,2050.684],[-0.428844,42.780448,2051.059],[-0.428832,42.780391,2051.303],[-0.428859,42.780344,2052.123],[-0.428926,42.780316,2053.309],[-0.428971,42.780284,2054.116],[-0.429013,42.780249,2055.255],[-0.429053,42.780211,2056.253],[-0.42912,42.780183,2057.436],[-0.429135,42.780135,2058.17],[-0.429198,42.780127,2059.187],[-0.429265,42.780149,2060.039],[-0.42932,42.780129,2061.127],[-0.429375,42.780104,2062.294],[-0.429428,42.780134,2062.861],[-0.429485,42.780096,2063.721],[-0.429535,42.780069,2064.213],[-0.429603,42.780046,2064.709],[-0.429666,42.780008,2064.977],[-0.429718,42.779971,2065.496],[-0.429771,42.779944,2066.474],[-0.429849,42.779932,2067.557],[-0.429907,42.779917,2068.311],[-0.429974,42.779904,2069.138],[-0.430046,42.779894,2069.82],[-0.430114,42.779894,2070.578],[-0.430182,42.779899,2071.155],[-0.430247,42.779914,2071.784],[-0.430312,42.779919,2072.407],[-0.430379,42.779926,2073.217],[-0.430449,42.779939,2074.009],[-0.430512,42.779959,2074.729],[-0.430577,42.779971,2075.498],[-0.430637,42.779984,2076.046],[-0.430707,42.779986,2076.799],[-0.430777,42.779983,2077.643],[-0.430839,42.779998,2078.16],[-0.430891,42.780025,2079.182],[-0.430948,42.780047,2080.25],[-0.431005,42.780069,2081.437],[-0.43106,42.780089,2082.535],[-0.43112,42.780122,2084.086],[-0.43118,42.780145,2085.814],[-0.43124,42.780167,2087.709],[-0.431308,42.780174,2089.574],[-0.43135,42.780141,2090.173],[-0.431412,42.780121,2091.671],[-0.431432,42.780074,2091.644],[-0.431445,42.780027,2091.318],[-0.431498,42.779997,2092.545],[-0.43155,42.779967,2094.247],[-0.431598,42.779934,2095.785],[-0.431648,42.779904,2097.162],[-0.431708,42.779874,2099.363],[-0.431751,42.779839,2101.044],[-0.431744,42.779786,2100.418],[-0.431772,42.779739,2101.309],[-0.431764,42.779689,2100.657],[-0.431776,42.779634,2100.636],[-0.431794,42.779582,2100.834],[-0.431809,42.779529,2100.917],[-0.431811,42.779484,2100.581],[-0.431834,42.779439,2100.818],[-0.431836,42.779392,2100.64],[-0.431848,42.779342,2100.668],[-0.43187,42.779294,2100.915],[-0.431872,42.779249,2100.786],[-0.431889,42.779204,2100.86],[-0.431909,42.779157,2100.926],[-0.431979,42.779129,2102.309],[-0.432001,42.779077,2101.889],[-0.432029,42.779034,2101.798],[-0.432079,42.778999,2102.636],[-0.432101,42.778956,2102.319],[-0.432108,42.778909,2101.493],[-0.432163,42.778876,2102.78],[-0.43221,42.778836,2103.692],[-0.43224,42.778793,2104.11],[-0.432262,42.778746,2104.297],[-0.432269,42.778696,2103.583],[-0.432302,42.778656,2104.125],[-0.432335,42.778613,2104.517],[-0.43237,42.778568,2106.209],[-0.432388,42.778518,2107.239],[-0.432393,42.778473,2107.698],[-0.432403,42.778428,2108.376],[-0.432403,42.778381,2108.689],[-0.432403,42.778331,2108.923],[-0.432406,42.778279,2109.22],[-0.432413,42.778226,2109.762],[-0.432401,42.778179,2109.57],[-0.432406,42.778129,2109.917],[-0.432416,42.778079,2110.545],[-0.432456,42.778031,2110.747],[-0.432498,42.777996,2110.611],[-0.432538,42.777961,2110.609],[-0.432583,42.777924,2110.645],[-0.432651,42.777906,2112.234],[-0.432716,42.777886,2113.652],[-0.432771,42.777866,2114.645],[-0.432811,42.777824,2114.179],[-0.432858,42.777784,2113.976],[-0.432915,42.777759,2114.248],[-0.432975,42.777747,2115.386],[-0.433045,42.777737,2116.933],[-0.433118,42.777725,2117.716],[-0.433188,42.777723,2119.176],[-0.433246,42.777698,2118.713],[-0.433311,42.77769,2119.509],[-0.433373,42.77767,2120.012],[-0.43344,42.777662,2121.871],[-0.433517,42.777667,2124.869],[-0.433585,42.77766,2126.652],[-0.433648,42.777653,2128.336],[-0.433705,42.77763,2128.683],[-0.433757,42.777603,2128.555],[-0.433827,42.777601,2130.873],[-0.433894,42.777596,2132.71],[-0.433959,42.777598,2135.057],[-0.434029,42.777595,2137.1],[-0.434104,42.777585,2138.72],[-0.434164,42.77756,2138.709],[-0.434229,42.777558,2140.756],[-0.434291,42.777538,2141.295],[-0.434354,42.77752,2141.853],[-0.434419,42.777528,2144.636],[-0.434477,42.777546,2148.41],[-0.43453,42.777514,2147.927],[-0.434568,42.777472,2146.719],[-0.434623,42.77745,2148.087],[-0.434675,42.77742,2149.184],[-0.434713,42.777383,2149.461],[-0.43468,42.777345,2145.821],[-0.434718,42.777308,2146.413],[-0.434765,42.777275,2147.709],[-0.434803,42.777235,2148.027],[-0.43487,42.777227,2151.296],[-0.434927,42.777205,2152.724],[-0.434994,42.777197,2155.757],[-0.435052,42.777214,2159.111],[-0.435117,42.777191,2159.668],[-0.435179,42.777186,2161.57],[-0.435246,42.777181,2163.688],[-0.435301,42.777158,2164.515],[-0.435353,42.777126,2165.279],[-0.435378,42.777079,2164.005],[-0.43542,42.777044,2164.325],[-0.435475,42.777011,2165.609],[-0.43553,42.776991,2167.578],[-0.435572,42.776953,2168.037],[-0.435634,42.776928,2168.745],[-0.435689,42.776903,2169.028],[-0.435739,42.776863,2168.322],[-0.435789,42.776831,2168.769],[-0.435829,42.776794,2168.571],[-0.435892,42.776766,2168.839],[-0.435949,42.776741,2169.016],[-0.436009,42.776718,2169.516],[-0.436067,42.776686,2169.676],[-0.436105,42.776649,2169.113],[-0.436153,42.776612,2168.909],[-0.436225,42.77659,2169.992],[-0.436275,42.776548,2169.891],[-0.436325,42.77652,2170.469],[-0.43637,42.776485,2170.832],[-0.43644,42.77647,2171.656],[-0.436508,42.77645,2171.583],[-0.436573,42.776425,2171.115],[-0.436641,42.776432,2171.833],[-0.436701,42.776409,2171.24],[-0.436761,42.776397,2171.183],[-0.436824,42.776389,2171.125],[-0.436891,42.776371,2171.117],[-0.436953,42.776361,2171.209],[-0.43703,42.776349,2172.299],[-0.437068,42.776311,2171.558],[-0.437128,42.776288,2171.616],[-0.437191,42.776273,2171.939],[-0.437253,42.776248,2172.593],[-0.437326,42.776226,2174.03],[-0.437368,42.776188,2173.722],[-0.437405,42.776151,2173.16],[-0.437447,42.776111,2172.517],[-0.437504,42.776081,2173.139],[-0.437561,42.776044,2174.001],[-0.437626,42.776022,2175.721],[-0.437674,42.775992,2176.209],[-0.437732,42.775965,2177.054],[-0.437795,42.775975,2179.613],[-0.437848,42.776002,2182.421],[-0.437911,42.776009,2184.594],[-0.437973,42.775992,2185.158],[-0.438038,42.775982,2186.285],[-0.438106,42.77598,2186.967],[-0.438171,42.775973,2186.975],[-0.438234,42.775973,2187.382],[-0.438296,42.775971,2187.622],[-0.438368,42.775958,2187.062],[-0.438433,42.775968,2187.908],[-0.438508,42.775975,2188.509],[-0.43857,42.775975,2188.663],[-0.438625,42.776,2190.782],[-0.438667,42.77604,2193.82],[-0.438715,42.776072,2196.443],[-0.438767,42.7761,2198.727],[-0.438837,42.776097,2198.764],[-0.438902,42.776112,2200.116],[-0.438962,42.776134,2201.844],[-0.439022,42.776152,2203.281],[-0.439089,42.776164,2204.288],[-0.439152,42.776166,2204.524],[-0.439209,42.776138,2202.926],[-0.439281,42.77611,2201.309],[-0.439344,42.776108,2201.489],[-0.439406,42.776116,2202.278],[-0.439469,42.776108,2202.286],[-0.439531,42.776091,2202.119],[-0.439594,42.776088,2203.043],[-0.439667,42.776068,2203.27],[-0.439727,42.776048,2203.432],[-0.439787,42.77603,2204.15],[-0.439844,42.776012,2205.017],[-0.439896,42.77598,2205.534],[-0.439939,42.775947,2206.055],[-0.439997,42.775925,2207.51],[-0.44004,42.775887,2208.109],[-0.44009,42.775859,2209.144],[-0.440145,42.775832,2210.143],[-0.440205,42.775817,2211.111],[-0.440255,42.775782,2211.264],[-0.440192,42.775762,2208.258],[-0.440259,42.775777,2211.165],[-0.440319,42.775767,2212.687],[-0.440381,42.775769,2214.535],[-0.440441,42.775739,2215.222],[-0.440504,42.775722,2216.465],[-0.440559,42.775702,2217.368],[-0.440617,42.775717,2218.814],[-0.440685,42.775729,2220.409],[-0.440747,42.775734,2221.647],[-0.440809,42.775722,2222.256],[-0.440876,42.77572,2223.134],[-0.440946,42.775715,2223.977],[-0.441004,42.77573,2225.261],[-0.441069,42.775737,2226.368],[-0.441131,42.775737,2227.11],[-0.441203,42.775745,2228.048],[-0.441266,42.77576,2228.925],[-0.441303,42.775798,2230.032],[-0.441336,42.775845,2230.892],[-0.441391,42.775878,2230.911],[-0.441421,42.775921,2230.909],[-0.441466,42.775963,2231.184],[-0.441523,42.775995,2231.473],[-0.441568,42.77603,2231.661],[-0.441623,42.776073,2231.844],[-0.441665,42.776108,2232.038],[-0.441692,42.77615,2232.875],[-0.441744,42.77619,2233.747],[-0.441791,42.776228,2234.465],[-0.441843,42.776258,2234.962],[-0.441905,42.776268,2235.193],[-0.441963,42.776288,2235.365],[-0.442016,42.776315,2235.621],[-0.442078,42.77634,2235.809],[-0.442148,42.776357,2235.91],[-0.442211,42.776364,2236.039],[-0.442264,42.776396,2235.997],[-0.442327,42.776413,2235.71],[-0.442392,42.776413,2235.484],[-0.44245,42.776433,2235.241],[-0.442508,42.77645,2235.033],[-0.442558,42.77648,2234.761],[-0.442618,42.776503,2234.448],[-0.442683,42.776531,2234.025],[-0.442736,42.776556,2233.626],[-0.442733,42.776603,2233.508],[-0.442735,42.776651,2233.409],[-0.442713,42.776699,2232.933],[-0.442668,42.776737,2232.442],[-0.442631,42.776777,2231.91],[-0.442621,42.776822,2231.023],[-0.442594,42.776869,2230.257],[-0.442559,42.776917,2229.474],[-0.442526,42.776964,2228.816],[-0.442498,42.777006,2228.614],[-0.44247,42.777054,2228.431],[-0.442435,42.777096,2228.427],[-0.442395,42.777144,2228.268],[-0.442363,42.777189,2227.814],[-0.442343,42.777236,2227.509],[-0.442335,42.777283,2227.553],[-0.44231,42.777325,2227.482],[-0.4423,42.777377,2227.34],[-0.442285,42.77743,2227.243],[-0.44228,42.777477,2227.187],[-0.442267,42.777522,2227.054],[-0.442249,42.777565,2227.026],[-0.442239,42.777622,2227.044],[-0.442219,42.777665,2227.021],[-0.442219,42.77771,2227.033],[-0.442224,42.777755,2227.023],[-0.442182,42.777793,2227.415],[-0.44216,42.777843,2227.709],[-0.442157,42.777903,2228.094],[-0.442192,42.777943,2227.953],[-0.442235,42.77798,2227.781],[-0.442278,42.778022,2227.784],[-0.442291,42.778074,2227.828],[-0.442316,42.778117,2227.925],[-0.442341,42.778164,2228.057],[-0.442393,42.778207,2227.915],[-0.442438,42.778257,2227.992],[-0.442475,42.778299,2228.076],[-0.442492,42.778346,2228.09],[-0.44253,42.778396,2227.919],[-0.442548,42.778448,2227.809],[-0.442575,42.778496,2227.758],[-0.442613,42.778533,2227.637],[-0.442651,42.778571,2227.595],[-0.442713,42.778591,2227.268],[-0.442746,42.778629,2227.272],[-0.442756,42.778676,2227.379],[-0.442763,42.778723,2227.591],[-0.44278,42.778771,2227.649],[-0.442802,42.778819,2227.786],[-0.442849,42.778854,2227.752],[-0.442917,42.778876,2227.553],[-0.442987,42.778874,2227.208],[-0.442934,42.778849,2227.409],[-0.442952,42.778899,2227.416],[-0.442989,42.778944,2227.525],[-0.443009,42.778987,2227.623],[-0.443051,42.779027,2227.566],[-0.443089,42.779067,2227.68],[-0.443124,42.779105,2227.637],[-0.443129,42.779152,2227.719],[-0.443181,42.779189,2227.897],[-0.443213,42.779232,2228.184],[-0.44325,42.779274,2228.334],[-0.443287,42.779329,2228.555],[-0.443354,42.779339,2228.21],[-0.443411,42.779376,2228.309],[-0.443416,42.779424,2228.614],[-0.443469,42.779451,2228.513],[-0.443484,42.779498,2228.641],[-0.443522,42.779535,2228.534],[-0.443565,42.779582,2228.368],[-0.443582,42.779635,2228.235],[-0.443609,42.779688,2228.077],[-0.443647,42.779738,2227.935],[-0.443674,42.779781,2227.932],[-0.443689,42.779841,2228.076],[-0.443726,42.779883,2227.99],[-0.443768,42.77992,2227.719],[-0.44383,42.779937,2227.409],[-0.443887,42.779959,2227.078],[-0.44394,42.779989,2227.097],[-0.444,42.780019,2226.995],[-0.444057,42.780057,2226.818],[-0.444114,42.780079,2226.722],[-0.444096,42.780127,2226.589],[-0.444129,42.780167,2226.471],[-0.444099,42.780127,2226.549],[-0.444157,42.7801,2226.616],[-0.444204,42.780135,2226.481],[-0.444226,42.78018,2226.261],[-0.444229,42.780225,2226.017],[-0.444256,42.780278,2225.709],[-0.444271,42.780333,2225.029],[-0.444299,42.780373,2224.518],[-0.444314,42.780421,2224.086],[-0.444331,42.780464,2223.569],[-0.444374,42.780501,2223.213],[-0.444397,42.780544,2222.99],[-0.444462,42.780532,2223.242],[-0.444505,42.780494,2223.77],[-0.444513,42.780444,2224.167],[-0.444493,42.780399,2224.477],[-0.44451,42.780356,2224.861],[-0.444502,42.780296,2225.327],[-0.444482,42.780243,2225.509],[-0.444487,42.780198,2225.838],[-0.444524,42.780153,2226.347],[-0.444561,42.780113,2226.865],[-0.444599,42.780068,2227.228],[-0.444611,42.780011,2227.532],[-0.444589,42.779966,2227.549],[-0.444652,42.779964,2227.721],[-0.444589,42.779967,2227.579],[-0.444654,42.779962,2227.746],[-0.444707,42.779932,2227.767],[-0.444784,42.779905,2227.781],[-0.444844,42.779892,2227.819],[-0.444909,42.779869,2227.809],[-0.444961,42.779831,2227.917],[-0.444994,42.779786,2228.096],[-0.445004,42.779736,2228.044],[-0.445039,42.779696,2228.017],[-0.445082,42.779658,2228.061],[-0.445139,42.77963,2228.028],[-0.445194,42.779603,2228.03],[-0.445252,42.779585,2228.098],[-0.445312,42.779562,2228.345],[-0.445384,42.779562,2228.892],[-0.445456,42.779579,2229.373],[-0.445518,42.779607,2229.62],[-0.445583,42.779622,2229.809],[-0.445645,42.779624,2229.88],[-0.445715,42.779619,2230.089],[-0.445778,42.779621,2230.057],[-0.445718,42.779596,2230.21],[-0.445663,42.779568,2230.334],[-0.4456,42.779588,2230.061],[-0.445538,42.779576,2229.923],[-0.445478,42.779553,2229.641],[-0.445405,42.779536,2229.188],[-0.445372,42.779498,2228.956],[-0.445337,42.77946,2228.659],[-0.445307,42.779413,2228.414],[-0.445277,42.77936,2228.309],[-0.445257,42.779317,2228.596],[-0.445244,42.77927,2228.725],[-0.445279,42.77923,2228.893],[-0.445302,42.77918,2229.146],[-0.445335,42.779132,2229.26],[-0.44535,42.779085,2229.077],[-0.44537,42.779032,2228.799],[-0.445392,42.778987,2228.497],[-0.445417,42.77894,2228.054],[-0.445437,42.77888,2227.424],[-0.44546,42.778837,2227.404],[-0.445477,42.778789,2227.414],[-0.445535,42.778771,2227.409],[-0.445593,42.778736,2227.883],[-0.445591,42.778683,2228.112],[-0.445549,42.778643,2227.92],[-0.445546,42.778591,2228.343],[-0.445511,42.778549,2228.787],[-0.445476,42.778509,2229.114],[-0.445423,42.778476,2229.296],[-0.445365,42.778448,2229.324],[-0.445298,42.778423,2229.261],[-0.445256,42.778388,2229.333],[-0.445208,42.778351,2229.323],[-0.445205,42.778301,2229.415],[-0.44519,42.778254,2229.209],[-0.445193,42.778207,2229.144],[-0.44524,42.778174,2229.273],[-0.445312,42.778157,2229.721],[-0.445374,42.778139,2230.254],[-0.445436,42.778132,2230.848],[-0.445501,42.778125,2231.515],[-0.445573,42.778118,2232.217],[-0.445641,42.778115,2233.085],[-0.445704,42.778122,2233.862],[-0.445766,42.778119,2234.563],[-0.445829,42.778117,2235.344],[-0.445899,42.778105,2236.118],[-0.445962,42.778105,2236.709],[-0.446025,42.778098,2237.447],[-0.446085,42.778081,2238.326],[-0.446145,42.778069,2239.134],[-0.446203,42.778047,2239.917],[-0.446265,42.778032,2240.451],[-0.446328,42.778035,2241.148],[-0.446403,42.778032,2241.82],[-0.446458,42.778012,2241.878],[-0.44652,42.778,2242.175],[-0.446588,42.777993,2242.465],[-0.446661,42.777991,2242.868],[-0.446731,42.777993,2243.414],[-0.446803,42.777985,2243.809],[-0.44687,42.777965,2244.117],[-0.446938,42.777952,2244.516],[-0.447003,42.777947,2244.824],[-0.447065,42.777947,2245.167],[-0.447125,42.777959,2245.791],[-0.447182,42.777982,2246.468],[-0.447245,42.778004,2247.15],[-0.447313,42.778016,2247.328],[-0.447386,42.778019,2247.435],[-0.447446,42.778042,2247.814],[-0.447523,42.778054,2248.154],[-0.447593,42.778062,2248.409],[-0.447666,42.778064,2248.709],[-0.447731,42.778086,2249.182],[-0.447784,42.778123,2249.841],[-0.447844,42.778146,2250.549],[-0.447904,42.778159,2251.052],[-0.447972,42.778164,2251.496],[-0.448037,42.778166,2251.993],[-0.448099,42.778193,2252.255],[-0.448167,42.778218,2252.773],[-0.448232,42.778215,2253.15],[-0.4483,42.778205,2253.458],[-0.448365,42.778215,2254.052],[-0.448427,42.778217,2254.617],[-0.448457,42.778265,2255.509],[-0.448514,42.77829,2256.416],[-0.448576,42.778278,2256.885],[-0.448643,42.778288,2257.723],[-0.448706,42.7783,2258.736],[-0.448776,42.778315,2259.61],[-0.448844,42.778337,2260.697],[-0.448912,42.778355,2261.729],[-0.448962,42.778397,2263.177],[-0.448975,42.778445,2263.994],[-0.449045,42.778467,2265.236],[-0.44911,42.778452,2266.017],[-0.449173,42.778447,2266.918],[-0.449238,42.778445,2267.909],[-0.449303,42.77843,2268.844],[-0.449365,42.77842,2269.723],[-0.449433,42.77841,2270.781],[-0.449486,42.778382,2271.214],[-0.449551,42.77839,2272.218],[-0.449621,42.778397,2273.465],[-0.449683,42.778405,2274.467],[-0.449743,42.778427,2275.635],[-0.449783,42.778465,2276.742],[-0.449823,42.778507,2277.797],[-0.449885,42.778529,2278.723],[-0.449955,42.778512,2279.425],[-0.450017,42.778519,2280.109],[-0.450079,42.778532,2280.73],[-0.450142,42.778559,2281.259],[-0.450217,42.778564,2281.797],[-0.450282,42.778564,2282.02],[-0.450359,42.778574,2281.774],[-0.450426,42.778597,2281.581],[-0.450503,42.778612,2281.243],[-0.450586,42.778615,2280.841],[-0.450663,42.778613,2280.988],[-0.450726,42.778606,2281.045],[-0.450789,42.778609,2281.047],[-0.450856,42.778597,2281.011],[-0.450933,42.778582,2280.809],[-0.450998,42.77859,2280.665],[-0.451066,42.778597,2280.314],[-0.451133,42.778602,2280.192],[-0.451205,42.778589,2280.325],[-0.451285,42.778601,2280.169],[-0.45135,42.778601,2280.186],[-0.45141,42.778616,2279.918],[-0.451478,42.778613,2280.326],[-0.451546,42.77861,2280.693],[-0.451618,42.778612,2280.819],[-0.45168,42.778612,2280.909],[-0.451743,42.778622,2280.119],[-0.451806,42.778634,2279.309],[-0.451869,42.778651,2278.662],[-0.451934,42.778654,2278.371],[-0.451996,42.778651,2278.129],[-0.452048,42.778623,2278.452],[-0.452115,42.778615,2278.356],[-0.452188,42.778603,2278.323],[-0.452256,42.778593,2278.615],[-0.452326,42.778601,2278.983],[-0.452403,42.778593,2279.64],[-0.452468,42.77859,2280.082],[-0.452533,42.778587,2280.443],[-0.45261,42.778602,2280.517],[-0.452675,42.778617,2280.609],[-0.452728,42.778592,2281.039],[-0.452791,42.778585,2281.458],[-0.452858,42.778573,2282.316],[-0.452915,42.778548,2283.339],[-0.452988,42.778543,2284.293],[-0.453055,42.778538,2285.04],[-0.453117,42.778541,2285.962],[-0.45318,42.778561,2286.58],[-0.453247,42.778553,2287.627],[-0.453314,42.778556,2288.548],[-0.453379,42.778561,2289.161],[-0.453441,42.778566,2289.617],[-0.453503,42.778564,2290.109],[-0.453563,42.778577,2290.315],[-0.453635,42.778582,2290.964],[-0.453713,42.778604,2291.342],[-0.453778,42.778631,2291.385],[-0.453835,42.778653,2291.499],[-0.45389,42.77868,2291.386],[-0.453957,42.778702,2292.318],[-0.454019,42.778712,2293.476],[-0.454079,42.77873,2294.223],[-0.454146,42.778743,2295.388],[-0.454204,42.778758,2296.424],[-0.454247,42.778796,2296.426],[-0.454297,42.778829,2296.809],[-0.454354,42.778849,2297.899],[-0.454406,42.778876,2298.338],[-0.454464,42.778891,2299.456],[-0.454531,42.778896,2300.739],[-0.454589,42.778879,2302.023],[-0.454646,42.778902,2302.81],[-0.454708,42.778914,2304.032],[-0.454771,42.778909,2304.77],[-0.454834,42.778891,2305.297],[-0.454896,42.778916,2306.197],[-0.454956,42.778926,2306.823],[-0.455014,42.778944,2307.625],[-0.455081,42.778932,2308.709],[-0.455139,42.778915,2309.62],[-0.455199,42.778932,2310.779],[-0.455272,42.77894,2311.977],[-0.45533,42.778968,2312.44],[-0.455373,42.779001,2312.884],[-0.455426,42.779036,2313.391],[-0.455486,42.779048,2313.983],[-0.455544,42.779071,2314.561],[-0.455611,42.779076,2315.318],[-0.455673,42.779081,2316.094],[-0.455736,42.779086,2316.757],[-0.455799,42.779093,2317.422],[-0.455861,42.779085,2318.309],[-0.455924,42.779073,2319.75],[-0.455977,42.779105,2321.229],[-0.456025,42.77914,2322.627],[-0.45609,42.779142,2324.22],[-0.456148,42.77916,2325.954],[-0.45621,42.779168,2327.551],[-0.456262,42.77913,2328.643],[-0.456344,42.779138,2330.751],[-0.456411,42.779135,2332.888],[-0.456454,42.779097,2334.456],[-0.456492,42.779059,2335.859],[-0.456517,42.779011,2336.514],[-0.456565,42.778969,2338.009],[-0.456583,42.778926,2338.386],[-0.45662,42.778889,2339.325],[-0.456705,42.778839,2342.333],[-0.456752,42.778807,2344.196],[-0.456792,42.778772,2345.37],[-0.456825,42.778734,2346.047],[-0.456892,42.778732,2349.139],[-0.456939,42.7787,2350.397],[-0.456967,42.77874,2352.664],[-0.456984,42.77879,2354.633],[-0.456982,42.778838,2355.823],[-0.456982,42.778885,2357.115],[-0.457005,42.778935,2358.509],[-0.457067,42.778928,2360.654],[-0.457119,42.778903,2361.923],[-0.457174,42.778948,2364.791],[-0.457234,42.778931,2366.764],[-0.457299,42.778949,2370.438],[-0.457314,42.778999,2372.415],[-0.457317,42.779046,2373.757],[-0.45733,42.779096,2375.765],[-0.457323,42.779141,2376.432],[-0.457386,42.779139,2379.677],[-0.457449,42.779131,2382.561],[-0.457534,42.779134,2387.527],[-0.457562,42.779092,2388.609],[-0.457619,42.779074,2392.558],[-0.457676,42.779056,2396.667],[-0.457709,42.779116,2399.465],[-0.457769,42.779131,2403.548],[-0.457816,42.779163,2405.762],[-0.457831,42.779216,2406.999],[-0.457896,42.779198,2409.011],[-0.457921,42.77924,2409.699],[-0.457888,42.779285,2408.756],[-0.457933,42.779318,2409.089],[-0.457911,42.779361,2408.606],[-0.457883,42.779403,2408.726],[-0.457871,42.779451,2408.909],[-0.457841,42.779498,2409.069],[-0.457811,42.779543,2409.368],[-0.457794,42.77959,2409.426],[-0.457771,42.779643,2409.979],[-0.457743,42.779695,2411.263],[-0.457715,42.779747,2412.47],[-0.457688,42.779794,2412.842],[-0.457668,42.779841,2412.84],[-0.457651,42.779884,2412.687],[-0.457641,42.779929,2411.915],[-0.457626,42.779976,2411.465],[-0.457584,42.780011,2412.911],[-0.457559,42.780054,2413.409],[-0.457519,42.780101,2414.732],[-0.457454,42.780111,2419.011],[-0.457467,42.780158,2417.119],[-0.45742,42.78019,2420.132],[-0.457355,42.780222,2424.516],[-0.457313,42.780257,2427.233],[-0.457288,42.780299,2428.695],[-0.457336,42.780351,2423.923],[-0.457306,42.780399,2425.93],[-0.457289,42.780444,2427.061],[-0.457216,42.780467,2433.521],[-0.457151,42.780474,2435.513],[-0.457103,42.780427,2437.109],[-0.457048,42.780402,2438.997],[-0.456983,42.780384,2440.836],[-0.456925,42.780369,2442.354],[-0.456885,42.780334,2442.817],[-0.456822,42.780326,2443.531],[-0.45676,42.780323,2444.268],[-0.456693,42.780331,2445.23],[-0.45663,42.780339,2445.588],[-0.456565,42.780359,2445.985],[-0.456505,42.780377,2446.485],[-0.456438,42.780382,2446.489],[-0.45638,42.780404,2447.117],[-0.456325,42.780442,2447.209],[-0.456288,42.780489,2448.169],[-0.456235,42.780514,2447.268],[-0.456218,42.780557,2448.396],[-0.456171,42.780595,2448.619],[-0.456114,42.780628,2449.013],[-0.456066,42.780656,2450.08],[-0.456004,42.780658,2449.022],[-0.455944,42.780685,2449.61],[-0.455879,42.780712,2449.957],[-0.455827,42.780737,2450.473],[-0.455764,42.780759,2451.785],[-0.455701,42.780776,2452.613],[-0.455649,42.780803,2454.209],[-0.455606,42.780836,2456.228],[-0.455586,42.780881,2459.697],[-0.455579,42.780928,2463.355],[-0.455517,42.780906,2462.048],[-0.45549,42.780948,2465.662],[-0.455488,42.781013,2470.729],[-0.455413,42.78105,2474.261],[-0.455415,42.78112,2480.049],[-0.455388,42.781165,2485.356],[-0.455365,42.781208,2490.783],[-0.455333,42.781265,2498.325],[-0.455335,42.78131,2503.717],[-0.455315,42.781362,2510.909],[-0.455272,42.781329,2508.359],[-0.455205,42.781366,2514.518],[-0.45516,42.781401,2519.956],[-0.455202,42.781368,2514.899],[-0.455252,42.78134,2510.173],[-0.455184,42.781262,2500.89],[-0.455139,42.781309,2507.992],[-0.455037,42.781321,2511.39],[-0.454984,42.781351,2517.067],[-0.454846,42.781324,2518.717],[-0.454849,42.781259,2509.187],[-0.454777,42.781279,2514.915],[-0.454739,42.781237,2510.409],[-0.454677,42.781212,2508.392],[-0.454614,42.781222,2510.811],[-0.454547,42.781215,2511.079],[-0.454482,42.781213,2511.992],[-0.454424,42.781196,2510.246],[-0.454362,42.781219,2513.223],[-0.454345,42.781264,2519.575],[-0.454398,42.781321,2527.243],[-0.454403,42.781366,2533.36],[-0.454318,42.781469,2544.771],[-0.454378,42.781452,2543.541],[-0.45436,42.781502,2548.615],[-0.454528,42.781362,2531.409],[-0.454596,42.781384,2533.738],[-0.454658,42.781394,2534.297],[-0.454601,42.781456,2541.465],[-0.454671,42.781456,2540.098],[-0.454734,42.781461,2539.182],[-0.454649,42.781546,2549.469],[-0.454707,42.781593,2551.971],[-0.454767,42.781618,2552.679],[-0.454732,42.781658,2557.036],[-0.454667,42.781661,2560.093],[-0.454607,42.781674,2562.765],[-0.454542,42.781679,2565.221],[-0.454479,42.781664,2569.109],[-0.454529,42.781704,2563.23],[-0.454467,42.781679,2568.679],[-0.454417,42.781646,2566.827],[-0.45438,42.781598,2559.47],[-0.454413,42.781641,2565.954],[-0.454468,42.781661,2569.271],[-0.4544,42.781629,2563.833],[-0.454478,42.781649,2567.311],[-0.454541,42.781649,2564.548],[-0.454599,42.781667,2563.763],[-0.454674,42.781645,2558.244],[-0.454727,42.781622,2553.918],[-0.45476,42.781574,2548.709],[-0.45474,42.781529,2545.157],[-0.454742,42.781482,2540.736],[-0.454745,42.781437,2536.584],[-0.454713,42.781477,2541.137],[-0.454645,42.781474,2542.381],[-0.45464,42.781424,2537.438],[-0.454657,42.781376,2531.91],[-0.454704,42.781304,2521.018],[-0.454614,42.781314,2523.785],[-0.454656,42.781279,2518.274],[-0.454591,42.781299,2521.956],[-0.454596,42.781251,2515.221],[-0.454574,42.781208,2509.609],[-0.454471,42.78132,2526.598],[-0.454323,42.781452,2543.237],[-0.454368,42.781379,2535.475],[-0.454398,42.781331,2528.658],[-0.454408,42.781283,2522.012],[-0.454423,42.781236,2515.669],[-0.454425,42.781184,2508.691],[-0.454438,42.781139,2502.739],[-0.454431,42.781187,2509.036],[-0.454496,42.781189,2508.419],[-0.454556,42.781201,2509.009],[-0.454623,42.781219,2510.319],[-0.454686,42.781239,2512.009],[-0.454744,42.781256,2513.042],[-0.454794,42.781284,2515.091],[-0.454854,42.781264,2509.689],[-0.454917,42.781286,2510.262],[-0.454955,42.781323,2514.166],[-0.455018,42.781321,2511.713],[-0.455085,42.781296,2507.055],[-0.455148,42.781294,2505.753],[-0.455123,42.781354,2514.52],[-0.45514,42.781311,2508.273],[-0.455173,42.781271,2502.285],[-0.455235,42.781268,2500.913],[-0.455213,42.78122,2494.809],[-0.455248,42.781268,2500.748],[-0.455311,42.781288,2501.897],[-0.455303,42.78124,2496.155],[-0.455366,42.781215,2491.588],[-0.455361,42.78116,2485.272],[-0.455388,42.781118,2480.029],[-0.455391,42.781071,2476.031],[-0.455436,42.781036,2472.999],[-0.455468,42.780993,2469.316],[-0.455496,42.780945,2465.391],[-0.455504,42.780895,2461.381],[-0.455552,42.780865,2458.519],[-0.455562,42.780817,2455.009],[-0.455597,42.780775,2452.56],[-0.455642,42.780743,2450.639],[-0.455709,42.78075,2451.177],[-0.455762,42.780722,2449.53],[-0.455815,42.780692,2447.814],[-0.455872,42.780672,2447.481],[-0.455934,42.780644,2446.923],[-0.455994,42.780622,2446.691],[-0.456054,42.780612,2446.958],[-0.456119,42.780589,2446.563],[-0.456144,42.780547,2445.044],[-0.456181,42.78051,2445.118],[-0.456231,42.78048,2445.709],[-0.456288,42.78046,2446.817],[-0.456313,42.780413,2445.596],[-0.456365,42.780376,2445.384],[-0.456413,42.780331,2443.827],[-0.456478,42.780326,2444.161],[-0.456541,42.780318,2444.258],[-0.456604,42.780306,2444.37],[-0.456674,42.780309,2444.868],[-0.456732,42.780329,2444.735],[-0.456804,42.780336,2443.978],[-0.456881,42.780318,2442.733],[-0.456949,42.78033,2441.926],[-0.457009,42.780345,2440.109],[-0.457076,42.780353,2438.198],[-0.457121,42.780395,2436.677],[-0.457176,42.780422,2434.985],[-0.457249,42.780419,2431.048],[-0.457312,42.780419,2425.112],[-0.457297,42.780372,2427.049],[-0.457275,42.780324,2429.431],[-0.45726,42.780271,2431.129],[-0.457297,42.780213,2429.176],[-0.457355,42.780191,2425.085],[-0.457408,42.780163,2421.589],[-0.457425,42.78012,2421.017],[-0.457485,42.780108,2416.809],[-0.45751,42.780061,2416.139],[-0.457555,42.780029,2414.228],[-0.457563,42.779971,2415.346],[-0.457596,42.779931,2414.539],[-0.457643,42.779896,2412.733],[-0.457658,42.779849,2413.29],[-0.457666,42.779796,2414.232],[-0.457654,42.779741,2416.55],[-0.457677,42.779689,2415.067],[-0.45772,42.779639,2412.327],[-0.45775,42.779597,2410.968],[-0.45778,42.77954,2410.214],[-0.457797,42.779487,2410.209],[-0.457835,42.779432,2409.643],[-0.457862,42.77939,2408.962],[-0.457889,42.779345,2408.78],[-0.457897,42.779288,2408.823],[-0.457829,42.779281,2407.767],[-0.457784,42.779318,2407.964],[-0.457697,42.77925,2402.546],[-0.457844,42.779308,2408.274],[-0.457757,42.779325,2407.561],[-0.457687,42.77935,2406.898],[-0.457754,42.779348,2408.115],[-0.457856,42.77931,2408.426],[-0.457774,42.779312,2407.609],[-0.457724,42.77936,2407.95],[-0.457801,42.779357,2408.829],[-0.457859,42.779335,2408.647],[-0.457929,42.779318,2409.05],[-0.457976,42.779285,2410.184],[-0.458026,42.77924,2412.321],[-0.458049,42.779198,2414.533],[-0.458086,42.779161,2416.251],[-0.458149,42.779138,2416.928],[-0.458202,42.779115,2417.624],[-0.458245,42.779072,2418.604],[-0.458247,42.779017,2419.814],[-0.458229,42.778974,2420.509],[-0.458181,42.778941,2420.923],[-0.458164,42.778884,2421.812],[-0.458129,42.778831,2421.99],[-0.458142,42.778784,2422.323],[-0.458142,42.778739,2422.627],[-0.458135,42.778686,2422.954],[-0.458135,42.778633,2423.376],[-0.45815,42.778586,2423.614],[-0.458158,42.778538,2424.161],[-0.458156,42.778493,2424.759],[-0.458191,42.778453,2425.003],[-0.458198,42.778408,2425.523],[-0.45819,42.778356,2426.209],[-0.458195,42.778311,2426.716],[-0.458182,42.778373,2426.155],[-0.45818,42.77842,2425.533],[-0.458197,42.778372,2426.086],[-0.458199,42.778327,2426.69],[-0.458149,42.778297,2426.957],[-0.458164,42.778352,2426.489],[-0.458186,42.778275,2427.157],[-0.458211,42.778222,2427.824],[-0.458209,42.778177,2428.393],[-0.458204,42.77813,2428.865],[-0.458209,42.77808,2429.521],[-0.458227,42.77803,2430.109],[-0.458262,42.777982,2431.28],[-0.458277,42.777925,2432.219],[-0.458284,42.777877,2433.097],[-0.458304,42.777834,2434.47],[-0.458329,42.777782,2436.764],[-0.458327,42.777732,2436.811],[-0.45836,42.777694,2437.063],[-0.458403,42.777659,2436.911],[-0.458443,42.777619,2437.248],[-0.458498,42.777592,2437.518],[-0.458543,42.777549,2438.498],[-0.458595,42.777516,2439.417],[-0.458628,42.777473,2439.809],[-0.458625,42.777518,2439.282],[-0.458515,42.777493,2439.241],[-0.458565,42.777463,2439.419],[-0.458622,42.77743,2439.982],[-0.458665,42.777397,2440.066],[-0.458708,42.77736,2440.563],[-0.458743,42.777315,2441.765],[-0.458778,42.777275,2443.363],[-0.458836,42.777248,2445.56],[-0.458878,42.777211,2448.058],[-0.458918,42.777174,2449.252],[-0.458976,42.777154,2449.317],[-0.459014,42.777117,2450.509],[-0.458954,42.777105,2451.436],[-0.459006,42.77706,2453.185],[-0.458954,42.777033,2454.293],[-0.458969,42.77698,2456.456],[-0.459026,42.77695,2458.27],[-0.459056,42.776908,2459.817],[-0.459103,42.776878,2461.889],[-0.459105,42.77683,2463.687],[-0.459155,42.776793,2467.144],[-0.45921,42.776768,2468.163],[-0.459267,42.77674,2468.744],[-0.45928,42.776693,2471.318],[-0.459325,42.776661,2472.409],[-0.459373,42.776623,2473.267],[-0.459435,42.776608,2473.996],[-0.45947,42.776568,2475.444],[-0.459515,42.776535,2476.297],[-0.459447,42.776538,2477.451],[-0.45949,42.776496,2478.818],[-0.459517,42.776453,2480.72],[-0.459539,42.77641,2482.898],[-0.459612,42.776398,2482.685],[-0.459652,42.776356,2483.677],[-0.459679,42.776313,2485.061],[-0.459659,42.77626,2486.327],[-0.459701,42.776227,2488.409],[-0.459758,42.776204,2489.668],[-0.459801,42.776141,2492.247],[-0.459818,42.776091,2494.075],[-0.459861,42.776058,2494.878],[-0.459896,42.77602,2496.462],[-0.459946,42.775987,2498.829],[-0.459994,42.775949,2502.111],[-0.460052,42.775912,2503.969],[-0.460112,42.775892,2504.566],[-0.460104,42.775847,2507.412],[-0.460134,42.7758,2509.332],[-0.460177,42.775765,2510.905],[-0.460217,42.775722,2513.609],[-0.460269,42.77569,2516.682],[-0.460307,42.775643,2519.491],[-0.46033,42.775593,2522.359],[-0.460392,42.775578,2522.052],[-0.460429,42.775536,2523.746],[-0.460467,42.775498,2525.233],[-0.460472,42.775453,2527.865],[-0.460424,42.775421,2529.113],[-0.460456,42.775373,2532.12],[-0.460513,42.775353,2534.888],[-0.460541,42.775313,2538.724],[-0.460586,42.775278,2541.226],[-0.460623,42.775238,2541.509],[-0.460683,42.775216,2541.299],[-0.46073,42.775186,2541.948],[-0.46077,42.775149,2543.356],[-0.460808,42.775112,2545.239],[-0.460855,42.775072,2547.333],[-0.460783,42.775064,2547.83],[-0.460716,42.775069,2547.212],[-0.460771,42.775036,2549.23],[-0.460833,42.775013,2551.227],[-0.460781,42.775038,2549.298],[-0.460743,42.775075,2547.115],[-0.460776,42.775123,2544.726],[-0.460731,42.775166,2542.809],[-0.460689,42.775206,2541.62],[-0.460622,42.775228,2541.969],[-0.460567,42.775255,2542.227],[-0.460532,42.775293,2539.88],[-0.460487,42.775335,2535.294],[-0.46043,42.775363,2532.021],[-0.460403,42.775408,2529.433],[-0.460423,42.775451,2527.731],[-0.460441,42.775496,2525.558],[-0.460506,42.775503,2524.669],[-0.460449,42.77553,2523.704],[-0.460414,42.77557,2522.024],[-0.460369,42.77561,2520.209],[-0.460326,42.775643,2518.957],[-0.460299,42.775695,2516.076],[-0.460241,42.775715,2514.474],[-0.460193,42.775747,2511.947],[-0.460125,42.775774,2510.251],[-0.460123,42.775819,2508.658],[-0.460086,42.775864,2506.59],[-0.460073,42.775916,2503.468],[-0.460013,42.775928,2503.435],[-0.459955,42.77595,2500.848],[-0.459903,42.775977,2498.061],[-0.45988,42.776025,2496.017],[-0.459838,42.776058,2494.609],[-0.459795,42.776103,2493.855],[-0.459763,42.77615,2492.034],[-0.459755,42.776202,2489.752],[-0.459722,42.77624,2488.435],[-0.45969,42.776282,2486.259],[-0.459638,42.776325,2484.436],[-0.45962,42.776373,2483.448],[-0.459575,42.776405,2482.616],[-0.45952,42.77643,2481.933],[-0.459518,42.776478,2479.397],[-0.459456,42.776501,2479.123],[-0.459443,42.776548,2477.025],[-0.4594,42.776581,2474.909],[-0.459447,42.776623,2473.14],[-0.459417,42.776666,2471.359],[-0.459354,42.776676,2471.487],[-0.459307,42.776708,2470.05],[-0.459262,42.77674,2468.894],[-0.459225,42.77678,2467.251],[-0.45917,42.776813,2466.663],[-0.459113,42.776831,2463.991],[-0.459105,42.776883,2461.648],[-0.459062,42.776921,2459.598],[-0.45902,42.776954,2458.015],[-0.45899,42.776994,2456.026],[-0.458953,42.777032,2454.309],[-0.458911,42.777067,2453.02],[-0.458963,42.777104,2451.459],[-0.458968,42.777157,2449.227],[-0.458915,42.777187,2448.86],[-0.458865,42.777222,2447.384],[-0.458823,42.777265,2444.671],[-0.45878,42.777305,2442.593],[-0.458752,42.777347,2441.171],[-0.458724,42.777389,2440.198],[-0.458686,42.777437,2439.433],[-0.458664,42.777484,2439.223],[-0.458631,42.777527,2438.915],[-0.458569,42.777549,2438.509],[-0.458539,42.777589,2437.514],[-0.458499,42.777631,2436.883],[-0.458451,42.777669,2436.431],[-0.458414,42.777711,2436.354],[-0.458366,42.777744,2436.648],[-0.458316,42.777782,2435.935],[-0.458294,42.777829,2434.077],[-0.458291,42.777881,2433.215],[-0.458278,42.777926,2432.252],[-0.458246,42.777979,2430.835],[-0.458234,42.778024,2430.386],[-0.458211,42.778066,2429.714],[-0.458203,42.778123,2428.909],[-0.458183,42.778173,2428.154],[-0.458186,42.778218,2427.773],[-0.458188,42.778278,2427.171],[-0.458188,42.778326,2426.634],[-0.458195,42.778378,2425.918],[-0.45819,42.778423,2425.495],[-0.458183,42.77847,2424.877],[-0.458171,42.778515,2424.495],[-0.458173,42.778565,2423.742],[-0.458161,42.77862,2423.297],[-0.458158,42.778665,2423.023],[-0.458163,42.778713,2422.725],[-0.458163,42.77876,2422.409],[-0.458163,42.778807,2422.22],[-0.45817,42.778855,2422.049],[-0.458175,42.778907,2421.517],[-0.45818,42.778954,2420.68],[-0.458202,42.778999,2419.914],[-0.458239,42.779039,2419.351],[-0.458217,42.779087,2418.273],[-0.458169,42.779117,2417.471],[-0.458121,42.77915,2416.678],[-0.458071,42.77918,2415.515],[-0.458046,42.779228,2413.365],[-0.458014,42.779276,2410.911],[-0.457949,42.779274,2409.809],[-0.457881,42.779294,2408.682],[-0.457861,42.779237,2408.081],[-0.457909,42.779197,2409.589],[-0.457852,42.779179,2407.332],[-0.457789,42.779174,2404.766],[-0.457754,42.779117,2402.553],[-0.457714,42.779082,2399.615],[-0.457709,42.779022,2399.063],[-0.457672,42.779087,2396.65],[-0.45759,42.779042,2389.964],[-0.457535,42.779012,2384.906],[-0.457525,42.779057,2385.116],[-0.457488,42.779099,2383.709],[-0.457446,42.779142,2382.737],[-0.457393,42.779165,2380.616],[-0.45733,42.779155,2377.114],[-0.457265,42.779162,2374.057],[-0.457265,42.779112,2372.821],[-0.457205,42.779099,2369.538],[-0.457162,42.779062,2366.79],[-0.457162,42.779007,2365.618],[-0.457147,42.778959,2364.095],[-0.457107,42.778924,2361.928],[-0.45714,42.778882,2362.289],[-0.457153,42.778829,2361.717],[-0.457136,42.778781,2360.209],[-0.457068,42.778758,2357.123],[-0.45708,42.778706,2356.442],[-0.457073,42.778659,2355.13],[-0.457013,42.778632,2351.723],[-0.457008,42.77858,2350.987],[-0.457021,42.778532,2351.544],[-0.457003,42.77848,2350.676],[-0.456961,42.778442,2348.724],[-0.456909,42.778415,2347.041],[-0.456871,42.77837,2346.027],[-0.456823,42.778333,2344.968],[-0.456756,42.778315,2343.514],[-0.456709,42.778282,2342.809],[-0.456652,42.778259,2342.053],[-0.45659,42.778246,2341.712],[-0.45654,42.778218,2341.79],[-0.456472,42.77821,2341.483],[-0.456405,42.77822,2340.757],[-0.45634,42.778242,2340.224],[-0.456285,42.778264,2339.686],[-0.456218,42.778262,2339.484],[-0.456151,42.778267,2339.171],[-0.456084,42.778274,2338.772],[-0.456039,42.778309,2337.713],[-0.455996,42.778342,2336.614],[-0.455964,42.778385,2334.909],[-0.455919,42.778425,2333.378],[-0.455854,42.778423,2333.427],[-0.455786,42.778418,2333.465],[-0.455719,42.77842,2333.098],[-0.455646,42.778415,2332.882],[-0.455583,42.778427,2332.199],[-0.455508,42.778419,2331.991],[-0.455453,42.778392,2332.489],[-0.455388,42.778405,2331.646],[-0.455325,42.77843,2330.514],[-0.455282,42.778468,2329.154],[-0.45522,42.77849,2327.909],[-0.455158,42.778497,2327.109],[-0.455091,42.77849,2326.762],[-0.455016,42.778493,2325.851],[-0.454953,42.778503,2324.729],[-0.454888,42.7785,2323.952],[-0.454823,42.778497,2323.236],[-0.454758,42.778502,2322.243],[-0.454698,42.778519,2320.465],[-0.454643,42.778489,2320.483],[-0.454576,42.778464,2320.04],[-0.454513,42.778459,2318.854],[-0.454445,42.778441,2318.256],[-0.454377,42.778454,2315.611],[-0.45432,42.778424,2315.709],[-0.454255,42.778411,2314.736],[-0.45418,42.778404,2313.035],[-0.454122,42.778371,2312.763],[-0.454074,42.778341,2312.226],[-0.454084,42.778296,2313.87],[-0.454022,42.778284,2311.237],[-0.453975,42.778249,2309.969],[-0.453937,42.778206,2309.277],[-0.453885,42.778163,2308.214],[-0.453875,42.778106,2309.326],[-0.453878,42.778061,2310.547],[-0.453853,42.778018,2309.911],[-0.453791,42.777998,2308.309],[-0.453728,42.77797,2306.963],[-0.453678,42.777943,2306.122],[-0.453646,42.777886,2306.14],[-0.453618,42.777836,2306.393],[-0.453553,42.777813,2305.977],[-0.453478,42.777815,2305.054],[-0.453411,42.777802,2304.526],[-0.453349,42.777807,2303.734],[-0.453286,42.777814,2303.171],[-0.453216,42.777807,2302.666],[-0.453149,42.777832,2301.529],[-0.453079,42.777819,2301.221],[-0.453016,42.777831,2300.109],[-0.452941,42.777818,2299.337],[-0.452873,42.777825,2298.226],[-0.452811,42.777808,2297.724],[-0.452738,42.777798,2297.597],[-0.452668,42.777781,2297.991],[-0.452608,42.777766,2298.218],[-0.452546,42.777744,2298.67],[-0.452473,42.777749,2298.528],[-0.452406,42.777761,2298.275],[-0.452328,42.777773,2298.083],[-0.452258,42.777755,2298.125],[-0.452193,42.77775,2297.817],[-0.452126,42.777735,2297.209],[-0.452063,42.77774,2296.619],[-0.451998,42.777765,2295.718],[-0.451936,42.777788,2294.756],[-0.451873,42.777785,2293.989],[-0.45181,42.777775,2293.153],[-0.451745,42.777785,2292.19],[-0.451677,42.77779,2291.192],[-0.451614,42.777792,2290.22],[-0.451546,42.77782,2289.357],[-0.451486,42.777842,2288.659],[-0.451431,42.777864,2288.103],[-0.451384,42.777831,2287.423],[-0.451337,42.777789,2286.909],[-0.451282,42.777759,2286.596],[-0.451227,42.777722,2285.935],[-0.451174,42.777692,2285.293],[-0.451094,42.777695,2284.736],[-0.451019,42.777685,2284.35],[-0.450951,42.777673,2283.977],[-0.450886,42.777658,2283.599],[-0.450823,42.777668,2283.347],[-0.450766,42.777686,2283.064],[-0.450699,42.777656,2281.822],[-0.450636,42.777646,2281.062],[-0.450573,42.777661,2280.508],[-0.45052,42.777634,2279.509],[-0.450462,42.777619,2278.773],[-0.45039,42.777622,2278.012],[-0.450322,42.777607,2277.05],[-0.450255,42.777607,2276.293],[-0.450195,42.777625,2275.447],[-0.450125,42.777632,2274.474],[-0.450062,42.777654,2273.826],[-0.450002,42.777667,2273.094],[-0.44994,42.777687,2273.121],[-0.449885,42.777714,2273.249],[-0.449828,42.777739,2273.202],[-0.44976,42.777762,2273.122],[-0.4497,42.777775,2272.709],[-0.449637,42.777798,2272.235],[-0.44957,42.77781,2271.634],[-0.449512,42.777842,2271.572],[-0.44947,42.777875,2271.855],[-0.449408,42.777905,2271.279],[-0.449336,42.77793,2269.956],[-0.449283,42.777953,2269.158],[-0.449225,42.777973,2268.256],[-0.449172,42.778,2267.543],[-0.449117,42.778037,2266.912],[-0.449062,42.778057,2265.632],[-0.448997,42.778085,2263.405],[-0.448942,42.77812,2261.809],[-0.448889,42.778147,2260.362],[-0.448829,42.778175,2259.451],[-0.448762,42.7782,2258.539],[-0.44871,42.778235,2258.062],[-0.448655,42.778263,2257.646],[-0.448593,42.77827,2256.983],[-0.448543,42.778307,2256.925],[-0.448473,42.778295,2256.083],[-0.448418,42.77826,2255.01],[-0.448371,42.778223,2254.273],[-0.448311,42.778206,2253.585],[-0.448249,42.778188,2253.013],[-0.448186,42.77821,2252.809],[-0.448111,42.77821,2252.368],[-0.448049,42.778198,2252.077],[-0.447976,42.778173,2251.585],[-0.447904,42.778153,2250.938],[-0.447836,42.778146,2250.452],[-0.447771,42.778119,2249.719],[-0.447713,42.778082,2249.091],[-0.447653,42.778069,2248.799],[-0.447595,42.778044,2248.246],[-0.447518,42.778037,2247.859],[-0.447455,42.778029,2247.603],[-0.447387,42.778026,2247.523],[-0.44731,42.778008,2247.209],[-0.44724,42.77801,2247.276],[-0.447178,42.778005,2246.825],[-0.447118,42.777977,2245.953],[-0.447056,42.777967,2245.426],[-0.446974,42.777959,2244.82],[-0.446904,42.777959,2244.337],[-0.446842,42.777984,2244.159],[-0.44678,42.777981,2243.667],[-0.44672,42.777998,2243.434],[-0.446642,42.77801,2243.078],[-0.44657,42.778005,2242.533],[-0.446515,42.777985,2241.826],[-0.446445,42.777985,2241.309],[-0.446375,42.777987,2240.928],[-0.446322,42.777962,2240.167],[-0.446255,42.777972,2239.695],[-0.44619,42.777972,2239.168],[-0.446133,42.777952,2238.442],[-0.446073,42.777937,2237.649],[-0.446015,42.777919,2236.621],[-0.445967,42.777884,2235.669],[-0.445909,42.777856,2234.356],[-0.445844,42.777859,2233.326],[-0.445789,42.777834,2232.447],[-0.445722,42.777836,2231.911],[-0.44565,42.777834,2231.209],[-0.445582,42.777824,2230.613],[-0.445509,42.777819,2230.182],[-0.445442,42.777816,2229.85],[-0.445412,42.777861,2229.883],[-0.445355,42.777883,2229.567],[-0.445283,42.777896,2229.094],[-0.445216,42.777901,2228.966],[-0.445163,42.777938,2228.844],[-0.4451,42.777951,2228.671],[-0.44504,42.777979,2228.485],[-0.444988,42.778004,2228.289],[-0.44494,42.778036,2228.117],[-0.444908,42.778076,2228.009],[-0.444868,42.778119,2228.059],[-0.444833,42.778157,2228.018],[-0.444775,42.778197,2228.036],[-0.444728,42.778234,2228.029],[-0.444681,42.778266,2227.963],[-0.444653,42.778316,2227.89],[-0.444626,42.778368,2227.622],[-0.444596,42.778415,2227.43],[-0.444576,42.778463,2227.357],[-0.444558,42.77851,2227.118],[-0.444558,42.778563,2227.198],[-0.444536,42.77844,2227.217],[-0.444484,42.778547,2227.009],[-0.444531,42.778585,2227.022],[-0.444501,42.778545,2227.061],[-0.444504,42.7785,2227.189],[-0.444571,42.778483,2227.272],[-0.444531,42.778443,2227.236],[-0.444573,42.778478,2227.273],[-0.444613,42.778515,2227.275],[-0.444646,42.778555,2227.123],[-0.444673,42.778602,2227.02],[-0.444705,42.778642,2227.042],[-0.444773,42.778639,2227.022],[-0.444791,42.778592,2227.114],[-0.444749,42.778557,2227.209],[-0.444694,42.778535,2227.225],[-0.444632,42.778535,2227.244],[-0.444564,42.77854,2227.112],[-0.444501,42.778537,2227.195],[-0.444486,42.778482,2227.139],[-0.444531,42.778444,2227.246],[-0.444568,42.778401,2227.388],[-0.44462,42.778369,2227.656],[-0.444628,42.778319,2227.753],[-0.444581,42.778286,2227.639],[-0.444526,42.778253,2227.501],[-0.444461,42.77826,2227.321],[-0.444396,42.77825,2227.209],[-0.444328,42.778243,2227.214],[-0.44427,42.778258,2227.183],[-0.444193,42.778261,2227.021],[-0.444128,42.778264,2227.044],[-0.44408,42.778299,2227.088],[-0.444017,42.778322,2227.085],[-0.44396,42.77834,2227.037],[-0.443892,42.778343,2227.085],[-0.443827,42.778348,2227.022],[-0.443765,42.778323,2227.032],[-0.443813,42.778353,2227.092],[-0.443765,42.778293,2227.011],[-0.443712,42.778256,2227.009],[-0.443652,42.778226,2227.054],[-0.443605,42.778193,2227.093],[-0.443563,42.778155,2227.091],[-0.443533,42.77811,2227.034],[-0.443478,42.778077,2227.088],[-0.443435,42.778039,2227.095],[-0.443397,42.777997,2227.027],[-0.443359,42.777955,2227.025],[-0.443322,42.777913,2227.042],[-0.443285,42.777873,2227.075],[-0.443238,42.77784,2227.028],[-0.443206,42.777792,2227.02],[-0.443224,42.777739,2227.009],[-0.443207,42.777694,2227.028],[-0.4432,42.777649,2227.047],[-0.443187,42.777599,2227.015],[-0.443147,42.777559,2227.028],[-0.443125,42.777511,2227.052],[-0.443058,42.777486,2227.029],[-0.443001,42.777453,2227.061],[-0.442958,42.777415,2227.059],[-0.442913,42.777373,2227.036],[-0.442848,42.777353,2227.063],[-0.44279,42.777331,2227.044],[-0.442745,42.777291,2227.018],[-0.442722,42.777249,2227.009],[-0.442694,42.777197,2227.157],[-0.442672,42.777154,2227.336],[-0.44265,42.777099,2227.674],[-0.442612,42.777056,2228.027],[-0.442587,42.777009,2228.321],[-0.442575,42.776964,2228.678],[-0.442528,42.776931,2229.25],[-0.442561,42.776891,2229.978],[-0.442604,42.776849,2230.685],[-0.442636,42.776807,2231.245],[-0.442656,42.776759,2232.147],[-0.442679,42.776714,2232.811],[-0.442712,42.776671,2233.409],[-0.442732,42.776626,2233.595],[-0.442724,42.776573,2233.784],[-0.442676,42.776535,2234.012],[-0.442621,42.776502,2234.425],[-0.442568,42.776474,2234.769],[-0.442506,42.776451,2235.086],[-0.442434,42.776428,2235.338],[-0.442374,42.776406,2235.526],[-0.442309,42.776383,2235.733],[-0.442247,42.776376,2235.935],[-0.44219,42.776354,2236.086],[-0.442132,42.776331,2235.914],[-0.442067,42.776306,2235.709],[-0.442009,42.776284,2235.414],[-0.441942,42.776261,2235.113],[-0.441882,42.776246,2234.851],[-0.441814,42.776221,2234.494],[-0.441752,42.776189,2233.888],[-0.441699,42.776154,2233.025],[-0.441651,42.776117,2232.087],[-0.441604,42.776074,2231.735],[-0.441541,42.776042,2231.322],[-0.441509,42.775997,2231.369],[-0.441457,42.775962,2231.004],[-0.441417,42.77592,2230.924],[-0.441367,42.77589,2230.709],[-0.441327,42.77585,2230.727],[-0.441287,42.775807,2230.116],[-0.441229,42.775782,2229.244],[-0.441172,42.775762,2228.277],[-0.441109,42.77575,2227.381],[-0.441054,42.775725,2225.778],[-0.440979,42.775713,2224.36],[-0.440916,42.775715,2223.538],[-0.440844,42.77572,2222.785],[-0.440781,42.775723,2221.852],[-0.440718,42.775713,2220.353],[-0.440641,42.775716,2219.208],[-0.440578,42.775731,2218.709],[-0.440515,42.775738,2217.396],[-0.440437,42.775735,2214.965],[-0.44037,42.775753,2213.643],[-0.440307,42.775775,2212.676],[-0.440245,42.7758,2211.64],[-0.440185,42.775827,2211.047],[-0.440133,42.775857,2210.329],[-0.440068,42.775887,2208.927],[-0.440018,42.77592,2208.154],[-0.439973,42.775955,2207.389],[-0.439908,42.775983,2206.006],[-0.439848,42.776,2204.726],[-0.439765,42.776003,2202.509],[-0.439758,42.775956,2200.459],[-0.439695,42.775939,2197.998],[-0.43963,42.775954,2196.946],[-0.439587,42.775991,2197.899],[-0.439529,42.775973,2195.523],[-0.439474,42.775993,2195.47],[-0.439427,42.77595,2191.962],[-0.439364,42.77594,2190.54],[-0.439302,42.775942,2189.977],[-0.439249,42.775914,2187.239],[-0.439249,42.775867,2183.901],[-0.439184,42.775859,2182.221],[-0.439126,42.775844,2180.709],[-0.439086,42.775802,2178.194],[-0.439023,42.77578,2176.663],[-0.43905,42.77573,2174.191],[-0.439022,42.77569,2171.774],[-0.438954,42.775673,2170.338],[-0.438897,42.775648,2168.495],[-0.438827,42.77563,2166.997],[-0.43877,42.775605,2165.175],[-0.43871,42.775588,2163.792],[-0.438658,42.775561,2161.763],[-0.438591,42.775546,2160.444],[-0.438543,42.775509,2158.218],[-0.438486,42.775527,2158.709],[-0.438431,42.7755,2156.867],[-0.438373,42.775482,2155.446],[-0.43831,42.775465,2154.064],[-0.438245,42.77547,2153.857],[-0.438177,42.77547,2153.411],[-0.438152,42.775428,2151.168],[-0.438119,42.775385,2148.71],[-0.438067,42.775355,2146.998],[-0.438025,42.77532,2145.255],[-0.438038,42.775268,2142.721],[-0.438068,42.775228,2141.341],[-0.438071,42.775178,2139.505],[-0.438009,42.77517,2139.209],[-0.437977,42.775127,2137.553],[-0.43796,42.775084,2135.992],[-0.437938,42.775041,2134.22],[-0.437881,42.775008,2132.723],[-0.437828,42.774976,2131.567],[-0.43777,42.774958,2130.694],[-0.437707,42.774955,2129.796],[-0.437645,42.774933,2128.344],[-0.437595,42.774901,2126.621],[-0.437555,42.774861,2124.776],[-0.437462,42.774824,2121.89],[-0.437407,42.774844,2121.219],[-0.437345,42.774832,2119.309],[-0.437283,42.774845,2118.378],[-0.437223,42.77482,2115.987],[-0.43716,42.774817,2114.975],[-0.437093,42.774812,2113.748],[-0.437026,42.774797,2112.122],[-0.436964,42.774784,2110.729],[-0.436897,42.774777,2109.661],[-0.436842,42.77475,2108.089],[-0.43679,42.774725,2106.476],[-0.436725,42.774702,2105.468],[-0.436665,42.774717,2104.942],[-0.436605,42.774727,2103.426],[-0.436537,42.774712,2101.109],[-0.436475,42.774719,2099.447],[-0.436422,42.774696,2097.486],[-0.436357,42.774703,2095.584],[-0.436292,42.774705,2093.277],[-0.436165,42.774705,2088.811],[-0.436103,42.774715,2086.788],[-0.436035,42.774713,2084.29],[-0.435983,42.77474,2082.988],[-0.435923,42.774755,2081.235],[-0.435858,42.774777,2079.518],[-0.435805,42.774802,2078.498],[-0.435738,42.774824,2076.717],[-0.43568,42.774839,2075.009],[-0.435622,42.774866,2073.522],[-0.435564,42.774884,2071.631],[-0.435501,42.774874,2069.629],[-0.435436,42.774881,2067.822],[-0.435384,42.774856,2066.466],[-0.435319,42.774851,2064.723],[-0.435261,42.774868,2063.255],[-0.435196,42.77487,2062.443],[-0.435139,42.774892,2061.57],[-0.435077,42.774885,2060.858],[-0.435004,42.774883,2059.952],[-0.434969,42.774843,2059.617],[-0.434927,42.774808,2059.209],[-0.43486,42.774826,2057.996],[-0.434817,42.774793,2057.445],[-0.434785,42.774746,2057.093],[-0.434718,42.774739,2055.936],[-0.434671,42.774774,2055.12],[-0.434604,42.774766,2054.187],[-0.434536,42.774756,2053.289],[-0.434494,42.774791,2052.517],[-0.434421,42.774799,2051.424],[-0.434361,42.774812,2050.773],[-0.434291,42.774809,2049.985],[-0.434229,42.774799,2049.213],[-0.434156,42.774811,2048.209],[-0.434098,42.774828,2047.398],[-0.434036,42.77486,2046.447],[-0.433978,42.774893,2045.545],[-0.433916,42.774871,2044.838],[-0.433898,42.774821,2044.842],[-0.433835,42.774833,2043.719],[-0.433787,42.77488,2042.971],[-0.433715,42.774853,2041.759],[-0.43366,42.774825,2040.656],[-0.4336,42.774837,2039.698],[-0.43353,42.77483,2037.915],[-0.433482,42.77486,2037.026],[-0.433412,42.774858,2035.309],[-0.433344,42.77484,2033.79],[-0.433279,42.774828,2032.159],[-0.433214,42.774828,2030.577],[-0.433159,42.774851,2029.18],[-0.433119,42.774888,2028.094],[-0.433041,42.774885,2026.041],[-0.432971,42.774887,2024.213],[-0.432909,42.774875,2022.761],[-0.432839,42.774888,2020.838],[-0.432782,42.774906,2019.192],[-0.432727,42.774933,2017.973],[-0.432669,42.774963,2016.52],[-0.432606,42.77498,2015.209],[-0.432556,42.775008,2014.03],[-0.432488,42.775011,2012.869],[-0.432428,42.774994,2011.827],[-0.43236,42.775019,2010.56],[-0.432287,42.775036,2009.294],[-0.432239,42.775068,2008.341],[-0.432172,42.77508,2007.353],[-0.432099,42.775092,2006.281],[-0.432037,42.775089,2005.348],[-0.431975,42.775084,2004.477],[-0.431903,42.775089,2003.561],[-0.431835,42.775096,2002.627],[-0.431768,42.775104,2001.709],[-0.431706,42.775099,2000.948],[-0.431631,42.775096,2000.057],[-0.431564,42.775094,1999.565],[-0.431491,42.775092,1998.988],[-0.431426,42.775104,1998.312],[-0.431363,42.775107,1997.889],[-0.431288,42.77511,1997.131],[-0.431215,42.77512,1996.639],[-0.431163,42.775145,1996.426],[-0.431101,42.775152,1996.219],[-0.431038,42.775135,1995.709],[-0.430995,42.775102,1994.819],[-0.430937,42.77512,1994.909],[-0.43089,42.775085,1993.842],[-0.430857,42.775038,1992.321],[-0.430812,42.775005,1991.319],[-0.430769,42.774967,1991.582],[-0.430699,42.774969,1991.816],[-0.430649,42.774937,1991.733],[-0.430584,42.774914,1991.535],[-0.430512,42.774909,1991.193],[-0.43046,42.774879,1990.26],[-0.430392,42.774862,1989.331],[-0.430329,42.774834,1988.261],[-0.430262,42.774816,1987.207],[-0.4302,42.774811,1986.609],[-0.43012,42.774811,1985.924],[-0.430053,42.774816,1985.593],[-0.429986,42.774834,1985.661],[-0.429924,42.774832,1985.224],[-0.429849,42.77483,1984.888],[-0.429787,42.77481,1983.845],[-0.429725,42.774785,1982.527],[-0.429658,42.77476,1981.465],[-0.429588,42.774737,1980.242],[-0.42952,42.774729,1979.685],[-0.429448,42.774716,1978.989],[-0.429385,42.774686,1978.817],[-0.42932,42.774684,1979.109],[-0.429242,42.774669,1978.929],[-0.429169,42.774662,1978.828],[-0.429101,42.774649,1978.926],[-0.429044,42.774627,1978.369],[-0.429004,42.774587,1976.533],[-0.428909,42.774559,1975.08],[-0.428856,42.774521,1972.712],[-0.428823,42.774481,1970.12],[-0.428768,42.774454,1968.257],[-0.428708,42.774439,1967.163],[-0.42865,42.774417,1965.844],[-0.428588,42.774419,1965.618],[-0.428538,42.774379,1963.309],[-0.428478,42.774359,1961.987],[-0.42842,42.774344,1960.876],[-0.428353,42.774296,1957.674],[-0.42829,42.774273,1956.057],[-0.428245,42.77424,1953.911],[-0.428187,42.774213,1952.198],[-0.428127,42.7742,1951.26],[-0.428064,42.77418,1949.838],[-0.427996,42.77417,1949.075],[-0.427933,42.774162,1948.434],[-0.42787,42.774125,1946.855],[-0.427803,42.77411,1945.91],[-0.427731,42.774097,1944.709],[-0.427673,42.774075,1943.124],[-0.427608,42.77406,1941.793],[-0.427548,42.774045,1940.361],[-0.427536,42.773995,1938.174],[-0.427469,42.773993,1937.148],[-0.427412,42.773975,1935.685],[-0.427369,42.773938,1933.417],[-0.427299,42.773928,1932.015],[-0.427226,42.773906,1929.942],[-0.427159,42.773918,1929.611],[-0.427096,42.773916,1928.621],[-0.427041,42.773936,1928.903],[-0.426998,42.773898,1926.309],[-0.426935,42.773908,1925.812],[-0.42682,42.773868,1921.981],[-0.426762,42.77385,1920.269],[-0.426689,42.773837,1918.422],[-0.426624,42.773835,1917.286],[-0.426557,42.773838,1916.333],[-0.426485,42.773826,1915.025],[-0.426425,42.773813,1913.983],[-0.426363,42.77381,1913.02],[-0.426293,42.773803,1912.045],[-0.426223,42.7738,1911.147],[-0.426156,42.773783,1910.011],[-0.426084,42.77377,1909.109],[-0.426011,42.773767,1908.765],[-0.425929,42.773759,1908.144],[-0.425867,42.773766,1907.982],[-0.425792,42.773773,1907.535],[-0.42572,42.773783,1907.229],[-0.425657,42.77378,1906.846],[-0.425595,42.773778,1906.478],[-0.425525,42.773766,1906.056],[-0.42546,42.773773,1905.813],[-0.425423,42.77373,1905.436],[-0.42537,42.773707,1905.017],[-0.425302,42.773687,1904.618],[-0.425232,42.773662,1904.209],[-0.425162,42.773662,1904.064],[-0.425102,42.773644,1903.713],[-0.425059,42.773607,1903.311],[-0.424989,42.773597,1903.254],[-0.424931,42.773582,1903.098],[-0.424871,42.773554,1902.955],[-0.424843,42.773504,1903.457],[-0.42477,42.773494,1902.845],[-0.424717,42.773467,1902.512],[-0.424685,42.773427,1902.731],[-0.424617,42.773409,1902.361],[-0.424549,42.773406,1901.707],[-0.424496,42.773433,1901.109],[-0.424433,42.773448,1900.534],[-0.424373,42.773463,1899.953],[-0.424305,42.773461,1899.321],[-0.42424,42.773474,1898.624],[-0.424188,42.773499,1898.088],[-0.42414,42.773539,1897.425],[-0.424112,42.773584,1897.017],[-0.424037,42.773607,1896.655],[-0.423979,42.773624,1896.662],[-0.423912,42.773644,1896.732],[-0.42384,42.773624,1896.092],[-0.42378,42.773612,1895.611],[-0.423707,42.773597,1895.509],[-0.423635,42.77359,1895.394],[-0.423572,42.773592,1894.913],[-0.423492,42.773592,1894.351],[-0.423425,42.773589,1893.944],[-0.423362,42.773589,1893.448],[-0.423299,42.773584,1893.275],[-0.423229,42.773567,1893.267],[-0.423152,42.773557,1893.115],[-0.423109,42.773595,1892.412],[-0.423041,42.773617,1892.039],[-0.422964,42.77362,1891.501],[-0.422902,42.773632,1891.221],[-0.422837,42.773637,1890.809],[-0.42278,42.773667,1890.894],[-0.422715,42.773679,1890.383],[-0.422642,42.773684,1889.621],[-0.422575,42.773689,1888.894],[-0.422517,42.773714,1888.258],[-0.422452,42.773711,1887.115],[-0.422397,42.773738,1886.027],[-0.42233,42.77373,1884.785],[-0.422263,42.773728,1883.492],[-0.4222,42.77372,1882.014],[-0.42214,42.773735,1880.454],[-0.42207,42.773725,1878.609],[-0.422015,42.773697,1876.909],[-0.421962,42.773672,1875.222],[-0.42192,42.773629,1873.341],[-0.421863,42.773596,1871.369],[-0.421803,42.773573,1869.332],[-0.421741,42.773568,1867.046],[-0.421674,42.773563,1864.583],[-0.421614,42.773546,1863.535],[-0.421574,42.773508,1863.073],[-0.421551,42.773463,1862.91],[-0.421493,42.773446,1862.115],[-0.42144,42.773423,1861.465],[-0.421377,42.773423,1860.511],[-0.42131,42.77341,1859.709],[-0.421253,42.77339,1859.072],[-0.421191,42.773398,1858.281],[-0.421128,42.77339,1857.469],[-0.42106,42.773383,1856.412],[-0.420997,42.773376,1855.526],[-0.42093,42.773359,1854.573],[-0.420865,42.773356,1853.555],[-0.420795,42.773364,1852.683],[-0.420732,42.773376,1851.81],[-0.42067,42.773356,1850.854],[-0.420607,42.773338,1849.856],[-0.420534,42.773346,1848.711],[-0.420461,42.773348,1847.509],[-0.420394,42.77334,1846.276],[-0.420326,42.77334,1844.925],[-0.420264,42.773345,1843.913],[-0.420204,42.773355,1842.986],[-0.420137,42.773345,1841.61],[-0.42007,42.773347,1840.467],[-0.420007,42.773352,1839.379],[-0.419947,42.773337,1837.957],[-0.419885,42.773322,1836.564],[-0.419823,42.773312,1835.169],[-0.419783,42.773275,1834.104],[-0.419726,42.77325,1832.824],[-0.419664,42.773248,1831.509],[-0.419592,42.77325,1830.027],[-0.419522,42.773257,1828.646],[-0.419489,42.773215,1827.944],[-0.419427,42.773205,1826.687],[-0.41937,42.773223,1825.451],[-0.4193,42.773218,1823.928],[-0.419257,42.773183,1823.09],[-0.419265,42.773131,1823.138],[-0.419198,42.773138,1821.725],[-0.419138,42.773151,1820.733],[-0.419073,42.773149,1819.923],[-0.41901,42.773169,1819.115],[-0.418953,42.773149,1818.409],[-0.418881,42.773137,1817.784],[-0.418809,42.773127,1817.543],[-0.418739,42.773139,1817.281],[-0.418682,42.773164,1816.944],[-0.418619,42.773172,1816.658],[-0.418547,42.773179,1816.675],[-0.418487,42.773166,1816.867],[-0.418424,42.773201,1816.415],[-0.418369,42.773229,1815.992],[-0.418312,42.773259,1815.458],[-0.41825,42.773271,1815.352],[-0.418223,42.773313,1814.517],[-0.418166,42.773341,1814.109],[-0.418109,42.773366,1814.386],[-0.418049,42.773399,1814.375],[-0.417982,42.773424,1814.823],[-0.417912,42.773422,1815.216],[-0.417884,42.773464,1814.97],[-0.417822,42.773494,1814.557],[-0.417779,42.773539,1813.669],[-0.417726,42.773577,1813.777],[-0.417693,42.773615,1813.534],[-0.417661,42.773665,1813.453],[-0.417671,42.773712,1812.704],[-0.417636,42.77375,1812.514],[-0.417601,42.773793,1812.009],[-0.417544,42.773811,1811.996],[-0.417484,42.773834,1811.875],[-0.417417,42.773841,1813.283],[-0.41738,42.773886,1813.146],[-0.417345,42.773926,1813.79],[-0.417337,42.773978,1813.647],[-0.417367,42.774018,1812.769],[-0.417397,42.77406,1811.847],[-0.417412,42.774105,1811.224],[-0.41742,42.774152,1810.824],[-0.417423,42.774202,1810.304],[-0.417418,42.774247,1809.914],[-0.41742,42.774297,1809.409],[-0.417387,42.77434,1809.483],[-0.417379,42.774388,1809.012],[-0.417357,42.774435,1808.78],[-0.417334,42.774485,1808.483],[-0.417306,42.774527,1808.077],[-0.417276,42.77458,1807.294],[-0.417246,42.77462,1806.496],[-0.417213,42.77466,1805.694],[-0.417173,42.774707,1805.621],[-0.417131,42.774744,1805.944],[-0.417089,42.774784,1806.005],[-0.417061,42.774824,1805.715],[-0.417023,42.774862,1805.309],[-0.41697,42.774905,1804.865],[-0.416965,42.774953,1803.444],[-0.416992,42.774995,1802.092],[-0.417012,42.77504,1801.265],[-0.416977,42.775083,1800.559],[-0.416945,42.775125,1799.826],[-0.416915,42.775173,1800.398],[-0.416903,42.77522,1800.176],[-0.41688,42.775262,1800.523],[-0.416867,42.775317,1800.624],[-0.41688,42.775369,1799.504],[-0.416862,42.775419,1799.914],[-0.41684,42.775467,1800.309],[-0.41683,42.775519,1800.133],[-0.416813,42.775569,1800.122],[-0.41679,42.775616,1800.24],[-0.416775,42.775663,1800.063],[-0.416767,42.775713,1799.697],[-0.416759,42.775758,1799.314],[-0.416781,42.775806,1797.876],[-0.416776,42.775859,1797.544],[-0.416763,42.775907,1797.871],[-0.416748,42.775957,1798.014],[-0.41676,42.77601,1797.354],[-0.416782,42.776053,1796.409],[-0.416815,42.776096,1795.309],[-0.416862,42.776128,1793.872],[-0.41682,42.776163,1794.381],[-0.416788,42.776213,1794.669],[-0.416801,42.776263,1793.582],[-0.416778,42.776305,1793.736],[-0.416751,42.776348,1794.163],[-0.416736,42.776395,1794.255],[-0.416746,42.776448,1793.533],[-0.416746,42.7765,1793.15],[-0.416759,42.776548,1792.475],[-0.416787,42.776596,1791.328],[-0.416819,42.776636,1790.22],[-0.416844,42.776679,1789.209],[-0.416852,42.776724,1787.998],[-0.416822,42.776771,1787.577],[-0.416789,42.776811,1787.355],[-0.416776,42.776864,1786.378],[-0.416759,42.776914,1785.452],[-0.416761,42.776959,1784.499],[-0.416743,42.777006,1784.281],[-0.416741,42.777056,1783.569],[-0.416774,42.777094,1782.446],[-0.416791,42.777141,1781.615],[-0.416794,42.777191,1781.065],[-0.416774,42.777238,1780.811],[-0.416744,42.77728,1780.909],[-0.416734,42.777327,1780.822],[-0.416707,42.77737,1780.711],[-0.416672,42.777418,1780.639],[-0.416647,42.77747,1780.162],[-0.4166,42.777513,1779.336],[-0.416575,42.77756,1778.533],[-0.416525,42.777607,1777.695],[-0.416493,42.777655,1776.983],[-0.416461,42.777705,1776.19],[-0.416424,42.777743,1775.525],[-0.416401,42.777791,1774.926],[-0.416361,42.777826,1774.508],[-0.416324,42.777869,1774.009],[-0.416274,42.777902,1773.563],[-0.416244,42.777945,1773.012],[-0.416231,42.77799,1772.56],[-0.416203,42.778032,1771.953],[-0.416166,42.778075,1771.047],[-0.416123,42.77811,1770.164],[-0.416091,42.778158,1769.126],[-0.416046,42.778205,1768.314],[-0.415979,42.778232,1768.121],[-0.415919,42.778257,1768.021],[-0.415861,42.778284,1768.041],[-0.415801,42.778306,1767.805],[-0.415744,42.778329,1767.109],[-0.415682,42.778361,1765.513],[-0.41563,42.778386,1764.462],[-0.415575,42.778428,1763.05],[-0.415522,42.778453,1762.593],[-0.415472,42.778483,1762.037],[-0.415417,42.778503,1761.854],[-0.415357,42.778518,1761.796],[-0.415289,42.778528,1761.934],[-0.415217,42.778525,1761.411],[-0.415149,42.778522,1760.933],[-0.415079,42.77853,1760.123],[-0.415006,42.77853,1759.515],[-0.414939,42.778533,1758.809],[-0.414877,42.77855,1757.934],[-0.414819,42.77857,1756.983],[-0.414777,42.778605,1755.791],[-0.414732,42.778648,1754.314],[-0.414695,42.778686,1753.398],[-0.414648,42.778721,1752.375],[-0.414631,42.778773,1751.027],[-0.414621,42.778825,1749.755],[-0.414598,42.77887,1748.552],[-0.414583,42.778923,1747.377],[-0.414585,42.778973,1746.261],[-0.414562,42.779021,1745.127],[-0.414535,42.779063,1744.109],[-0.414493,42.779108,1743.158],[-0.414428,42.779123,1742.837],[-0.414378,42.779151,1742.315],[-0.414306,42.779139,1742.448],[-0.414234,42.779141,1742.432],[-0.414164,42.779149,1742.329],[-0.414102,42.779154,1742.271],[-0.414034,42.779152,1742.259],[-0.413962,42.779159,1742.136],[-0.413899,42.779181,1742.053],[-0.413847,42.779211,1742.004],[-0.413804,42.779246,1742.014],[-0.413731,42.779256,1742.009],[-0.413679,42.779284,1742.016],[-0.413619,42.779304,1742.065],[-0.413601,42.779347,1742.053],[-0.413596,42.779412,1742.046],[-0.413539,42.779444,1741.79],[-0.413484,42.779466,1741.127],[-0.413427,42.779496,1740.549],[-0.413372,42.779524,1739.967],[-0.413327,42.779561,1739.384],[-0.413294,42.779603,1738.971],[-0.413257,42.779645,1738.541],[-0.41322,42.779687,1738.215],[-0.413182,42.779735,1737.909],[-0.41312,42.779772,1737.578],[-0.413077,42.779809,1737.017],[-0.413047,42.779856,1736.215],[-0.413,42.779894,1735.818],[-0.412952,42.779922,1735.862],[-0.4129,42.779959,1735.889],[-0.412858,42.779997,1735.961],[-0.412825,42.780035,1735.959],[-0.412792,42.780077,1735.796],[-0.412765,42.780129,1735.172],[-0.412745,42.780172,1734.513],[-0.412745,42.780217,1733.914],[-0.412713,42.780264,1733.209],[-0.412681,42.780314,1733.298],[-0.412674,42.780366,1733.537],[-0.412661,42.780416,1733.825],[-0.412638,42.780473,1734.198],[-0.41261,42.780518,1734.212],[-0.412593,42.780571,1734.589],[-0.412588,42.780624,1735.291],[-0.412565,42.780671,1735.669],[-0.41256,42.780728,1736.146],[-0.412532,42.780771,1736.148],[-0.412527,42.780816,1736.461],[-0.412509,42.780861,1736.817],[-0.412439,42.780848,1735.409],[-0.412377,42.780856,1734.665],[-0.41231,42.780839,1733.394],[-0.412238,42.780841,1732.342],[-0.412185,42.780864,1731.945],[-0.41213,42.780911,1731.759],[-0.412078,42.780943,1731.246],[-0.412026,42.780983,1730.758],[-0.411968,42.781018,1730.016],[-0.411916,42.781043,1729.583],[-0.411863,42.78107,1729.378],[-0.411791,42.781095,1728.833],[-0.411728,42.781112,1728.426],[-0.411675,42.781147,1728.309],[-0.411625,42.781184,1728.118],[-0.411557,42.781214,1727.727],[-0.411509,42.781247,1727.355],[-0.411456,42.781284,1726.848],[-0.411399,42.781317,1726.112],[-0.411359,42.781359,1725.869],[-0.411319,42.781402,1725.681],[-0.411279,42.78145,1725.889],[-0.411226,42.781475,1725.686],[-0.411193,42.781515,1725.661],[-0.411151,42.78156,1725.621],[-0.411138,42.781605,1725.813],[-0.4111,42.781645,1725.609],[-0.411103,42.781695,1726.317],[-0.41111,42.781747,1727.146],[-0.411125,42.781799,1728.154],[-0.411145,42.781851,1729.157],[-0.411177,42.781891,1730.191],[-0.41121,42.781936,1731.328],[-0.411253,42.781976,1732.75],[-0.411281,42.782021,1734.158],[-0.411301,42.782068,1735.455],[-0.411359,42.782086,1736.665],[-0.411422,42.782098,1737.968],[-0.411419,42.782148,1738.914],[-0.411456,42.782205,1740.809],[-0.411448,42.78225,1741.777],[-0.41147,42.782302,1743.416],[-0.411522,42.782339,1745.144],[-0.411547,42.782381,1746.547],[-0.411589,42.782419,1748.071],[-0.411644,42.782441,1749.468],[-0.411652,42.782488,1750.59],[-0.411634,42.782536,1751.738],[-0.411616,42.782588,1753.255],[-0.411579,42.782628,1754.024],[-0.411544,42.782668,1754.904],[-0.411494,42.782708,1755.714],[-0.411439,42.782735,1756.009],[-0.411387,42.782763,1756.513],[-0.411337,42.78279,1756.782],[-0.411279,42.782823,1756.69],[-0.411234,42.78286,1756.453],[-0.411189,42.782895,1756.247],[-0.411164,42.782937,1756.284],[-0.411154,42.782994,1756.326],[-0.411176,42.783044,1756.994],[-0.411216,42.783079,1757.791],[-0.411244,42.783122,1758.551],[-0.411267,42.783165,1759.201],[-0.411239,42.783207,1759.211],[-0.411191,42.783237,1758.909],[-0.411143,42.78327,1758.726],[-0.411086,42.783295,1758.455],[-0.411014,42.78331,1758.033],[-0.410962,42.783348,1758.156],[-0.410915,42.78338,1758.19],[-0.41087,42.783425,1758.137],[-0.410823,42.783462,1757.959],[-0.410793,42.783504,1757.997],[-0.41076,42.783552,1757.974],[-0.41071,42.783582,1757.614],[-0.410675,42.783627,1757.454],[-0.410625,42.783674,1757.209],[-0.41058,42.783711,1757.009],[-0.410538,42.783754,1757.042],[-0.410485,42.783779,1757.111],[-0.410458,42.783831,1757.589],[-0.41042,42.783871,1757.822],[-0.410402,42.783919,1758.426],[-0.410345,42.783949,1758.813],[-0.410302,42.783987,1759.485],[-0.410257,42.784027,1759.963],[-0.410217,42.784065,1760.44],[-0.410159,42.784102,1760.929],[-0.410097,42.78413,1761.3],[-0.410035,42.784162,1761.92],[-0.409983,42.784189,1762.409],[-0.409926,42.784217,1762.723],[-0.409883,42.78425,1763.132],[-0.40983,42.784277,1763.39],[-0.409785,42.784312,1763.793],[-0.409742,42.784352,1764.237],[-0.409707,42.78439,1764.624],[-0.409674,42.78444,1765.286],[-0.409622,42.784472,1765.084],[-0.40957,42.784509,1764.921],[-0.409547,42.784551,1765.326],[-0.409534,42.784601,1765.947],[-0.409497,42.784638,1766.111],[-0.409477,42.78469,1766.809],[-0.409442,42.784735,1767.193],[-0.409412,42.78478,1767.452],[-0.40936,42.784818,1767.31],[-0.409323,42.784855,1767.443],[-0.409293,42.784897,1767.717],[-0.409245,42.784929,1767.644],[-0.40921,42.784967,1767.916],[-0.40918,42.785007,1768.214],[-0.409132,42.785045,1767.721],[-0.409087,42.785083,1767.243],[-0.409059,42.785125,1766.864],[-0.409019,42.785167,1766.01],[-0.408994,42.785219,1765.509],[-0.409006,42.785269,1765.685],[-0.409041,42.785309,1765.644],[-0.409043,42.785362,1764.572],[-0.40907,42.785404,1764.045],[-0.409097,42.785449,1763.589],[-0.409119,42.785501,1762.646],[-0.409126,42.785546,1761.688],[-0.409168,42.785579,1761.916],[-0.409185,42.785627,1762.063],[-0.409178,42.785679,1761.747],[-0.409191,42.785731,1761.729],[-0.409173,42.785786,1761.321],[-0.40916,42.785833,1760.909],[-0.40915,42.78588,1761.675],[-0.40911,42.785918,1761.684],[-0.40907,42.785958,1761.792],[-0.409027,42.785993,1761.635],[-0.408987,42.78603,1761.599],[-0.40894,42.786068,1761.356],[-0.408903,42.786108,1761.238],[-0.408861,42.786146,1762.316],[-0.408823,42.786183,1763.413],[-0.408775,42.786211,1764.047],[-0.408722,42.786241,1764.529],[-0.408682,42.786279,1765.721],[-0.408644,42.786321,1767.209],[-0.408621,42.786369,1769.285],[-0.408576,42.786404,1770.024],[-0.408513,42.786406,1769.012],[-0.40845,42.786411,1768.135],[-0.408377,42.786421,1767.269],[-0.408304,42.786439,1766.816],[-0.408244,42.786466,1767.128],[-0.408187,42.786498,1767.526],[-0.40813,42.786521,1767.533],[-0.408065,42.786533,1766.833],[-0.40801,42.786558,1766.723],[-0.407953,42.786585,1766.515],[-0.407901,42.786615,1766.509],[-0.407841,42.786602,1765.014],[-0.407784,42.78662,1764.633],[-0.407729,42.786597,1762.621],[-0.407666,42.786612,1761.774],[-0.407594,42.786617,1760.178],[-0.407527,42.786617,1758.695],[-0.407459,42.786614,1757.187],[-0.407389,42.786621,1756.065],[-0.407327,42.786611,1754.682],[-0.40726,42.786613,1753.411],[-0.407202,42.786631,1752.721],[-0.407132,42.786626,1751.103],[-0.407079,42.786651,1750.509],[-0.407072,42.786701,1750.342],[-0.407072,42.786753,1749.751],[-0.407087,42.786803,1749.439],[-0.407125,42.786846,1749.562],[-0.407145,42.786893,1749.316],[-0.407167,42.786943,1749.073],[-0.407197,42.786988,1748.815],[-0.407224,42.787033,1748.493],[-0.407256,42.787075,1748.36],[-0.407283,42.78712,1747.998],[-0.407328,42.78716,1748.015],[-0.407373,42.787203,1748.126],[-0.407415,42.787246,1747.809],[-0.407467,42.787291,1747.53],[-0.4075,42.787331,1746.929],[-0.40754,42.787368,1746.267],[-0.407583,42.787401,1745.63],[-0.407655,42.787399,1746.464],[-0.407727,42.787404,1746.971],[-0.407779,42.787437,1746.683],[-0.407816,42.787474,1746.251],[-0.407859,42.787509,1746.068],[-0.407912,42.787536,1746.375],[-0.407965,42.787563,1746.628],[-0.408007,42.787606,1746.62],[-0.408039,42.787658,1746.409],[-0.408079,42.787703,1746.658],[-0.408117,42.787741,1747.067],[-0.408142,42.787788,1746.925],[-0.408145,42.787835,1745.918],[-0.40815,42.78789,1744.782],[-0.40816,42.787935,1743.829],[-0.408197,42.787982,1743.451],[-0.408252,42.788012,1743.789],[-0.408304,42.788045,1743.866],[-0.408347,42.788083,1743.082],[-0.408407,42.788108,1742.843],[-0.408454,42.788148,1741.717],[-0.408499,42.78818,1740.909],[-0.408559,42.788193,1741.219],[-0.408621,42.788188,1742.488],[-0.408696,42.78819,1743.086],[-0.408753,42.788217,1742.219],[-0.408798,42.788259,1740.673],[-0.408845,42.788302,1739.07],[-0.408895,42.788332,1738.212],[-0.408953,42.788359,1738.92],[-0.408981,42.788409,1738.457],[-0.408998,42.788461,1737.721],[-0.409023,42.788511,1737.141],[-0.408986,42.788554,1735.605],[-0.408928,42.788589,1734.009],[-0.408868,42.788567,1733.553],[-0.408795,42.788575,1732.362],[-0.408732,42.788592,1731.16],[-0.408675,42.788627,1729.973],[-0.408635,42.788662,1729.287],[-0.408585,42.788704,1728.434],[-0.408528,42.788732,1727.756],[-0.408496,42.788775,1727.264],[-0.408514,42.788823,1727.211],[-0.408494,42.788875,1726.829],[-0.408492,42.78892,1727.0],[-0.408487,42.788967,1727.42],[-0.408462,42.789017,1727.509],[-0.408444,42.789069,1727.853],[-0.408416,42.789109,1727.742],[-0.408396,42.789152,1727.85],[-0.408341,42.789172,1727.433],[-0.408336,42.789225,1729.817],[-0.408284,42.789252,1729.854],[-0.408216,42.789272,1728.926],[-0.408158,42.78929,1728.194],[-0.40811,42.789333,1728.521],[-0.408063,42.789366,1728.475],[-0.408001,42.789398,1727.128],[-0.407954,42.789438,1726.42],[-0.407909,42.789476,1725.409],[-0.407882,42.789519,1725.118],[-0.407827,42.789552,1723.337],[-0.407805,42.789599,1723.145],[-0.407788,42.789647,1723.268],[-0.407761,42.78969,1722.732],[-0.407729,42.789733,1721.949],[-0.407721,42.789785,1721.531],[-0.407679,42.78983,1719.769],[-0.407652,42.789873,1718.616],[-0.407649,42.789921,1718.432],[-0.407666,42.789968,1719.292],[-0.407656,42.790023,1718.111],[-0.407683,42.790066,1718.109],[-0.407711,42.790109,1718.154],[-0.407733,42.790161,1717.513],[-0.407755,42.790206,1717.181],[-0.407783,42.790246,1717.164],[-0.407806,42.790288,1716.848],[-0.407853,42.790331,1717.265],[-0.407878,42.790373,1716.737],[-0.407926,42.790415,1716.915],[-0.407958,42.790455,1716.652],[-0.407988,42.7905,1715.968],[-0.408028,42.79055,1715.242],[-0.408073,42.790588,1715.426],[-0.40812,42.790625,1715.709],[-0.408163,42.790663,1715.757],[-0.4082,42.790706,1715.236],[-0.408227,42.790748,1714.434],[-0.408265,42.790785,1714.047],[-0.4083,42.790825,1713.461],[-0.40835,42.790863,1713.858],[-0.408393,42.790898,1714.46],[-0.40844,42.790931,1715.058],[-0.408485,42.790964,1715.415],[-0.40853,42.791002,1715.553],[-0.408562,42.791054,1714.704],[-0.408587,42.791099,1713.814],[-0.408615,42.791146,1713.409],[-0.40862,42.791191,1712.626],[-0.408668,42.791219,1713.485],[-0.408705,42.791266,1713.323],[-0.408725,42.791311,1712.616],[-0.408737,42.791358,1711.62],[-0.40875,42.791405,1710.857],[-0.408762,42.791452,1710.579],[-0.4088,42.791494,1710.767],[-0.408817,42.791537,1710.534],[-0.408827,42.791587,1710.075],[-0.408839,42.791632,1709.628],[-0.408861,42.791675,1709.42],[-0.408898,42.79172,1709.609],[-0.408923,42.791767,1709.538],[-0.408971,42.791802,1709.997],[-0.409004,42.79184,1709.945],[-0.409006,42.791887,1709.418],[-0.409006,42.791935,1708.842],[-0.409018,42.79198,1709.149],[-0.409018,42.792033,1709.541],[-0.409035,42.792081,1710.159],[-0.409062,42.792124,1710.816],[-0.409075,42.792169,1711.374],[-0.409107,42.792219,1712.156],[-0.409142,42.792257,1712.721],[-0.40919,42.792294,1713.309],[-0.409235,42.792326,1714.078],[-0.40929,42.792348,1714.817],[-0.409352,42.792368,1715.745],[-0.409404,42.792395,1716.428],[-0.409429,42.79244,1716.882],[-0.409471,42.792483,1717.399],[-0.409526,42.792505,1717.961],[-0.409589,42.792532,1718.649],[-0.409621,42.792574,1719.086],[-0.409618,42.792624,1719.096],[-0.409661,42.792659,1719.731],[-0.409718,42.792699,1720.624],[-0.40973,42.792751,1721.109],[-0.409708,42.792804,1721.43],[-0.409686,42.792852,1722.299],[-0.409678,42.792899,1723.397],[-0.409646,42.792941,1723.76],[-0.409601,42.792984,1724.034],[-0.409559,42.793022,1724.251],[-0.409572,42.79307,1725.473],[-0.40959,42.793122,1725.841],[-0.40964,42.79315,1726.748],[-0.409692,42.793177,1727.622],[-0.409727,42.793217,1728.062],[-0.40975,42.79326,1728.208],[-0.409793,42.793298,1728.309],[-0.409835,42.793335,1728.433],[-0.409878,42.793375,1728.932],[-0.409925,42.793412,1729.47],[-0.409972,42.793449,1730.143],[-0.410025,42.793477,1730.887],[-0.410087,42.7935,1731.714],[-0.410135,42.793535,1732.416],[-0.410158,42.793582,1732.924],[-0.41018,42.793632,1733.221],[-0.410225,42.793664,1733.394],[-0.410273,42.793701,1733.357],[-0.410318,42.793738,1733.822],[-0.410368,42.79378,1734.409],[-0.410396,42.793832,1734.55],[-0.410426,42.793874,1734.869],[-0.410449,42.793922,1735.147],[-0.410484,42.793962,1735.67],[-0.410499,42.794007,1735.714],[-0.410526,42.794049,1736.091],[-0.410571,42.794087,1736.673],[-0.410621,42.794122,1737.381],[-0.410649,42.794167,1737.768],[-0.410667,42.794222,1738.052],[-0.410662,42.794267,1738.053],[-0.4107,42.79431,1738.608],[-0.410743,42.794343,1739.209],[-0.41079,42.794373,1739.756],[-0.410845,42.794395,1740.455],[-0.410872,42.794437,1740.683],[-0.410924,42.794469,1740.826],[-0.410987,42.794494,1741.16],[-0.411059,42.794501,1742.077],[-0.411126,42.794508,1742.729],[-0.411189,42.794525,1742.847],[-0.411254,42.794537,1743.064],[-0.411304,42.79457,1742.968],[-0.411367,42.79458,1743.342],[-0.41141,42.794613,1743.426],[-0.411462,42.794645,1743.409],[-0.411517,42.794677,1743.547],[-0.411574,42.7947,1743.696],[-0.411614,42.79474,1743.564],[-0.411661,42.794778,1743.627],[-0.411714,42.794811,1743.931],[-0.411746,42.794858,1744.088],[-0.411774,42.794898,1744.19],[-0.411802,42.794941,1744.378],[-0.411844,42.794974,1744.775],[-0.411879,42.795016,1744.763],[-0.411906,42.795058,1744.344],[-0.411943,42.795095,1743.918],[-0.411996,42.795122,1743.509],[-0.412036,42.795164,1742.697],[-0.412079,42.795199,1741.856],[-0.412134,42.795232,1741.124],[-0.412182,42.795262,1740.467],[-0.412184,42.795309,1739.351],[-0.412196,42.795359,1738.268],[-0.412199,42.795414,1737.09],[-0.412246,42.795451,1736.348],[-0.412288,42.795489,1735.335],[-0.412286,42.795534,1734.171],[-0.412311,42.795579,1732.741],[-0.412336,42.795622,1731.315],[-0.412386,42.79565,1730.409],[-0.412456,42.79567,1729.628],[-0.412523,42.795672,1729.667],[-0.412585,42.795694,1729.315],[-0.412592,42.795746,1728.138],[-0.412537,42.795778,1727.242],[-0.412527,42.795831,1726.189],[-0.412545,42.795876,1725.591],[-0.41261,42.795904,1725.349],[-0.412637,42.795949,1725.046],[-0.412654,42.795996,1724.679],[-0.412656,42.796044,1724.205],[-0.412669,42.796101,1723.925],[-0.412652,42.796146,1723.509],[-0.412642,42.796193,1723.238],[-0.412645,42.796243,1723.197],[-0.41265,42.796296,1722.985],[-0.412662,42.796343,1722.828],[-0.412719,42.796378,1722.852],[-0.412769,42.796408,1723.189],[-0.412806,42.796453,1723.531],[-0.412839,42.796505,1724.039],[-0.412884,42.796542,1724.376],[-0.412946,42.79658,1724.685],[-0.412986,42.796618,1724.889],[-0.413034,42.796648,1724.917],[-0.413091,42.796675,1725.109],[-0.413143,42.7967,1725.529],[-0.4132,42.796725,1725.718],[-0.413242,42.796758,1726.076],[-0.413297,42.796795,1726.159],[-0.413339,42.79684,1726.363],[-0.413367,42.796883,1726.91],[-0.413402,42.796923,1727.412],[-0.41344,42.796961,1728.02],[-0.413472,42.797006,1728.717],[-0.413517,42.797044,1729.169],[-0.41357,42.797081,1729.104],[-0.413605,42.797121,1729.024],[-0.413668,42.797151,1729.509],[-0.413723,42.797183,1729.997],[-0.413765,42.797218,1730.176],[-0.413832,42.797245,1730.754],[-0.413885,42.797277,1731.017],[-0.413922,42.797315,1731.431],[-0.413922,42.797362,1731.478],[-0.41395,42.797414,1731.78],[-0.413985,42.797456,1732.078],[-0.41399,42.797508,1732.225],[-0.414038,42.797546,1733.016],[-0.414075,42.797594,1733.776],[-0.414123,42.797634,1734.213],[-0.414155,42.797677,1734.609],[-0.414197,42.79771,1735.082],[-0.414219,42.797755,1735.341],[-0.414224,42.797805,1735.659],[-0.414241,42.797853,1736.262],[-0.414268,42.797901,1736.976],[-0.41428,42.797946,1737.513],[-0.41433,42.797989,1738.695],[-0.414372,42.798022,1739.543],[-0.414409,42.798064,1740.61],[-0.414434,42.798112,1741.724],[-0.414449,42.798159,1742.504],[-0.414481,42.798207,1743.414],[-0.414538,42.79824,1744.109],[-0.414551,42.79829,1744.843],[-0.414583,42.798337,1745.552],[-0.414601,42.798387,1745.59],[-0.414604,42.798434,1745.443],[-0.414586,42.798491,1745.297],[-0.414593,42.798538,1745.264],[-0.414553,42.798585,1744.866],[-0.414526,42.798638,1744.474],[-0.414519,42.798683,1744.141],[-0.414507,42.798728,1743.763],[-0.414499,42.798775,1743.344],[-0.414494,42.798827,1742.918],[-0.414489,42.798875,1742.609],[-0.414464,42.798925,1742.187],[-0.414439,42.798972,1741.756],[-0.414421,42.799025,1741.444],[-0.414379,42.79906,1741.277],[-0.414327,42.799102,1741.021],[-0.414277,42.799129,1741.078],[-0.41422,42.799157,1741.08],[-0.414148,42.799179,1741.428],[-0.414108,42.799214,1742.535],[-0.414101,42.799267,1743.467],[-0.414074,42.79931,1744.481],[-0.414052,42.799357,1745.419],[-0.41403,42.799404,1746.409],[-0.413997,42.799447,1747.557],[-0.413975,42.799494,1748.576],[-0.413968,42.799552,1749.414],[-0.413983,42.799599,1749.957],[-0.413998,42.799661,1750.571],[-0.414,42.799716,1751.338],[-0.413995,42.799763,1751.88],[-0.413985,42.799821,1752.598],[-0.413987,42.799869,1752.865],[-0.414005,42.799917,1753.039],[-0.414012,42.799972,1753.401],[-0.41403,42.80002,1753.821],[-0.414052,42.800067,1754.209],[-0.414059,42.800117,1754.824],[-0.414084,42.80017,1755.313],[-0.414101,42.800213,1755.891],[-0.414116,42.800266,1756.424],[-0.414111,42.800318,1757.288],[-0.414131,42.800365,1757.625],[-0.414146,42.800428,1758.487],[-0.414164,42.800478,1758.915],[-0.414184,42.800526,1759.512],[-0.414192,42.800571,1760.272],[-0.414222,42.800619,1760.913],[-0.414227,42.800676,1762.014],[-0.414227,42.800728,1762.909],[-0.414209,42.800771,1763.788],[-0.414209,42.800824,1764.757],[-0.414214,42.800871,1765.865],[-0.414229,42.800921,1767.028],[-0.414239,42.800978,1768.422],[-0.414242,42.801033,1769.839]]}}]}