{"type":"FeatureCollection","features":[{"type":"Feature","properties":{"ruta_id":"109929222","nombre":"SORATXIPI (1069 m) desde el ALTO de GOROSTIETA","blog_url":"https://www.rutasporelmonte.com/soratxipi-1069-m-desde-gorostieta/"},"geometry":{"type":"LineString","coordinates":[[-1.767393,43.060363,829.655],[-1.767465,43.060383,829.907],[-1.767508,43.060418,830.017],[-1.767346,43.060461,830.009],[-1.767416,43.060468,830.056],[-1.767476,43.06045,830.085],[-1.767478,43.060402,829.934],[-1.767455,43.060457,830.094],[-1.767417,43.060499,830.187],[-1.767367,43.060547,830.454],[-1.767322,43.060579,830.667],[-1.767265,43.060606,830.897],[-1.767208,43.060628,831.117],[-1.76716,43.060673,831.362],[-1.767115,43.060706,831.683],[-1.767063,43.060743,832.011],[-1.767025,43.060783,832.309],[-1.767003,43.06083,832.657],[-1.76698,43.060875,832.946],[-1.766915,43.060893,833.685],[-1.766862,43.06085,834.015],[-1.766804,43.060885,834.878],[-1.766754,43.060923,835.625],[-1.766751,43.06097,835.988],[-1.766718,43.061027,836.758],[-1.766668,43.061054,837.678],[-1.766628,43.061099,838.545],[-1.76661,43.061144,839.147],[-1.766618,43.061191,839.311],[-1.766601,43.061244,840.009],[-1.766611,43.061291,840.245],[-1.766591,43.061353,841.114],[-1.766594,43.0614,841.413],[-1.766574,43.061447,841.973],[-1.766594,43.061504,841.816],[-1.766584,43.061567,842.353],[-1.766586,43.061625,842.596],[-1.766583,43.061673,842.816],[-1.766566,43.061735,843.066],[-1.766561,43.06178,843.097],[-1.766559,43.061828,843.023],[-1.766562,43.061881,842.825],[-1.766524,43.061931,843.609],[-1.766511,43.061984,843.89],[-1.766499,43.062034,843.959],[-1.766499,43.062082,843.788],[-1.766479,43.062132,844.188],[-1.766456,43.062174,844.511],[-1.766446,43.062222,844.628],[-1.766413,43.062262,845.241],[-1.766273,43.062692,846.141],[-1.766226,43.062732,847.151],[-1.766178,43.062782,848.026],[-1.766158,43.062834,848.047],[-1.766121,43.062871,848.711],[-1.766008,43.063013,850.709],[-1.765986,43.06306,851.093],[-1.765973,43.063563,847.692],[-1.765921,43.063603,849.281],[-1.765911,43.063655,849.171],[-1.765901,43.063703,849.114],[-1.765878,43.06376,849.491],[-1.76585,43.063813,850.054],[-1.765823,43.063856,850.674],[-1.765771,43.063888,852.294],[-1.765673,43.064125,853.577],[-1.76565,43.064178,853.461],[-1.765635,43.064225,852.827],[-1.765603,43.064277,852.709],[-1.765601,43.064327,851.898],[-1.765579,43.064374,851.677],[-1.765534,43.064419,852.216],[-1.765497,43.064457,852.966],[-1.765442,43.064497,854.399],[-1.765417,43.064552,854.216],[-1.765412,43.064605,853.629],[-1.765405,43.064653,853.089],[-1.765373,43.064696,853.429],[-1.765318,43.064726,854.636],[-1.76529,43.064769,854.817],[-1.76527,43.064814,854.618],[-1.765237,43.064854,855.009],[-1.765217,43.064902,854.744],[-1.76522,43.064957,853.543],[-1.765182,43.064995,853.932],[-1.765155,43.065038,853.772],[-1.765093,43.065063,854.885],[-1.765016,43.065086,856.482],[-1.764949,43.065118,858.055],[-1.764912,43.065155,858.435],[-1.764884,43.065205,858.185],[-1.764787,43.065402,855.744],[-1.764785,43.065447,854.405],[-1.764773,43.065494,853.315],[-1.764746,43.065539,852.809],[-1.764681,43.065572,854.985],[-1.764686,43.065622,853.074],[-1.764663,43.065669,852.733],[-1.76461,43.065701,854.273],[-1.764543,43.065728,856.446],[-1.764483,43.065761,857.743],[-1.764443,43.065804,857.416],[-1.764423,43.065852,856.466],[-1.764406,43.065895,855.996],[-1.764381,43.065937,855.879],[-1.764358,43.065985,855.505],[-1.764318,43.066023,856.325],[-1.764286,43.066068,856.609],[-1.764241,43.066105,857.748],[-1.764074,43.066297,856.917],[-1.764047,43.066344,856.066],[-1.764012,43.066392,855.656],[-1.763972,43.066427,856.369],[-1.763959,43.066475,855.436],[-1.763954,43.066527,854.149],[-1.763914,43.066575,854.569],[-1.763881,43.066627,854.429],[-1.763826,43.066665,855.364],[-1.763759,43.066678,857.306],[-1.763726,43.066721,857.116],[-1.763721,43.066773,855.609],[-1.763691,43.06682,855.227],[-1.763639,43.066855,855.936],[-1.763572,43.06688,857.365],[-1.763504,43.066917,858.135],[-1.763452,43.066944,858.638],[-1.763377,43.066952,860.425],[-1.763327,43.066987,860.478],[-1.763274,43.067024,859.818],[-1.763212,43.067041,860.178],[-1.763149,43.067054,860.512],[-1.763076,43.067071,860.832],[-1.763009,43.067081,860.905],[-1.762941,43.067089,860.809],[-1.762873,43.067101,860.552],[-1.762798,43.067098,861.161],[-1.762726,43.067096,860.63],[-1.762639,43.067094,859.64],[-1.762484,43.067114,856.413],[-1.762414,43.067096,856.55],[-1.762324,43.067064,857.253],[-1.762259,43.067034,858.443],[-1.762202,43.067006,859.773],[-1.762137,43.066974,861.624],[-1.762049,43.066956,862.604],[-1.761974,43.066946,863.014],[-1.761901,43.066923,863.909],[-1.761828,43.066915,863.893],[-1.76176,43.06692,863.072],[-1.761685,43.0669,863.741],[-1.761633,43.066872,865.021],[-1.761566,43.066865,865.024],[-1.761499,43.066878,863.881],[-1.761429,43.066873,863.634],[-1.761364,43.066876,863.134],[-1.761296,43.066838,864.934],[-1.761224,43.066825,865.233],[-1.761159,43.066802,866.023],[-1.761087,43.066774,867.115],[-1.76101,43.066774,866.909],[-1.760945,43.066769,867.064],[-1.760872,43.066766,867.033],[-1.76081,43.066754,867.782],[-1.760748,43.066726,869.472],[-1.760685,43.066718,870.025],[-1.760627,43.066698,871.252],[-1.760564,43.066691,871.685],[-1.760501,43.066693,871.915],[-1.760438,43.066713,871.235],[-1.760376,43.066723,871.248],[-1.760313,43.066735,871.061],[-1.760256,43.066765,869.917],[-1.760178,43.066795,869.309],[-1.760118,43.066825,868.635],[-1.760055,43.066847,868.414],[-1.759997,43.066875,868.183],[-1.759944,43.066912,867.413],[-1.759879,43.066935,867.626],[-1.759794,43.066955,868.393],[-1.759734,43.06698,868.436],[-1.759669,43.067005,868.716],[-1.759611,43.067028,869.136],[-1.759558,43.067068,868.974],[-1.759516,43.067106,868.656],[-1.759459,43.067144,868.921],[-1.759432,43.067196,868.109],[-1.759412,43.067243,867.678],[-1.75937,43.067296,867.957],[-1.759342,43.067339,868.076],[-1.759305,43.067384,868.496],[-1.75927,43.067432,868.769],[-1.75923,43.067482,869.216],[-1.759177,43.067534,870.239],[-1.759134,43.067576,870.919],[-1.759097,43.067613,871.559],[-1.759079,43.067673,871.245],[-1.759067,43.067725,870.747],[-1.759055,43.06778,870.211],[-1.75904,43.06784,870.109],[-1.759012,43.067882,870.565],[-1.758974,43.067925,871.154],[-1.758931,43.067962,871.933],[-1.758899,43.068004,872.393],[-1.758856,43.068052,872.666],[-1.758809,43.068087,873.473],[-1.758757,43.068129,873.916],[-1.758714,43.068174,874.066],[-1.758681,43.068214,873.836],[-1.758648,43.068259,873.377],[-1.75862,43.068304,872.561],[-1.758572,43.068344,872.327],[-1.758514,43.068379,872.209],[-1.758456,43.068417,872.278],[-1.758411,43.068457,872.017],[-1.758376,43.068519,871.246],[-1.758348,43.068561,870.846],[-1.758298,43.068594,870.689],[-1.758263,43.068547,872.096],[-1.7582,43.06852,873.239],[-1.758153,43.068487,874.649],[-1.758091,43.068467,875.879],[-1.758014,43.068479,875.941],[-1.757942,43.068497,875.581],[-1.75787,43.068504,875.309],[-1.757792,43.068494,875.809],[-1.75772,43.068489,874.985],[-1.757662,43.068456,875.094],[-1.757612,43.068424,875.373],[-1.757554,43.068384,875.853],[-1.757491,43.068374,875.266],[-1.757454,43.068331,875.963],[-1.757454,43.068286,876.886],[-1.757429,43.068226,877.216],[-1.757411,43.068181,877.596],[-1.757393,43.068138,877.711],[-1.757356,43.068091,877.221],[-1.757316,43.068039,876.603],[-1.757279,43.068001,875.809],[-1.757256,43.067958,875.632],[-1.757221,43.06791,875.161],[-1.757204,43.067853,875.52],[-1.757169,43.067806,875.41],[-1.757154,43.067754,875.973],[-1.757107,43.067716,875.46],[-1.757084,43.067668,875.683],[-1.757052,43.06762,875.673],[-1.757014,43.067578,875.453],[-1.756982,43.06753,875.493],[-1.756985,43.067473,876.365],[-1.756973,43.06741,876.921],[-1.75696,43.067353,877.509],[-1.756932,43.067313,877.45],[-1.756919,43.067251,878.059],[-1.756884,43.067201,878.178],[-1.756832,43.067171,877.598],[-1.75677,43.067138,876.761],[-1.756707,43.067123,875.738],[-1.75666,43.067091,875.241],[-1.756618,43.067054,875.011],[-1.756593,43.067009,875.241],[-1.756545,43.066962,875.163],[-1.756513,43.066905,875.544],[-1.756466,43.066875,875.118],[-1.756488,43.06682,876.709],[-1.756465,43.066763,877.457],[-1.756477,43.066701,878.956],[-1.756469,43.066646,879.955],[-1.756436,43.066606,880.245],[-1.756428,43.066558,881.148],[-1.756405,43.0665,881.915],[-1.756387,43.066457,882.558],[-1.756372,43.066412,883.088],[-1.756347,43.066369,883.168],[-1.756322,43.066327,883.182],[-1.756285,43.066287,882.843],[-1.756243,43.066249,882.317],[-1.756215,43.066202,882.509],[-1.756203,43.066157,883.139],[-1.756191,43.066112,883.788],[-1.756179,43.066055,884.497],[-1.756146,43.065998,884.537],[-1.756121,43.065955,884.53],[-1.756141,43.065908,885.717],[-1.756139,43.065858,886.42],[-1.756092,43.065818,885.81],[-1.756047,43.065726,886.59],[-1.756012,43.065678,886.574],[-1.755995,43.065635,886.956],[-1.755978,43.06558,887.621],[-1.75595,43.065507,888.609],[-1.755933,43.065447,889.528],[-1.755908,43.06539,890.047],[-1.755875,43.065345,890.096],[-1.755852,43.065295,890.346],[-1.755822,43.065253,890.389],[-1.75577,43.065211,889.686],[-1.755738,43.065158,889.999],[-1.755703,43.065113,889.979],[-1.755668,43.065065,890.069],[-1.755635,43.065017,890.198],[-1.75559,43.064969,890.015],[-1.75554,43.064941,889.326],[-1.755503,43.064886,889.809],[-1.755478,43.064839,890.47],[-1.755416,43.064797,889.839],[-1.755353,43.064767,888.938],[-1.755308,43.064717,889.098],[-1.755268,43.064679,888.891],[-1.755233,43.064641,888.898],[-1.755191,43.064604,888.641],[-1.755153,43.064562,888.721],[-1.755138,43.064512,889.721],[-1.755096,43.064469,889.785],[-1.755076,43.064424,890.589],[-1.755034,43.064384,890.417],[-1.755006,43.064341,890.809],[-1.754973,43.064303,890.939],[-1.754925,43.064263,890.898],[-1.754893,43.064218,891.327],[-1.754848,43.064183,891.217],[-1.754795,43.064141,891.77],[-1.75473,43.064119,890.937],[-1.754667,43.064094,890.38],[-1.754625,43.064057,890.69],[-1.754578,43.064012,891.22],[-1.754541,43.063969,892.031],[-1.754501,43.063932,892.561],[-1.754421,43.063887,892.507],[-1.754359,43.06384,892.509],[-1.754306,43.063812,892.184],[-1.754253,43.063784,891.843],[-1.754203,43.063741,892.232],[-1.754163,43.063694,892.992],[-1.754121,43.063646,893.785],[-1.754089,43.063599,894.722],[-1.754054,43.063551,895.455],[-1.754007,43.063518,895.465],[-1.753969,43.063468,896.085],[-1.753936,43.063426,896.594],[-1.753871,43.063389,896.057],[-1.753831,43.063342,896.522],[-1.753793,43.06329,897.009],[-1.753776,43.063235,898.05],[-1.753746,43.063185,898.719],[-1.753743,43.063138,899.878],[-1.753718,43.063093,900.438],[-1.753671,43.063048,900.571],[-1.753649,43.062993,901.458],[-1.753607,43.062948,901.631],[-1.75356,43.062906,901.921],[-1.753497,43.062886,901.511],[-1.753442,43.062848,901.633],[-1.753412,43.062806,902.323],[-1.753374,43.062766,903.015],[-1.753326,43.062734,903.409],[-1.753259,43.062722,903.494],[-1.753212,43.06269,904.023],[-1.753152,43.062653,904.552],[-1.753107,43.062611,905.192],[-1.75305,43.062581,905.215],[-1.752987,43.062554,905.452],[-1.752917,43.062534,905.425],[-1.752849,43.062526,905.165],[-1.752772,43.062518,904.865],[-1.752699,43.062498,905.368],[-1.752641,43.06247,906.042],[-1.752583,43.062448,906.626],[-1.752506,43.06244,906.909],[-1.752444,43.062423,907.337],[-1.752381,43.062401,907.826],[-1.752311,43.062389,908.165],[-1.752241,43.062392,908.315],[-1.752174,43.062375,908.898],[-1.752106,43.06236,909.365],[-1.752034,43.062357,909.958],[-1.751971,43.062377,910.488],[-1.751908,43.062384,910.968],[-1.751845,43.062402,911.697],[-1.751787,43.062437,912.523],[-1.751724,43.062474,913.825],[-1.751679,43.062511,914.909],[-1.751619,43.062543,915.94],[-1.751574,43.062583,916.879],[-1.751539,43.062628,917.788],[-1.751496,43.06267,918.888],[-1.751456,43.06271,919.971],[-1.751409,43.062755,921.398],[-1.751361,43.062783,922.661],[-1.751341,43.062833,923.521],[-1.751293,43.062881,925.111],[-1.751245,43.062911,926.594],[-1.751228,43.062954,927.557],[-1.751183,43.062989,929.122],[-1.751158,43.063036,930.509],[-1.751103,43.063068,932.37],[-1.751075,43.063121,933.719],[-1.751035,43.063163,935.118],[-1.750983,43.063203,936.918],[-1.750948,43.063243,938.461],[-1.75091,43.063285,940.178],[-1.750882,43.06333,941.791],[-1.750815,43.063353,943.691],[-1.750787,43.063396,944.741],[-1.750747,43.063433,945.838],[-1.750725,43.063483,947.17],[-1.750662,43.063503,948.317],[-1.750602,43.063523,949.509],[-1.7506,43.063573,950.644],[-1.750575,43.063616,951.883],[-1.75054,43.063654,952.522],[-1.75051,43.063697,953.132],[-1.750477,43.06374,953.825],[-1.750459,43.063785,954.552],[-1.750434,43.063833,955.415],[-1.750396,43.063881,956.695],[-1.750331,43.063916,957.575],[-1.750283,43.063949,958.219],[-1.75026,43.063997,958.409],[-1.750217,43.06403,958.619],[-1.75018,43.064072,959.109],[-1.750135,43.064109,959.882],[-1.75009,43.064142,960.631],[-1.750055,43.06418,961.29],[-1.750015,43.064217,961.37],[-1.749955,43.064239,961.343],[-1.749908,43.064272,961.35],[-1.749853,43.064299,961.653],[-1.749813,43.064337,962.053],[-1.749748,43.064372,962.943],[-1.74968,43.064395,963.417],[-1.749632,43.064435,964.187],[-1.74957,43.064453,964.415],[-1.749527,43.064491,964.309],[-1.749475,43.064521,964.562],[-1.749412,43.064538,964.441],[-1.749354,43.064571,964.34],[-1.749301,43.064594,964.43],[-1.749234,43.064634,965.213],[-1.749161,43.064641,965.75],[-1.749101,43.064666,967.013],[-1.749048,43.064713,969.033],[-1.748985,43.064733,969.833],[-1.748927,43.064753,970.241],[-1.74887,43.064773,970.681],[-1.748813,43.064796,970.709],[-1.748736,43.064818,971.109],[-1.748676,43.064846,971.535],[-1.748601,43.064863,972.124],[-1.748544,43.064896,972.483],[-1.748477,43.064908,972.893],[-1.748419,43.064936,973.286],[-1.748362,43.064954,973.693],[-1.74829,43.064961,974.156],[-1.748242,43.064994,974.626],[-1.748185,43.064976,974.946],[-1.748118,43.064994,975.558],[-1.748056,43.065002,976.052],[-1.748024,43.065044,975.717],[-1.747957,43.065034,976.109],[-1.747917,43.065082,976.126],[-1.747852,43.065104,976.475],[-1.747799,43.065144,976.864],[-1.747732,43.065156,977.294],[-1.747677,43.065178,977.527],[-1.747627,43.065208,977.834],[-1.74757,43.065231,978.257],[-1.747517,43.065258,978.787],[-1.747459,43.065293,979.277],[-1.747396,43.065295,979.749],[-1.747334,43.06531,980.202],[-1.747257,43.065327,980.922],[-1.747189,43.065335,981.509],[-1.747127,43.065342,982.295],[-1.74707,43.065367,982.984],[-1.74701,43.06541,984.193],[-1.746943,43.06543,985.293],[-1.746885,43.065445,986.126],[-1.746825,43.065468,987.223],[-1.746765,43.065491,988.426],[-1.746707,43.065521,989.726],[-1.746662,43.065553,991.016],[-1.746595,43.065575,992.268],[-1.746522,43.065585,993.442],[-1.74646,43.065603,994.526],[-1.7464,43.065618,995.509],[-1.746347,43.06565,996.557],[-1.746274,43.06566,997.566],[-1.746206,43.065673,998.545],[-1.746136,43.065693,999.715],[-1.746078,43.065716,1000.818],[-1.746013,43.065736,1002.015],[-1.74594,43.065743,1003.278],[-1.745873,43.06577,1004.548],[-1.745803,43.0658,1006.058],[-1.745738,43.065822,1007.228],[-1.745673,43.065845,1008.489],[-1.745613,43.06586,1009.417],[-1.745546,43.065878,1010.409],[-1.745484,43.065911,1011.413],[-1.745427,43.065934,1012.382],[-1.745364,43.065957,1013.341],[-1.745314,43.065999,1014.391],[-1.745306,43.066047,1014.924],[-1.745303,43.066094,1015.521],[-1.745291,43.066142,1015.444],[-1.745279,43.06619,1014.984],[-1.745284,43.066235,1014.284],[-1.745234,43.066207,1013.918],[-1.745166,43.06622,1012.698],[-1.745094,43.066218,1011.417],[-1.745024,43.066226,1010.209],[-1.744962,43.066249,1008.432],[-1.744894,43.066249,1006.511],[-1.744832,43.066249,1004.71],[-1.744764,43.066267,1002.57],[-1.744709,43.066239,1001.383],[-1.744646,43.066254,999.42],[-1.744573,43.066256,997.473],[-1.744511,43.066251,995.873],[-1.744444,43.066264,994.013],[-1.744369,43.066267,991.752],[-1.744302,43.066264,989.753],[-1.74423,43.066287,987.508],[-1.74417,43.066299,985.809],[-1.744108,43.066297,983.926],[-1.744035,43.066287,981.755],[-1.743965,43.066285,979.594],[-1.7439,43.066287,977.614],[-1.74383,43.066287,975.717],[-1.743768,43.06628,974.034],[-1.743696,43.06626,971.997],[-1.743636,43.066248,970.297],[-1.743564,43.066241,968.327],[-1.743494,43.066239,966.731],[-1.743419,43.066241,964.961],[-1.743349,43.066239,963.307],[-1.743286,43.066237,962.109],[-1.743214,43.066227,960.794],[-1.743144,43.066227,959.483],[-1.743077,43.066207,958.172],[-1.743012,43.066204,957.032],[-1.742947,43.066202,956.095],[-1.742884,43.066197,955.052],[-1.742811,43.066195,953.845],[-1.742743,43.066192,952.835],[-1.74268,43.066174,951.775],[-1.742612,43.066189,950.727],[-1.74255,43.066179,949.868],[-1.74248,43.066187,948.814],[-1.742407,43.066187,947.909],[-1.74234,43.066169,947.253],[-1.742283,43.066146,946.652],[-1.74221,43.066154,945.841],[-1.74214,43.066156,945.261],[-1.74208,43.066168,944.734],[-1.742015,43.066166,944.241],[-1.741948,43.066166,943.684],[-1.741883,43.066168,943.154],[-1.741821,43.066168,942.794],[-1.741759,43.066171,942.276],[-1.741682,43.066168,941.79],[-1.74161,43.06616,941.819],[-1.74154,43.066155,942.109],[-1.741467,43.066162,942.228],[-1.74139,43.066147,942.677],[-1.741325,43.066145,943.156],[-1.741245,43.066152,943.616],[-1.741187,43.066174,943.859],[-1.741124,43.066179,944.256],[-1.741062,43.066192,944.829],[-1.741004,43.066219,945.499],[-1.740937,43.066229,946.249],[-1.740877,43.066242,947.071],[-1.74081,43.066259,947.641],[-1.74075,43.066277,947.915],[-1.740682,43.066295,948.309],[-1.740612,43.066295,948.978],[-1.740555,43.066323,949.277],[-1.740493,43.066341,950.016],[-1.740433,43.066364,950.866],[-1.740358,43.066371,951.969],[-1.740293,43.066378,952.876],[-1.740226,43.066385,953.779],[-1.740168,43.066407,954.679],[-1.740108,43.06642,955.569],[-1.740046,43.066427,956.592],[-1.739984,43.066419,957.373],[-1.739922,43.066419,958.32],[-1.739854,43.066424,959.309],[-1.739782,43.066426,960.42],[-1.73971,43.066429,961.569],[-1.739648,43.066444,962.558],[-1.739583,43.066427,963.358],[-1.73952,43.066432,964.371],[-1.739455,43.066429,965.338],[-1.739385,43.066434,966.231],[-1.73931,43.066431,967.171],[-1.739247,43.066428,967.841],[-1.739179,43.06642,968.439],[-1.739117,43.066432,969.301],[-1.739049,43.066429,970.121],[-1.738989,43.066442,971.009],[-1.738922,43.066449,971.964],[-1.738855,43.066457,972.893],[-1.738785,43.066482,974.162],[-1.738715,43.066484,974.922],[-1.73865,43.066487,975.725],[-1.738588,43.066502,976.812],[-1.73853,43.066525,978.335],[-1.738462,43.066533,979.545],[-1.738392,43.066525,980.535],[-1.738315,43.066523,981.698],[-1.738237,43.066516,982.315],[-1.738164,43.066516,983.126],[-1.738096,43.066513,983.809],[-1.738023,43.066518,984.76],[-1.737951,43.066523,985.549],[-1.737881,43.066543,986.728],[-1.737821,43.06657,987.848],[-1.737764,43.066593,988.821],[-1.737702,43.066613,989.768],[-1.737649,43.066643,990.961],[-1.737594,43.06667,992.011],[-1.737526,43.066682,992.991],[-1.737469,43.066704,993.866],[-1.737409,43.066731,994.729],[-1.737351,43.066754,995.721],[-1.737291,43.066784,996.809],[-1.737226,43.066797,997.877],[-1.737168,43.06682,998.816],[-1.737108,43.066835,999.775],[-1.737048,43.06685,1000.695],[-1.736983,43.066873,1001.868],[-1.736936,43.066903,1003.195],[-1.736876,43.066925,1004.558],[-1.736821,43.066948,1005.878],[-1.736759,43.066965,1007.048],[-1.736701,43.06699,1008.391],[-1.736644,43.067013,1009.681],[-1.736584,43.067033,1011.119],[-1.736522,43.06705,1012.509],[-1.736455,43.067068,1014.02],[-1.736393,43.067088,1015.589],[-1.736328,43.067078,1016.448],[-1.736268,43.067095,1017.768],[-1.736201,43.067095,1018.861],[-1.736133,43.067085,1019.718],[-1.736075,43.067103,1021.111],[-1.736012,43.067113,1022.621],[-1.73595,43.067088,1023.371],[-1.735882,43.067111,1025.142],[-1.735817,43.067109,1026.322],[-1.735755,43.067119,1027.914],[-1.735695,43.067131,1029.509],[-1.73562,43.067128,1031.295],[-1.73555,43.067108,1032.434],[-1.73548,43.067095,1033.423],[-1.735417,43.067077,1034.273],[-1.735355,43.067072,1035.156],[-1.735293,43.067075,1036.223],[-1.73523,43.06706,1037.036],[-1.735168,43.067045,1037.936],[-1.735101,43.067025,1038.956],[-1.735034,43.067013,1039.935],[-1.734971,43.067008,1040.686],[-1.734911,43.066983,1040.914],[-1.734844,43.066956,1041.209],[-1.734769,43.066938,1041.684],[-1.734714,43.066915,1041.853],[-1.734669,43.066883,1041.842],[-1.734622,43.066853,1041.972],[-1.734562,43.06683,1042.275],[-1.734499,43.066807,1042.672],[-1.734449,43.06677,1043.015],[-1.734386,43.066735,1042.915],[-1.734326,43.0667,1042.915],[-1.734279,43.06667,1043.093],[-1.734224,43.066643,1042.965],[-1.734179,43.066598,1043.021],[-1.734137,43.066565,1042.809],[-1.734085,43.06653,1042.78],[-1.734042,43.066485,1042.819],[-1.733994,43.066443,1043.198],[-1.733932,43.066421,1043.568],[-1.73388,43.066389,1043.931],[-1.733833,43.066351,1043.758],[-1.73378,43.066304,1043.711],[-1.733725,43.066269,1043.861],[-1.733687,43.066226,1044.311],[-1.733625,43.066201,1044.753],[-1.733568,43.066173,1044.804],[-1.733495,43.066153,1044.714],[-1.733433,43.06613,1044.909],[-1.733366,43.066107,1045.246],[-1.733296,43.066075,1045.045],[-1.733226,43.066053,1044.754],[-1.733158,43.066031,1044.554],[-1.733096,43.066019,1044.357],[-1.733031,43.066001,1044.324],[-1.732958,43.065983,1044.447],[-1.7329,43.065968,1044.567],[-1.732833,43.065956,1044.557],[-1.732758,43.065936,1044.871],[-1.732686,43.065931,1044.941],[-1.732624,43.065934,1044.815],[-1.732559,43.065936,1044.809],[-1.732484,43.065928,1044.998],[-1.732426,43.065913,1044.987],[-1.732348,43.06589,1044.926],[-1.732288,43.065875,1044.836],[-1.732226,43.06587,1044.559],[-1.732144,43.065888,1044.326],[-1.732067,43.065895,1044.299],[-1.732002,43.065913,1044.129],[-1.731942,43.065938,1043.969],[-1.731875,43.06596,1043.925],[-1.731808,43.06599,1043.926],[-1.731743,43.066017,1044.008],[-1.73168,43.066034,1044.209],[-1.73161,43.066039,1044.623],[-1.731537,43.066052,1045.032],[-1.731467,43.066057,1045.541],[-1.731415,43.066089,1045.841],[-1.73135,43.066116,1046.234],[-1.73128,43.066133,1046.681],[-1.73122,43.066151,1047.024],[-1.731165,43.066193,1047.244],[-1.7311,43.066215,1047.894],[-1.731035,43.06624,1048.846],[-1.73098,43.066267,1049.688],[-1.730937,43.0663,1050.316],[-1.730877,43.06632,1051.309],[-1.730829,43.06636,1052.185],[-1.730769,43.06638,1053.234],[-1.730716,43.066412,1054.123],[-1.730678,43.066452,1054.743],[-1.730625,43.066482,1055.716],[-1.73057,43.066515,1056.763],[-1.730517,43.066553,1057.566],[-1.73046,43.066583,1058.316],[-1.730407,43.066621,1059.346],[-1.730362,43.066653,1060.368],[-1.730289,43.06667,1061.842],[-1.730236,43.0667,1061.526],[-1.730199,43.066742,1061.309],[-1.730164,43.066785,1061.417],[-1.730124,43.066825,1061.766],[-1.730094,43.066872,1062.275],[-1.730074,43.066922,1062.925],[-1.730054,43.066967,1063.558],[-1.730019,43.067017,1064.085],[-1.729987,43.06706,1064.258],[-1.729944,43.067097,1063.658],[-1.729921,43.067139,1063.618],[-1.729884,43.067184,1063.741],[-1.729854,43.067237,1064.081],[-1.729816,43.06728,1064.009],[-1.729789,43.067322,1064.309],[-1.729749,43.067365,1064.945],[-1.729712,43.067413,1065.634],[-1.72967,43.067458,1065.573],[-1.729648,43.067508,1065.943],[-1.729585,43.067501,1065.056],[-1.729647,43.067503,1065.983],[-1.729669,43.067455,1065.566],[-1.729712,43.067413,1065.616],[-1.729747,43.067371,1065.096],[-1.729792,43.067328,1064.432],[-1.729832,43.067288,1064.192],[-1.729869,43.067235,1064.111],[-1.729907,43.067195,1064.009],[-1.72994,43.067152,1064.044],[-1.729962,43.067107,1064.093],[-1.729987,43.067064,1064.262],[-1.730029,43.067016,1063.972],[-1.730071,43.066978,1063.325],[-1.730111,43.066935,1062.712],[-1.730151,43.066885,1062.065],[-1.730186,43.066835,1061.685],[-1.730228,43.066788,1061.555],[-1.73027,43.066743,1061.745],[-1.730325,43.066708,1061.047],[-1.730358,43.066653,1060.411],[-1.730381,43.066611,1059.609],[-1.730411,43.066568,1058.965],[-1.730446,43.06653,1058.214],[-1.730473,43.066487,1057.783],[-1.730496,43.06643,1057.363],[-1.730541,43.066388,1057.026],[-1.730589,43.066343,1056.313],[-1.730626,43.066306,1055.536],[-1.730676,43.066263,1054.656],[-1.730718,43.06623,1053.896],[-1.730781,43.066202,1052.841],[-1.730838,43.066179,1051.981],[-1.730895,43.066159,1051.109],[-1.730958,43.066137,1050.209],[-1.73101,43.066109,1049.595],[-1.731072,43.066094,1048.634],[-1.731137,43.066086,1047.883],[-1.731195,43.066058,1047.483],[-1.731258,43.066038,1046.916],[-1.73133,43.066016,1046.443],[-1.731398,43.066003,1045.996],[-1.731473,43.065986,1045.566],[-1.731536,43.065968,1045.246],[-1.731614,43.065965,1044.814],[-1.731676,43.06595,1044.654],[-1.731744,43.065933,1044.409],[-1.731807,43.065935,1044.309],[-1.73187,43.065925,1044.262],[-1.731947,43.065933,1043.931],[-1.732025,43.065943,1043.72],[-1.732098,43.065933,1043.76],[-1.73218,43.06593,1043.733],[-1.732243,43.06594,1043.63],[-1.73232,43.065948,1043.863],[-1.732395,43.065946,1044.113],[-1.732468,43.065943,1044.593],[-1.732533,43.065938,1044.752],[-1.732595,43.065935,1044.853],[-1.732658,43.065937,1044.808],[-1.732741,43.065944,1044.609],[-1.732814,43.065952,1044.646],[-1.732879,43.065967,1044.595],[-1.732952,43.065984,1044.464],[-1.733014,43.066002,1044.224],[-1.733086,43.066025,1044.117],[-1.733146,43.066045,1044.254],[-1.733209,43.066057,1044.557],[-1.733286,43.066084,1044.857],[-1.733346,43.066102,1045.127],[-1.733406,43.066119,1045.143],[-1.733466,43.066154,1044.564],[-1.733526,43.066176,1044.51],[-1.733599,43.066196,1044.709],[-1.733662,43.066226,1044.385],[-1.733719,43.066256,1043.984],[-1.733772,43.066299,1043.723],[-1.733827,43.066327,1043.833],[-1.733874,43.066359,1043.956],[-1.733929,43.066396,1043.813],[-1.733986,43.066424,1043.346],[-1.734036,43.066452,1043.086],[-1.734096,43.066489,1042.936],[-1.734154,43.066506,1043.054],[-1.734212,43.066531,1042.856],[-1.734269,43.066568,1042.611],[-1.734317,43.0666,1042.609],[-1.734379,43.066627,1042.776],[-1.734444,43.066659,1042.925],[-1.734492,43.066694,1042.584],[-1.734554,43.066712,1041.924],[-1.734616,43.06675,1041.517],[-1.734666,43.066777,1041.274],[-1.734728,43.066802,1040.997],[-1.734796,43.06682,1040.237],[-1.734874,43.066843,1039.697],[-1.734939,43.06688,1039.478],[-1.735004,43.066905,1039.233],[-1.735079,43.066928,1038.226],[-1.735136,43.066946,1037.609],[-1.735194,43.066973,1036.858],[-1.735249,43.066996,1036.117],[-1.735319,43.067019,1035.166],[-1.735389,43.067034,1034.146],[-1.735452,43.067061,1033.449],[-1.735517,43.067073,1032.526],[-1.73558,43.067095,1031.669],[-1.735647,43.06712,1030.499],[-1.735697,43.067155,1029.919],[-1.73577,43.06716,1028.332],[-1.735843,43.067157,1026.692],[-1.735915,43.067147,1025.111],[-1.735973,43.067114,1023.309],[-1.73605,43.067124,1022.194],[-1.736112,43.067132,1021.013],[-1.736179,43.067125,1019.872],[-1.736254,43.067122,1018.482],[-1.736319,43.067107,1017.185],[-1.736382,43.067087,1015.762],[-1.736449,43.067077,1014.375],[-1.736519,43.067067,1012.915],[-1.736582,43.067052,1011.525],[-1.73664,43.067022,1009.984],[-1.736708,43.067002,1008.407],[-1.736771,43.06699,1007.317],[-1.736841,43.066965,1005.909],[-1.736894,43.06694,1004.679],[-1.736952,43.066915,1003.278],[-1.737027,43.066903,1002.177],[-1.737082,43.066863,1000.667],[-1.73714,43.066845,999.69],[-1.737197,43.066827,998.747],[-1.737267,43.066812,997.64],[-1.737325,43.06679,996.67],[-1.737387,43.066773,995.78],[-1.73745,43.066751,994.712],[-1.737508,43.066716,993.632],[-1.737571,43.066698,992.705],[-1.737626,43.066665,991.609],[-1.737688,43.066637,990.442],[-1.737746,43.066619,989.491],[-1.737803,43.066587,988.35],[-1.737865,43.066562,987.22],[-1.737923,43.066534,986.093],[-1.737996,43.066532,985.27],[-1.738063,43.066537,984.653],[-1.738133,43.066544,984.063],[-1.738201,43.066556,983.483],[-1.738274,43.066548,982.592],[-1.738347,43.06654,981.573],[-1.73841,43.06654,980.52],[-1.738488,43.066543,979.309],[-1.738558,43.066541,978.14],[-1.738616,43.066521,976.879],[-1.738673,43.066503,975.828],[-1.738741,43.066496,974.988],[-1.738806,43.066488,974.081],[-1.738876,43.06647,972.958],[-1.738946,43.06646,971.961],[-1.739008,43.066448,970.921],[-1.739073,43.06644,970.051],[-1.739138,43.066428,969.055],[-1.7392,43.066426,968.307],[-1.739265,43.066423,967.517],[-1.73934,43.066436,966.809],[-1.739402,43.066448,966.266],[-1.739467,43.066446,965.385],[-1.739545,43.066448,964.194],[-1.739622,43.06645,963.074],[-1.73969,43.066438,961.897],[-1.739758,43.066428,960.734],[-1.739833,43.066426,959.617],[-1.739895,43.066424,958.747],[-1.739972,43.066414,957.527],[-1.740049,43.066409,956.463],[-1.740112,43.066396,955.444],[-1.74018,43.066388,954.418],[-1.740242,43.066376,953.509],[-1.74031,43.066363,952.547],[-1.740382,43.06635,951.676],[-1.740459,43.066337,950.525],[-1.740526,43.066329,949.695],[-1.740598,43.066317,948.998],[-1.740668,43.066305,948.315],[-1.740741,43.066292,947.858],[-1.740814,43.066272,947.498],[-1.740877,43.066259,946.898],[-1.740934,43.066241,946.111],[-1.741004,43.066221,945.421],[-1.741077,43.066206,944.503],[-1.741134,43.066184,944.009],[-1.741199,43.066166,943.882],[-1.741272,43.066144,943.581],[-1.741332,43.066131,943.26],[-1.74138,43.066101,943.05],[-1.741433,43.066059,942.673],[-1.741483,43.066027,942.38],[-1.741546,43.065999,941.823],[-1.741609,43.065987,941.453],[-1.741647,43.065944,940.913],[-1.741697,43.065912,940.586],[-1.741734,43.065872,940.16],[-1.741792,43.065855,939.826],[-1.741867,43.065862,939.709],[-1.741939,43.06588,939.939],[-1.742004,43.0659,939.898],[-1.742067,43.065895,939.337],[-1.742135,43.065893,938.847],[-1.742205,43.065888,938.15],[-1.742273,43.065891,938.297],[-1.742338,43.065884,938.17],[-1.742405,43.065884,938.24],[-1.74248,43.065876,938.06],[-1.742555,43.065874,938.437],[-1.742618,43.065876,939.049],[-1.742688,43.065863,938.913],[-1.742755,43.065873,940.009],[-1.74283,43.065861,940.114],[-1.742893,43.065876,941.633],[-1.742968,43.065874,942.422],[-1.743041,43.065859,942.392],[-1.743108,43.065846,942.585],[-1.74317,43.065829,942.432],[-1.743233,43.065797,941.465],[-1.743308,43.065782,941.675],[-1.743376,43.065769,942.615],[-1.743434,43.065739,942.745],[-1.743487,43.065709,942.847],[-1.743554,43.065689,943.911],[-1.743612,43.065674,945.009],[-1.743657,43.065627,944.415],[-1.74368,43.06558,942.944],[-1.743733,43.065555,943.853],[-1.743781,43.06552,944.513],[-1.743828,43.06549,945.496],[-1.743875,43.065455,946.223],[-1.743898,43.065405,945.556],[-1.743931,43.065358,945.376],[-1.743948,43.065311,944.416],[-1.743976,43.065263,943.777],[-1.744018,43.065226,943.661],[-1.74407,43.065193,944.027],[-1.744112,43.06516,944.009],[-1.74417,43.065145,945.438],[-1.744228,43.065115,946.397],[-1.744281,43.065072,946.476],[-1.744323,43.065032,946.216],[-1.74437,43.064994,946.679],[-1.744405,43.064956,946.646],[-1.744445,43.064913,946.619],[-1.744485,43.064863,946.359],[-1.744538,43.064816,946.659],[-1.744576,43.064771,946.557],[-1.744596,43.064726,945.7],[-1.744646,43.064678,946.22],[-1.744693,43.064621,946.109],[-1.744746,43.064584,947.116],[-1.744784,43.064536,947.015],[-1.744824,43.064498,947.384],[-1.744874,43.064463,948.274],[-1.744902,43.064415,947.747],[-1.744917,43.064367,946.654],[-1.744962,43.064319,946.897],[-1.744997,43.064277,946.877],[-1.745067,43.064255,946.727],[-1.745142,43.064252,947.293],[-1.745214,43.06424,947.265],[-1.745286,43.064215,946.421],[-1.745339,43.064242,947.209],[-1.745416,43.064252,947.09],[-1.745484,43.064255,946.579],[-1.745552,43.06426,946.128],[-1.74562,43.064268,945.568],[-1.745697,43.064285,945.141],[-1.745762,43.064307,945.278],[-1.745819,43.064334,945.751],[-1.745871,43.064307,943.431],[-1.745936,43.064304,942.171],[-1.746011,43.064311,941.154],[-1.746083,43.064303,939.456],[-1.746153,43.064293,937.811],[-1.746216,43.064298,937.309],[-1.746284,43.064303,936.766],[-1.746359,43.064298,935.515],[-1.746434,43.06429,934.784],[-1.746494,43.064262,933.124],[-1.746552,43.064245,932.267],[-1.746649,43.06423,931.424],[-1.746711,43.064227,931.727],[-1.746778,43.064222,932.197],[-1.746846,43.064219,932.677],[-1.746928,43.064202,932.643],[-1.746998,43.064167,932.064],[-1.74706,43.064144,931.81],[-1.747137,43.064126,932.109],[-1.747204,43.064109,932.465],[-1.747291,43.064097,933.184],[-1.747361,43.06408,933.213],[-1.747429,43.064062,933.143],[-1.747497,43.064034,932.466],[-1.747565,43.064001,930.333],[-1.74763,43.064001,930.486],[-1.747693,43.064001,930.466],[-1.74777,43.063996,930.146],[-1.74784,43.063993,929.886],[-1.74793,43.06399,929.46],[-1.747993,43.063995,929.726],[-1.74807,43.063985,929.009],[-1.74814,43.063992,929.679],[-1.748207,43.063999,930.388],[-1.748274,43.063977,928.977],[-1.748337,43.063947,927.077],[-1.748419,43.06395,928.02],[-1.748491,43.063945,928.427],[-1.748569,43.063928,928.11],[-1.748644,43.063913,927.98],[-1.748711,43.063891,927.27],[-1.748778,43.063878,927.194],[-1.748851,43.063865,927.157],[-1.748916,43.063833,926.022],[-1.748973,43.063813,925.809],[-1.749046,43.063798,926.37],[-1.749094,43.063765,925.489],[-1.749147,43.063733,924.798],[-1.749214,43.063713,925.188],[-1.749269,43.06367,924.041],[-1.749326,43.063652,924.158],[-1.749383,43.063632,924.161],[-1.749438,43.063605,923.611],[-1.749498,43.063587,924.831],[-1.749563,43.063574,926.469],[-1.749608,43.063526,925.504],[-1.749661,43.063491,925.524],[-1.749729,43.063463,926.209],[-1.749789,43.063433,926.837],[-1.749844,43.063393,926.666],[-1.749886,43.063346,925.695],[-1.749936,43.063319,926.055],[-1.749994,43.063279,926.268],[-1.750057,43.063254,927.315],[-1.750114,43.063199,926.618],[-1.750157,43.063157,926.098],[-1.750207,43.063117,925.778],[-1.750247,43.063079,925.223],[-1.75029,43.063039,924.783],[-1.750337,43.063006,924.811],[-1.750389,43.062971,925.009],[-1.750436,43.062939,925.113],[-1.750479,43.062904,925.022],[-1.750526,43.062859,924.631],[-1.750588,43.062821,924.751],[-1.750633,43.062788,924.654],[-1.750675,43.06275,924.431],[-1.750715,43.062703,923.844],[-1.750758,43.062668,923.874],[-1.750815,43.06264,924.594],[-1.750885,43.06261,924.075],[-1.750963,43.062612,924.028],[-1.751025,43.062619,924.22],[-1.751102,43.062607,923.909],[-1.751169,43.062599,922.988],[-1.751236,43.062581,921.587],[-1.751313,43.062559,920.056],[-1.75139,43.062546,918.616],[-1.751463,43.062539,917.759],[-1.751538,43.062527,916.786],[-1.751605,43.062504,915.769],[-1.751667,43.062474,914.579],[-1.751729,43.062456,913.599],[-1.751791,43.062434,912.449],[-1.751854,43.062411,911.602],[-1.751921,43.062391,910.822],[-1.751991,43.062378,910.209],[-1.752074,43.062368,909.655],[-1.752147,43.062361,909.064],[-1.752217,43.062361,908.523],[-1.752277,43.062376,908.393],[-1.752339,43.062399,908.076],[-1.752411,43.062414,907.663],[-1.752473,43.062419,907.316],[-1.752536,43.062429,907.096],[-1.752608,43.062447,906.516],[-1.752675,43.062467,906.027],[-1.75274,43.062494,905.368],[-1.752812,43.062521,904.914],[-1.752877,43.062543,905.009],[-1.752952,43.062558,905.283],[-1.75301,43.062576,905.162],[-1.753075,43.062613,904.891],[-1.753125,43.06264,904.661],[-1.753183,43.062663,904.584],[-1.753246,43.062696,904.151],[-1.753311,43.062723,903.644],[-1.753374,43.062756,903.314],[-1.753422,43.062788,903.034],[-1.753484,43.062806,903.439],[-1.753529,43.062851,902.901],[-1.753579,43.062881,902.921],[-1.753624,43.062939,902.209],[-1.753646,43.062992,901.484],[-1.753689,43.063032,901.323],[-1.753691,43.063085,900.032],[-1.753723,43.063137,899.472],[-1.753756,43.063177,899.185],[-1.753773,43.063227,898.222],[-1.753811,43.063277,897.735],[-1.753856,43.063324,897.525],[-1.753904,43.063376,897.185],[-1.753952,43.063409,897.388],[-1.753997,43.063447,897.324],[-1.754025,43.063487,896.726],[-1.754087,43.063515,897.309],[-1.754145,43.063535,898.079],[-1.75421,43.063577,898.088],[-1.754258,43.063634,897.277],[-1.754306,43.063691,896.337],[-1.754348,43.063748,895.35],[-1.754383,43.063798,894.587],[-1.754436,43.063828,894.88],[-1.754484,43.063873,894.42],[-1.754549,43.063891,895.29],[-1.754611,43.063911,895.814],[-1.754646,43.063966,894.554],[-1.754676,43.064016,893.309],[-1.754728,43.064041,893.709],[-1.754765,43.064078,893.662],[-1.754823,43.06413,892.911],[-1.754876,43.064172,892.24],[-1.754929,43.064214,892.23],[-1.754967,43.064266,891.763],[-1.755007,43.064318,891.45],[-1.755042,43.064375,890.843],[-1.755084,43.064437,890.363],[-1.755127,43.06449,890.013],[-1.755165,43.064533,889.829],[-1.755202,43.064583,889.5],[-1.755237,43.064633,889.12],[-1.755277,43.064678,889.109],[-1.755332,43.064728,889.413],[-1.755392,43.064785,889.542],[-1.755445,43.064837,889.531],[-1.755487,43.064887,889.321],[-1.75552,43.06494,888.784],[-1.755557,43.064988,888.451],[-1.7556,43.065036,888.574],[-1.755657,43.065084,889.294],[-1.75571,43.065139,889.514],[-1.75574,43.065179,889.578],[-1.755757,43.065224,888.933],[-1.755814,43.065257,889.926],[-1.755879,43.065269,891.909],[-1.755909,43.065317,891.898],[-1.755924,43.065365,891.217],[-1.755949,43.065425,890.586],[-1.755966,43.065485,889.666],[-1.755996,43.065532,889.329],[-1.756016,43.065582,888.746],[-1.756033,43.065649,887.799],[-1.75605,43.065711,886.999],[-1.75608,43.065764,886.659],[-1.75613,43.065854,886.242],[-1.75615,43.065902,886.122],[-1.756185,43.06598,885.714],[-1.756213,43.066043,885.409],[-1.756243,43.066121,884.745],[-1.75627,43.066164,884.584],[-1.756295,43.066206,884.433],[-1.756323,43.066248,884.423],[-1.756355,43.066295,884.576],[-1.756388,43.066355,884.553],[-1.756418,43.066417,884.026],[-1.756453,43.066469,883.696],[-1.756485,43.066529,882.996],[-1.75651,43.066607,881.622],[-1.756543,43.066687,880.462],[-1.75658,43.06676,879.708],[-1.756618,43.066818,879.309],[-1.756643,43.066861,879.053],[-1.756663,43.066911,878.532],[-1.756688,43.066964,878.131],[-1.756728,43.067022,877.921],[-1.75677,43.067085,877.734],[-1.756815,43.067142,877.621],[-1.75684,43.067204,877.174],[-1.75687,43.067269,876.714],[-1.756907,43.067321,876.774],[-1.756937,43.067371,876.723],[-1.756982,43.067409,877.183],[-1.75703,43.067447,877.611],[-1.757055,43.067497,877.409],[-1.757077,43.067542,877.373],[-1.757104,43.067597,877.042],[-1.757146,43.067652,877.241],[-1.757186,43.067704,877.331],[-1.757221,43.067759,877.284],[-1.757273,43.067806,878.461],[-1.757306,43.067863,878.864],[-1.757339,43.067916,879.234],[-1.757396,43.067961,880.684],[-1.757433,43.068034,880.917],[-1.757463,43.068094,880.987],[-1.7575,43.068156,880.815],[-1.757538,43.068219,880.109],[-1.757571,43.068269,879.512],[-1.757609,43.068316,879.021],[-1.757646,43.068354,878.42],[-1.757701,43.068387,878.04],[-1.757764,43.068415,878.143],[-1.757834,43.068448,877.23],[-1.757912,43.068473,876.243],[-1.757977,43.068485,875.853],[-1.758047,43.068488,875.643],[-1.758117,43.068478,875.274],[-1.758185,43.068458,875.056],[-1.758268,43.068435,874.621],[-1.758323,43.068405,874.609],[-1.758375,43.068372,874.558],[-1.758427,43.068345,874.437],[-1.758477,43.068298,874.886],[-1.758529,43.068273,874.546],[-1.758574,43.068233,874.519],[-1.758614,43.068186,874.636],[-1.758652,43.068134,875.149],[-1.758689,43.068084,875.399],[-1.758749,43.068041,874.879],[-1.758782,43.067996,874.898],[-1.75882,43.067933,874.915],[-1.758855,43.067876,874.826],[-1.758893,43.067826,874.409],[-1.758925,43.067773,874.02],[-1.758948,43.06772,874.349],[-1.758976,43.067665,874.488],[-1.759024,43.067613,873.888],[-1.759059,43.06756,873.591],[-1.759104,43.067513,872.828],[-1.759166,43.067473,871.431],[-1.759204,43.067436,870.771],[-1.759234,43.067386,870.661],[-1.759279,43.067338,869.934],[-1.759301,43.067295,870.055],[-1.759338,43.067238,869.81],[-1.759386,43.067183,869.809],[-1.759426,43.067133,870.164],[-1.759488,43.06709,869.813],[-1.759558,43.067043,869.722],[-1.759645,43.066988,869.892],[-1.759718,43.066946,870.025],[-1.759783,43.066898,870.972],[-1.759848,43.066851,871.855],[-1.759905,43.066828,871.735],[-1.759965,43.066803,871.755],[-1.760032,43.06678,871.787],[-1.760105,43.066768,871.542],[-1.760185,43.066763,870.826],[-1.760262,43.066768,869.709],[-1.760324,43.066765,869.339],[-1.760389,43.066783,867.838],[-1.760452,43.066768,868.087],[-1.760525,43.066766,867.557],[-1.760595,43.066773,866.87],[-1.76067,43.066781,866.297],[-1.760733,43.066759,867.57],[-1.760791,43.066741,868.54],[-1.760858,43.066729,869.24],[-1.76093,43.066706,870.774],[-1.760987,43.066684,872.056],[-1.761059,43.066694,871.521],[-1.761117,43.066714,870.509],[-1.761182,43.066729,870.378],[-1.76124,43.066761,869.077],[-1.761313,43.066779,868.516],[-1.76139,43.066789,868.516],[-1.761457,43.066806,867.839],[-1.761517,43.066828,866.986],[-1.76159,43.066846,866.269],[-1.761657,43.066856,866.029],[-1.76172,43.066869,865.799],[-1.761777,43.066891,864.899],[-1.761834,43.066909,864.207],[-1.761906,43.066929,863.627],[-1.761974,43.066909,865.009],[-1.762041,43.066909,865.32],[-1.762106,43.066902,866.089],[-1.762178,43.0669,866.488],[-1.762228,43.066928,865.058],[-1.76231,43.066945,864.931],[-1.762372,43.066982,863.228],[-1.762449,43.066989,863.771],[-1.762517,43.066989,864.581],[-1.762589,43.066992,865.121],[-1.762656,43.06699,866.077],[-1.762703,43.06702,864.861],[-1.762756,43.067048,863.827],[-1.762818,43.067063,862.909],[-1.762881,43.067076,861.878],[-1.762949,43.067074,861.657],[-1.763017,43.067061,861.826],[-1.763082,43.067029,862.666],[-1.763149,43.067016,862.179],[-1.763204,43.066973,863.126],[-1.763251,43.066935,863.999],[-1.763296,43.066892,865.079],[-1.763364,43.066875,864.089],[-1.763427,43.066882,861.829],[-1.763485,43.066847,861.3],[-1.763528,43.066805,861.42],[-1.763576,43.066775,860.709],[-1.763616,43.06674,860.433],[-1.763664,43.0667,860.072],[-1.763704,43.066655,860.081],[-1.763752,43.066615,859.681],[-1.763797,43.06657,859.364],[-1.763827,43.06652,859.781],[-1.763877,43.066492,858.584],[-1.763915,43.06645,858.184],[-1.763953,43.066407,857.784],[-1.763965,43.066359,858.964],[-1.763983,43.066312,860.106],[-1.764025,43.066267,860.216],[-1.764058,43.066224,860.609],[-1.764118,43.066182,859.927],[-1.764173,43.066135,859.786],[-1.764211,43.066088,859.575],[-1.764263,43.066043,858.315],[-1.764291,43.065993,858.318],[-1.764313,43.065928,859.175],[-1.76433,43.06587,859.988],[-1.76436,43.065825,860.088],[-1.764407,43.065792,859.428],[-1.764455,43.065749,859.511],[-1.764483,43.065709,860.021],[-1.764533,43.065649,860.103],[-1.764558,43.065606,860.509],[-1.764575,43.065554,861.552],[-1.764603,43.065511,861.111],[-1.764636,43.065471,860.48],[-1.764664,43.065424,860.33],[-1.764697,43.065379,860.093],[-1.764732,43.065336,859.81],[-1.76477,43.065283,860.173],[-1.764805,43.06523,860.373],[-1.76484,43.06519,860.213],[-1.764882,43.065147,859.739],[-1.764904,43.0651,860.201],[-1.764934,43.065052,860.321],[-1.764962,43.065005,860.409],[-1.764982,43.064947,861.244],[-1.765029,43.064899,861.073],[-1.765079,43.064859,860.482],[-1.765112,43.064804,860.662],[-1.76515,43.064767,860.065],[-1.765183,43.064715,859.922],[-1.765215,43.064673,859.395],[-1.765243,43.064633,858.915],[-1.765281,43.064586,858.365],[-1.765323,43.064538,857.723],[-1.765345,43.064486,857.983],[-1.765387,43.064451,857.011],[-1.765419,43.064408,856.609],[-1.765462,43.064361,855.943],[-1.765482,43.064311,856.032],[-1.765507,43.064258,856.181],[-1.765544,43.064211,855.651],[-1.765571,43.064156,855.864],[-1.765588,43.064113,855.961],[-1.765621,43.064065,855.654],[-1.765634,43.06402,855.714],[-1.765664,43.063965,855.364],[-1.765694,43.063923,854.794],[-1.765711,43.063865,854.657],[-1.765748,43.06381,853.622],[-1.765781,43.063768,852.809],[-1.765783,43.06372,853.02],[-1.76579,43.063675,853.169],[-1.765837,43.063633,851.728],[-1.765862,43.063588,851.218],[-1.765877,43.06354,850.881],[-1.765874,43.063485,851.188],[-1.765869,43.063433,851.521],[-1.765911,43.063395,850.361],[-1.765903,43.06335,850.781],[-1.76592,43.063297,850.657],[-1.765932,43.063242,850.8],[-1.765952,43.06318,850.82],[-1.76598,43.06313,850.409],[-1.766005,43.063077,850.296],[-1.76602,43.063017,850.365],[-1.766053,43.062962,849.874],[-1.766076,43.062919,849.564],[-1.766103,43.062857,849.427],[-1.766145,43.062809,848.734],[-1.766193,43.062767,847.717],[-1.766216,43.062714,847.557],[-1.766223,43.062662,847.837],[-1.766243,43.062607,847.741],[-1.766278,43.062552,847.381],[-1.766286,43.0625,847.609],[-1.766299,43.06245,847.409],[-1.766307,43.062403,847.455],[-1.766334,43.062345,846.944],[-1.766341,43.062298,846.943],[-1.766364,43.062241,846.683],[-1.766386,43.062191,846.216],[-1.766388,43.062141,846.343],[-1.766401,43.062078,846.246],[-1.766416,43.062013,846.166],[-1.766419,43.061965,846.236],[-1.766439,43.061912,845.834],[-1.766442,43.061865,845.755],[-1.766462,43.061817,845.31],[-1.766475,43.061765,845.009],[-1.76651,43.061713,844.374],[-1.766515,43.061666,844.343],[-1.766522,43.061619,843.932],[-1.766534,43.061569,843.382],[-1.766541,43.061524,843.085],[-1.766543,43.061472,842.762],[-1.766545,43.06142,842.495],[-1.766547,43.06137,842.025],[-1.766552,43.061315,841.485],[-1.766562,43.061257,840.847],[-1.766582,43.061207,840.029],[-1.766602,43.061154,839.321],[-1.766637,43.061099,838.309],[-1.766652,43.061047,837.785],[-1.766704,43.061005,836.824],[-1.766757,43.060967,835.863],[-1.766814,43.060932,834.973],[-1.766832,43.060884,834.586],[-1.766879,43.060854,833.883],[-1.766924,43.060822,833.226],[-1.766969,43.060785,832.766],[-1.767011,43.060748,832.396],[-1.767061,43.060718,831.979],[-1.767114,43.060685,831.605],[-1.767179,43.060638,831.225],[-1.767236,43.060595,830.909],[-1.767294,43.060552,830.798],[-1.767347,43.060519,830.377],[-1.767382,43.060481,830.166],[-1.767434,43.060456,830.026]]}}]}