{"type":"FeatureCollection","features":[{"type":"Feature","properties":{"ruta_id":"110706015","nombre":"IRAKURRI e IRUÑARRI desde el PUERTO de EZKURRA","blog_url":"https://www.rutasporelmonte.com/irunarri-e-irakurri-desde-el-puerto-de-ezkurra/"},"geometry":{"type":"LineString","coordinates":[[-1.856593,43.083547,671.981],[-1.856658,43.083565,672.061],[-1.85668,43.083615,672.017],[-1.856678,43.08366,672.309],[-1.856673,43.083712,672.779],[-1.856643,43.083765,673.229],[-1.856623,43.083813,673.618],[-1.8566,43.083855,674.025],[-1.856582,43.083907,674.638],[-1.856599,43.083952,675.284],[-1.856651,43.083987,675.588],[-1.856704,43.08401,675.479],[-1.856749,43.084055,675.643],[-1.856767,43.084105,676.129],[-1.856782,43.084157,676.6],[-1.856802,43.084214,677.52],[-1.856825,43.084256,678.009],[-1.856858,43.084296,678.433],[-1.856908,43.084339,678.673],[-1.856941,43.084384,679.012],[-1.856939,43.084431,679.879],[-1.856949,43.084478,680.762],[-1.856969,43.084521,681.388],[-1.856994,43.084568,682.032],[-1.857026,43.084608,682.463],[-1.857083,43.084641,682.247],[-1.857125,43.084684,682.677],[-1.85721,43.084741,682.761],[-1.857253,43.084793,683.227],[-1.857278,43.084845,684.109],[-1.8573,43.084895,685.018],[-1.857323,43.084937,685.618],[-1.857371,43.084967,685.537],[-1.857408,43.085012,686.014],[-1.857446,43.085062,686.817],[-1.857473,43.085107,687.623],[-1.857516,43.085155,688.197],[-1.857556,43.085192,688.418],[-1.857586,43.085232,688.912],[-1.857633,43.08527,688.934],[-1.857656,43.085315,689.555],[-1.857664,43.08536,690.41],[-1.857691,43.085412,691.109],[-1.857714,43.085462,691.924],[-1.857744,43.085502,692.334],[-1.857784,43.085539,692.523],[-1.857806,43.085582,692.94],[-1.857831,43.08563,693.223],[-1.857854,43.085672,693.579],[-1.857864,43.08572,694.173],[-1.857876,43.085768,694.734],[-1.857908,43.085826,695.158],[-1.857891,43.085881,695.492],[-1.857868,43.085924,695.773],[-1.857853,43.085971,695.92],[-1.857815,43.086009,696.609],[-1.857762,43.086041,697.62],[-1.857732,43.086099,697.95],[-1.857705,43.086141,698.269],[-1.85767,43.086184,698.626],[-1.857643,43.086229,698.899],[-1.857598,43.086271,699.325],[-1.85757,43.086316,699.519],[-1.857537,43.086354,699.77],[-1.857482,43.086397,699.844],[-1.857414,43.086424,699.117],[-1.857352,43.086414,699.987],[-1.857282,43.086399,701.115],[-1.857212,43.086404,701.409],[-1.857152,43.086419,701.352],[-1.85709,43.086419,702.052],[-1.857027,43.086437,701.961],[-1.856962,43.086437,702.688],[-1.856894,43.086434,703.131],[-1.856824,43.086437,703.387],[-1.856762,43.086452,702.921],[-1.856694,43.086469,702.462],[-1.856627,43.086461,703.176],[-1.856565,43.086466,703.113],[-1.856492,43.086478,703.043],[-1.85643,43.086481,703.207],[-1.856362,43.086461,704.209],[-1.856305,43.086443,705.292],[-1.856233,43.086446,705.332],[-1.856158,43.086448,705.541],[-1.856096,43.086443,705.978],[-1.856024,43.08645,705.991],[-1.855947,43.086435,706.817],[-1.855877,43.086433,707.111],[-1.855812,43.086441,707.042],[-1.855745,43.086444,706.936],[-1.855683,43.086446,707.077],[-1.855618,43.086428,707.761],[-1.855543,43.086406,708.527],[-1.855481,43.086404,708.809],[-1.855413,43.086419,708.688],[-1.85536,43.086442,708.158],[-1.855297,43.08645,708.297],[-1.85523,43.086457,708.164],[-1.855155,43.086444,708.657],[-1.855087,43.086439,708.893],[-1.855024,43.086439,708.967],[-1.854952,43.086424,709.468],[-1.854887,43.086429,709.672],[-1.85482,43.086414,710.251],[-1.854747,43.086432,710.101],[-1.854682,43.086424,710.411],[-1.85462,43.086407,710.709],[-1.854547,43.086404,710.866],[-1.854487,43.086436,710.476],[-1.854422,43.086459,710.325],[-1.85435,43.086467,710.322],[-1.854297,43.086495,710.355],[-1.854242,43.086522,710.381],[-1.854179,43.08652,710.535],[-1.854112,43.086548,710.356],[-1.85404,43.086575,710.28],[-1.853973,43.086592,710.164],[-1.853903,43.08661,710.006],[-1.853845,43.08663,710.016],[-1.85378,43.086637,710.009],[-1.8537,43.086662,710.027],[-1.853638,43.086697,710.337],[-1.853591,43.08675,710.916],[-1.853574,43.086798,711.593],[-1.853542,43.086838,712.016],[-1.853535,43.086886,712.612],[-1.853498,43.086923,713.156],[-1.853505,43.086978,713.777],[-1.853497,43.08703,714.271],[-1.853517,43.087077,714.539],[-1.853515,43.087129,714.901],[-1.853515,43.087179,715.321],[-1.853503,43.087229,715.909],[-1.853491,43.087276,716.964],[-1.853468,43.087318,717.934],[-1.853426,43.087365,719.233],[-1.853361,43.087393,720.42],[-1.853301,43.087413,721.373],[-1.853236,43.087418,721.729],[-1.853174,43.087426,722.113],[-1.853107,43.087448,722.824],[-1.853095,43.087495,723.898],[-1.85316,43.087523,724.413],[-1.853217,43.08755,725.043],[-1.853267,43.087592,726.007],[-1.853304,43.08764,727.209],[-1.853337,43.087685,728.332],[-1.853364,43.087727,729.372],[-1.853376,43.087772,730.521],[-1.853391,43.087819,731.788],[-1.853413,43.087864,732.851],[-1.85341,43.087909,734.177],[-1.853393,43.087957,735.621],[-1.853376,43.088,737.022],[-1.853383,43.088053,738.416],[-1.853415,43.088108,739.946],[-1.853445,43.088151,741.088],[-1.853477,43.088201,742.116],[-1.853502,43.088249,743.309],[-1.853524,43.088294,744.325],[-1.853546,43.088344,745.575],[-1.853561,43.088389,746.814],[-1.853573,43.088437,748.311],[-1.85359,43.088484,749.744],[-1.853612,43.088532,751.18],[-1.853622,43.08858,752.794],[-1.85364,43.088623,753.815],[-1.853657,43.088666,754.699],[-1.853675,43.088718,755.652],[-1.853695,43.088768,756.653],[-1.853693,43.088818,758.008],[-1.853701,43.088863,759.009],[-1.853738,43.088901,759.596],[-1.853763,43.088943,760.366],[-1.853788,43.088986,761.025],[-1.85381,43.089036,762.022],[-1.853838,43.089083,762.865],[-1.853868,43.089128,763.421],[-1.853896,43.08918,764.265],[-1.853924,43.089225,764.726],[-1.853951,43.089268,765.21],[-1.853979,43.08931,765.666],[-1.854006,43.089355,766.129],[-1.854023,43.089403,766.821],[-1.854015,43.089451,768.009],[-1.854023,43.089504,769.717],[-1.854068,43.089537,770.037],[-1.85411,43.089577,770.556],[-1.854152,43.089617,770.943],[-1.854177,43.089664,771.876],[-1.854207,43.089704,772.192],[-1.854229,43.089747,772.636],[-1.854249,43.089792,773.247],[-1.854261,43.089845,774.271],[-1.854288,43.089888,774.545],[-1.854291,43.089936,775.747],[-1.854311,43.089986,776.511],[-1.854333,43.090034,777.109],[-1.85435,43.090082,777.895],[-1.854367,43.090125,778.445],[-1.854387,43.09017,778.994],[-1.854379,43.090223,780.511],[-1.854391,43.090268,781.334],[-1.854404,43.090313,782.04],[-1.854399,43.090365,783.554],[-1.854414,43.090415,784.395],[-1.854424,43.090467,785.389],[-1.854434,43.09052,786.483],[-1.854471,43.090565,786.625],[-1.854496,43.090612,787.617],[-1.854513,43.090662,788.909],[-1.85452,43.090712,790.519],[-1.854527,43.090757,791.989],[-1.854562,43.090805,792.968],[-1.854604,43.090838,793.355],[-1.854646,43.09088,794.268],[-1.854668,43.090927,795.784],[-1.85471,43.090967,796.548],[-1.854745,43.091009,797.499],[-1.854773,43.091049,798.413],[-1.854805,43.091089,799.331],[-1.854852,43.091129,799.861],[-1.854882,43.091171,800.807],[-1.854847,43.091218,803.109],[-1.854882,43.09126,804.164],[-1.854905,43.091302,805.454],[-1.854932,43.091354,807.183],[-1.855004,43.091376,807.48],[-1.855047,43.091423,808.993],[-1.854992,43.091391,808.129],[-1.854927,43.091391,808.623],[-1.854864,43.091403,809.564],[-1.854802,43.091401,809.868],[-1.85475,43.091368,809.299],[-1.854685,43.091338,809.207],[-1.85462,43.091311,809.627],[-1.854557,43.091291,810.209],[-1.854489,43.091278,811.07],[-1.854417,43.091283,812.57],[-1.854342,43.091271,813.769],[-1.85427,43.091253,814.536],[-1.854197,43.091243,815.759],[-1.854135,43.091236,816.785],[-1.854068,43.091233,818.149],[-1.85402,43.091201,818.18],[-1.853955,43.091178,818.784],[-1.853895,43.091165,819.659],[-1.85383,43.091152,820.603],[-1.853765,43.091144,821.723],[-1.853707,43.091127,822.409],[-1.853639,43.091124,823.876],[-1.853576,43.091107,824.676],[-1.853509,43.091095,825.745],[-1.853446,43.091082,826.762],[-1.853381,43.091067,827.795],[-1.853331,43.091039,828.041],[-1.853266,43.091019,828.955],[-1.853201,43.091007,830.076],[-1.853133,43.090979,830.97],[-1.853081,43.090951,831.491],[-1.853009,43.090943,832.881],[-1.852944,43.090946,834.419],[-1.852884,43.090921,835.109],[-1.852826,43.090898,835.88],[-1.852764,43.090881,836.79],[-1.852697,43.090861,837.899],[-1.85264,43.090833,838.566],[-1.852577,43.09083,840.099],[-1.852515,43.090815,841.275],[-1.852453,43.0908,842.379],[-1.85239,43.090787,843.32],[-1.852322,43.090765,844.244],[-1.852267,43.090742,844.877],[-1.852195,43.090729,845.961],[-1.85213,43.090721,846.827],[-1.852068,43.090706,847.609],[-1.852001,43.090696,848.598],[-1.851933,43.090686,849.578],[-1.851871,43.090684,850.437],[-1.851806,43.090679,851.374],[-1.851741,43.090677,852.377],[-1.851663,43.09068,853.673],[-1.851601,43.090683,854.187],[-1.851539,43.09069,854.828],[-1.851472,43.0907,855.652],[-1.851407,43.090718,856.524],[-1.851347,43.090735,857.304],[-1.851294,43.09076,858.114],[-1.851289,43.090807,859.609],[-1.851294,43.090852,860.843],[-1.851274,43.090897,862.083],[-1.851226,43.090927,862.992],[-1.851176,43.090959,863.939],[-1.851131,43.090997,865.122],[-1.851103,43.09104,866.178],[-1.851058,43.091073,866.532],[-1.851063,43.091125,867.833],[-1.851078,43.091173,869.037],[-1.851075,43.091218,870.029],[-1.851033,43.091255,870.4],[-1.851033,43.091302,871.52],[-1.851036,43.091347,872.509],[-1.850996,43.091385,873.183],[-1.850956,43.091423,873.943],[-1.850918,43.091486,875.692],[-1.850878,43.091523,876.659],[-1.850843,43.09157,877.972],[-1.85081,43.091612,878.938],[-1.850777,43.091657,880.012],[-1.850732,43.091702,881.033],[-1.850689,43.09174,881.877],[-1.850636,43.091778,882.673],[-1.850621,43.091826,884.285],[-1.850568,43.091858,885.013],[-1.850506,43.091883,885.309],[-1.850441,43.091906,885.618],[-1.850386,43.091934,886.328],[-1.850329,43.091964,887.127],[-1.850272,43.091984,887.424],[-1.850219,43.092007,888.077],[-1.850167,43.092035,888.973],[-1.850109,43.092065,889.717],[-1.850051,43.092092,890.568],[-1.849994,43.092115,891.142],[-1.849942,43.09214,891.928],[-1.849884,43.092155,892.389],[-1.849821,43.092175,893.017],[-1.849749,43.09219,893.509],[-1.849677,43.09221,894.383],[-1.849615,43.092228,894.983],[-1.849557,43.092255,895.872],[-1.849499,43.09227,896.319],[-1.849442,43.092295,897.132],[-1.849389,43.092322,898.018],[-1.849334,43.092344,898.732],[-1.849276,43.092374,899.653],[-1.849208,43.092394,900.077],[-1.849158,43.092424,900.956],[-1.84908,43.092462,901.259],[-1.849012,43.092487,901.314],[-1.848957,43.09252,901.609],[-1.848904,43.09256,902.126],[-1.848852,43.092593,902.216],[-1.84881,43.092636,902.875],[-1.848757,43.092669,903.072],[-1.848687,43.092692,902.665],[-1.848639,43.092735,903.661],[-1.848586,43.092775,904.295],[-1.848539,43.092813,904.126],[-1.848482,43.092838,903.43],[-1.848434,43.092876,903.268],[-1.848399,43.092918,903.642],[-1.848382,43.092965,904.526],[-1.848382,43.093012,905.809],[-1.848342,43.093062,906.497],[-1.848299,43.0931,906.877],[-1.848289,43.093145,907.946],[-1.848272,43.093193,909.183],[-1.848249,43.093238,910.026],[-1.848202,43.09328,910.662],[-1.848169,43.093318,911.296],[-1.848136,43.093356,911.627],[-1.848114,43.093409,912.591],[-1.848084,43.093452,913.084],[-1.848059,43.093495,913.507],[-1.848044,43.093545,914.417],[-1.848017,43.09359,915.109],[-1.84799,43.093633,915.799],[-1.847955,43.093685,916.259],[-1.847918,43.093732,916.728],[-1.8479,43.093779,917.375],[-1.847865,43.093826,917.858],[-1.847828,43.093874,918.324],[-1.847795,43.093922,919.168],[-1.847765,43.093965,920.169],[-1.84774,43.09401,921.283],[-1.847697,43.094055,922.259],[-1.847675,43.0941,923.303],[-1.847638,43.094148,924.523],[-1.847596,43.094193,925.509],[-1.847549,43.094235,926.696],[-1.847501,43.094275,927.576],[-1.847456,43.094312,928.235],[-1.847416,43.094355,929.232],[-1.847361,43.094388,929.775],[-1.847333,43.094435,930.951],[-1.847295,43.094477,931.825],[-1.847258,43.094514,932.636],[-1.847231,43.094564,934.08],[-1.847199,43.094607,935.024],[-1.847176,43.094654,936.204],[-1.847144,43.094694,937.214],[-1.847089,43.094734,938.009],[-1.847042,43.094766,938.653],[-1.84698,43.094831,940.383],[-1.846957,43.094876,941.782],[-1.846925,43.094918,942.949],[-1.846893,43.094958,944.072],[-1.846855,43.094995,944.988],[-1.846805,43.095027,945.492],[-1.846792,43.095074,946.893],[-1.846769,43.095117,947.927],[-1.846741,43.095159,949.017],[-1.846701,43.095199,949.887],[-1.846698,43.095251,951.515],[-1.846673,43.095298,952.709],[-1.846655,43.095356,954.272],[-1.846647,43.095408,955.622],[-1.846632,43.095456,956.811],[-1.84664,43.095501,958.288],[-1.846655,43.095548,959.771],[-1.84663,43.0956,960.737],[-1.84662,43.095658,962.181],[-1.846593,43.095703,963.152],[-1.846585,43.09575,964.286],[-1.84655,43.095788,964.987],[-1.846508,43.095835,965.942],[-1.846478,43.095875,967.026],[-1.846455,43.09593,968.609],[-1.846413,43.095977,969.829],[-1.84637,43.09601,970.569],[-1.84633,43.096045,971.218],[-1.84627,43.096068,971.335],[-1.846223,43.096098,971.838],[-1.846183,43.096141,972.964],[-1.846141,43.096181,974.168],[-1.846106,43.096219,975.269],[-1.846054,43.096247,975.933],[-1.846016,43.096284,976.938],[-1.845978,43.096327,978.27],[-1.845955,43.09637,979.617],[-1.845908,43.096405,980.309],[-1.845876,43.096452,981.354],[-1.845859,43.096504,982.694],[-1.845836,43.096552,983.733],[-1.845808,43.0966,984.67],[-1.845768,43.096638,985.013],[-1.84574,43.096688,986.099],[-1.8457,43.096728,986.523],[-1.845677,43.096775,987.544],[-1.845674,43.096822,988.928],[-1.845654,43.096874,990.227],[-1.845617,43.096921,991.168],[-1.845585,43.096961,992.014],[-1.845572,43.097009,993.309],[-1.845509,43.097024,993.053],[-1.845589,43.097024,994.053],[-1.845659,43.097027,995.112],[-1.845729,43.097039,996.339],[-1.845794,43.097061,997.992],[-1.845836,43.097094,999.378],[-1.845904,43.097097,1000.222],[-1.845969,43.097084,1000.533],[-1.846037,43.097082,1001.257],[-1.846102,43.09709,1002.117],[-1.846165,43.097095,1003.287],[-1.846227,43.097085,1003.915],[-1.846292,43.097083,1004.909],[-1.846352,43.0971,1006.352],[-1.846415,43.097102,1007.232],[-1.846453,43.097167,1009.271],[-1.846458,43.097215,1010.348],[-1.846471,43.097265,1011.421],[-1.846478,43.097315,1012.317],[-1.846495,43.097365,1013.311],[-1.846503,43.097412,1014.262],[-1.846528,43.097459,1015.326],[-1.846546,43.097506,1016.258],[-1.846548,43.097553,1017.252],[-1.846563,43.097598,1018.117],[-1.84658,43.097641,1019.109],[-1.846592,43.097694,1020.186],[-1.846629,43.097732,1021.026],[-1.846657,43.097779,1022.035],[-1.846679,43.097822,1023.452],[-1.846716,43.097869,1025.185],[-1.846736,43.097917,1026.631],[-1.846743,43.097965,1028.015],[-1.846785,43.097998,1029.356],[-1.846807,43.098041,1030.66],[-1.846784,43.098086,1031.724],[-1.846821,43.098124,1032.904],[-1.846839,43.098176,1034.414],[-1.846876,43.098213,1035.609],[-1.846906,43.098256,1036.973],[-1.846909,43.098304,1038.133],[-1.846949,43.098342,1039.362],[-1.846982,43.098387,1041.039],[-1.847012,43.098432,1042.692],[-1.847009,43.098487,1044.128],[-1.847041,43.09853,1045.652],[-1.847071,43.098572,1046.943],[-1.847093,43.098615,1048.157],[-1.847118,43.098663,1049.155],[-1.84715,43.098735,1050.507],[-1.847213,43.098753,1051.017],[-1.84721,43.0988,1051.709],[-1.847158,43.098848,1052.346],[-1.847126,43.098895,1053.096],[-1.847071,43.09892,1053.145],[-1.847009,43.098958,1053.412],[-1.846952,43.098978,1053.675],[-1.846889,43.099001,1053.961],[-1.846836,43.099028,1054.295],[-1.846774,43.099048,1054.526],[-1.846716,43.099068,1054.82],[-1.846653,43.099093,1055.383],[-1.84659,43.099101,1055.925],[-1.846518,43.099106,1056.617],[-1.846446,43.099111,1057.309],[-1.846376,43.099121,1058.259],[-1.846296,43.099123,1059.349],[-1.846239,43.099143,1060.628],[-1.846179,43.099156,1061.725],[-1.846106,43.099168,1063.198],[-1.846036,43.099183,1063.954],[-1.845969,43.099193,1064.648],[-1.845904,43.099205,1065.389],[-1.845837,43.099218,1066.023],[-1.845779,43.099248,1066.153],[-1.845699,43.099261,1066.304],[-1.845632,43.099279,1066.614],[-1.845557,43.099284,1066.809],[-1.845484,43.099296,1067.466],[-1.845417,43.099289,1067.876],[-1.84535,43.099291,1068.335],[-1.845282,43.099304,1068.932],[-1.845205,43.099317,1069.765],[-1.845133,43.099325,1070.481],[-1.84507,43.099333,1071.025],[-1.844992,43.099343,1071.866],[-1.84493,43.099358,1072.25],[-1.844873,43.09938,1072.987],[-1.844813,43.099398,1073.442],[-1.844741,43.099421,1074.326],[-1.844676,43.099438,1075.309],[-1.844613,43.099453,1076.169],[-1.844541,43.09945,1076.999],[-1.844473,43.099452,1077.758],[-1.844411,43.099465,1078.365],[-1.844341,43.099478,1079.028],[-1.844278,43.099493,1079.794],[-1.84421,43.099516,1080.518],[-1.844133,43.099526,1081.379],[-1.84407,43.099528,1081.963],[-1.844012,43.099545,1082.592],[-1.843957,43.099567,1083.273],[-1.843895,43.09959,1084.02],[-1.843833,43.099605,1084.409],[-1.843771,43.099618,1084.96],[-1.843694,43.099635,1085.67],[-1.843631,43.099647,1086.229],[-1.843563,43.09966,1086.966],[-1.8435,43.099658,1087.219],[-1.843433,43.099663,1087.725],[-1.843355,43.099676,1088.519],[-1.843288,43.099693,1089.59],[-1.843221,43.099701,1090.184],[-1.843151,43.099718,1091.211],[-1.843086,43.099721,1091.721],[-1.843021,43.099713,1091.803],[-1.842933,43.099708,1091.909],[-1.842871,43.099718,1092.572],[-1.842803,43.099725,1092.912],[-1.842736,43.099732,1093.211],[-1.842673,43.09974,1093.638],[-1.842603,43.099742,1094.111],[-1.842538,43.099739,1094.687],[-1.842466,43.099751,1095.281],[-1.842396,43.099771,1095.652],[-1.842324,43.099783,1096.286],[-1.842249,43.099793,1096.844],[-1.842181,43.099803,1097.305],[-1.842118,43.099793,1097.715],[-1.842043,43.0998,1098.209],[-1.841976,43.099808,1098.765],[-1.841898,43.099813,1099.665],[-1.841828,43.099826,1100.894],[-1.841765,43.099846,1102.111],[-1.841705,43.099863,1103.474],[-1.841645,43.099885,1104.83],[-1.84159,43.099912,1106.114],[-1.841527,43.099927,1107.485],[-1.841457,43.099945,1109.019],[-1.8414,43.099963,1110.548],[-1.84133,43.09998,1111.961],[-1.841285,43.100017,1113.217],[-1.841218,43.100024,1114.009],[-1.841161,43.100049,1114.855],[-1.841108,43.100081,1115.645],[-1.841061,43.100114,1116.394],[-1.840994,43.100126,1117.191],[-1.840936,43.100146,1118.014],[-1.840871,43.100179,1119.47],[-1.840804,43.100202,1120.784],[-1.840746,43.100225,1121.935],[-1.840689,43.100258,1123.529],[-1.840627,43.100286,1125.059],[-1.84057,43.100319,1125.803],[-1.840503,43.100344,1126.723],[-1.840445,43.100367,1127.509],[-1.840372,43.10038,1128.546],[-1.840305,43.100383,1129.466],[-1.840247,43.1004,1130.285],[-1.840197,43.100428,1131.092],[-1.840144,43.100456,1131.985],[-1.840086,43.100473,1132.831],[-1.840023,43.10049,1133.865],[-1.839958,43.100508,1135.086],[-1.839895,43.10053,1136.41],[-1.839828,43.100553,1138.073],[-1.839765,43.100561,1139.285],[-1.839698,43.100563,1139.713],[-1.83965,43.100598,1139.309],[-1.839638,43.100648,1139.238],[-1.839685,43.100616,1139.698],[-1.839712,43.100571,1139.957],[-1.839647,43.100564,1139.264],[-1.839584,43.100581,1138.637],[-1.839534,43.100554,1137.923],[-1.839469,43.100546,1137.117],[-1.839432,43.100503,1135.658],[-1.83939,43.100461,1134.042],[-1.839343,43.100426,1132.739],[-1.839278,43.100406,1131.501],[-1.839216,43.100406,1130.621],[-1.839166,43.100379,1129.709],[-1.839103,43.100354,1128.264],[-1.839055,43.100326,1127.144],[-1.839003,43.100289,1126.083],[-1.838943,43.100277,1125.03],[-1.838881,43.100255,1123.273],[-1.838828,43.100232,1121.339],[-1.838768,43.10021,1119.313],[-1.83871,43.100177,1117.334],[-1.838655,43.10015,1115.668],[-1.838602,43.100122,1114.078],[-1.838544,43.100095,1112.433],[-1.838492,43.100068,1111.126],[-1.838444,43.10004,1110.009],[-1.838379,43.100008,1108.768],[-1.838309,43.099978,1106.948],[-1.838247,43.099961,1105.417],[-1.83819,43.099941,1103.954],[-1.838125,43.099919,1102.547],[-1.83806,43.099899,1101.223],[-1.838002,43.099874,1100.097],[-1.83794,43.099847,1098.948],[-1.837878,43.09982,1097.882],[-1.837805,43.099805,1096.955],[-1.837747,43.09979,1096.007],[-1.837687,43.099777,1094.917],[-1.83763,43.099744,1093.909],[-1.837565,43.099734,1092.986],[-1.837498,43.099712,1091.736],[-1.837425,43.099709,1090.195],[-1.83736,43.099714,1088.862],[-1.837287,43.099727,1087.445],[-1.837222,43.099714,1085.941],[-1.837162,43.099699,1084.715],[-1.837094,43.099691,1083.416],[-1.837026,43.099673,1082.15],[-1.836968,43.099643,1080.839],[-1.8369,43.099631,1079.801],[-1.836835,43.099623,1078.821],[-1.83676,43.099618,1077.809],[-1.836707,43.099591,1077.094],[-1.836645,43.099568,1076.264],[-1.836587,43.099541,1075.493],[-1.836522,43.099516,1074.64],[-1.836472,43.099486,1073.963],[-1.836419,43.099456,1073.319],[-1.836364,43.099434,1072.583],[-1.836301,43.099434,1071.654],[-1.836233,43.099417,1070.538],[-1.836173,43.099399,1069.583],[-1.836108,43.099372,1068.425],[-1.83605,43.09934,1067.117],[-1.835983,43.09932,1065.809],[-1.835916,43.099305,1064.589],[-1.835849,43.099305,1063.349],[-1.835784,43.099303,1061.898],[-1.835727,43.099283,1060.425],[-1.83567,43.099261,1059.168],[-1.835602,43.099238,1057.614],[-1.835542,43.099218,1056.428],[-1.83548,43.099201,1055.359],[-1.835415,43.099191,1054.263],[-1.835362,43.099166,1053.536],[-1.835317,43.099126,1052.317],[-1.835249,43.099118,1051.118],[-1.835186,43.099111,1050.109],[-1.835124,43.099089,1049.174],[-1.835057,43.099072,1048.184],[-1.835002,43.099045,1047.293],[-1.834932,43.099032,1046.42],[-1.834854,43.099029,1045.773],[-1.834792,43.099024,1045.129],[-1.834725,43.099016,1044.553],[-1.834662,43.099006,1044.354],[-1.834589,43.098998,1044.238],[-1.834534,43.098961,1044.114],[-1.834477,43.098931,1044.054],[-1.834419,43.098913,1043.909],[-1.834357,43.098896,1043.709],[-1.834282,43.098876,1043.222],[-1.834217,43.098854,1042.692],[-1.834162,43.098832,1042.281],[-1.834094,43.09881,1041.658],[-1.834037,43.098783,1041.111],[-1.833967,43.098763,1040.727],[-1.833889,43.098743,1040.551],[-1.833827,43.098756,1040.462],[-1.833765,43.098759,1040.396],[-1.833695,43.098741,1040.123],[-1.83362,43.098721,1040.083],[-1.833565,43.098689,1040.111],[-1.833507,43.098704,1040.109],[-1.83346,43.098672,1040.343],[-1.833395,43.098665,1040.543],[-1.833322,43.098643,1040.862],[-1.83325,43.098628,1040.939],[-1.833183,43.098618,1040.972],[-1.833123,43.098601,1040.878],[-1.83306,43.098586,1040.582],[-1.832998,43.098569,1040.773],[-1.832926,43.098561,1041.047],[-1.832856,43.098543,1041.243],[-1.832789,43.098548,1041.864],[-1.832721,43.09854,1042.51],[-1.832656,43.09854,1043.509],[-1.832588,43.098548,1044.625],[-1.832508,43.098531,1045.475],[-1.832446,43.098511,1046.564],[-1.832371,43.098491,1048.081],[-1.832328,43.098458,1048.254],[-1.832268,43.098438,1049.09],[-1.832201,43.098423,1050.024],[-1.832146,43.098388,1050.165],[-1.832074,43.098373,1051.019],[-1.832014,43.098353,1051.456],[-1.831954,43.098323,1051.359],[-1.831876,43.098315,1051.114],[-1.831801,43.09831,1051.009],[-1.831724,43.098298,1050.666],[-1.831659,43.098308,1051.116],[-1.831596,43.098286,1050.795],[-1.831529,43.098264,1050.422],[-1.831457,43.098237,1050.135],[-1.831395,43.09822,1050.151],[-1.831325,43.098217,1049.895],[-1.831262,43.098215,1049.566],[-1.831184,43.0982,1048.98],[-1.831116,43.098178,1048.296],[-1.831063,43.09814,1047.131],[-1.830998,43.098123,1046.224],[-1.830938,43.098093,1045.309],[-1.830878,43.098066,1044.41],[-1.830818,43.098043,1043.74],[-1.830755,43.098015,1042.629],[-1.830698,43.097983,1041.636],[-1.830626,43.097966,1040.789],[-1.830566,43.097949,1039.995],[-1.830501,43.097956,1039.229],[-1.830429,43.097953,1038.27],[-1.830369,43.097941,1037.494],[-1.830299,43.097916,1036.317],[-1.830231,43.097898,1035.387],[-1.830168,43.097888,1034.515],[-1.830111,43.097866,1033.609],[-1.830049,43.097856,1032.942],[-1.829984,43.097879,1032.172],[-1.829912,43.097882,1030.831],[-1.829842,43.09786,1029.538],[-1.829787,43.097835,1028.431],[-1.829717,43.097833,1027.117],[-1.829647,43.097825,1025.851],[-1.829582,43.097823,1024.652],[-1.829522,43.097805,1023.426],[-1.829452,43.097793,1022.127],[-1.829374,43.097795,1021.068],[-1.829307,43.097782,1020.014],[-1.829242,43.097767,1019.109],[-1.82917,43.097744,1018.053],[-1.829105,43.097719,1016.923],[-1.829047,43.097699,1016.032],[-1.828985,43.097691,1014.979],[-1.828917,43.097663,1013.942],[-1.828854,43.097656,1012.858],[-1.828771,43.097649,1011.312],[-1.828706,43.097637,1010.263],[-1.828646,43.09761,1009.277],[-1.828593,43.097582,1008.477],[-1.828533,43.097567,1007.461],[-1.828463,43.097544,1006.227],[-1.828398,43.097527,1005.109],[-1.828323,43.097529,1003.768],[-1.828253,43.097514,1002.598],[-1.828193,43.097489,1001.557],[-1.828136,43.097471,1000.564],[-1.828069,43.097466,999.457],[-1.827996,43.097444,998.393],[-1.827929,43.097441,997.487],[-1.827862,43.097434,996.518],[-1.827805,43.097414,995.742],[-1.827735,43.097391,994.976],[-1.827653,43.097364,994.19],[-1.827588,43.097346,993.519],[-1.82751,43.097334,992.709],[-1.827433,43.097319,991.968],[-1.827371,43.097314,991.328],[-1.827299,43.097307,990.557],[-1.827231,43.097299,989.824],[-1.827159,43.097287,989.197],[-1.827091,43.097302,988.373],[-1.827021,43.097307,987.557],[-1.826943,43.097299,986.788],[-1.826881,43.097287,986.362],[-1.826804,43.097279,985.725],[-1.826742,43.097269,985.326],[-1.826672,43.097251,984.808],[-1.826599,43.097239,984.209],[-1.826527,43.097246,983.433],[-1.826457,43.097248,982.613],[-1.82639,43.097245,981.932],[-1.826325,43.097232,981.589],[-1.82626,43.097205,980.942],[-1.826192,43.09719,980.478],[-1.826117,43.09717,979.752],[-1.826042,43.097157,979.163],[-1.82597,43.097152,978.657],[-1.825898,43.09715,978.178],[-1.82583,43.097142,977.733],[-1.825763,43.097122,977.526],[-1.825691,43.097104,977.309],[-1.825623,43.097084,977.168],[-1.825556,43.097062,977.078],[-1.825479,43.097042,976.977],[-1.825416,43.097027,976.934],[-1.825341,43.097024,976.857],[-1.825269,43.096999,976.863],[-1.825204,43.096977,976.967],[-1.825129,43.09696,976.988],[-1.825059,43.096947,977.022],[-1.824987,43.096942,977.028],[-1.824922,43.096937,976.989],[-1.824855,43.096937,976.917],[-1.824783,43.096932,976.909],[-1.824721,43.096937,976.933],[-1.824659,43.096949,977.093],[-1.824586,43.096931,976.992],[-1.824524,43.096928,976.969],[-1.824462,43.096923,976.992],[-1.824395,43.096911,976.928],[-1.824362,43.096863,976.652],[-1.824309,43.096886,976.723],[-1.824244,43.096889,976.717],[-1.824182,43.096872,976.519],[-1.82413,43.096839,976.209],[-1.824077,43.096814,976.119],[-1.824007,43.096787,975.909],[-1.823935,43.096784,975.872],[-1.823862,43.096774,975.882],[-1.823792,43.096762,975.751],[-1.823715,43.096762,975.788],[-1.823637,43.096757,975.681],[-1.823575,43.09675,975.537],[-1.823498,43.096753,975.281],[-1.823426,43.096761,975.072],[-1.823358,43.096779,974.916],[-1.823313,43.096812,975.023],[-1.823295,43.096855,975.483],[-1.82326,43.096817,975.111],[-1.823232,43.096772,974.809],[-1.823169,43.096784,974.883],[-1.823087,43.096791,974.923],[-1.823025,43.096806,975.032],[-1.822953,43.096808,975.079],[-1.822885,43.096826,975.182],[-1.822807,43.096831,975.298],[-1.82274,43.096828,975.172],[-1.822677,43.096836,975.123],[-1.822609,43.096844,975.117],[-1.822551,43.096859,975.164],[-1.822483,43.096864,975.106],[-1.822411,43.096882,975.316],[-1.822343,43.096887,975.409],[-1.82226,43.096884,975.377],[-1.822178,43.096892,975.317],[-1.822113,43.096902,975.116],[-1.822051,43.096924,975.233],[-1.821976,43.096921,974.996],[-1.821909,43.096934,974.992],[-1.821842,43.096939,974.976],[-1.821775,43.096946,975.077],[-1.821713,43.096954,975.031],[-1.821651,43.096971,975.187],[-1.821596,43.096994,975.242],[-1.821536,43.096982,975.126],[-1.821464,43.09699,975.209],[-1.821384,43.097005,975.289],[-1.821309,43.097022,975.499],[-1.821229,43.097035,975.528],[-1.821162,43.097037,975.655],[-1.821094,43.09705,975.818],[-1.821017,43.097047,976.184],[-1.820939,43.097044,976.368],[-1.820867,43.097062,976.789],[-1.820799,43.097069,977.083],[-1.820737,43.097074,977.387],[-1.820654,43.097091,977.742],[-1.820586,43.097109,978.126],[-1.820523,43.097117,978.209],[-1.820443,43.097137,978.469],[-1.820378,43.097155,978.579],[-1.820308,43.097172,978.678],[-1.820243,43.097182,978.925],[-1.820185,43.097197,979.548],[-1.820118,43.097215,980.144],[-1.820061,43.097242,980.698],[-1.819994,43.097267,981.089],[-1.819931,43.097289,981.323],[-1.819868,43.097309,981.642],[-1.819808,43.097334,982.022],[-1.819748,43.097354,982.314],[-1.819678,43.097381,982.709],[-1.819615,43.097401,982.945],[-1.819543,43.097426,983.245],[-1.81948,43.097456,983.694],[-1.819422,43.097483,984.091],[-1.819344,43.0975,984.734],[-1.819294,43.097528,985.16],[-1.819227,43.097555,985.754],[-1.819182,43.097588,986.225],[-1.81923,43.097623,985.949],[-1.819148,43.097633,986.763],[-1.81908,43.097633,987.444],[-1.819025,43.097656,988.218],[-1.818972,43.097694,989.109],[-1.818937,43.097736,989.967],[-1.818902,43.097783,990.947],[-1.818872,43.097825,991.776],[-1.81884,43.097873,992.693],[-1.818813,43.097916,993.416],[-1.818785,43.097963,994.492],[-1.81875,43.098013,995.526],[-1.818725,43.098058,996.497],[-1.818702,43.098103,997.091],[-1.818687,43.098158,997.575],[-1.81865,43.098195,998.428],[-1.818608,43.098235,999.32],[-1.818561,43.098277,1000.009],[-1.818546,43.098329,1000.468],[-1.818554,43.098374,1000.718],[-1.818541,43.098426,1001.367],[-1.818523,43.098474,1001.814],[-1.818501,43.098522,1002.477],[-1.818474,43.098572,1003.143],[-1.818452,43.098617,1003.917],[-1.818422,43.098669,1005.448],[-1.818402,43.098717,1006.872],[-1.818377,43.098764,1008.363],[-1.81836,43.098809,1009.644],[-1.818348,43.098854,1010.918],[-1.818321,43.098899,1012.309],[-1.818301,43.098944,1013.687],[-1.818271,43.098987,1015.037],[-1.818238,43.09903,1016.476],[-1.818215,43.099075,1017.863],[-1.818187,43.099122,1019.456],[-1.818145,43.099167,1021.032],[-1.818127,43.099219,1022.056],[-1.818095,43.099262,1023.197],[-1.818073,43.099312,1024.371],[-1.818055,43.099362,1025.555],[-1.818028,43.099409,1026.807],[-1.818001,43.099452,1028.117],[-1.817959,43.099487,1029.509],[-1.817931,43.099534,1031.056],[-1.817876,43.099559,1032.736],[-1.817816,43.099589,1034.785],[-1.817778,43.099629,1036.682],[-1.817735,43.099662,1038.075],[-1.817707,43.099704,1039.561],[-1.817687,43.099751,1040.835],[-1.817637,43.099783,1042.156],[-1.817609,43.099823,1043.33],[-1.817557,43.09985,1044.855],[-1.817517,43.099887,1046.207],[-1.817474,43.09992,1047.417],[-1.817436,43.099963,1048.709],[-1.817391,43.100005,1050.296],[-1.817368,43.100047,1051.036],[-1.817313,43.100084,1052.285],[-1.817256,43.100116,1053.662],[-1.817224,43.100158,1054.835],[-1.817176,43.100195,1055.111],[-1.817118,43.100215,1055.255],[-1.817051,43.10024,1055.636],[-1.816999,43.10027,1056.75],[-1.816937,43.100302,1056.989],[-1.816882,43.100329,1056.506],[-1.816842,43.100367,1056.226],[-1.816784,43.100382,1055.909],[-1.816719,43.100415,1055.889],[-1.816649,43.100427,1055.379],[-1.816587,43.100447,1054.578],[-1.816507,43.100447,1053.215],[-1.816445,43.100447,1052.238],[-1.816375,43.100444,1051.114],[-1.81644,43.100437,1051.858],[-1.816378,43.100432,1050.699],[-1.81646,43.100427,1051.883],[-1.816397,43.100435,1050.956],[-1.816464,43.100473,1053.459],[-1.816537,43.100468,1054.314],[-1.816604,43.10046,1055.009],[-1.816669,43.100458,1056.046],[-1.816737,43.100435,1056.096],[-1.816804,43.100402,1056.295],[-1.816856,43.100359,1056.322],[-1.816906,43.100322,1056.785],[-1.816959,43.100299,1057.071],[-1.817007,43.100264,1056.435],[-1.817069,43.100244,1055.956],[-1.817136,43.100224,1055.65],[-1.817193,43.100206,1055.561],[-1.817238,43.100168,1054.821],[-1.817258,43.100123,1053.713],[-1.81731,43.100081,1052.209],[-1.81736,43.100043,1051.127],[-1.817403,43.100005,1050.117],[-1.817446,43.099955,1048.596],[-1.817479,43.099913,1047.253],[-1.817507,43.099873,1046.146],[-1.817552,43.099835,1044.552],[-1.817594,43.099802,1043.246],[-1.817644,43.099767,1041.747],[-1.817687,43.099729,1040.491],[-1.817717,43.099689,1039.011],[-1.817744,43.099642,1037.421],[-1.817771,43.0996,1036.003],[-1.817828,43.099558,1033.709],[-1.817873,43.099523,1032.072],[-1.817915,43.099483,1030.332],[-1.817962,43.099448,1028.791],[-1.81799,43.099396,1027.178],[-1.818027,43.099356,1025.821],[-1.818064,43.099306,1024.447],[-1.818084,43.099249,1023.121],[-1.818112,43.099207,1022.092],[-1.818135,43.09916,1021.066],[-1.818165,43.099112,1019.339],[-1.818195,43.099069,1017.901],[-1.818215,43.099021,1016.421],[-1.81823,43.098966,1014.809],[-1.81826,43.098916,1013.264],[-1.818293,43.098861,1011.694],[-1.818353,43.098824,1010.153],[-1.818376,43.098761,1008.24],[-1.818388,43.098706,1006.753],[-1.818413,43.098653,1005.259],[-1.818436,43.09861,1003.953],[-1.818464,43.098553,1003.124],[-1.818491,43.098508,1002.478],[-1.818513,43.09846,1001.881],[-1.818526,43.098408,1001.261],[-1.818548,43.098348,1000.617],[-1.818578,43.098305,1000.009],[-1.818626,43.098265,999.389],[-1.818668,43.098223,998.379],[-1.818696,43.098183,997.648],[-1.818739,43.098141,996.675],[-1.818777,43.098104,995.958],[-1.818797,43.098059,995.354],[-1.818819,43.098016,994.518],[-1.818847,43.097971,993.639],[-1.81889,43.097931,992.613],[-1.81892,43.097886,991.784],[-1.818963,43.097851,990.707],[-1.818981,43.097806,989.917],[-1.819011,43.097753,989.109],[-1.819053,43.0977,988.119],[-1.819083,43.097655,987.589],[-1.819123,43.097618,986.968],[-1.819163,43.09758,986.395],[-1.819211,43.09755,985.818],[-1.819274,43.097518,985.354],[-1.819341,43.09749,984.758],[-1.819398,43.097467,984.159],[-1.819468,43.097444,983.563],[-1.819528,43.097417,983.287],[-1.819596,43.097395,982.942],[-1.819676,43.097367,982.626],[-1.819739,43.097344,982.409],[-1.819814,43.097321,981.939],[-1.819899,43.097296,981.589],[-1.819981,43.097268,981.148],[-1.820044,43.097243,980.765],[-1.820116,43.097213,980.178],[-1.820176,43.097186,979.454],[-1.820246,43.097161,978.828],[-1.820313,43.097151,978.589],[-1.820395,43.097176,978.793],[-1.820462,43.097131,978.358],[-1.820522,43.097103,978.152],[-1.8206,43.097078,977.817],[-1.820675,43.097071,977.509],[-1.820742,43.097064,977.296],[-1.820824,43.097057,976.866],[-1.820906,43.097049,976.535],[-1.820988,43.097044,976.222],[-1.821066,43.097036,975.815],[-1.821143,43.097028,975.611],[-1.821225,43.09701,975.455],[-1.821302,43.097005,975.366],[-1.82138,43.096993,975.28],[-1.821455,43.09699,975.283],[-1.821528,43.096975,975.125],[-1.821595,43.096953,975.017],[-1.82168,43.096945,975.009],[-1.821743,43.096952,975.089],[-1.82181,43.09694,975.069],[-1.821878,43.096943,975.088],[-1.821941,43.096928,974.855],[-1.821999,43.096911,974.848],[-1.822072,43.096898,975.034],[-1.822155,43.096891,975.218],[-1.822238,43.096881,975.369],[-1.822325,43.096883,975.383],[-1.822407,43.096875,975.257],[-1.822475,43.096875,975.2],[-1.822542,43.09686,975.12],[-1.822612,43.096847,975.109],[-1.822685,43.096845,975.246],[-1.822762,43.096857,975.466],[-1.82283,43.096859,975.415],[-1.822912,43.096837,975.262],[-1.822984,43.096832,975.245],[-1.823056,43.096814,975.121],[-1.823134,43.096809,975.035],[-1.823199,43.096794,974.926],[-1.823262,43.096804,975.05],[-1.823339,43.096819,975.146],[-1.823404,43.096806,975.388],[-1.823469,43.096796,975.416],[-1.823552,43.096791,975.709],[-1.823614,43.096791,975.985],[-1.823677,43.096796,975.975],[-1.82374,43.096798,975.974],[-1.823817,43.096801,976.091],[-1.823885,43.096803,976.064],[-1.823948,43.09681,976.04],[-1.82402,43.09682,976.114],[-1.82409,43.09683,976.235],[-1.824147,43.096848,976.369],[-1.824214,43.096878,976.671],[-1.824277,43.096908,976.841],[-1.824342,43.096928,976.915],[-1.824409,43.09694,977.009],[-1.824492,43.096943,977.018],[-1.824552,43.096956,976.968],[-1.824614,43.096956,976.977],[-1.824684,43.096959,976.864],[-1.824767,43.096951,976.997],[-1.824847,43.096949,977.043],[-1.82491,43.096944,977.097],[-1.824983,43.096949,977.028],[-1.825041,43.096967,976.962],[-1.825108,43.096969,976.939],[-1.825178,43.096982,976.801],[-1.82523,43.097007,976.721],[-1.8253,43.097019,976.809],[-1.825362,43.097026,976.884],[-1.825434,43.097043,976.864],[-1.825509,43.097061,976.953],[-1.825566,43.097088,977.01],[-1.825619,43.097116,977.113],[-1.825679,43.097133,977.359],[-1.825746,43.097143,977.533],[-1.825816,43.097175,977.814],[-1.825883,43.09719,978.238],[-1.82596,43.09718,978.731],[-1.82604,43.097173,979.261],[-1.82611,43.097193,979.807],[-1.826172,43.097206,980.309],[-1.826245,43.097221,981.024],[-1.826322,43.097234,981.524],[-1.826392,43.097242,982.063],[-1.826462,43.097249,982.77],[-1.82653,43.097252,983.453],[-1.826602,43.097252,984.139],[-1.826662,43.097272,984.663],[-1.826735,43.09727,985.284],[-1.826813,43.09728,985.728],[-1.826875,43.097292,986.212],[-1.82695,43.097302,986.832],[-1.827018,43.097317,987.505],[-1.827083,43.097312,988.209],[-1.827153,43.097322,988.982],[-1.82722,43.097317,989.652],[-1.827283,43.09731,990.361],[-1.827358,43.097307,991.288],[-1.82743,43.097324,991.991],[-1.827507,43.097334,992.797],[-1.827572,43.097344,993.341],[-1.827635,43.097354,994.092],[-1.8277,43.097384,994.636],[-1.827772,43.097409,995.349],[-1.827837,43.097431,996.102],[-1.827904,43.097443,997.022],[-1.827972,43.097456,998.009],[-1.828054,43.097476,999.165],[-1.828122,43.097481,1000.265],[-1.828192,43.097486,1001.544],[-1.828249,43.097521,1002.421],[-1.828321,43.097534,1003.794],[-1.828384,43.097564,1004.74],[-1.828447,43.097586,1005.754],[-1.82851,43.097596,1006.855],[-1.828582,43.097618,1008.199],[-1.828639,43.097636,1009.049],[-1.828696,43.097663,1009.902],[-1.828759,43.097678,1011.022],[-1.828831,43.097693,1012.309],[-1.828893,43.09769,1013.475],[-1.828958,43.09768,1014.535],[-1.82902,43.097687,1015.534],[-1.829078,43.097702,1016.521],[-1.829143,43.097727,1017.694],[-1.829203,43.097744,1018.51],[-1.829266,43.097756,1019.454],[-1.829324,43.097774,1020.315],[-1.829379,43.097799,1021.089],[-1.829442,43.097816,1022.056],[-1.829505,43.097829,1023.159],[-1.829567,43.097829,1024.314],[-1.829639,43.097841,1025.709],[-1.829701,43.097869,1026.926],[-1.829778,43.097864,1028.356],[-1.82984,43.097861,1029.465],[-1.8299,43.097878,1030.672],[-1.829967,43.097891,1031.845],[-1.83003,43.097886,1032.861],[-1.830102,43.097881,1033.695],[-1.830175,43.097891,1034.616],[-1.830238,43.097904,1035.45],[-1.830306,43.097917,1036.413],[-1.830373,43.097925,1037.343],[-1.830433,43.097945,1038.207],[-1.8305,43.09796,1039.209],[-1.830567,43.097967,1040.272],[-1.830637,43.097974,1040.972],[-1.8307,43.098001,1041.921],[-1.830768,43.098023,1042.948],[-1.83082,43.098051,1043.811],[-1.830888,43.098074,1044.697],[-1.83096,43.098094,1045.521],[-1.831023,43.098127,1046.522],[-1.831081,43.09815,1047.466],[-1.831156,43.098177,1048.345],[-1.831216,43.098212,1049.247],[-1.831288,43.098219,1049.711],[-1.831355,43.098227,1050.209],[-1.831425,43.09824,1050.435],[-1.83149,43.098248,1050.255],[-1.83156,43.098261,1050.124],[-1.831622,43.098274,1050.121],[-1.83168,43.098289,1050.434],[-1.831743,43.098299,1050.64],[-1.831811,43.098301,1050.614],[-1.831878,43.098318,1051.395],[-1.831943,43.098325,1051.629],[-1.83201,43.098348,1051.378],[-1.832067,43.098375,1051.233],[-1.832125,43.098398,1050.826],[-1.832187,43.098411,1049.909],[-1.832259,43.098441,1049.398],[-1.832314,43.098464,1048.678],[-1.832399,43.098474,1046.917],[-1.832456,43.098499,1046.154],[-1.832513,43.098521,1045.217],[-1.832581,43.098548,1044.773],[-1.832653,43.098588,1044.447],[-1.832716,43.09859,1043.578],[-1.832774,43.098568,1042.392],[-1.832849,43.098565,1041.773],[-1.832927,43.098562,1041.085],[-1.832995,43.09856,1040.513],[-1.833063,43.098547,1039.809],[-1.833141,43.098569,1040.248],[-1.833189,43.098607,1040.928],[-1.833271,43.09862,1040.927],[-1.833328,43.098642,1040.874],[-1.833398,43.098654,1040.557],[-1.833463,43.098619,1040.563],[-1.833466,43.098567,1039.517],[-1.833476,43.098515,1038.268],[-1.833504,43.098473,1037.122],[-1.833572,43.098451,1036.243],[-1.833634,43.098444,1035.764],[-1.833707,43.098434,1035.31],[-1.83378,43.098427,1035.009],[-1.833842,43.098417,1034.595],[-1.833909,43.098407,1034.025],[-1.833979,43.098394,1033.264],[-1.834052,43.098386,1032.561],[-1.834119,43.098374,1031.634],[-1.834181,43.098379,1031.49],[-1.834256,43.098374,1031.054],[-1.834324,43.098364,1030.465],[-1.834392,43.098349,1029.719],[-1.83446,43.098346,1029.474],[-1.834533,43.098321,1028.256],[-1.834601,43.098311,1027.521],[-1.834653,43.098281,1026.109],[-1.83472,43.098271,1025.528],[-1.834782,43.098256,1025.248],[-1.83486,43.098246,1025.047],[-1.834952,43.098219,1024.364],[-1.835035,43.098191,1023.657],[-1.83511,43.098166,1023.123],[-1.835177,43.098144,1022.557],[-1.835239,43.098116,1021.678],[-1.835301,43.098088,1020.652],[-1.835369,43.098066,1019.886],[-1.835432,43.098046,1019.16],[-1.835497,43.098041,1019.126],[-1.835557,43.098019,1018.209],[-1.835629,43.098016,1018.539],[-1.835686,43.097993,1017.899],[-1.835756,43.097998,1018.578],[-1.835824,43.097985,1018.485],[-1.835882,43.097963,1017.618],[-1.835947,43.097946,1017.074],[-1.836014,43.097934,1016.828],[-1.836082,43.097919,1016.539],[-1.836145,43.097901,1015.893],[-1.836203,43.097878,1014.866],[-1.836266,43.097876,1014.829],[-1.836348,43.097869,1014.521],[-1.836421,43.097861,1014.209],[-1.836491,43.097848,1013.487],[-1.836556,43.097835,1012.817],[-1.836623,43.097828,1012.466],[-1.83669,43.09782,1012.053],[-1.836758,43.097815,1011.796],[-1.836835,43.0978,1011.032],[-1.836907,43.09779,1010.576],[-1.836977,43.097775,1009.957],[-1.83704,43.097767,1009.641],[-1.837107,43.097754,1009.176],[-1.837184,43.097739,1008.69],[-1.837249,43.097721,1008.019],[-1.837324,43.097708,1007.809],[-1.837392,43.097693,1007.448],[-1.837454,43.097673,1006.728],[-1.837526,43.09765,1006.097],[-1.837603,43.097632,1005.624],[-1.837663,43.09762,1005.337],[-1.837731,43.097612,1005.373],[-1.837801,43.097607,1005.357],[-1.837858,43.097587,1004.528],[-1.837895,43.097537,1002.562],[-1.83796,43.097532,1002.312],[-1.838012,43.097562,1003.632],[-1.838079,43.097557,1003.305],[-1.838131,43.097527,1001.709],[-1.838159,43.097477,999.252],[-1.838161,43.097432,997.292],[-1.838161,43.09738,994.821],[-1.838178,43.097322,992.168],[-1.838195,43.097279,990.181],[-1.838215,43.097232,987.917],[-1.838215,43.097184,985.941],[-1.838155,43.097167,985.512],[-1.838108,43.097132,984.286],[-1.838163,43.097102,982.928],[-1.838223,43.097087,982.089],[-1.838288,43.097102,982.417],[-1.83836,43.097102,982.109],[-1.838423,43.0971,981.883],[-1.838496,43.097107,981.923],[-1.838574,43.09711,981.742],[-1.838647,43.097113,981.459],[-1.838719,43.097111,980.882],[-1.838796,43.097116,980.568],[-1.838873,43.097123,980.232],[-1.838945,43.097133,979.743],[-1.839018,43.097146,979.197],[-1.839076,43.097161,978.991],[-1.839156,43.097193,979.081],[-1.839234,43.097216,978.819],[-1.839304,43.097238,978.909],[-1.839372,43.097255,978.95],[-1.839444,43.097265,978.54],[-1.839526,43.097272,979.559],[-1.839601,43.09726,979.496],[-1.839673,43.097235,978.419],[-1.839741,43.097202,976.985],[-1.839824,43.09717,975.689],[-1.839902,43.09715,975.17],[-1.839974,43.097137,974.934],[-1.840057,43.097124,974.713],[-1.840149,43.097109,974.343],[-1.840234,43.097092,973.807],[-1.840307,43.097079,973.409],[-1.8404,43.097077,974.042],[-1.840478,43.097055,973.242],[-1.840566,43.097045,973.271],[-1.840654,43.097038,973.328],[-1.840746,43.097028,973.321],[-1.840833,43.097011,972.897],[-1.840923,43.096989,972.891],[-1.841003,43.096967,972.652],[-1.841078,43.096945,972.666],[-1.841151,43.096925,972.641],[-1.841224,43.096902,972.481],[-1.841301,43.096887,972.709],[-1.841388,43.09686,972.609],[-1.841473,43.096832,971.915],[-1.841556,43.096799,970.845],[-1.841633,43.096772,970.074],[-1.841708,43.096742,969.171],[-1.841786,43.09671,968.124],[-1.841851,43.096687,967.58],[-1.841928,43.096674,967.264],[-1.842003,43.096651,966.785],[-1.842071,43.096628,966.269],[-1.842136,43.096606,965.749],[-1.842209,43.096593,965.602],[-1.842277,43.096576,965.122],[-1.842347,43.096569,964.809],[-1.842425,43.096552,964.395],[-1.842507,43.096544,964.045],[-1.842602,43.096519,963.064],[-1.842689,43.096497,962.221],[-1.842779,43.096477,961.554],[-1.842867,43.096449,960.78],[-1.842947,43.096419,959.974],[-1.843027,43.096392,959.135],[-1.843099,43.09636,958.339],[-1.843172,43.096328,957.512],[-1.843244,43.096313,957.132],[-1.843331,43.096288,956.505],[-1.843408,43.09627,956.009],[-1.843481,43.096273,956.112],[-1.843544,43.096266,955.912],[-1.843607,43.096251,955.551],[-1.84368,43.096243,955.228],[-1.843747,43.09625,955.361],[-1.84382,43.096233,954.627],[-1.843895,43.096206,953.721],[-1.843952,43.096183,953.122],[-1.844014,43.096155,952.386],[-1.844089,43.096135,951.772],[-1.844167,43.096128,951.513],[-1.844244,43.096121,951.314],[-1.844307,43.096124,951.409],[-1.844372,43.096131,951.678],[-1.844442,43.096128,951.568],[-1.844514,43.096123,951.647],[-1.844592,43.096108,951.494],[-1.844669,43.096098,951.467],[-1.844747,43.096081,951.693],[-1.844794,43.096041,951.387],[-1.844829,43.095983,950.418],[-1.844867,43.095943,950.142],[-1.844912,43.095891,949.689],[-1.844955,43.095858,949.706],[-1.845013,43.095815,949.626],[-1.845061,43.095768,948.909],[-1.845098,43.095731,948.399],[-1.845145,43.095698,948.079],[-1.845193,43.095658,947.418],[-1.845245,43.095616,946.765],[-1.845295,43.095576,946.028],[-1.845347,43.095531,945.464],[-1.845424,43.095479,945.018],[-1.845494,43.095427,944.459],[-1.845567,43.095379,943.833],[-1.84563,43.095334,943.041],[-1.845697,43.095296,942.681],[-1.845765,43.095254,942.309],[-1.845837,43.095224,942.309],[-1.845907,43.095181,941.845],[-1.845985,43.095141,941.525],[-1.84606,43.095108,941.484],[-1.846137,43.095068,941.221],[-1.846217,43.095038,941.264],[-1.846285,43.095005,941.01],[-1.846352,43.09497,940.574],[-1.846424,43.094937,939.935],[-1.846507,43.0949,939.019],[-1.846594,43.094868,938.353],[-1.846659,43.094851,938.104],[-1.846731,43.094851,938.714],[-1.846794,43.094853,939.409],[-1.846862,43.094828,939.126],[-1.846929,43.094805,938.946],[-1.846994,43.094782,938.725],[-1.847052,43.094752,938.262],[-1.847109,43.094725,937.925],[-1.847154,43.09468,936.921],[-1.847204,43.094613,935.275],[-1.847247,43.09456,934.036],[-1.847282,43.09452,933.12],[-1.84732,43.09447,931.994],[-1.847358,43.094422,930.757],[-1.8474,43.094372,929.622],[-1.847448,43.094324,928.509],[-1.847493,43.094272,927.33],[-1.847536,43.094227,926.25],[-1.847581,43.094175,924.959],[-1.847631,43.094127,923.876],[-1.847676,43.09408,922.859],[-1.847718,43.094035,921.815],[-1.847761,43.093992,920.869],[-1.847799,43.093944,919.84],[-1.847829,43.093889,918.634],[-1.847861,43.093832,917.949],[-1.847884,43.093777,917.102],[-1.847917,43.093724,916.522],[-1.847955,43.093672,916.009],[-1.847992,43.093614,915.435],[-1.848037,43.093566,914.855],[-1.848075,43.093504,914.064],[-1.848107,43.093442,913.161],[-1.848135,43.093379,912.134],[-1.848173,43.093327,911.58],[-1.84822,43.093275,910.734],[-1.84826,43.093227,909.995],[-1.848307,43.093174,909.019],[-1.848347,43.093112,907.943],[-1.848374,43.093052,906.864],[-1.848406,43.092985,905.61],[-1.848428,43.092928,904.509],[-1.848455,43.092875,903.795],[-1.848502,43.092832,903.745],[-1.848552,43.092799,904.144],[-1.848602,43.092761,904.051],[-1.848657,43.092731,903.784],[-1.848707,43.092694,903.11],[-1.848769,43.092649,902.574],[-1.848816,43.092611,902.115],[-1.848871,43.092576,902.129],[-1.848913,43.092526,901.228],[-1.84896,43.092494,900.889],[-1.849023,43.092457,900.217],[-1.849085,43.092434,900.209],[-1.849145,43.092412,900.293],[-1.849192,43.092379,899.493],[-1.849245,43.092351,898.592],[-1.849335,43.092316,897.519],[-1.849418,43.092278,896.332],[-1.849501,43.092246,895.238],[-1.849594,43.092218,894.362],[-1.849684,43.09219,893.313],[-1.849771,43.092162,892.367],[-1.849856,43.09214,891.652],[-1.849943,43.092122,891.253],[-1.850028,43.092105,890.908],[-1.8501,43.09207,889.909],[-1.850168,43.092033,888.896],[-1.850243,43.091988,887.466],[-1.850311,43.091951,886.515],[-1.850389,43.091918,885.712],[-1.850457,43.091881,884.825],[-1.850512,43.091858,884.491],[-1.850564,43.091833,884.015],[-1.850617,43.091796,883.146],[-1.85064,43.091734,881.22],[-1.850693,43.091682,880.059],[-1.850741,43.091632,878.703],[-1.850794,43.091582,877.723],[-1.850847,43.091535,876.809],[-1.850889,43.09149,875.616],[-1.850927,43.091447,874.536],[-1.850969,43.091399,873.365],[-1.851001,43.091359,872.512],[-1.851033,43.091317,871.855],[-1.851033,43.09126,870.551],[-1.85107,43.091212,869.885],[-1.851085,43.091154,868.776],[-1.851057,43.091114,867.57],[-1.85106,43.091066,866.386],[-1.851093,43.091023,865.66],[-1.851128,43.090985,864.826],[-1.851173,43.09094,863.509],[-1.851228,43.090885,861.919],[-1.851268,43.090847,860.899],[-1.851286,43.090795,859.268],[-1.851294,43.090733,857.335],[-1.851362,43.090688,855.938],[-1.851447,43.090655,854.424],[-1.85154,43.090632,853.198],[-1.851633,43.090635,852.549],[-1.85172,43.09064,851.643],[-1.851805,43.090648,850.514],[-1.8519,43.090655,849.254],[-1.851982,43.09067,848.209],[-1.85207,43.09067,846.609],[-1.852148,43.090687,845.652],[-1.852223,43.090709,844.922],[-1.85231,43.090724,843.551],[-1.852393,43.090742,842.248],[-1.852466,43.090769,841.351],[-1.852546,43.090789,839.937],[-1.852633,43.090811,838.251],[-1.852713,43.090833,836.672],[-1.852791,43.090855,835.336],[-1.852879,43.090872,833.914],[-1.852954,43.090894,832.854],[-1.853036,43.090911,831.409],[-1.853108,43.090934,830.309],[-1.853188,43.090961,829.172],[-1.853273,43.090988,827.922],[-1.853351,43.091018,826.961],[-1.853434,43.091041,825.758],[-1.853529,43.091051,823.971],[-1.853619,43.091066,822.487],[-1.853702,43.091088,821.391],[-1.853782,43.09111,820.312],[-1.853867,43.091128,819.046],[-1.853937,43.09114,817.997],[-1.854015,43.09116,816.923],[-1.8541,43.09118,815.725],[-1.854175,43.091195,814.609],[-1.854253,43.091207,813.47],[-1.854316,43.091227,812.87],[-1.854379,43.091232,811.849],[-1.854446,43.091242,810.756],[-1.854496,43.09128,810.939],[-1.854553,43.091312,810.845],[-1.854618,43.091342,810.599],[-1.854678,43.091367,810.21],[-1.854756,43.09138,809.524],[-1.854821,43.091395,809.575],[-1.854883,43.091403,809.328],[-1.854921,43.091366,807.72],[-1.854906,43.091319,806.009],[-1.854874,43.091262,804.338],[-1.854851,43.091217,803.068],[-1.854821,43.091172,801.967],[-1.854783,43.091127,801.254],[-1.854753,43.091082,800.247],[-1.854716,43.091029,798.913],[-1.854689,43.090974,797.237],[-1.854661,43.090929,795.938],[-1.854621,43.090872,794.422],[-1.854588,43.090817,792.831],[-1.854561,43.090765,791.561],[-1.854549,43.090715,790.007],[-1.854549,43.090665,788.209],[-1.854522,43.090595,786.454],[-1.854504,43.090547,785.374],[-1.854494,43.090495,784.153],[-1.854454,43.090428,783.59],[-1.854442,43.090373,782.563],[-1.854442,43.09032,781.139],[-1.854407,43.09025,780.463],[-1.854395,43.09019,779.224],[-1.854378,43.090132,778.228],[-1.85436,43.09007,777.243],[-1.854343,43.090025,776.664],[-1.854316,43.089967,775.81],[-1.854299,43.089904,774.609],[-1.854277,43.089851,773.965],[-1.854259,43.089796,773.015],[-1.854232,43.089739,772.354],[-1.854204,43.089687,771.761],[-1.854171,43.089639,771.234],[-1.854144,43.089594,770.38],[-1.854111,43.089552,769.664],[-1.854068,43.089514,769.225],[-1.85404,43.089466,768.069],[-1.854023,43.089414,767.053],[-1.85402,43.089364,766.004],[-1.853995,43.089311,765.414],[-1.853968,43.089249,764.609],[-1.85392,43.089197,764.296],[-1.853893,43.089154,763.666],[-1.85388,43.089097,762.415],[-1.853873,43.089035,760.922],[-1.853846,43.088985,760.165],[-1.853814,43.088933,759.261],[-1.853767,43.088888,758.795],[-1.853714,43.088835,758.186],[-1.853684,43.088782,757.23],[-1.853676,43.088732,756.077],[-1.853666,43.088674,754.661],[-1.853641,43.088627,753.927],[-1.853624,43.088584,752.809],[-1.853612,43.088521,750.758],[-1.8536,43.088473,749.298],[-1.853582,43.088423,747.767],[-1.85357,43.088366,745.914],[-1.853553,43.088314,744.517],[-1.853518,43.088257,743.383],[-1.853495,43.088209,742.127],[-1.853467,43.088159,740.938],[-1.853434,43.088112,739.872],[-1.853411,43.088065,738.554],[-1.853403,43.08802,737.356],[-1.853403,43.087958,735.511],[-1.853413,43.087906,734.009],[-1.853415,43.087851,732.436],[-1.85341,43.087799,731.076],[-1.85339,43.087746,729.725],[-1.85336,43.087694,728.442],[-1.853325,43.087637,727.055],[-1.853283,43.087584,725.791],[-1.853236,43.087534,724.445],[-1.853188,43.087497,723.526],[-1.85313,43.087482,723.49],[-1.853093,43.087439,722.783],[-1.853158,43.087414,722.025],[-1.853228,43.087412,721.617],[-1.853291,43.087394,720.909],[-1.853363,43.087376,720.079],[-1.853413,43.087344,718.939],[-1.853455,43.087306,717.888],[-1.853467,43.087254,716.745],[-1.853499,43.087214,715.758],[-1.853516,43.087159,715.284],[-1.853516,43.087109,714.738],[-1.853524,43.087064,714.359],[-1.853524,43.087016,713.983],[-1.853514,43.086966,713.592],[-1.853521,43.086918,713.073],[-1.853521,43.086865,712.42],[-1.853563,43.086793,711.409],[-1.853601,43.086738,710.82],[-1.853641,43.086698,710.36],[-1.853716,43.086663,710.089],[-1.853773,43.086623,709.986],[-1.85383,43.086588,709.919],[-1.853885,43.086563,710.085],[-1.853948,43.086531,710.189],[-1.854028,43.086518,710.38],[-1.854113,43.08651,710.554],[-1.854181,43.086485,710.654],[-1.854243,43.086458,710.656],[-1.854311,43.086423,710.811],[-1.854391,43.086395,710.909],[-1.854471,43.08637,711.396],[-1.854548,43.086345,711.746],[-1.854628,43.086332,712.065],[-1.854723,43.086332,712.072],[-1.854806,43.086357,711.355],[-1.854889,43.086357,711.141],[-1.854977,43.086364,710.765],[-1.855055,43.086367,710.626],[-1.855127,43.08637,710.53],[-1.855207,43.086367,710.632],[-1.855294,43.086365,710.592],[-1.855376,43.086373,710.111],[-1.855449,43.086371,709.909],[-1.855517,43.086378,709.414],[-1.85559,43.086391,708.924],[-1.855652,43.086409,708.343],[-1.85572,43.086414,708.15],[-1.85579,43.086404,708.433],[-1.855853,43.086417,707.819],[-1.855916,43.086429,707.163],[-1.855973,43.086402,708.074],[-1.856043,43.086385,708.418],[-1.856108,43.086387,708.184],[-1.856173,43.086374,708.207],[-1.856236,43.086379,707.817],[-1.856318,43.086389,707.309],[-1.856415,43.086402,706.449],[-1.856487,43.086397,706.369],[-1.85656,43.086397,706.078],[-1.856638,43.086417,704.965],[-1.856718,43.086417,704.638],[-1.856803,43.086407,704.714],[-1.85688,43.0864,704.778],[-1.856957,43.086393,704.769],[-1.857032,43.086388,704.153],[-1.857102,43.086378,703.544],[-1.857179,43.086363,702.905],[-1.857259,43.086333,702.515],[-1.857351,43.086321,701.809],[-1.857414,43.086303,701.435],[-1.857469,43.086281,701.185],[-1.857519,43.086239,700.814],[-1.857567,43.086196,700.391],[-1.857612,43.086148,699.884],[-1.85766,43.086088,699.23],[-1.857698,43.086035,698.884],[-1.857738,43.085983,698.245],[-1.857773,43.085928,697.839],[-1.857798,43.085881,697.489],[-1.857816,43.085826,697.006],[-1.857819,43.085771,696.026],[-1.857789,43.085703,695.409],[-1.857779,43.085646,694.659],[-1.857766,43.085599,694.069],[-1.857748,43.085546,693.398],[-1.857716,43.085496,692.795],[-1.857666,43.085446,692.498],[-1.857631,43.085386,691.714],[-1.857601,43.085328,691.048],[-1.857571,43.085275,690.449],[-1.857543,43.085225,689.693],[-1.857508,43.085177,688.989],[-1.857471,43.085124,688.106],[-1.857429,43.085077,687.526],[-1.857382,43.085029,687.009],[-1.857334,43.084982,686.589],[-1.857296,43.08493,685.999],[-1.857258,43.084872,685.168],[-1.85722,43.084822,684.545],[-1.857178,43.08476,683.638],[-1.857126,43.084708,683.124],[-1.857068,43.084658,682.818],[-1.857038,43.084615,682.359],[-1.857001,43.084557,681.643],[-1.856974,43.084515,681.133],[-1.856949,43.084468,680.423],[-1.856917,43.084406,679.715],[-1.856877,43.084359,679.409],[-1.85685,43.084317,678.924],[-1.85681,43.084257,678.244],[-1.856773,43.084202,677.643],[-1.856726,43.084154,677.29],[-1.856686,43.084091,676.783],[-1.856643,43.084049,676.459],[-1.856613,43.084002,675.913],[-1.856613,43.083952,675.144],[-1.85662,43.083907,674.468],[-1.856628,43.083862,673.923],[-1.856636,43.08381,673.583],[-1.856649,43.083762,673.111],[-1.856672,43.083712,672.709],[-1.856667,43.083657,672.323],[-1.856627,43.083605,672.083]]}}]}