{"type":"FeatureCollection","features":[{"type":"Feature","properties":{"ruta_id":"111125598","nombre":"PICO de MUSALES desde SALLENT de GÁLLEGO","blog_url":"https://www.rutasporelmonte.com/pico-musales-2652-m-desde-sallent-de-gallego/"},"geometry":{"type":"LineString","coordinates":[[-0.327302,42.775368,1283.872],[-0.327249,42.775328,1284.413],[-0.327279,42.77537,1283.914],[-0.327224,42.775393,1284.209],[-0.327182,42.775435,1284.668],[-0.327139,42.775472,1285.078],[-0.327076,42.775507,1285.478],[-0.327003,42.77552,1286.118],[-0.326941,42.77555,1286.299],[-0.326886,42.77558,1286.782],[-0.326859,42.775628,1286.762],[-0.326839,42.775671,1286.696],[-0.326802,42.775709,1286.655],[-0.326737,42.775716,1287.183],[-0.326675,42.775724,1287.525],[-0.326617,42.775741,1287.617],[-0.326545,42.775741,1288.109],[-0.326477,42.775741,1288.559],[-0.326405,42.775736,1289.019],[-0.326337,42.775753,1289.249],[-0.326282,42.775783,1288.989],[-0.326227,42.775808,1288.81],[-0.326154,42.775825,1288.933],[-0.326094,42.775842,1289.323],[-0.326032,42.775864,1290.317],[-0.325977,42.775899,1291.066],[-0.325945,42.775941,1291.131],[-0.325903,42.775986,1291.161],[-0.325861,42.776033,1290.907],[-0.325858,42.776081,1290.309],[-0.325865,42.776133,1290.094],[-0.325863,42.776181,1290.164],[-0.325875,42.776238,1290.324],[-0.325892,42.776285,1290.454],[-0.3259,42.776342,1290.695],[-0.325905,42.776387,1290.748],[-0.325908,42.776444,1291.128],[-0.3259,42.776489,1291.442],[-0.325887,42.776542,1291.831],[-0.32586,42.776584,1292.268],[-0.3258,42.776607,1292.842],[-0.325738,42.7766,1293.226],[-0.325661,42.776592,1293.809],[-0.325588,42.776585,1294.347],[-0.325523,42.776598,1295.017],[-0.325458,42.77662,1295.927],[-0.325395,42.776635,1296.717],[-0.325322,42.776647,1297.728],[-0.325255,42.776655,1298.641],[-0.325207,42.776685,1299.191],[-0.325135,42.776708,1300.115],[-0.325073,42.77673,1300.854],[-0.325005,42.77675,1301.465],[-0.324937,42.77678,1302.668],[-0.324877,42.776807,1303.614],[-0.324827,42.776839,1304.009],[-0.32479,42.776881,1303.687],[-0.324747,42.776926,1303.177],[-0.324694,42.776963,1303.837],[-0.324637,42.77699,1305.387],[-0.324579,42.77702,1306.598],[-0.324526,42.777048,1307.491],[-0.324458,42.777075,1308.481],[-0.3244,42.777107,1309.175],[-0.324347,42.777139,1309.544],[-0.3243,42.777172,1309.751],[-0.324262,42.777209,1309.401],[-0.324239,42.777254,1309.311],[-0.324211,42.777294,1309.609],[-0.324216,42.777341,1309.236],[-0.324234,42.777391,1308.696],[-0.324257,42.777446,1308.096],[-0.324267,42.777504,1307.656],[-0.324287,42.777556,1307.487],[-0.324275,42.777603,1307.68],[-0.324275,42.777648,1307.62],[-0.324267,42.77771,1307.874],[-0.324265,42.777758,1307.923],[-0.324287,42.777801,1308.086],[-0.32432,42.777861,1308.26],[-0.324318,42.777913,1308.826],[-0.324348,42.777966,1309.109],[-0.324376,42.778008,1309.289],[-0.324418,42.77805,1309.229],[-0.324445,42.778092,1309.419],[-0.32445,42.778139,1309.849],[-0.324457,42.778189,1310.39],[-0.324459,42.778236,1310.733],[-0.324466,42.778286,1311.253],[-0.324466,42.778338,1311.767],[-0.324428,42.778386,1312.426],[-0.324431,42.778436,1312.553],[-0.324409,42.778493,1313.004],[-0.324406,42.778548,1313.214],[-0.324418,42.778593,1313.209],[-0.324415,42.77864,1313.356],[-0.324405,42.778692,1313.446],[-0.324393,42.778749,1313.666],[-0.324391,42.778807,1313.686],[-0.324408,42.778857,1313.467],[-0.324413,42.778904,1313.36],[-0.324428,42.778959,1313.21],[-0.32445,42.779014,1312.924],[-0.324388,42.779011,1313.633],[-0.324325,42.779024,1314.393],[-0.324272,42.779052,1314.965],[-0.32421,42.779085,1315.521],[-0.324152,42.779115,1316.209],[-0.324077,42.77911,1317.06],[-0.323997,42.779122,1317.84],[-0.323924,42.779127,1318.65],[-0.323859,42.779114,1319.33],[-0.323791,42.779114,1320.171],[-0.323716,42.779131,1320.984],[-0.323654,42.779133,1321.634],[-0.323587,42.779126,1322.458],[-0.323524,42.779133,1323.157],[-0.323456,42.779148,1323.842],[-0.323388,42.77916,1324.522],[-0.323326,42.779155,1325.214],[-0.323256,42.779162,1326.109],[-0.323159,42.779202,1327.555],[-0.323097,42.779225,1328.355],[-0.323042,42.779253,1328.955],[-0.322994,42.779286,1329.565],[-0.322961,42.779326,1329.876],[-0.322931,42.779376,1330.029],[-0.322896,42.779421,1330.489],[-0.322848,42.779463,1331.113],[-0.322796,42.77949,1331.992],[-0.322738,42.779512,1332.773],[-0.322693,42.779544,1333.385],[-0.322643,42.779581,1333.913],[-0.32259,42.779619,1334.709],[-0.322543,42.779657,1335.318],[-0.322511,42.779712,1335.888],[-0.322481,42.779765,1336.528],[-0.322481,42.779812,1336.948],[-0.322466,42.779857,1337.479],[-0.322463,42.779904,1337.822],[-0.3224,42.779907,1338.732],[-0.322337,42.779939,1339.846],[-0.322285,42.779969,1340.855],[-0.322235,42.780011,1341.913],[-0.322213,42.780058,1342.743],[-0.3222,42.780106,1343.407],[-0.322182,42.780149,1344.009],[-0.322125,42.780167,1344.972],[-0.322042,42.780182,1345.922],[-0.321989,42.780207,1346.862],[-0.321931,42.780224,1347.622],[-0.321879,42.780254,1348.593],[-0.321816,42.780277,1349.426],[-0.321761,42.780302,1350.386],[-0.321711,42.78034,1351.42],[-0.321671,42.780382,1352.569],[-0.321649,42.780425,1353.497],[-0.321626,42.780472,1354.423],[-0.321599,42.780514,1355.225],[-0.321574,42.780557,1356.009],[-0.321537,42.78061,1357.28],[-0.321519,42.780657,1358.12],[-0.321524,42.780704,1358.72],[-0.321481,42.780744,1359.79],[-0.321453,42.780791,1360.761],[-0.321428,42.780841,1361.854],[-0.321405,42.780884,1363.154],[-0.321385,42.780927,1364.588],[-0.321363,42.780972,1366.277],[-0.321368,42.781025,1367.461],[-0.321361,42.781078,1368.921],[-0.321324,42.781133,1370.913],[-0.321291,42.781181,1372.409],[-0.321298,42.781226,1372.827],[-0.321301,42.781281,1373.557],[-0.321274,42.781334,1374.827],[-0.321247,42.781386,1376.037],[-0.321232,42.781431,1377.078],[-0.321189,42.781473,1378.461],[-0.321189,42.78152,1379.041],[-0.321172,42.78157,1379.915],[-0.321189,42.781617,1380.214],[-0.321254,42.781634,1379.569],[-0.321297,42.781672,1379.504],[-0.321302,42.781717,1380.624],[-0.321257,42.781749,1382.009],[-0.321189,42.781747,1382.827],[-0.321124,42.781745,1383.557],[-0.321079,42.781782,1385.037],[-0.321059,42.781825,1386.147],[-0.321026,42.78187,1387.528],[-0.320983,42.781907,1388.721],[-0.320963,42.781952,1389.881],[-0.320971,42.782005,1390.875],[-0.320953,42.782052,1392.094],[-0.320988,42.782099,1392.785],[-0.320956,42.782149,1394.189],[-0.320976,42.782204,1395.117],[-0.321011,42.782246,1395.809],[-0.321064,42.782278,1396.259],[-0.321117,42.78231,1396.989],[-0.321184,42.782317,1398.039],[-0.321249,42.782325,1399.199],[-0.321312,42.782325,1400.06],[-0.321377,42.782337,1401.253],[-0.321367,42.782389,1402.523],[-0.32134,42.782432,1403.527],[-0.321322,42.782482,1404.726],[-0.321342,42.782532,1406.627],[-0.32135,42.782579,1408.268],[-0.32135,42.782624,1409.714],[-0.321413,42.782711,1412.809],[-0.321341,42.782676,1411.453],[-0.321354,42.782629,1409.943],[-0.321394,42.782697,1412.493],[-0.321477,42.782705,1412.683],[-0.321409,42.782702,1412.514],[-0.321402,42.782655,1411.047],[-0.32145,42.782692,1412.227],[-0.321512,42.782674,1411.631],[-0.321599,42.782707,1412.79],[-0.321639,42.782745,1413.995],[-0.321697,42.78276,1414.349],[-0.321759,42.782777,1414.623],[-0.321769,42.782835,1416.209],[-0.321761,42.78288,1417.56],[-0.321761,42.782935,1419.08],[-0.321774,42.782988,1420.47],[-0.321824,42.783015,1420.87],[-0.321867,42.78305,1421.481],[-0.321904,42.783092,1422.484],[-0.321951,42.783132,1423.264],[-0.322014,42.783159,1423.518],[-0.322071,42.783179,1423.767],[-0.322089,42.783224,1424.787],[-0.322119,42.783271,1425.642],[-0.322144,42.783323,1426.626],[-0.322194,42.78335,1427.009],[-0.322246,42.783375,1427.589],[-0.322294,42.783403,1428.219],[-0.322356,42.783421,1428.459],[-0.322374,42.783466,1429.969],[-0.322407,42.783504,1431.07],[-0.322465,42.783534,1431.643],[-0.322535,42.783546,1431.473],[-0.322592,42.783569,1431.897],[-0.322634,42.783612,1433.136],[-0.322629,42.783664,1435.429],[-0.322671,42.783707,1437.2],[-0.322733,42.783717,1437.52],[-0.3228,42.783754,1439.109],[-0.322835,42.783797,1441.283],[-0.322875,42.783835,1442.913],[-0.32294,42.783847,1443.323],[-0.323005,42.78386,1443.793],[-0.323067,42.783865,1443.994],[-0.323127,42.783878,1444.727],[-0.323179,42.783906,1446.287],[-0.323241,42.783936,1447.641],[-0.323308,42.783934,1447.62],[-0.323371,42.783956,1449.144],[-0.323438,42.783953,1450.305],[-0.323525,42.783921,1451.115],[-0.323575,42.783891,1451.309],[-0.323635,42.783878,1452.245],[-0.323695,42.783861,1452.865],[-0.32375,42.783896,1454.225],[-0.323722,42.783849,1453.025],[-0.323795,42.783901,1454.916],[-0.323835,42.783974,1457.129],[-0.323798,42.784019,1457.779],[-0.323766,42.784067,1458.453],[-0.323761,42.784115,1459.422],[-0.323754,42.784168,1460.694],[-0.323757,42.784216,1461.757],[-0.323739,42.784286,1463.222],[-0.323714,42.784331,1464.009],[-0.323674,42.784379,1464.98],[-0.323679,42.784427,1466.18],[-0.323614,42.78445,1466.21],[-0.323564,42.78448,1467.34],[-0.323539,42.784528,1469.031],[-0.323519,42.784573,1470.714],[-0.323537,42.784625,1472.324],[-0.323472,42.784658,1473.898],[-0.323542,42.784636,1472.627],[-0.323589,42.784668,1473.447],[-0.323637,42.784696,1474.129],[-0.3237,42.784698,1474.021],[-0.323765,42.784713,1474.209],[-0.323828,42.784726,1474.345],[-0.323893,42.784739,1474.365],[-0.323955,42.784744,1474.625],[-0.32402,42.784767,1475.115],[-0.323992,42.784807,1475.756],[-0.324029,42.78477,1475.259],[-0.324059,42.784725,1474.799],[-0.324146,42.784723,1474.943],[-0.324079,42.784713,1474.492],[-0.324017,42.78473,1474.662],[-0.323977,42.784768,1475.083],[-0.323905,42.784783,1475.111],[-0.323843,42.784806,1475.809],[-0.323773,42.784804,1476.177],[-0.323711,42.784831,1477.187],[-0.323643,42.784828,1477.577],[-0.323576,42.78483,1478.057],[-0.323506,42.78483,1478.538],[-0.323451,42.784852,1479.451],[-0.323384,42.784839,1479.611],[-0.323317,42.784862,1480.415],[-0.323259,42.784887,1480.494],[-0.323209,42.784915,1480.552],[-0.323177,42.784962,1481.053],[-0.323182,42.78501,1481.908],[-0.3232,42.785058,1482.609],[-0.323188,42.785106,1482.956],[-0.323186,42.785154,1483.366],[-0.323206,42.785204,1483.996],[-0.323243,42.785252,1484.596],[-0.323238,42.785309,1485.337],[-0.323253,42.785357,1486.47],[-0.323295,42.785397,1487.25],[-0.32335,42.78543,1487.674],[-0.323373,42.785472,1488.233],[-0.323425,42.785507,1488.355],[-0.323442,42.785559,1488.907],[-0.323479,42.785607,1489.817],[-0.323521,42.785649,1490.409],[-0.323554,42.785687,1491.066],[-0.323596,42.785729,1491.676],[-0.323648,42.785757,1491.746],[-0.323655,42.785802,1492.676],[-0.323612,42.78584,1494.217],[-0.323544,42.785845,1495.41],[-0.323519,42.7858,1494.43],[-0.323467,42.78577,1494.424],[-0.323405,42.785767,1495.153],[-0.323342,42.785767,1496.012],[-0.323277,42.785785,1496.832],[-0.32321,42.785818,1498.005],[-0.323143,42.785833,1498.709],[-0.32307,42.785833,1498.942],[-0.323003,42.785845,1499.342],[-0.322935,42.78584,1499.252],[-0.32287,42.78585,1499.472],[-0.322807,42.785872,1500.023],[-0.32278,42.785797,1498.166],[-0.322768,42.785852,1499.596],[-0.32277,42.7859,1500.74],[-0.322793,42.785948,1501.959],[-0.32283,42.785991,1502.946],[-0.322867,42.786039,1503.988],[-0.322924,42.786066,1504.416],[-0.322979,42.786093,1504.909],[-0.323029,42.78612,1505.545],[-0.323089,42.786135,1506.085],[-0.323159,42.786143,1506.365],[-0.323211,42.786181,1507.935],[-0.323263,42.786214,1509.226],[-0.323331,42.786222,1509.499],[-0.323404,42.786224,1509.169],[-0.323456,42.786256,1510.183],[-0.323464,42.786301,1511.732],[-0.323506,42.786348,1513.211],[-0.323569,42.786363,1513.421],[-0.323576,42.786418,1515.603],[-0.323526,42.786473,1518.509],[-0.323463,42.786498,1520.252],[-0.323406,42.786521,1521.762],[-0.323363,42.786556,1523.652],[-0.323305,42.786586,1525.362],[-0.323258,42.786619,1527.053],[-0.323276,42.786664,1529.156],[-0.323314,42.786704,1530.476],[-0.323381,42.786707,1530.12],[-0.323438,42.786732,1530.769],[-0.3235,42.786734,1530.467],[-0.323513,42.786779,1532.081],[-0.323448,42.786792,1532.919],[-0.323385,42.786812,1534.009],[-0.323335,42.786845,1535.447],[-0.323288,42.786875,1536.957],[-0.32321,42.78689,1538.267],[-0.323202,42.786938,1540.257],[-0.323217,42.786986,1541.778],[-0.323225,42.787033,1543.351],[-0.323288,42.787053,1543.161],[-0.32332,42.787093,1544.055],[-0.323313,42.787138,1545.684],[-0.323305,42.78719,1547.443],[-0.32332,42.787235,1548.764],[-0.323328,42.787288,1550.21],[-0.323358,42.78734,1551.709],[-0.32338,42.787387,1553.115],[-0.323368,42.787432,1554.635],[-0.323363,42.78748,1556.255],[-0.323378,42.787527,1557.475],[-0.323378,42.787572,1558.746],[-0.323395,42.787619,1559.869],[-0.323422,42.787662,1560.719],[-0.323437,42.78771,1561.713],[-0.32341,42.787755,1563.342],[-0.323358,42.787788,1565.022],[-0.323355,42.787841,1566.762],[-0.323352,42.787893,1568.408],[-0.32337,42.787941,1569.709],[-0.323397,42.787984,1570.653],[-0.32341,42.788029,1571.833],[-0.323387,42.788071,1573.373],[-0.323365,42.788121,1574.833],[-0.323348,42.788164,1576.064],[-0.323341,42.788214,1577.317],[-0.323319,42.788257,1578.837],[-0.323272,42.788289,1581.021],[-0.323257,42.788349,1582.81],[-0.32325,42.788396,1583.962],[-0.323267,42.788444,1584.383],[-0.323277,42.788497,1585.111],[-0.323245,42.788539,1586.809],[-0.323215,42.788584,1588.547],[-0.323225,42.788636,1589.267],[-0.323187,42.788679,1590.997],[-0.323177,42.788729,1592.147],[-0.323159,42.788787,1593.758],[-0.323144,42.788859,1595.691],[-0.323117,42.788907,1597.121],[-0.323095,42.78899,1598.365],[-0.323048,42.78904,1600.394],[-0.323013,42.789132,1602.361],[-0.322943,42.789167,1605.021],[-0.322715,42.789024,1611.413],[-0.322445,42.789307,1620.609],[-0.322412,42.789345,1621.517],[-0.322394,42.789408,1622.197],[-0.321772,42.789536,1637.457],[-0.321612,42.789723,1639.847],[-0.321544,42.789708,1640.978],[-0.321374,42.78957,1645.461],[-0.321269,42.789422,1648.821],[-0.321186,42.789405,1650.025],[-0.321033,42.78941,1653.194],[-0.320991,42.789452,1654.086],[-0.320944,42.789487,1654.96],[-0.320909,42.78953,1655.626],[-0.320922,42.789578,1655.009],[-0.32093,42.78963,1654.459],[-0.320912,42.789675,1654.799],[-0.320892,42.789718,1655.179],[-0.32085,42.789755,1656.349],[-0.320817,42.789807,1656.86],[-0.320799,42.78985,1656.923],[-0.320766,42.7899,1657.453],[-0.320789,42.789848,1657.257],[-0.320816,42.789793,1656.926],[-0.320784,42.789841,1657.427],[-0.320746,42.789879,1658.168],[-0.320721,42.789929,1658.314],[-0.320681,42.789964,1659.109],[-0.320616,42.789949,1660.833],[-0.320553,42.789922,1662.633],[-0.32051,42.789885,1664.083],[-0.320448,42.789913,1665.353],[-0.3204,42.789945,1666.164],[-0.320363,42.789983,1666.487],[-0.32032,42.790016,1667.197],[-0.320255,42.790046,1669.031],[-0.320237,42.790089,1669.81],[-0.32024,42.790141,1669.968],[-0.320215,42.790184,1670.942],[-0.320183,42.790226,1672.226],[-0.32016,42.790269,1673.209],[-0.320143,42.790314,1674.127],[-0.320151,42.790369,1674.247],[-0.320151,42.790417,1674.657],[-0.320116,42.790462,1676.237],[-0.320093,42.790504,1677.368],[-0.32007,42.790586,1678.941],[-0.32001,42.790633,1681.541],[-0.319947,42.790693,1684.935],[-0.31991,42.790748,1686.814],[-0.31987,42.79081,1688.637],[-0.319818,42.790882,1691.249],[-0.319763,42.790937,1693.613],[-0.319758,42.791014,1694.409],[-0.319728,42.791061,1695.574],[-0.319721,42.791108,1696.074],[-0.319698,42.79116,1698.364],[-0.319453,42.791285,1706.944],[-0.319348,42.791322,1710.565],[-0.319276,42.791335,1712.488],[-0.319201,42.791388,1714.468],[-0.319174,42.79143,1716.542],[-0.319114,42.791443,1718.571],[-0.319092,42.791495,1720.915],[-0.31904,42.791542,1723.765],[-0.319042,42.791475,1721.411],[-0.31898,42.791492,1723.509],[-0.318917,42.791505,1725.342],[-0.31885,42.791485,1726.382],[-0.318783,42.791478,1727.842],[-0.318721,42.791481,1729.482],[-0.318661,42.791501,1731.153],[-0.318599,42.791494,1732.446],[-0.318536,42.791479,1733.456],[-0.318481,42.791452,1734.12],[-0.318424,42.791424,1734.829],[-0.318364,42.791394,1735.599],[-0.318299,42.791394,1736.607],[-0.318226,42.791394,1737.627],[-0.318164,42.791401,1738.609],[-0.318089,42.791396,1739.66],[-0.318029,42.791414,1740.89],[-0.317972,42.791394,1741.34],[-0.317919,42.791364,1742.76],[-0.317877,42.791321,1744.511],[-0.317812,42.791328,1745.374],[-0.317754,42.791298,1747.194],[-0.317707,42.79133,1747.368],[-0.317644,42.791325,1748.997],[-0.317617,42.791375,1748.412],[-0.317567,42.791402,1749.532],[-0.317495,42.791412,1751.505],[-0.31743,42.791429,1753.509],[-0.317368,42.791436,1755.232],[-0.317313,42.791393,1756.462],[-0.317318,42.791348,1756.872],[-0.317321,42.7913,1757.322],[-0.317301,42.791252,1758.563],[-0.317246,42.79123,1760.136],[-0.317191,42.791203,1761.426],[-0.317129,42.791176,1762.59],[-0.317109,42.791131,1763.169],[-0.317116,42.791078,1763.486],[-0.317084,42.791035,1764.06],[-0.317044,42.790992,1764.826],[-0.316974,42.790965,1765.709],[-0.316909,42.790955,1766.379],[-0.316846,42.790967,1766.489],[-0.316828,42.790922,1766.989],[-0.316766,42.790917,1767.329],[-0.316736,42.790874,1768.08],[-0.316696,42.790837,1768.723],[-0.316654,42.790802,1769.693],[-0.316606,42.790772,1770.337],[-0.316564,42.790725,1771.356],[-0.316539,42.790683,1772.223],[-0.316517,42.79063,1773.283],[-0.316489,42.79059,1774.011],[-0.316442,42.790558,1774.809],[-0.316434,42.790503,1775.843],[-0.316414,42.790451,1776.893],[-0.316387,42.790404,1777.773],[-0.31633,42.790367,1778.953],[-0.316275,42.790334,1779.724],[-0.316225,42.790302,1780.457],[-0.316162,42.790282,1780.837],[-0.316104,42.79026,1781.271],[-0.316039,42.79024,1782.37],[-0.315991,42.790202,1783.059],[-0.315934,42.790169,1783.603],[-0.315881,42.790144,1784.023],[-0.315864,42.790194,1784.709],[-0.315867,42.790246,1785.196],[-0.315852,42.790299,1785.846],[-0.315839,42.790349,1786.446],[-0.315839,42.790396,1786.766],[-0.315821,42.790439,1787.837],[-0.315821,42.790484,1788.17],[-0.315819,42.790532,1788.68],[-0.315792,42.790579,1789.984],[-0.315784,42.790634,1789.533],[-0.315751,42.790672,1790.881],[-0.315698,42.7907,1793.261],[-0.31565,42.790747,1795.117],[-0.315623,42.790792,1796.009],[-0.315561,42.790814,1799.069],[-0.315511,42.790852,1800.249],[-0.315466,42.790887,1800.989],[-0.315414,42.79092,1801.979],[-0.315351,42.790942,1803.48],[-0.315299,42.790972,1804.373],[-0.315242,42.790994,1805.073],[-0.315185,42.791021,1805.497],[-0.31511,42.791018,1806.966],[-0.31505,42.791041,1807.549],[-0.314992,42.791061,1808.202],[-0.314929,42.791051,1809.022],[-0.314876,42.791079,1808.909],[-0.314816,42.791069,1809.755],[-0.314746,42.791067,1810.495],[-0.314679,42.791084,1810.575],[-0.314594,42.791086,1810.775],[-0.314529,42.791074,1811.046],[-0.314462,42.791081,1811.279],[-0.314389,42.791088,1811.259],[-0.314317,42.791091,1811.143],[-0.314262,42.791119,1810.962],[-0.314202,42.791131,1810.994],[-0.314139,42.791141,1811.257],[-0.314071,42.791121,1811.822],[-0.314009,42.791094,1812.109],[-0.313946,42.791064,1812.51],[-0.313891,42.791027,1812.72],[-0.313856,42.790987,1813.47],[-0.313811,42.79095,1814.12],[-0.313789,42.790907,1814.231],[-0.313767,42.79086,1814.144],[-0.313742,42.790817,1813.864],[-0.313674,42.790804,1814.338],[-0.313614,42.790791,1814.777],[-0.313552,42.790791,1816.155],[-0.313487,42.790804,1817.907],[-0.313422,42.790811,1819.517],[-0.313365,42.790829,1821.209],[-0.31331,42.790851,1822.926],[-0.313255,42.790876,1824.576],[-0.3132,42.790903,1826.246],[-0.313157,42.790943,1827.936],[-0.313097,42.790963,1829.557],[-0.313034,42.790978,1831.22],[-0.312969,42.790973,1832.71],[-0.312902,42.790968,1834.394],[-0.312847,42.790995,1836.393],[-0.312827,42.791047,1838.126],[-0.312759,42.791049,1840.047],[-0.312729,42.791089,1841.811],[-0.312694,42.791127,1843.809],[-0.312676,42.79117,1845.373],[-0.312676,42.791218,1846.343],[-0.312629,42.791255,1848.443],[-0.312624,42.7913,1849.483],[-0.312604,42.79135,1850.914],[-0.312572,42.79139,1852.547],[-0.312534,42.791428,1854.497],[-0.312534,42.791478,1855.831],[-0.312527,42.791525,1857.35],[-0.312485,42.79156,1859.544],[-0.312505,42.79161,1860.305],[-0.312488,42.791653,1862.015],[-0.312496,42.791701,1863.709],[-0.312513,42.791746,1865.555],[-0.31256,42.791776,1866.055],[-0.312582,42.791831,1868.395],[-0.312619,42.791873,1869.795],[-0.312642,42.79192,1871.756],[-0.312705,42.791933,1871.599],[-0.312755,42.791965,1872.569],[-0.312812,42.791983,1872.373],[-0.312862,42.792021,1873.242],[-0.312919,42.792061,1874.137],[-0.312964,42.792096,1875.149],[-0.313012,42.792128,1875.913],[-0.313065,42.792155,1876.409],[-0.313128,42.792175,1875.924],[-0.31319,42.792195,1875.424],[-0.313247,42.792225,1875.644],[-0.313289,42.792262,1876.544],[-0.313342,42.792287,1876.255],[-0.313399,42.79231,1875.538],[-0.313462,42.792335,1874.538],[-0.313515,42.792377,1874.742],[-0.313537,42.79243,1876.541],[-0.31356,42.79248,1878.181],[-0.313587,42.792532,1879.161],[-0.313592,42.79258,1880.617],[-0.313614,42.792628,1881.509],[-0.313637,42.792675,1882.429],[-0.31366,42.792722,1883.499],[-0.313693,42.792762,1884.049],[-0.313756,42.792795,1883.959],[-0.313811,42.792818,1883.82],[-0.313876,42.79284,1883.413],[-0.313943,42.792853,1883.033],[-0.314,42.792873,1883.327],[-0.314058,42.792898,1884.036],[-0.314121,42.792926,1884.928],[-0.314176,42.792948,1885.489],[-0.314231,42.792973,1885.717],[-0.314288,42.792993,1885.709],[-0.31435,42.79302,1885.923],[-0.3144,42.793047,1886.543],[-0.314443,42.793084,1888.573],[-0.314495,42.793112,1890.093],[-0.314553,42.79314,1891.654],[-0.314616,42.793155,1891.957],[-0.314688,42.793155,1890.897],[-0.314751,42.793158,1889.711],[-0.314808,42.793188,1890.65],[-0.314863,42.793211,1890.967],[-0.314925,42.793233,1890.881],[-0.314983,42.793265,1891.719],[-0.315046,42.793298,1892.709],[-0.315116,42.79332,1892.987],[-0.315173,42.793348,1894.187],[-0.31523,42.793368,1894.617],[-0.315297,42.79338,1894.497],[-0.315374,42.793392,1895.068],[-0.315437,42.793404,1895.761],[-0.3155,42.793409,1895.881],[-0.31557,42.793421,1896.555],[-0.315638,42.793413,1895.754],[-0.31571,42.793418,1896.262],[-0.315785,42.79343,1897.483],[-0.315858,42.793438,1897.911],[-0.31592,42.793453,1898.409],[-0.315983,42.793458,1897.817],[-0.316055,42.79347,1897.877],[-0.316123,42.793488,1898.597],[-0.316196,42.793503,1898.597],[-0.316259,42.793525,1899.568],[-0.316326,42.793552,1900.751],[-0.316384,42.793577,1901.891],[-0.316449,42.793592,1902.165],[-0.316517,42.793605,1902.114],[-0.31658,42.79362,1902.554],[-0.316653,42.793637,1903.056],[-0.316715,42.793657,1903.811],[-0.316775,42.793672,1904.009],[-0.316842,42.793675,1902.836],[-0.316905,42.793695,1903.086],[-0.31697,42.793707,1902.036],[-0.317035,42.793724,1900.946],[-0.31709,42.793761,1901.287],[-0.317135,42.793801,1901.87],[-0.317163,42.793841,1903.08],[-0.317186,42.793886,1904.564],[-0.317196,42.793943,1905.693],[-0.317168,42.793986,1907.862],[-0.31718,42.794033,1908.583],[-0.317178,42.794078,1909.611],[-0.317213,42.79412,1909.209],[-0.317221,42.794167,1910.127],[-0.317229,42.794214,1910.237],[-0.317246,42.794259,1909.967],[-0.317253,42.794304,1910.187],[-0.317245,42.794361,1911.138],[-0.317235,42.794419,1912.171],[-0.317228,42.794469,1912.831],[-0.317235,42.794519,1912.615],[-0.31722,42.794566,1913.684],[-0.317218,42.794621,1913.989],[-0.317221,42.794666,1913.906],[-0.317209,42.794718,1914.926],[-0.317222,42.794771,1914.409],[-0.317224,42.794824,1914.699],[-0.317249,42.794876,1913.599],[-0.317221,42.794926,1915.519],[-0.317214,42.794979,1916.429],[-0.317237,42.795034,1913.96],[-0.3172,42.795071,1914.653],[-0.317153,42.795101,1915.843],[-0.317085,42.795128,1917.767],[-0.317043,42.795166,1917.576],[-0.316983,42.795204,1917.632],[-0.316916,42.795204,1919.992],[-0.316861,42.795247,1918.811],[-0.316813,42.795287,1918.109],[-0.31675,42.795314,1919.684],[-0.316687,42.795307,1921.854],[-0.316639,42.795354,1922.894],[-0.316584,42.795386,1924.644],[-0.316524,42.795414,1926.555],[-0.316497,42.795461,1926.488],[-0.316452,42.795501,1927.258],[-0.316447,42.795551,1926.092],[-0.316424,42.795508,1928.011],[-0.316386,42.795546,1928.459],[-0.316338,42.795574,1930.203],[-0.31628,42.795589,1932.323],[-0.316215,42.795591,1934.309],[-0.316167,42.795629,1936.346],[-0.31612,42.795662,1937.966],[-0.31606,42.795677,1939.546],[-0.316007,42.795704,1941.096],[-0.315945,42.795694,1942.497],[-0.315952,42.795647,1942.02],[-0.315897,42.795622,1943.35],[-0.315829,42.795612,1945.174],[-0.315772,42.795584,1946.283],[-0.315717,42.795564,1947.176],[-0.315654,42.795549,1948.59],[-0.315599,42.795577,1949.419],[-0.315589,42.795624,1950.009],[-0.315557,42.795671,1951.298],[-0.315529,42.795711,1952.738],[-0.315489,42.795753,1954.798],[-0.315487,42.795798,1955.138],[-0.315504,42.795843,1955.339],[-0.315481,42.795886,1957.822],[-0.315453,42.795926,1960.382],[-0.315435,42.795969,1962.676],[-0.31547,42.796009,1963.195],[-0.315433,42.796052,1965.893],[-0.315396,42.79609,1968.265],[-0.315329,42.7961,1970.321],[-0.315281,42.79613,1972.309],[-0.315271,42.796175,1973.35],[-0.315231,42.79621,1974.67],[-0.315173,42.796235,1975.82],[-0.315156,42.79628,1976.63],[-0.315114,42.796313,1977.571],[-0.315167,42.796348,1977.364],[-0.315175,42.796405,1978.314],[-0.315143,42.796453,1979.928],[-0.315201,42.796435,1979.177],[-0.315263,42.796433,1978.747],[-0.315333,42.796446,1979.329],[-0.3154,42.796426,1978.821],[-0.315463,42.796433,1979.409],[-0.315528,42.796451,1980.365],[-0.315598,42.796456,1980.835],[-0.315661,42.796448,1980.765],[-0.315731,42.796448,1981.095],[-0.315734,42.796498,1983.056],[-0.315776,42.796536,1984.699],[-0.315826,42.796568,1986.169],[-0.315894,42.796576,1985.993],[-0.315959,42.796596,1986.372],[-0.316022,42.796628,1987.492],[-0.316075,42.796658,1988.773],[-0.316135,42.796683,1990.42],[-0.316205,42.796683,1991.609],[-0.316267,42.796668,1991.93],[-0.31633,42.796665,1992.87],[-0.316402,42.79665,1992.85],[-0.316457,42.79663,1991.54],[-0.316522,42.796632,1992.161],[-0.316589,42.796644,1993.574],[-0.316646,42.796671,1996.164],[-0.316678,42.796718,1999.018],[-0.316726,42.796746,2001.077],[-0.316779,42.796781,2003.469],[-0.316847,42.796788,2004.304],[-0.316909,42.796778,2004.224],[-0.316977,42.796773,2004.209],[-0.31704,42.796768,2004.077],[-0.317115,42.796795,2005.777],[-0.317188,42.796825,2007.687],[-0.317253,42.79684,2008.757],[-0.317311,42.796857,2010.048],[-0.317343,42.796897,2012.731],[-0.31738,42.796934,2015.411],[-0.31744,42.796951,2016.775],[-0.317503,42.796971,2017.754],[-0.31757,42.796976,2018.369],[-0.317635,42.796986,2019.104],[-0.317697,42.797006,2020.124],[-0.317765,42.797011,2020.809],[-0.317835,42.797021,2022.527],[-0.317908,42.797021,2024.137],[-0.317976,42.797041,2026.067],[-0.318033,42.797059,2027.687],[-0.318086,42.797089,2028.958],[-0.318146,42.797112,2029.891],[-0.318211,42.797114,2030.411],[-0.318243,42.797159,2030.885],[-0.318251,42.797206,2031.054],[-0.318271,42.797259,2030.912],[-0.318259,42.797307,2030.932],[-0.318197,42.797317,2031.305],[-0.318144,42.797345,2031.909],[-0.318099,42.797383,2032.862],[-0.318052,42.797413,2033.712],[-0.31801,42.797448,2034.412],[-0.31797,42.797491,2035.432],[-0.317952,42.797536,2036.013],[-0.3179,42.797576,2036.936],[-0.317862,42.797613,2037.836],[-0.317814,42.79765,2039.17],[-0.317769,42.797685,2040.369],[-0.317719,42.797717,2040.942],[-0.317686,42.797755,2041.822],[-0.317659,42.797805,2043.014],[-0.317632,42.797848,2044.109],[-0.317615,42.797901,2045.475],[-0.317597,42.797948,2046.745],[-0.317585,42.798001,2048.115],[-0.317587,42.798051,2049.375],[-0.31759,42.798101,2050.776],[-0.317617,42.798143,2051.329],[-0.317637,42.798193,2052.389],[-0.317664,42.798241,2052.923],[-0.317681,42.798289,2053.752],[-0.317688,42.798334,2054.645],[-0.317703,42.798379,2055.347],[-0.317713,42.798424,2056.111],[-0.31773,42.798471,2056.609],[-0.31773,42.798524,2057.855],[-0.31773,42.798569,2058.945],[-0.31773,42.798614,2059.935],[-0.317715,42.798659,2061.495],[-0.31772,42.798704,2062.036],[-0.317713,42.798749,2063.289],[-0.31771,42.798802,2064.359],[-0.317698,42.79885,2065.743],[-0.317631,42.798845,2068.522],[-0.317619,42.798798,2068.039],[-0.317576,42.798761,2069.101],[-0.317524,42.798724,2070.521],[-0.317487,42.798684,2071.109],[-0.317425,42.798662,2072.924],[-0.317373,42.798632,2074.124],[-0.317311,42.79861,2075.874],[-0.317258,42.798573,2076.074],[-0.317195,42.798558,2077.265],[-0.31713,42.798555,2078.828],[-0.317068,42.79856,2080.628],[-0.3171,42.7986,2081.922],[-0.317127,42.798642,2082.771],[-0.317157,42.798685,2083.251],[-0.317179,42.798733,2084.001],[-0.317189,42.798785,2085.211],[-0.317201,42.798838,2086.309],[-0.317206,42.79889,2087.736],[-0.317184,42.798937,2089.566],[-0.317132,42.798902,2090.976],[-0.317082,42.79887,2091.956],[-0.317024,42.79884,2093.137],[-0.317009,42.798887,2095.48],[-0.317041,42.798929,2095.28],[-0.317036,42.798979,2096.674],[-0.316998,42.799016,2099.393],[-0.316958,42.798979,2100.033],[-0.316915,42.798946,2100.923],[-0.316883,42.798986,2103.415],[-0.31683,42.798963,2104.909],[-0.316765,42.798943,2106.934],[-0.316707,42.798915,2108.324],[-0.316699,42.798965,2110.444],[-0.316636,42.79897,2112.824],[-0.316589,42.798938,2113.175],[-0.316527,42.79893,2114.618],[-0.316455,42.798928,2116.638],[-0.316407,42.798963,2119.472],[-0.316359,42.798995,2121.151],[-0.316307,42.799023,2122.034],[-0.31626,42.799053,2123.055],[-0.316202,42.799078,2123.81],[-0.316145,42.799098,2124.409],[-0.316095,42.799135,2125.784],[-0.316033,42.799152,2126.444],[-0.315978,42.799177,2127.714],[-0.315925,42.7992,2129.114],[-0.315867,42.79922,2130.345],[-0.315804,42.799222,2130.668],[-0.315741,42.799207,2130.158],[-0.315673,42.799197,2130.012],[-0.315605,42.7992,2130.761],[-0.315537,42.799208,2131.652],[-0.315474,42.79921,2131.953],[-0.315419,42.79923,2133.408],[-0.315362,42.799257,2135.209],[-0.315297,42.799265,2135.956],[-0.315235,42.799282,2137.296],[-0.315177,42.799302,2138.766],[-0.315115,42.799305,2139.156],[-0.315052,42.799322,2140.277],[-0.314982,42.799339,2141.47],[-0.314922,42.799349,2142.18],[-0.314862,42.799359,2142.864],[-0.3148,42.799374,2143.753],[-0.314738,42.799399,2145.095],[-0.314681,42.799431,2146.749],[-0.314614,42.799444,2147.823],[-0.314547,42.799432,2147.809],[-0.314485,42.79945,2149.08],[-0.314418,42.799475,2150.83],[-0.314351,42.799485,2151.99],[-0.314281,42.799493,2152.89],[-0.314218,42.799506,2154.061],[-0.314151,42.799509,2154.654],[-0.314086,42.799512,2155.344],[-0.314023,42.799512,2155.848],[-0.313956,42.799512,2156.467],[-0.313888,42.79952,2157.316],[-0.31383,42.799543,2157.976],[-0.313778,42.79957,2158.813],[-0.313731,42.7996,2159.909],[-0.313781,42.799635,2161.762],[-0.313843,42.799647,2162.542],[-0.31391,42.799649,2162.842],[-0.313977,42.799669,2163.592],[-0.314029,42.799694,2164.643],[-0.314089,42.799712,2165.546],[-0.314049,42.799747,2167.446],[-0.313986,42.799754,2167.84],[-0.313921,42.799771,2168.869],[-0.313869,42.799803,2170.582],[-0.313819,42.799835,2172.043],[-0.313759,42.799852,2172.617],[-0.313704,42.799872,2173.209],[-0.313766,42.79988,2174.199],[-0.313828,42.799873,2174.229],[-0.313903,42.799888,2175.559],[-0.313973,42.799896,2176.089],[-0.314033,42.799908,2176.74],[-0.314098,42.799923,2177.653],[-0.314165,42.799936,2178.323],[-0.314233,42.799939,2178.627],[-0.314293,42.799954,2179.696],[-0.314355,42.799966,2180.586],[-0.314308,42.800003,2182.76],[-0.314245,42.800023,2184.026],[-0.314183,42.80004,2185.009],[-0.314128,42.800062,2186.499],[-0.314061,42.800077,2187.449],[-0.314006,42.800105,2189.359],[-0.313946,42.800123,2190.579],[-0.313884,42.80013,2190.92],[-0.313926,42.800167,2193.523],[-0.313988,42.800185,2194.953],[-0.31405,42.800172,2194.127],[-0.314123,42.800172,2194.386],[-0.314188,42.800175,2194.881],[-0.314255,42.800185,2196.361],[-0.314317,42.800178,2196.417],[-0.314284,42.800221,2199.309],[-0.314219,42.800238,2199.839],[-0.314157,42.800253,2200.259],[-0.314095,42.80026,2200.569],[-0.314143,42.800292,2203.099],[-0.314211,42.80031,2205.34],[-0.314283,42.800322,2207.433],[-0.31424,42.800359,2209.853],[-0.314173,42.800379,2210.197],[-0.314108,42.800396,2211.026],[-0.314043,42.800414,2211.995],[-0.313975,42.800429,2212.549],[-0.31391,42.800432,2212.323],[-0.313847,42.800452,2213.509],[-0.313775,42.800462,2214.34],[-0.313712,42.800487,2216.17],[-0.313637,42.800484,2215.82],[-0.313567,42.800461,2214.75],[-0.313495,42.800454,2214.971],[-0.31343,42.800441,2214.654],[-0.313368,42.800449,2215.844],[-0.3133,42.800459,2217.378],[-0.313235,42.800467,2218.597],[-0.313168,42.800479,2220.024],[-0.31311,42.800496,2221.804],[-0.313045,42.800511,2223.614],[-0.312977,42.800504,2223.809],[-0.312907,42.800499,2224.273],[-0.312847,42.800511,2225.823],[-0.312784,42.800516,2226.973],[-0.312727,42.800539,2228.993],[-0.312672,42.800561,2230.674],[-0.312625,42.800594,2232.087],[-0.312567,42.800616,2232.817],[-0.312554,42.800661,2234.331],[-0.312584,42.800713,2236.36],[-0.312562,42.80076,2237.721],[-0.312494,42.800773,2237.241],[-0.312456,42.800813,2238.005],[-0.312443,42.800861,2239.109],[-0.31239,42.800893,2239.253],[-0.312335,42.800918,2238.733],[-0.31227,42.800923,2237.683],[-0.312198,42.800913,2236.083],[-0.312155,42.800963,2235.334],[-0.31211,42.800998,2234.797],[-0.312047,42.800986,2233.127],[-0.311987,42.801006,2232.071],[-0.311937,42.801034,2231.51],[-0.31187,42.801034,2230.734],[-0.31181,42.801024,2229.755],[-0.311762,42.801054,2229.71],[-0.311695,42.801054,2228.909],[-0.311628,42.801042,2227.824],[-0.311695,42.801067,2229.224],[-0.31176,42.80107,2230.134],[-0.31181,42.801042,2230.134],[-0.311883,42.801037,2230.975],[-0.311943,42.801027,2231.538],[-0.312008,42.801022,2232.838],[-0.312073,42.801,2233.992],[-0.312133,42.800983,2235.051],[-0.312175,42.800945,2235.621],[-0.31223,42.800925,2236.841],[-0.312293,42.80093,2238.105],[-0.312358,42.800907,2238.909],[-0.312418,42.800879,2239.323],[-0.312481,42.800851,2239.393],[-0.312556,42.800841,2240.383],[-0.312624,42.800839,2241.443],[-0.312622,42.800889,2243.244],[-0.312605,42.800932,2244.447],[-0.312598,42.800977,2245.897],[-0.312568,42.801019,2246.631],[-0.31253,42.801056,2246.99],[-0.312505,42.801108,2248.099],[-0.3125,42.801153,2250.007],[-0.312475,42.801203,2251.427],[-0.312457,42.80125,2252.909],[-0.312429,42.801297,2254.06],[-0.312416,42.801347,2255.87],[-0.312386,42.80139,2256.63],[-0.312368,42.801443,2260.92],[-0.312328,42.801478,2262.121],[-0.312271,42.801503,2261.344],[-0.312238,42.801543,2262.644],[-0.312193,42.80158,2263.648],[-0.312145,42.801613,2264.517],[-0.312087,42.801643,2264.653],[-0.31207,42.801686,2266.604],[-0.31204,42.801736,2268.514],[-0.311992,42.801771,2269.009],[-0.311932,42.801784,2267.926],[-0.311894,42.801829,2269.876],[-0.311854,42.801869,2271.456],[-0.311806,42.801902,2272.416],[-0.311744,42.801922,2272.327],[-0.311682,42.801934,2271.71],[-0.311622,42.801961,2271.93],[-0.31158,42.801998,2273.354],[-0.311527,42.802025,2273.883],[-0.311487,42.802062,2275.598],[-0.311445,42.802097,2277.115],[-0.311413,42.801995,2269.226],[-0.311406,42.80204,2272.209],[-0.311354,42.802067,2273.65],[-0.311299,42.802095,2275.22],[-0.311239,42.802108,2275.75],[-0.311176,42.802116,2275.84],[-0.311116,42.802126,2276.171],[-0.311049,42.802138,2276.864],[-0.310981,42.802141,2276.844],[-0.310914,42.802149,2277.258],[-0.310957,42.802184,2279.837],[-0.311017,42.802196,2280.837],[-0.31108,42.802198,2281.249],[-0.311137,42.802216,2282.713],[-0.311069,42.802234,2283.709],[-0.311016,42.802257,2285.274],[-0.310956,42.802277,2286.454],[-0.310909,42.802309,2288.454],[-0.310964,42.802336,2290.664],[-0.311027,42.802339,2291.315],[-0.311089,42.802357,2293.048],[-0.311047,42.802394,2295.578],[-0.310989,42.802424,2297.292],[-0.310937,42.802452,2298.781],[-0.310997,42.802475,2301.084],[-0.311065,42.802478,2301.907],[-0.310998,42.80249,2302.117],[-0.31094,42.802518,2303.509],[-0.31089,42.802565,2306.399],[-0.310955,42.802575,2307.879],[-0.31102,42.802577,2308.749],[-0.31102,42.802624,2312.299],[-0.310957,42.802637,2312.42],[-0.31102,42.802642,2313.693],[-0.311062,42.802682,2317.143],[-0.311015,42.802717,2319.127],[-0.310973,42.802757,2321.586],[-0.311035,42.802745,2321.593],[-0.3111,42.80273,2321.265],[-0.311148,42.802758,2323.921],[-0.311093,42.802786,2325.509],[-0.311036,42.802819,2327.64],[-0.310983,42.802856,2330.26],[-0.310928,42.802883,2332.08],[-0.310866,42.802896,2332.43],[-0.310803,42.802911,2333.611],[-0.31075,42.802939,2336.354],[-0.31071,42.802979,2340.144],[-0.310645,42.802981,2340.448],[-0.310587,42.802964,2339.097],[-0.31052,42.802966,2339.866],[-0.310452,42.802968,2341.029],[-0.310384,42.80296,2341.421],[-0.310319,42.80296,2342.409],[-0.310254,42.802958,2344.267],[-0.310299,42.80299,2345.227],[-0.310247,42.803018,2349.737],[-0.310262,42.803063,2352.727],[-0.310307,42.803095,2354.338],[-0.31035,42.803128,2356.721],[-0.310413,42.803105,2353.791],[-0.310473,42.803122,2354.445],[-0.310523,42.803152,2356.584],[-0.31058,42.803179,2358.538],[-0.310648,42.803186,2358.97],[-0.31071,42.803194,2359.417],[-0.310772,42.803194,2359.209],[-0.310834,42.803184,2358.184],[-0.310882,42.803219,2361.394],[-0.310942,42.803247,2363.854],[-0.311004,42.803269,2365.744],[-0.311054,42.803297,2368.185],[-0.310996,42.803314,2369.418],[-0.310934,42.803329,2370.698],[-0.310872,42.803337,2371.252],[-0.310807,42.803325,2370.521],[-0.310735,42.803328,2371.244],[-0.310672,42.80333,2371.905],[-0.310685,42.803378,2374.815],[-0.310728,42.803415,2376.609],[-0.31079,42.803423,2376.415],[-0.310748,42.803456,2378.825],[-0.310681,42.803461,2380.075],[-0.310619,42.803461,2380.975],[-0.310556,42.803446,2380.766],[-0.310489,42.803443,2381.549],[-0.310424,42.803451,2382.939],[-0.310359,42.803456,2384.223],[-0.310337,42.803499,2387.582],[-0.310385,42.803529,2388.866],[-0.310448,42.803552,2389.529],[-0.310503,42.803577,2390.421],[-0.31056,42.803599,2391.109],[-0.310615,42.803621,2391.077],[-0.310557,42.803644,2392.987],[-0.310487,42.803649,2394.157],[-0.310425,42.803649,2395.177],[-0.310363,42.803642,2395.878],[-0.310293,42.803644,2397.091],[-0.310231,42.803644,2398.341],[-0.310161,42.803636,2399.785],[-0.310106,42.803663,2401.824],[-0.310163,42.803688,2401.371],[-0.310223,42.803713,2400.841],[-0.310276,42.803738,2400.615],[-0.310324,42.80377,2400.909],[-0.310269,42.803797,2402.868],[-0.310204,42.803815,2404.688],[-0.310141,42.803823,2405.958],[-0.310098,42.803858,2407.768],[-0.310081,42.803901,2408.889],[-0.310016,42.803909,2409.862],[-0.309969,42.803947,2411.132],[-0.309919,42.803982,2413.036],[-0.309872,42.804012,2414.835],[-0.309845,42.804057,2415.981],[-0.309822,42.804104,2416.961],[-0.309807,42.804156,2417.617],[-0.309794,42.804206,2418.609],[-0.309771,42.804261,2420.099],[-0.309738,42.804301,2421.559],[-0.309698,42.804343,2423.289],[-0.30969,42.804391,2423.869],[-0.309682,42.804439,2424.48],[-0.309689,42.804487,2425.853],[-0.309729,42.804522,2426.073],[-0.309667,42.804514,2427.617],[-0.3096,42.804502,2429.536],[-0.30954,42.804477,2430.737],[-0.309478,42.804449,2431.949],[-0.309428,42.804422,2433.313],[-0.309385,42.80438,2434.009],[-0.309342,42.804345,2434.754],[-0.309322,42.804392,2435.154],[-0.30932,42.804439,2435.254],[-0.309273,42.804477,2437.584],[-0.309206,42.804492,2439.615],[-0.309141,42.804504,2441.678],[-0.309078,42.804507,2443.468],[-0.309018,42.804497,2444.422],[-0.30896,42.804482,2445.151],[-0.308898,42.804457,2445.477],[-0.308841,42.804437,2445.261],[-0.308778,42.804422,2445.427],[-0.308715,42.80442,2445.909],[-0.308718,42.804468,2447.758],[-0.308728,42.804513,2449.228],[-0.30876,42.804555,2450.718],[-0.308795,42.804597,2452.418],[-0.308833,42.804635,2454.299],[-0.308881,42.804663,2455.942],[-0.308948,42.804686,2455.782],[-0.309008,42.804711,2455.446],[-0.309031,42.804759,2456.355],[-0.309033,42.804806,2457.451],[-0.309036,42.804858,2458.601],[-0.309061,42.804903,2459.611],[-0.309048,42.804948,2460.809],[-0.30906,42.804998,2462.256],[-0.30909,42.805045,2464.816],[-0.309085,42.805095,2467.336],[-0.309072,42.805147,2469.756],[-0.30906,42.805194,2471.847],[-0.309055,42.805242,2474.07],[-0.309055,42.80529,2476.62],[-0.309025,42.80533,2478.414],[-0.30901,42.805375,2480.873],[-0.308977,42.805415,2482.023],[-0.308974,42.805468,2485.283],[-0.308951,42.805511,2486.711],[-0.308916,42.805549,2487.109],[-0.308894,42.805592,2488.893],[-0.308849,42.805624,2489.963],[-0.308809,42.805662,2491.723],[-0.308754,42.805695,2492.973],[-0.308706,42.805728,2494.374],[-0.308658,42.805756,2495.367],[-0.308591,42.805766,2495.037],[-0.308536,42.805791,2496.281],[-0.308476,42.805804,2496.56],[-0.308443,42.805846,2499.397],[-0.3084,42.805879,2501.723],[-0.308337,42.805912,2504.125],[-0.308279,42.805935,2506.609],[-0.308341,42.805963,2508.78],[-0.308411,42.805966,2509.47],[-0.308476,42.805956,2508.95],[-0.308536,42.805943,2508.29],[-0.308608,42.805933,2507.941],[-0.308675,42.805925,2508.384],[-0.308737,42.805942,2510.594],[-0.30871,42.805985,2513.468],[-0.308663,42.806015,2515.197],[-0.30861,42.806042,2516.554],[-0.308567,42.806075,2519.156],[-0.308634,42.806063,2518.511],[-0.308692,42.806078,2520.309],[-0.308759,42.806088,2521.966],[-0.308832,42.806091,2522.956],[-0.308897,42.806103,2524.696],[-0.308967,42.806103,2526.126],[-0.309034,42.806106,2527.887],[-0.309087,42.806081,2527.45],[-0.309155,42.806066,2528.17],[-0.309215,42.806046,2528.544],[-0.309275,42.806033,2529.473],[-0.309343,42.806025,2530.964],[-0.3094,42.806003,2531.306],[-0.30946,42.805991,2532.416],[-0.309518,42.805966,2532.709],[-0.30953,42.806013,2535.567],[-0.309488,42.806053,2536.447],[-0.309458,42.806093,2537.587],[-0.309406,42.806123,2537.737],[-0.309373,42.806171,2539.818],[-0.309336,42.806211,2541.331],[-0.309286,42.806239,2541.951],[-0.309241,42.806276,2543.215],[-0.309194,42.806313,2544.664],[-0.309131,42.80633,2544.699],[-0.309078,42.806362,2545.907],[-0.309026,42.806387,2546.827],[-0.308971,42.806412,2548.009],[-0.308914,42.806444,2549.92],[-0.308857,42.806462,2550.98],[-0.308804,42.806487,2552.74],[-0.308747,42.806509,2554.42],[-0.308695,42.806541,2557.081],[-0.308632,42.806558,2558.354],[-0.308569,42.806573,2559.734],[-0.308506,42.806566,2559.428],[-0.308434,42.806576,2560.517],[-0.308372,42.806576,2560.725],[-0.30829,42.806589,2561.926],[-0.308237,42.806564,2560.208],[-0.30817,42.806571,2560.909],[-0.308112,42.806549,2560.033],[-0.308049,42.806542,2560.173],[-0.308059,42.80659,2562.053],[-0.308017,42.806625,2563.313],[-0.307955,42.806642,2563.654],[-0.308023,42.806639,2563.857],[-0.308078,42.806666,2565.247],[-0.308115,42.806704,2562.911],[-0.308175,42.806722,2562.91],[-0.30823,42.806745,2562.978],[-0.308285,42.806773,2563.333],[-0.308348,42.806786,2565.026],[-0.308396,42.806818,2566.009],[-0.308806,42.806933,2585.978],[-0.308843,42.806971,2586.438],[-0.308906,42.806966,2589.158],[-0.308943,42.807003,2588.368],[-0.309005,42.807018,2589.969],[-0.309047,42.807055,2590.862],[-0.309104,42.807077,2593.592],[-0.309152,42.807115,2596.536],[-0.309195,42.807163,2599.555],[-0.309272,42.807171,2603.489],[-0.309342,42.807174,2607.006],[-0.309405,42.807182,2610.526],[-0.30944,42.807235,2613.709],[-0.3095,42.807257,2614.329],[-0.309563,42.807274,2615.529],[-0.309611,42.807302,2615.699],[-0.309673,42.807292,2618.769],[-0.30973,42.807274,2621.91],[-0.309858,42.807309,2625.153],[-0.309928,42.807299,2628.113],[-0.309971,42.807264,2630.837],[-0.310034,42.807247,2633.476],[-0.310096,42.807249,2635.372],[-0.310163,42.807251,2637.413],[-0.310223,42.807264,2639.214],[-0.310283,42.807281,2641.109],[-0.310351,42.807294,2642.968],[-0.310344,42.807341,2642.878],[-0.310414,42.807376,2645.078],[-0.310472,42.807418,2647.288],[-0.310534,42.807405,2649.059],[-0.310531,42.807343,2648.142],[-0.310549,42.807388,2649.292],[-0.310491,42.80736,2647.156],[-0.310428,42.807357,2645.355],[-0.310363,42.80735,2643.438],[-0.310276,42.807332,2640.97],[-0.310266,42.807277,2640.617],[-0.310176,42.807254,2637.709],[-0.310111,42.807237,2635.934],[-0.310029,42.80724,2633.494],[-0.309967,42.807233,2631.654],[-0.309912,42.8072,2628.684],[-0.309862,42.807245,2627.725],[-0.309795,42.80722,2626.218],[-0.309722,42.807225,2623.998],[-0.309662,42.80725,2620.652],[-0.309594,42.807245,2618.441],[-0.309546,42.807212,2617.666],[-0.309484,42.807195,2614.629],[-0.309401,42.807183,2610.421],[-0.309394,42.807136,2607.609],[-0.309331,42.807138,2604.917],[-0.309264,42.807143,2602.257],[-0.309194,42.807151,2599.247],[-0.309186,42.807103,2598.057],[-0.309118,42.807065,2594.348],[-0.30906,42.807045,2591.611],[-0.308995,42.807018,2589.541],[-0.30895,42.806985,2589.385],[-0.308883,42.806973,2588.034],[-0.308815,42.806936,2586.549],[-0.308753,42.806931,2583.802],[-0.308686,42.806899,2579.722],[-0.308623,42.806901,2577.709],[-0.308551,42.806871,2573.165],[-0.308498,42.806824,2569.855],[-0.308438,42.806814,2567.655],[-0.30844,42.806769,2567.755],[-0.30838,42.806751,2566.516],[-0.308318,42.806733,2565.799],[-0.308255,42.806706,2565.489],[-0.308187,42.806689,2565.133],[-0.308127,42.806671,2565.562],[-0.308075,42.806626,2563.556],[-0.308012,42.806613,2562.959],[-0.308079,42.80659,2562.014],[-0.308046,42.806547,2560.309],[-0.308116,42.80654,2559.546],[-0.308179,42.806548,2559.586],[-0.308249,42.806553,2559.536],[-0.308316,42.806563,2559.946],[-0.308384,42.806568,2560.037],[-0.308446,42.80657,2559.92],[-0.308509,42.806572,2559.98],[-0.308581,42.806567,2559.194],[-0.308643,42.806544,2557.173],[-0.30871,42.806522,2555.467],[-0.308775,42.806487,2552.681],[-0.308832,42.806457,2550.319],[-0.30889,42.80644,2549.209],[-0.308952,42.806408,2547.537],[-0.309012,42.806371,2545.587],[-0.309082,42.806351,2545.277],[-0.309157,42.806326,2544.847],[-0.309219,42.806299,2544.228],[-0.309282,42.806257,2542.921],[-0.309325,42.80622,2541.691],[-0.309365,42.80617,2539.515],[-0.309395,42.80612,2537.344],[-0.309443,42.806085,2536.613],[-0.309485,42.806052,2536.243],[-0.309535,42.806017,2535.907],[-0.309478,42.805995,2533.109],[-0.309411,42.80601,2532.072],[-0.309339,42.806032,2531.112],[-0.309277,42.806039,2529.862],[-0.30921,42.806039,2528.012],[-0.309153,42.806066,2528.193],[-0.309086,42.806071,2526.866],[-0.309004,42.806078,2525.356],[-0.308939,42.806086,2524.35],[-0.308871,42.806093,2523.599],[-0.308791,42.806083,2521.849],[-0.308729,42.80608,2520.902],[-0.308666,42.806078,2520.022],[-0.308596,42.806085,2519.909],[-0.308613,42.80603,2515.675],[-0.308655,42.805995,2513.415],[-0.308725,42.805963,2511.975],[-0.308668,42.805945,2509.735],[-0.308601,42.80595,2509.226],[-0.308521,42.805932,2507.279],[-0.308456,42.805964,2509.529],[-0.308388,42.805964,2509.113],[-0.308318,42.805959,2508.472],[-0.30831,42.805912,2504.378],[-0.308358,42.805879,2501.333],[-0.308426,42.805861,2500.426],[-0.308466,42.805819,2497.409],[-0.308523,42.805784,2495.678],[-0.308571,42.805756,2494.028],[-0.308629,42.805723,2492.418],[-0.308681,42.80569,2491.188],[-0.308741,42.805672,2491.019],[-0.308783,42.805629,2488.812],[-0.308813,42.805586,2486.582],[-0.308836,42.805541,2484.196],[-0.308874,42.805499,2482.655],[-0.308897,42.805457,2481.064],[-0.30894,42.805405,2479.906],[-0.308982,42.805362,2478.916],[-0.309032,42.805334,2478.909],[-0.309062,42.805292,2477.077],[-0.309064,42.805244,2474.467],[-0.309071,42.805199,2472.397],[-0.309071,42.805151,2469.957],[-0.309094,42.805104,2467.928],[-0.309096,42.805041,2464.661],[-0.309081,42.804993,2462.291],[-0.309103,42.804945,2460.815],[-0.30908,42.804897,2459.384],[-0.309042,42.80485,2458.365],[-0.309035,42.804795,2457.168],[-0.309047,42.80475,2455.714],[-0.308999,42.804703,2455.309],[-0.308944,42.804676,2455.327],[-0.308877,42.804656,2455.697],[-0.308815,42.804621,2453.547],[-0.308768,42.804589,2452.097],[-0.308736,42.804547,2450.488],[-0.308724,42.804495,2448.641],[-0.308679,42.804458,2447.791],[-0.308746,42.80445,2446.885],[-0.308808,42.80444,2445.774],[-0.308878,42.80444,2445.042],[-0.308946,42.804448,2443.722],[-0.309014,42.80447,2443.114],[-0.309087,42.80447,2441.309],[-0.309127,42.804508,2442.225],[-0.309204,42.804508,2440.475],[-0.309284,42.80447,2437.075],[-0.309324,42.804407,2435.185],[-0.309332,42.804355,2434.976],[-0.309397,42.804378,2433.829],[-0.309437,42.804418,2433.129],[-0.309504,42.804425,2430.863],[-0.309564,42.804445,2428.742],[-0.309609,42.80449,2428.721],[-0.309666,42.804513,2427.641],[-0.309699,42.804475,2425.005],[-0.309689,42.804422,2424.109],[-0.309689,42.804367,2423.753],[-0.309694,42.804322,2423.213],[-0.309731,42.804277,2421.593],[-0.309751,42.804229,2420.463],[-0.309769,42.804177,2419.394],[-0.309787,42.80413,2418.387],[-0.309837,42.80407,2416.377],[-0.309872,42.804015,2414.831],[-0.309922,42.803987,2412.96],[-0.309977,42.803957,2410.898],[-0.310025,42.803922,2409.615],[-0.310073,42.803894,2408.926],[-0.310118,42.803856,2407.309],[-0.310173,42.803833,2405.76],[-0.31024,42.803805,2403.64],[-0.310308,42.803802,2402.36],[-0.31027,42.803755,2401.36],[-0.310212,42.803723,2401.431],[-0.310159,42.803695,2401.624],[-0.310102,42.80366,2401.984],[-0.310157,42.80363,2399.688],[-0.310234,42.803637,2398.077],[-0.310306,42.803629,2396.281],[-0.310373,42.803626,2395.161],[-0.310461,42.803626,2393.817],[-0.310533,42.803626,2392.809],[-0.310595,42.803616,2391.399],[-0.310542,42.803571,2389.559],[-0.310467,42.803548,2389.099],[-0.310409,42.803526,2388.359],[-0.310356,42.803494,2386.96],[-0.310409,42.803459,2383.733],[-0.310471,42.803452,2382.383],[-0.310534,42.803447,2381.137],[-0.310606,42.80345,2380.326],[-0.310688,42.803452,2379.323],[-0.310756,42.803439,2377.783],[-0.310713,42.803391,2375.311],[-0.31065,42.803363,2374.209],[-0.3107,42.803328,2371.573],[-0.310783,42.803313,2369.673],[-0.31085,42.803311,2369.173],[-0.310932,42.803299,2368.123],[-0.311002,42.803282,2366.834],[-0.310982,42.803239,2363.277],[-0.310922,42.803214,2361.087],[-0.310865,42.803191,2358.861],[-0.3108,42.803171,2357.12],[-0.310735,42.803169,2357.144],[-0.310677,42.803154,2355.905],[-0.31061,42.803149,2355.615],[-0.310545,42.803142,2355.209],[-0.310483,42.80312,2354.185],[-0.310415,42.803105,2353.725],[-0.310345,42.803088,2353.145],[-0.310293,42.803061,2351.335],[-0.31026,42.803019,2349.046],[-0.31023,42.802974,2346.849],[-0.310292,42.802969,2343.649],[-0.310269,42.802924,2340.513],[-0.310332,42.802902,2337.422],[-0.310412,42.802892,2335.254],[-0.310467,42.802912,2336.056],[-0.310537,42.802917,2335.311],[-0.310602,42.802917,2334.909],[-0.310675,42.802932,2335.946],[-0.310745,42.80291,2333.736],[-0.310813,42.802882,2330.866],[-0.310875,42.80286,2329.266],[-0.310933,42.802845,2328.667],[-0.310996,42.802813,2326.52],[-0.311064,42.802783,2324.81],[-0.311122,42.802768,2324.424],[-0.311052,42.802763,2323.053],[-0.310992,42.802775,2323.147],[-0.310927,42.802773,2322.029],[-0.310959,42.802728,2319.121],[-0.311026,42.802698,2317.809],[-0.311088,42.802683,2317.555],[-0.311033,42.802656,2314.875],[-0.31096,42.802654,2313.755],[-0.310982,42.802604,2310.335],[-0.311042,42.802584,2309.586],[-0.310974,42.802569,2307.639],[-0.310907,42.802572,2307.059],[-0.310834,42.802575,2306.433],[-0.310886,42.802547,2305.012],[-0.310943,42.802515,2303.318],[-0.310996,42.80249,2302.098],[-0.311056,42.80247,2301.217],[-0.310994,42.802468,2300.409],[-0.310929,42.802461,2299.372],[-0.310959,42.802416,2296.342],[-0.311019,42.802399,2295.672],[-0.311077,42.802376,2294.492],[-0.311034,42.802331,2290.773],[-0.310967,42.802326,2289.976],[-0.310907,42.802311,2288.526],[-0.310882,42.802268,2285.44],[-0.310954,42.802248,2284.329],[-0.311032,42.802233,2283.579],[-0.311094,42.802213,2282.305],[-0.311156,42.802195,2281.425],[-0.311093,42.802188,2280.509],[-0.311015,42.802186,2280.168],[-0.310948,42.802181,2279.528],[-0.310886,42.802171,2278.798],[-0.310929,42.802138,2276.548],[-0.310996,42.80214,2276.819],[-0.311069,42.802132,2276.442],[-0.311142,42.80211,2275.112],[-0.31121,42.802095,2274.676],[-0.311273,42.802088,2274.575],[-0.311323,42.80206,2272.843],[-0.311386,42.802042,2272.064],[-0.311441,42.802009,2270.81],[-0.311483,42.801969,2269.109],[-0.31155,42.801937,2268.665],[-0.311603,42.801899,2267.755],[-0.311671,42.801857,2266.795],[-0.311748,42.801832,2266.995],[-0.311815,42.801802,2266.576],[-0.31186,42.801764,2265.119],[-0.311915,42.801724,2263.949],[-0.311947,42.801684,2262.223],[-0.311987,42.801647,2261.472],[-0.312032,42.801607,2260.578],[-0.312092,42.801585,2261.033],[-0.31216,42.801548,2260.426],[-0.312225,42.801505,2258.909],[-0.312278,42.801462,2258.338],[-0.312345,42.801434,2259.068],[-0.312402,42.801384,2256.948],[-0.3124,42.801332,2254.578],[-0.312402,42.801275,2251.949],[-0.312422,42.801232,2250.782],[-0.312445,42.801185,2249.432],[-0.312458,42.801138,2247.716],[-0.312465,42.801091,2246.225],[-0.312527,42.801064,2247.135],[-0.312554,42.801014,2246.186],[-0.312574,42.800961,2244.714],[-0.312582,42.800909,2243.109],[-0.312597,42.800864,2241.844],[-0.312619,42.800814,2240.434],[-0.312651,42.800764,2238.974],[-0.312696,42.800729,2237.984],[-0.312646,42.800689,2235.835],[-0.312581,42.800667,2234.618],[-0.312533,42.800634,2233.348],[-0.312588,42.800597,2232.292],[-0.312655,42.800567,2230.961],[-0.312712,42.800542,2229.271],[-0.312765,42.800519,2227.341],[-0.312828,42.800504,2225.515],[-0.312895,42.800496,2224.109],[-0.312962,42.800486,2222.648],[-0.313034,42.800498,2222.718],[-0.313106,42.800493,2221.638],[-0.313188,42.800471,2219.218],[-0.31326,42.800464,2218.069],[-0.313333,42.800466,2217.692],[-0.313411,42.800463,2216.552],[-0.313491,42.80047,2216.246],[-0.313568,42.800472,2215.535],[-0.313663,42.800477,2215.373],[-0.313736,42.800469,2214.885],[-0.313798,42.800451,2213.513],[-0.313861,42.800431,2212.009],[-0.313931,42.800426,2212.018],[-0.314009,42.800428,2212.798],[-0.314072,42.800408,2211.798],[-0.314134,42.800386,2210.468],[-0.314201,42.800363,2209.459],[-0.314266,42.800358,2210.252],[-0.314209,42.80033,2206.982],[-0.314131,42.800325,2205.696],[-0.314069,42.800308,2204.075],[-0.314124,42.800281,2202.192],[-0.314202,42.800273,2202.273],[-0.314269,42.800248,2201.22],[-0.314312,42.800215,2199.209],[-0.31423,42.80021,2197.93],[-0.314158,42.8002,2196.46],[-0.314071,42.800188,2195.31],[-0.314003,42.800198,2195.85],[-0.313926,42.800201,2195.861],[-0.313874,42.800166,2193.314],[-0.313816,42.800149,2191.864],[-0.313883,42.800132,2191.088],[-0.313963,42.800137,2191.557],[-0.314031,42.800105,2189.418],[-0.314081,42.800078,2187.598],[-0.314168,42.800061,2186.417],[-0.314231,42.800048,2185.809],[-0.314293,42.800016,2183.772],[-0.314245,42.799983,2181.392],[-0.314155,42.79996,2179.792],[-0.314082,42.799945,2178.892],[-0.31402,42.799932,2178.193],[-0.31395,42.799914,2177.096],[-0.313887,42.799904,2176.536],[-0.313814,42.799894,2175.36],[-0.313731,42.799901,2175.039],[-0.313789,42.799861,2173.348],[-0.313849,42.799843,2172.761],[-0.313896,42.799811,2171.117],[-0.313948,42.799783,2169.509],[-0.314023,42.799775,2169.085],[-0.314095,42.799767,2168.665],[-0.314052,42.799732,2166.685],[-0.313994,42.799709,2165.495],[-0.313939,42.799682,2164.226],[-0.313871,42.799662,2163.339],[-0.313804,42.799649,2162.559],[-0.313739,42.799631,2161.313],[-0.313777,42.799588,2159.692],[-0.313849,42.799556,2158.667],[-0.313914,42.799539,2157.981],[-0.313972,42.799521,2156.719],[-0.314037,42.799521,2156.109],[-0.314102,42.799524,2155.857],[-0.314177,42.799517,2154.897],[-0.31425,42.799509,2153.917],[-0.314312,42.799501,2153.027],[-0.314374,42.799496,2152.318],[-0.314437,42.799479,2150.921],[-0.314504,42.799469,2150.041],[-0.314571,42.799449,2148.475],[-0.314631,42.799436,2147.384],[-0.314693,42.799448,2147.442],[-0.314741,42.79942,2145.922],[-0.314804,42.7994,2144.914],[-0.314869,42.799378,2143.809],[-0.314937,42.799361,2142.755],[-0.314999,42.799348,2141.885],[-0.315069,42.799341,2141.285],[-0.315144,42.799328,2140.375],[-0.315199,42.799308,2138.926],[-0.315271,42.799298,2138.159],[-0.315344,42.799288,2137.249],[-0.315402,42.79927,2135.983],[-0.315452,42.799232,2133.412],[-0.315517,42.799219,2132.314],[-0.315594,42.799212,2131.554],[-0.315657,42.799204,2130.609],[-0.315719,42.799206,2130.209],[-0.315784,42.799213,2130.262],[-0.315854,42.799223,2130.532],[-0.315912,42.7992,2129.192],[-0.315975,42.799185,2128.242],[-0.316038,42.799175,2127.573],[-0.316098,42.799155,2126.536],[-0.31614,42.79912,2125.356],[-0.31619,42.799088,2124.22],[-0.316262,42.79906,2123.329],[-0.31632,42.79903,2122.383],[-0.316377,42.799003,2121.525],[-0.316415,42.798961,2119.117],[-0.31646,42.798926,2116.409],[-0.316522,42.798941,2115.119],[-0.316589,42.798943,2113.289],[-0.316646,42.798973,2112.699],[-0.316708,42.798958,2109.879],[-0.316783,42.798981,2107.41],[-0.316841,42.799009,2105.933],[-0.316869,42.798959,2103.123],[-0.316929,42.798987,2101.517],[-0.316979,42.799034,2100.696],[-0.317001,42.798981,2098.239],[-0.316983,42.798914,2097.201],[-0.316953,42.798862,2096.621],[-0.317018,42.798854,2093.809],[-0.317086,42.798877,2092.074],[-0.317139,42.798924,2091.074],[-0.317194,42.798956,2089.484],[-0.317201,42.798908,2088.234],[-0.317186,42.798843,2087.085],[-0.317173,42.798796,2086.158],[-0.317153,42.798743,2085.148],[-0.31712,42.798688,2084.582],[-0.317092,42.798636,2083.691],[-0.317092,42.798588,2081.562],[-0.317164,42.79858,2079.183],[-0.317237,42.798593,2077.611],[-0.317285,42.798628,2077.209],[-0.317345,42.798661,2075.927],[-0.31739,42.798694,2075.087],[-0.317455,42.798739,2073.517],[-0.317497,42.798774,2072.647],[-0.317545,42.798806,2071.358],[-0.317583,42.798848,2070.611],[-0.317625,42.798883,2069.551],[-0.317683,42.798851,2066.485],[-0.31769,42.798798,2065.154],[-0.317693,42.79875,2064.017],[-0.317708,42.798687,2062.287],[-0.317711,42.798624,2060.915],[-0.317724,42.798564,2059.009],[-0.317714,42.798514,2058.222],[-0.317697,42.798451,2057.232],[-0.31769,42.798401,2056.292],[-0.317678,42.798341,2055.172],[-0.317658,42.798284,2054.243],[-0.31763,42.798232,2053.586],[-0.317602,42.79819,2053.056],[-0.317575,42.798143,2052.22],[-0.317563,42.798095,2051.049],[-0.317553,42.798047,2049.869],[-0.31756,42.797999,2048.504],[-0.317577,42.797944,2046.824],[-0.317612,42.797881,2045.009],[-0.317642,42.797821,2043.447],[-0.31768,42.797766,2042.117],[-0.317732,42.797721,2041.097],[-0.317795,42.797668,2039.797],[-0.317853,42.797621,2038.048],[-0.31791,42.797576,2036.891],[-0.317953,42.797529,2035.941],[-0.31799,42.797482,2035.145],[-0.318028,42.797442,2034.234],[-0.318065,42.797402,2033.539],[-0.318118,42.797372,2032.401],[-0.318158,42.797334,2031.721],[-0.318221,42.797342,2031.209],[-0.318253,42.797284,2030.974],[-0.318228,42.797239,2031.014],[-0.318228,42.797194,2030.974],[-0.318181,42.797151,2030.474],[-0.318111,42.797143,2029.985],[-0.318056,42.797123,2029.248],[-0.318003,42.797083,2027.518],[-0.317936,42.797058,2025.652],[-0.317873,42.797038,2023.721],[-0.317808,42.797036,2022.333],[-0.317743,42.797024,2021.023],[-0.317671,42.797011,2020.115],[-0.317608,42.796993,2019.109],[-0.317538,42.796983,2018.394],[-0.317473,42.796973,2017.534],[-0.317401,42.79696,2016.774],[-0.317349,42.796935,2015.384],[-0.317296,42.796912,2013.555],[-0.317313,42.796862,2010.318],[-0.317255,42.796832,2008.298],[-0.317187,42.79682,2007.392],[-0.317094,42.796808,2006.461],[-0.317037,42.79679,2005.389],[-0.316962,42.796785,2004.806],[-0.31689,42.79679,2004.726],[-0.316828,42.796785,2004.009],[-0.316763,42.796793,2004.099],[-0.316693,42.79678,2002.779],[-0.316631,42.796753,2000.629],[-0.316599,42.796703,1997.529],[-0.316537,42.796688,1996.23],[-0.316474,42.796693,1995.953],[-0.316402,42.79669,1995.213],[-0.31634,42.796707,1995.177],[-0.31628,42.796729,1995.346],[-0.316213,42.796726,1994.228],[-0.316143,42.796723,1992.989],[-0.316076,42.796731,1993.117],[-0.316018,42.796689,1990.709],[-0.315966,42.796649,1988.773],[-0.315904,42.796641,1988.683],[-0.315844,42.796624,1988.243],[-0.315784,42.796607,1987.513],[-0.315747,42.796569,1985.834],[-0.315699,42.796536,1984.337],[-0.315662,42.796494,1982.537],[-0.315597,42.796499,1982.511],[-0.315529,42.796481,1981.54],[-0.315457,42.796469,1980.723],[-0.315372,42.796472,1980.483],[-0.315299,42.796479,1980.311],[-0.315231,42.796469,1980.109],[-0.315166,42.796466,1980.293],[-0.315156,42.796416,1978.743],[-0.315126,42.796374,1977.993],[-0.315121,42.796326,1977.553],[-0.315146,42.796276,1976.754],[-0.315203,42.796249,1975.637],[-0.315248,42.796209,1974.347],[-0.315271,42.796162,1973.071],[-0.315321,42.796122,1971.25],[-0.315381,42.796095,1968.842],[-0.315426,42.796063,1966.422],[-0.315413,42.796013,1964.914],[-0.315366,42.795965,1964.509],[-0.315426,42.795943,1961.885],[-0.315471,42.795911,1959.165],[-0.315464,42.795864,1957.525],[-0.315452,42.795819,1956.695],[-0.31548,42.795777,1955.216],[-0.315507,42.795729,1953.859],[-0.315545,42.795686,1951.849],[-0.31557,42.795644,1950.633],[-0.315583,42.795594,1949.982],[-0.315641,42.795574,1948.617],[-0.315699,42.795589,1947.687],[-0.315761,42.795604,1946.415],[-0.315823,42.795609,1945.209],[-0.315888,42.795637,1943.622],[-0.315923,42.795687,1942.922],[-0.315991,42.795689,1941.352],[-0.316046,42.795664,1939.842],[-0.316108,42.795632,1937.993],[-0.316173,42.795622,1936.056],[-0.316241,42.795617,1934.136],[-0.316301,42.795599,1932.07],[-0.316364,42.795579,1929.529],[-0.316406,42.795544,1927.777],[-0.316439,42.795506,1927.561],[-0.316461,42.795461,1927.927],[-0.316484,42.795419,1928.009],[-0.316504,42.795374,1928.318],[-0.316527,42.795331,1928.368],[-0.316582,42.795284,1926.868],[-0.316634,42.795254,1926.088],[-0.316701,42.795229,1925.149],[-0.316766,42.795219,1923.752],[-0.316826,42.795207,1922.622],[-0.316891,42.795202,1920.916],[-0.316951,42.795167,1921.395],[-0.317013,42.795149,1919.831],[-0.317071,42.795126,1918.561],[-0.317114,42.795091,1918.207],[-0.317171,42.795059,1916.709],[-0.317209,42.795017,1916.294],[-0.317217,42.79496,1916.084],[-0.317202,42.794908,1916.684],[-0.31718,42.794853,1917.894],[-0.317168,42.794805,1918.325],[-0.317163,42.794753,1918.498],[-0.317185,42.794691,1916.578],[-0.31718,42.794641,1916.552],[-0.317182,42.794588,1916.161],[-0.317204,42.794533,1914.465],[-0.317221,42.794473,1913.268],[-0.317229,42.794418,1912.414],[-0.317224,42.794351,1911.909],[-0.317209,42.794283,1911.967],[-0.317192,42.794228,1912.027],[-0.317169,42.794166,1912.187],[-0.317161,42.794101,1910.967],[-0.317158,42.794049,1909.878],[-0.31713,42.793994,1909.761],[-0.3171,42.793952,1910.131],[-0.317068,42.793912,1910.755],[-0.317026,42.793862,1910.454],[-0.316964,42.793839,1911.622],[-0.316907,42.793811,1911.862],[-0.316825,42.793798,1913.808],[-0.316752,42.79378,1914.709],[-0.31669,42.79377,1915.853],[-0.316623,42.793765,1917.153],[-0.31656,42.793738,1915.733],[-0.316492,42.793715,1914.743],[-0.316432,42.793693,1913.514],[-0.316365,42.793683,1913.947],[-0.316305,42.793671,1913.987],[-0.31625,42.793651,1913.021],[-0.316183,42.793626,1911.98],[-0.316113,42.793613,1912.264],[-0.31604,42.793603,1912.406],[-0.315972,42.793595,1912.816],[-0.315909,42.793575,1911.709],[-0.315847,42.793562,1911.597],[-0.315777,42.79356,1911.277],[-0.315719,42.793533,1908.117],[-0.315629,42.793511,1905.567],[-0.315541,42.793503,1904.618],[-0.315474,42.793495,1904.331],[-0.315364,42.793487,1904.381],[-0.315281,42.793474,1903.715],[-0.315206,42.793464,1904.634],[-0.315116,42.793456,1906.364],[-0.315049,42.793433,1905.706],[-0.314987,42.793393,1903.616],[-0.314914,42.793351,1902.009],[-0.314832,42.793319,1901.717],[-0.314777,42.793294,1901.427],[-0.314694,42.793279,1902.387],[-0.314614,42.793249,1900.547],[-0.314542,42.793239,1900.688],[-0.31448,42.793217,1899.581],[-0.31441,42.793182,1897.781],[-0.314368,42.793147,1895.615],[-0.314323,42.793105,1893.214],[-0.314276,42.793062,1890.849],[-0.314221,42.793022,1889.302],[-0.314158,42.792992,1888.822],[-0.314086,42.792967,1888.209],[-0.314018,42.792947,1887.985],[-0.313956,42.792935,1888.145],[-0.313884,42.792912,1887.875],[-0.313826,42.792892,1888.075],[-0.313761,42.792867,1888.256],[-0.313699,42.79284,1888.299],[-0.313656,42.792795,1886.769],[-0.313619,42.792758,1886.153],[-0.313584,42.792708,1885.482],[-0.313562,42.792655,1884.347],[-0.313539,42.792605,1883.429],[-0.313519,42.792552,1882.421],[-0.313487,42.792505,1882.109],[-0.313459,42.792458,1880.915],[-0.313409,42.792416,1880.665],[-0.313374,42.792364,1879.225],[-0.313331,42.792326,1878.795],[-0.313279,42.792294,1878.566],[-0.313222,42.792267,1878.839],[-0.31315,42.792237,1879.179],[-0.313085,42.7922,1878.753],[-0.31303,42.792163,1877.812],[-0.312983,42.792121,1876.282],[-0.312916,42.792096,1876.343],[-0.312866,42.792068,1875.917],[-0.312803,42.792043,1876.009],[-0.312746,42.792008,1875.119],[-0.312678,42.791981,1874.539],[-0.312625,42.791953,1873.799],[-0.312583,42.791913,1872.349],[-0.312553,42.79186,1870.27],[-0.312523,42.791805,1868.193],[-0.312503,42.79176,1866.333],[-0.312461,42.79171,1865.317],[-0.312459,42.791665,1863.486],[-0.312472,42.79162,1861.782],[-0.312469,42.791575,1860.543],[-0.312487,42.791523,1858.317],[-0.31248,42.791478,1857.309],[-0.312512,42.79143,1854.959],[-0.31255,42.791372,1852.679],[-0.312568,42.791329,1851.359],[-0.312583,42.791284,1850.179],[-0.312625,42.791249,1848.36],[-0.312648,42.791199,1846.763],[-0.312658,42.791151,1845.353],[-0.312665,42.791101,1844.037],[-0.312708,42.791056,1841.676],[-0.312771,42.791063,1840.013],[-0.312799,42.791018,1838.143],[-0.312871,42.790986,1835.507],[-0.312933,42.790986,1833.909],[-0.312996,42.790986,1832.382],[-0.313076,42.790969,1830.162],[-0.313128,42.790929,1828.182],[-0.313175,42.790897,1826.552],[-0.313245,42.790884,1824.983],[-0.313293,42.790849,1823.136],[-0.31336,42.790831,1821.426],[-0.313425,42.790811,1819.46],[-0.313487,42.790813,1818.169],[-0.313557,42.790803,1816.362],[-0.313632,42.790818,1815.383],[-0.3137,42.790845,1814.911],[-0.313755,42.790887,1814.609],[-0.313785,42.790934,1814.567],[-0.313815,42.790974,1814.217],[-0.313852,42.791021,1813.717],[-0.3139,42.791069,1812.887],[-0.313947,42.791102,1812.698],[-0.314002,42.79114,1812.641],[-0.314072,42.791147,1811.981],[-0.314145,42.79115,1811.165],[-0.31422,42.791143,1810.854],[-0.314285,42.791126,1810.846],[-0.314347,42.791111,1811.088],[-0.314419,42.791096,1811.116],[-0.314486,42.791096,1811.009],[-0.314548,42.791093,1810.895],[-0.314611,42.791086,1810.715],[-0.314691,42.791084,1810.535],[-0.314766,42.791082,1810.085],[-0.314844,42.791077,1809.386],[-0.314919,42.791069,1808.779],[-0.314986,42.791064,1808.259],[-0.315059,42.791059,1806.963],[-0.315129,42.791051,1805.752],[-0.315191,42.791033,1804.936],[-0.315241,42.791001,1804.917],[-0.315298,42.790963,1804.618],[-0.315355,42.790928,1803.709],[-0.315413,42.79089,1802.784],[-0.315463,42.790852,1801.944],[-0.315515,42.790827,1800.614],[-0.315572,42.790802,1798.654],[-0.315632,42.790764,1795.965],[-0.315744,42.790682,1791.028],[-0.315777,42.790642,1789.828],[-0.31581,42.790597,1788.752],[-0.315863,42.790557,1787.141],[-0.315931,42.790529,1785.165],[-0.316016,42.790527,1782.768],[-0.316099,42.79053,1780.414],[-0.316156,42.790503,1779.509],[-0.316216,42.79052,1778.467],[-0.316279,42.790522,1777.427],[-0.316337,42.790507,1776.787],[-0.3164,42.790502,1775.927],[-0.316442,42.790542,1775.148],[-0.31644,42.790592,1774.291],[-0.316468,42.790642,1773.211],[-0.31649,42.790694,1772.185],[-0.316552,42.790721,1771.464],[-0.316589,42.790764,1770.595],[-0.316601,42.790822,1769.449],[-0.316639,42.790865,1768.623],[-0.316704,42.790882,1768.109],[-0.316766,42.790915,1767.38],[-0.316833,42.79093,1766.89],[-0.316896,42.790953,1766.36],[-0.316959,42.790988,1765.77],[-0.317007,42.791018,1765.091],[-0.31706,42.791051,1764.244],[-0.317092,42.791109,1763.454],[-0.317115,42.791164,1762.758],[-0.31715,42.791209,1761.967],[-0.317202,42.791234,1761.085],[-0.317242,42.791281,1759.789],[-0.317254,42.791331,1758.817],[-0.317267,42.791383,1757.809],[-0.317275,42.791428,1757.759],[-0.317342,42.79144,1756.099],[-0.317419,42.791438,1753.949],[-0.317482,42.79143,1752.119],[-0.317549,42.791427,1750.48],[-0.317589,42.791389,1748.863],[-0.317647,42.791372,1747.743],[-0.317717,42.791379,1745.887],[-0.317785,42.791349,1745.096],[-0.317853,42.791349,1744.177],[-0.317898,42.791384,1742.461],[-0.317978,42.791417,1741.727],[-0.318048,42.791419,1740.709],[-0.318125,42.791409,1739.328],[-0.318197,42.791416,1738.418],[-0.31828,42.791419,1737.228],[-0.318348,42.791412,1736.178],[-0.318406,42.79143,1735.219],[-0.318458,42.791455,1734.652],[-0.318523,42.791482,1733.762],[-0.318573,42.791509,1733.056],[-0.318638,42.791516,1731.855],[-0.318705,42.791519,1730.387],[-0.318777,42.791524,1728.842],[-0.318844,42.791537,1727.726],[-0.318904,42.791525,1726.109],[-0.318972,42.791505,1724.059],[-0.319039,42.791482,1721.799],[-0.319097,42.791465,1719.779],[-0.319149,42.79144,1717.549],[-0.319202,42.791407,1715.12],[-0.319229,42.791364,1713.773],[-0.319261,42.791324,1712.793],[-0.319324,42.791337,1711.367],[-0.319381,42.791302,1709.256],[-0.319424,42.791262,1707.041],[-0.319504,42.791249,1704.981],[-0.319574,42.791232,1703.109],[-0.319641,42.791225,1701.609],[-0.319681,42.791187,1699.545],[-0.319718,42.79115,1697.585],[-0.31977,42.791107,1695.185],[-0.319745,42.791047,1695.095],[-0.319737,42.790992,1694.886],[-0.319777,42.790952,1693.339],[-0.319829,42.790924,1691.439],[-0.319866,42.790881,1689.643],[-0.319896,42.790829,1687.752],[-0.319924,42.790772,1686.481],[-0.319942,42.790717,1685.361],[-0.319959,42.790664,1684.117],[-0.319969,42.790614,1683.209],[-0.320012,42.790542,1680.559],[-0.32004,42.790494,1679.159],[-0.320067,42.790446,1677.899],[-0.320092,42.790404,1676.679],[-0.320092,42.790351,1676.28],[-0.320105,42.790289,1675.363],[-0.320122,42.790239,1674.553],[-0.32017,42.790182,1672.547],[-0.320215,42.790134,1670.756],[-0.32027,42.790094,1668.636],[-0.320305,42.790051,1667.617],[-0.320332,42.790006,1666.818],[-0.3204,42.789966,1665.809],[-0.320447,42.789934,1665.144],[-0.32052,42.789927,1663.464],[-0.320588,42.789942,1661.634],[-0.320665,42.789942,1659.764],[-0.320712,42.789899,1658.855],[-0.320744,42.789849,1658.358],[-0.320781,42.789801,1657.818],[-0.320819,42.789756,1657.192],[-0.320852,42.789704,1656.511],[-0.320874,42.789659,1656.014],[-0.320882,42.789611,1656.054],[-0.320895,42.789553,1655.909],[-0.32093,42.789501,1655.209],[-0.320953,42.789458,1654.932],[-0.320963,42.789406,1654.932],[-0.321021,42.789389,1653.542],[-0.321089,42.789376,1651.842],[-0.321149,42.789398,1650.683],[-0.321221,42.789416,1649.576],[-0.321279,42.789464,1648.336],[-0.321304,42.789519,1647.24],[-0.321346,42.789556,1646.149],[-0.321399,42.789603,1644.534],[-0.321412,42.78965,1643.755],[-0.321442,42.789708,1642.41],[-0.3215,42.789726,1641.409],[-0.321555,42.789703,1640.844],[-0.321617,42.789655,1640.334],[-0.32168,42.789623,1639.464],[-0.321752,42.789583,1637.764],[-0.321804,42.789541,1636.525],[-0.321857,42.789506,1635.218],[-0.321929,42.789521,1633.228],[-0.322016,42.789528,1631.252],[-0.322099,42.78952,1629.531],[-0.322207,42.78948,1627.348],[-0.322247,42.789443,1626.361],[-0.322279,42.789398,1625.417],[-0.322301,42.78935,1624.709],[-0.322338,42.789305,1623.785],[-0.322383,42.789263,1622.455],[-0.322488,42.789183,1619.345],[-0.32257,42.789115,1616.685],[-0.322645,42.789098,1614.226],[-0.322703,42.789118,1612.789],[-0.322766,42.789165,1611.389],[-0.322778,42.789218,1610.823],[-0.322826,42.789186,1609.292],[-0.322894,42.789139,1606.636],[-0.322947,42.789099,1604.317],[-0.322984,42.789061,1602.718],[-0.323044,42.788981,1600.109],[-0.323082,42.788926,1598.474],[-0.323112,42.788879,1597.034],[-0.323155,42.788834,1594.784],[-0.323195,42.788779,1592.564],[-0.323212,42.788719,1591.055],[-0.323209,42.788661,1590.048],[-0.323209,42.788596,1588.938],[-0.323226,42.788553,1587.632],[-0.323236,42.788501,1586.481],[-0.323253,42.788436,1584.657],[-0.323246,42.788376,1583.7],[-0.323263,42.788319,1582.02],[-0.323275,42.788274,1580.609],[-0.323288,42.788224,1579.066],[-0.323306,42.788181,1577.586],[-0.323324,42.788129,1575.926],[-0.323332,42.788081,1574.616],[-0.323355,42.788039,1573.177],[-0.323353,42.787982,1571.31],[-0.323336,42.78793,1569.97],[-0.323328,42.787883,1568.584],[-0.323306,42.787838,1567.543],[-0.323308,42.787786,1565.755],[-0.323381,42.787761,1563.907],[-0.323383,42.787709,1562.417],[-0.323368,42.787661,1561.209],[-0.323345,42.787616,1560.226],[-0.323367,42.787568,1558.736],[-0.323345,42.787518,1557.426],[-0.32337,42.787475,1556.046],[-0.32338,42.78743,1554.557],[-0.323347,42.787385,1553.27],[-0.323315,42.787333,1551.96],[-0.32331,42.787278,1550.294],[-0.323302,42.787221,1548.513],[-0.32326,42.787164,1547.397],[-0.323217,42.787122,1546.523],[-0.323165,42.787085,1546.025],[-0.323147,42.787028,1544.109],[-0.323114,42.786986,1543.03],[-0.323127,42.786928,1540.51],[-0.323174,42.786896,1538.81],[-0.323226,42.786869,1537.23],[-0.323276,42.786836,1535.681],[-0.323341,42.786828,1534.874],[-0.323418,42.786805,1533.524],[-0.323481,42.786792,1532.748],[-0.323519,42.786745,1530.737],[-0.323447,42.786725,1530.438],[-0.323384,42.786702,1529.97],[-0.323317,42.786692,1530.017],[-0.323262,42.78667,1529.409],[-0.323269,42.786625,1527.364],[-0.323297,42.786583,1525.244],[-0.323357,42.786565,1524.134],[-0.32342,42.78654,1522.464],[-0.323498,42.786533,1521.675],[-0.323566,42.786521,1520.518],[-0.323596,42.786479,1518.378],[-0.323579,42.786429,1516.112],[-0.323531,42.786397,1515.091],[-0.323476,42.786362,1514.087],[-0.323446,42.786322,1512.642],[-0.323404,42.786275,1511.126],[-0.323334,42.786242,1510.209],[-0.323272,42.786222,1509.589],[-0.323205,42.786189,1508.259],[-0.323137,42.786159,1507.069],[-0.323059,42.786131,1505.979],[-0.322977,42.786104,1505.11],[-0.322912,42.786066,1504.543],[-0.322852,42.786018,1503.583],[-0.322817,42.785976,1502.557],[-0.322765,42.785938,1501.716],[-0.322748,42.785895,1500.755],[-0.322805,42.785865,1499.807],[-0.322875,42.785855,1499.517],[-0.322952,42.78585,1499.409],[-0.323014,42.785838,1499.166],[-0.323087,42.78583,1498.886],[-0.323149,42.785815,1498.246],[-0.323217,42.78579,1497.246],[-0.323279,42.785777,1496.677],[-0.323346,42.785782,1496.37],[-0.323419,42.785792,1495.62],[-0.323479,42.78582,1495.594],[-0.323539,42.785845,1495.433],[-0.323596,42.78588,1495.919],[-0.323659,42.785893,1495.409],[-0.323704,42.785861,1493.619],[-0.323676,42.785821,1492.809],[-0.323634,42.785778,1492.362],[-0.323597,42.785741,1491.982],[-0.32356,42.785698,1491.282],[-0.323508,42.785663,1491.092],[-0.323453,42.78563,1490.763],[-0.323391,42.785588,1490.356],[-0.323333,42.785548,1489.926],[-0.323313,42.7855,1489.11],[-0.323291,42.78544,1488.019],[-0.323263,42.785393,1487.184],[-0.323261,42.785343,1486.107],[-0.323244,42.785288,1484.917],[-0.323221,42.785225,1484.209],[-0.323193,42.785185,1483.719],[-0.323158,42.785137,1482.929],[-0.323136,42.785087,1482.159],[-0.323126,42.785027,1481.319],[-0.323143,42.784979,1480.98],[-0.323166,42.784937,1480.493],[-0.323183,42.78489,1479.713],[-0.323251,42.784873,1480.017],[-0.323326,42.784856,1480.386],[-0.323403,42.784846,1479.654],[-0.323473,42.784861,1479.556],[-0.323533,42.784873,1479.411],[-0.323603,42.784851,1478.309],[-0.323665,42.784843,1477.726],[-0.323748,42.784836,1477.086],[-0.323823,42.784824,1476.246],[-0.323886,42.784807,1475.576],[-0.323949,42.784784,1475.227],[-0.323897,42.784751,1474.56],[-0.323819,42.784763,1475.16],[-0.323749,42.784743,1475.094],[-0.323682,42.784723,1474.883],[-0.32362,42.784708,1474.571],[-0.323555,42.78471,1475.041],[-0.323512,42.784675,1474.115],[-0.323507,42.784628,1472.609],[-0.323524,42.78456,1470.248],[-0.323547,42.784513,1468.598],[-0.323612,42.78448,1467.248],[-0.32362,42.784405,1465.128],[-0.323642,42.784362,1464.229],[-0.323655,42.784307,1462.962],[-0.323638,42.784259,1461.632],[-0.323658,42.784214,1460.766],[-0.323681,42.784167,1459.835],[-0.323708,42.784122,1459.026],[-0.323718,42.784069,1457.847],[-0.323741,42.784024,1457.011],[-0.323756,42.783972,1456.009],[-0.323739,42.783922,1454.633],[-0.323681,42.783892,1453.183],[-0.323624,42.78391,1452.783],[-0.323571,42.783937,1452.423],[-0.323518,42.78396,1452.074],[-0.323451,42.783953,1450.667],[-0.323363,42.783951,1448.877],[-0.323293,42.783939,1447.861],[-0.323226,42.783914,1446.73],[-0.323151,42.783909,1446.341],[-0.323088,42.783884,1444.981],[-0.323021,42.783871,1444.209],[-0.322933,42.783851,1443.509],[-0.322875,42.783818,1442.155],[-0.32281,42.78382,1442.415],[-0.322783,42.783777,1440.345],[-0.322751,42.783727,1437.935],[-0.322693,42.783675,1435.686],[-0.322636,42.783648,1434.799],[-0.322584,42.78362,1433.899],[-0.322544,42.783583,1432.793],[-0.322499,42.783535,1431.332],[-0.322424,42.78351,1431.183],[-0.322359,42.78349,1430.925],[-0.322317,42.783448,1429.717],[-0.322262,42.78341,1428.709],[-0.322212,42.783372,1427.699],[-0.322155,42.783335,1426.889],[-0.322108,42.783287,1426.179],[-0.322068,42.783235,1425.119],[-0.322023,42.783197,1424.55],[-0.32198,42.783162,1423.863],[-0.321955,42.78312,1422.843],[-0.321915,42.783078,1421.957],[-0.321897,42.783033,1420.856],[-0.32188,42.782988,1419.772],[-0.321848,42.782943,1418.713],[-0.321815,42.782903,1417.814],[-0.321805,42.782858,1416.709],[-0.321822,42.7828,1415.028],[-0.321764,42.782785,1414.858],[-0.321719,42.782753,1414.068],[-0.321656,42.78274,1413.828],[-0.321603,42.782713,1412.979],[-0.321541,42.782696,1412.342],[-0.321489,42.782664,1411.382],[-0.321436,42.782639,1410.556],[-0.321379,42.782616,1409.775],[-0.321346,42.782576,1408.167],[-0.321314,42.782533,1406.381],[-0.321306,42.782475,1404.419],[-0.321329,42.782433,1403.409],[-0.321354,42.782378,1402.127],[-0.321331,42.782331,1400.457],[-0.321266,42.782336,1399.737],[-0.321181,42.782331,1398.427],[-0.321119,42.782304,1396.868],[-0.321061,42.782269,1396.091],[-0.321003,42.782239,1395.721],[-0.320948,42.782214,1395.675],[-0.320956,42.782166,1394.534],[-0.320928,42.782119,1393.748],[-0.320883,42.782082,1393.461],[-0.320888,42.782027,1392.217],[-0.32089,42.78197,1390.909],[-0.32095,42.781935,1389.695],[-0.320997,42.781895,1388.385],[-0.321007,42.781842,1387.295],[-0.321047,42.781797,1385.825],[-0.321132,42.781777,1384.166],[-0.321209,42.781765,1383.039],[-0.321242,42.781708,1381.139],[-0.321205,42.781668,1380.793],[-0.321167,42.78162,1380.612],[-0.321164,42.781573,1380.194],[-0.321161,42.781508,1379.457],[-0.321183,42.781458,1378.322],[-0.321218,42.781416,1377.109],[-0.32125,42.781363,1375.79],[-0.32127,42.781303,1374.59],[-0.321277,42.781253,1373.79],[-0.321284,42.781206,1372.96],[-0.321301,42.781148,1371.781],[-0.321314,42.781088,1370.314],[-0.321327,42.78103,1368.634],[-0.321355,42.780982,1366.728],[-0.321403,42.780954,1364.917],[-0.321445,42.780912,1363.366],[-0.321475,42.780869,1361.929],[-0.321477,42.780814,1360.821],[-0.3215,42.780761,1359.809],[-0.321498,42.780714,1359.117],[-0.32154,42.780677,1358.157],[-0.321555,42.780625,1357.227],[-0.321577,42.78057,1356.297],[-0.32162,42.780523,1355.198],[-0.321655,42.780473,1354.061],[-0.321667,42.780418,1353.081],[-0.321699,42.780376,1352.115],[-0.321716,42.780316,1351.024],[-0.321764,42.780273,1349.929],[-0.321842,42.780238,1348.8],[-0.32191,42.78021,1347.72],[-0.321992,42.780185,1346.509],[-0.322072,42.78017,1345.593],[-0.322144,42.780145,1344.463],[-0.322192,42.780088,1343.353],[-0.322227,42.780035,1342.343],[-0.322259,42.77998,1341.374],[-0.322316,42.77994,1340.187],[-0.322361,42.779907,1339.257],[-0.322421,42.779897,1338.361],[-0.322454,42.779854,1337.53],[-0.322449,42.779801,1337.286],[-0.322477,42.779753,1336.56],[-0.322519,42.779706,1335.726],[-0.322556,42.779661,1335.209],[-0.322609,42.779619,1334.529],[-0.322672,42.779579,1333.659],[-0.322727,42.779544,1332.959],[-0.322784,42.779494,1332.179],[-0.322839,42.779452,1331.28],[-0.322884,42.779412,1330.683],[-0.322934,42.77937,1330.053],[-0.322982,42.77932,1329.557],[-0.323037,42.779283,1328.876],[-0.323092,42.779256,1328.232],[-0.323152,42.779228,1327.592],[-0.323207,42.779208,1326.811],[-0.32328,42.779191,1325.809],[-0.323342,42.779173,1324.974],[-0.323424,42.779158,1324.184],[-0.323489,42.779146,1323.414],[-0.323566,42.779129,1322.684],[-0.323628,42.779126,1322.085],[-0.3237,42.779114,1321.218],[-0.323767,42.779107,1320.478],[-0.323842,42.779099,1319.512],[-0.323914,42.779094,1318.721],[-0.323991,42.779109,1317.922],[-0.324073,42.779107,1317.062],[-0.324138,42.779105,1316.308],[-0.324211,42.779082,1315.509],[-0.324276,42.77905,1314.853],[-0.324341,42.779017,1314.153],[-0.324373,42.778965,1313.813],[-0.324383,42.778917,1313.723],[-0.324398,42.778865,1313.514],[-0.3244,42.77882,1313.527],[-0.324398,42.778763,1313.597],[-0.324396,42.778715,1313.551],[-0.324399,42.778668,1313.56],[-0.324416,42.778616,1313.366],[-0.324421,42.778566,1313.129],[-0.324429,42.778514,1312.821],[-0.324442,42.778457,1312.509],[-0.324449,42.778409,1312.297],[-0.324456,42.778362,1311.987],[-0.324474,42.77831,1311.327],[-0.324486,42.778265,1310.727],[-0.324488,42.778218,1310.118],[-0.324475,42.778161,1309.731],[-0.324462,42.778103,1309.341],[-0.32444,42.778056,1309.145],[-0.324417,42.778004,1308.734],[-0.324387,42.777959,1308.679],[-0.32435,42.777916,1308.505],[-0.32431,42.777879,1308.525],[-0.324273,42.777831,1308.409],[-0.324245,42.777783,1308.218],[-0.32424,42.777731,1308.268],[-0.324252,42.777681,1308.078],[-0.32426,42.777629,1307.828],[-0.324282,42.777577,1307.519],[-0.32427,42.777524,1307.562],[-0.324253,42.777472,1307.972],[-0.324228,42.777424,1308.546],[-0.324206,42.777379,1309.215],[-0.324178,42.777327,1310.059],[-0.324176,42.777272,1310.503],[-0.324201,42.777224,1310.223],[-0.324243,42.777176,1310.909],[-0.324296,42.777138,1310.876],[-0.324351,42.777096,1310.766],[-0.324403,42.777059,1310.376],[-0.324461,42.777037,1309.276],[-0.324528,42.777019,1307.987],[-0.324586,42.776994,1306.75],[-0.324633,42.776957,1305.83],[-0.324695,42.776934,1304.264],[-0.324745,42.776907,1303.893],[-0.324805,42.77687,1303.683],[-0.324848,42.776835,1303.625],[-0.324893,42.776798,1303.417],[-0.324958,42.776768,1302.309],[-0.325028,42.776733,1301.429],[-0.325088,42.776708,1300.949],[-0.325156,42.776675,1300.169],[-0.325219,42.776658,1299.249],[-0.325279,42.776648,1298.35],[-0.325339,42.776635,1297.653],[-0.325412,42.776622,1296.683],[-0.325495,42.776619,1295.347],[-0.32557,42.776609,1294.326],[-0.32565,42.776607,1293.832],[-0.325727,42.776602,1293.392],[-0.325789,42.7766,1292.811],[-0.325856,42.776568,1292.209],[-0.325886,42.776526,1291.774],[-0.325894,42.776466,1291.374],[-0.325919,42.776424,1290.954],[-0.325912,42.776367,1290.654],[-0.325907,42.776309,1290.465],[-0.325889,42.776264,1290.388],[-0.325871,42.776214,1290.298],[-0.325869,42.776167,1290.132],[-0.325871,42.776114,1289.911],[-0.325874,42.776059,1290.597],[-0.325901,42.776009,1290.923],[-0.325931,42.775962,1291.025],[-0.325966,42.77591,1291.009],[-0.325999,42.77587,1290.88],[-0.326056,42.775827,1290.19],[-0.326109,42.775802,1289.89],[-0.326167,42.775785,1289.83],[-0.326239,42.77576,1289.851],[-0.326314,42.77574,1289.664],[-0.326376,42.775732,1289.314],[-0.326458,42.775727,1288.998],[-0.326523,42.77572,1288.657],[-0.326588,42.775722,1288.192],[-0.326651,42.775719,1287.773],[-0.326713,42.775702,1287.52],[-0.326781,42.775687,1287.009],[-0.326843,42.775659,1286.72],[-0.326896,42.775627,1286.36],[-0.326929,42.775587,1286.12],[-0.326949,42.775539,1286.49],[-0.326989,42.775494,1286.931],[-0.327022,42.775449,1287.344],[-0.327072,42.775411,1287.124],[-0.327124,42.775368,1286.678],[-0.327171,42.775331,1285.957],[-0.327214,42.775296,1285.134],[-0.327274,42.775313,1284.355]]}}]}