{"type":"FeatureCollection","features":[{"type":"Feature","properties":{"ruta_id":"112729727","nombre":"PETIT VIGNEMALE desde BARRAGE d´OSSOUE en GAVARNIE","blog_url":"https://www.rutasporelmonte.com/petit-vignemale-desde-gavarnie/"},"geometry":{"type":"LineString","coordinates":[[-0.093028,42.756643,1812.824],[-0.092906,42.756818,1812.804],[-0.093457,42.756968,1812.814],[-0.093692,42.757362,1834.809],[-0.093938,42.757395,1836.943],[-0.094083,42.757183,1842.083],[-0.094421,42.757262,1838.634],[-0.09498,42.757691,1824.289],[-0.097356,42.75835,1831.714],[-0.09918,42.759102,1834.691],[-0.100365,42.759414,1838.679],[-0.101201,42.759457,1833.844],[-0.102746,42.760476,1842.219],[-0.103969,42.761064,1845.532],[-0.104733,42.761389,1848.392],[-0.105568,42.761502,1848.411],[-0.108041,42.762686,1864.509],[-0.108562,42.762551,1872.754],[-0.108988,42.762949,1876.154],[-0.109759,42.762925,1891.295],[-0.11111,42.763511,1922.34],[-0.111515,42.763444,1922.555],[-0.111753,42.76387,1928.872],[-0.111902,42.763762,1938.42],[-0.112147,42.764096,1944.645],[-0.112503,42.763896,1959.81],[-0.112578,42.764167,1962.333],[-0.113014,42.764079,1975.023],[-0.112877,42.764346,1980.115],[-0.112537,42.764506,1990.309],[-0.11237,42.765209,2006.044],[-0.112503,42.765373,1999.444],[-0.112377,42.76556,2001.145],[-0.113311,42.76575,2003.49],[-0.113278,42.765604,2012.375],[-0.114015,42.765911,2025.192],[-0.114851,42.766626,2033.62],[-0.115471,42.766912,2038.445],[-0.115568,42.767199,2042.78],[-0.11594,42.767243,2046.782],[-0.115688,42.767083,2046.243],[-0.116179,42.76724,2055.317],[-0.117544,42.767317,2060.109],[-0.118219,42.76758,2075.739],[-0.118286,42.767895,2081.069],[-0.118601,42.76774,2078.88],[-0.118521,42.768206,2088.515],[-0.118987,42.768727,2093.57],[-0.118253,42.769173,2113.347],[-0.118593,42.769209,2108.045],[-0.11852,42.769347,2108.84],[-0.117523,42.769886,2128.875],[-0.118721,42.769962,2159.317],[-0.118409,42.770245,2162.887],[-0.118006,42.770159,2190.115],[-0.11796,42.770381,2193.709],[-0.118255,42.770461,2199.572],[-0.118095,42.770991,2224.132],[-0.118315,42.771275,2229.273],[-0.11835,42.771799,2233.148],[-0.119081,42.772406,2205.853],[-0.119031,42.773101,2205.66],[-0.118348,42.773797,2214.938],[-0.116731,42.773741,2218.413],[-0.116984,42.773834,2224.828],[-0.116565,42.774208,2239.318],[-0.117259,42.774315,2258.898],[-0.116506,42.774813,2273.017],[-0.116444,42.775108,2292.909],[-0.117022,42.775394,2310.632],[-0.117584,42.775968,2318.012],[-0.117734,42.775629,2335.673],[-0.118137,42.775772,2345.688],[-0.118392,42.775579,2350.523],[-0.120409,42.775638,2395.36],[-0.121889,42.775555,2424.498],[-0.122382,42.775364,2426.033],[-0.122391,42.775487,2436.668],[-0.122593,42.775442,2444.695],[-0.122743,42.775569,2450.049],[-0.122331,42.775791,2458.523],[-0.121896,42.776302,2479.009],[-0.120729,42.776873,2508.51],[-0.121057,42.776869,2513.84],[-0.120605,42.777132,2520.681],[-0.12049,42.77743,2531.226],[-0.121013,42.777438,2553.941],[-0.122063,42.777851,2572.298],[-0.122395,42.778078,2571.626],[-0.122295,42.778138,2575.921],[-0.122544,42.778438,2584.816],[-0.122861,42.778386,2581.194],[-0.12287,42.77852,2590.257],[-0.124031,42.778721,2610.922],[-0.124053,42.778872,2617.209],[-0.123833,42.778975,2623.41],[-0.124254,42.779378,2642.52],[-0.123978,42.779466,2651.921],[-0.124132,42.779277,2653.456],[-0.125782,42.779582,2636.381],[-0.126759,42.779561,2641.248],[-0.126926,42.779696,2643.076],[-0.126791,42.77987,2645.531],[-0.126872,42.780147,2650.696],[-0.127649,42.779795,2670.484],[-0.127943,42.779825,2677.807],[-0.127726,42.780066,2685.617],[-0.128508,42.779951,2704.609],[-0.129418,42.780049,2714.429],[-0.130232,42.779876,2726.869],[-0.130953,42.779418,2730.93],[-0.131421,42.779298,2729.515],[-0.13134,42.779179,2727.97],[-0.131496,42.778921,2730.387],[-0.131374,42.778611,2737.645],[-0.131625,42.778338,2752.62],[-0.131548,42.778116,2761.795],[-0.131873,42.777835,2782.543],[-0.131786,42.777661,2787.264],[-0.132128,42.777398,2807.21],[-0.132461,42.776742,2854.709],[-0.132344,42.776331,2873.675],[-0.132482,42.776076,2892.595],[-0.13232,42.775701,2906.226],[-0.133964,42.775661,2978.151],[-0.134136,42.77541,2988.086],[-0.134553,42.775375,3006.953],[-0.134593,42.775104,3016.191],[-0.135069,42.774707,3037.696],[-0.134642,42.774954,3029.781],[-0.13455,42.775336,3009.749],[-0.134126,42.775383,2992.802],[-0.133823,42.775605,2974.622],[-0.133342,42.775734,2954.809],[-0.132898,42.775596,2931.875],[-0.132348,42.775671,2920.245],[-0.132452,42.776135,2894.056],[-0.132291,42.776329,2882.441],[-0.132427,42.776786,2862.816],[-0.132081,42.777472,2818.163],[-0.131673,42.777724,2798.031],[-0.131339,42.779237,2736.366],[-0.130586,42.778845,2713.221],[-0.130021,42.778944,2700.777],[-0.129595,42.778788,2698.461],[-0.128907,42.778996,2683.627],[-0.12866,42.77928,2681.509],[-0.128695,42.779492,2680.428],[-0.128285,42.779357,2676.618],[-0.127178,42.77942,2655.319],[-0.126919,42.779566,2654.054],[-0.125451,42.77955,2645.779],[-0.124899,42.779315,2654.336],[-0.124071,42.779335,2659.444],[-0.124163,42.77913,2650.729],[-0.123898,42.778932,2638.454],[-0.124054,42.778747,2631.717],[-0.122861,42.778486,2601.887],[-0.12121,42.777485,2573.915],[-0.12072,42.777325,2549.709],[-0.120552,42.777424,2545.012],[-0.120677,42.777047,2532.432],[-0.121033,42.776783,2526.763],[-0.120793,42.776783,2517.578],[-0.121945,42.776143,2487.983],[-0.122672,42.775492,2460.03],[-0.122621,42.775377,2452.868],[-0.122442,42.775431,2448.813],[-0.122364,42.775282,2443.998],[-0.120597,42.775585,2409.596],[-0.118338,42.775571,2367.531],[-0.118187,42.775746,2361.224],[-0.11778,42.775499,2359.409],[-0.117588,42.775891,2339.58],[-0.117048,42.775315,2330.05],[-0.116512,42.774989,2316.441],[-0.116646,42.774781,2301.566],[-0.116554,42.774676,2302.781],[-0.11714,42.77425,2274.998],[-0.116858,42.77388,2244.826],[-0.117072,42.773755,2239.661],[-0.116839,42.773631,2230.396],[-0.118435,42.773666,2206.037],[-0.118815,42.773309,2219.649],[-0.118817,42.773063,2222.913],[-0.119026,42.772964,2220.709],[-0.119018,42.77237,2221.144],[-0.118914,42.772421,2222.584],[-0.118396,42.771542,2228.755],[-0.118415,42.771196,2232.13],[-0.118157,42.77097,2232.165],[-0.118272,42.770345,2219.622],[-0.118128,42.770426,2216.21],[-0.118103,42.770334,2210.725],[-0.118141,42.770076,2191.47],[-0.118384,42.770114,2185.176],[-0.11877,42.769911,2174.59],[-0.117593,42.769744,2150.219],[-0.118575,42.769259,2115.409],[-0.11836,42.76907,2112.378],[-0.119047,42.768664,2098.168],[-0.118579,42.768041,2092.639],[-0.118531,42.76774,2093.694],[-0.118325,42.767862,2096.259],[-0.118259,42.767525,2087.676],[-0.11786,42.767548,2084.824],[-0.116895,42.767194,2077.579],[-0.116314,42.767213,2076.644],[-0.115836,42.767048,2060.685],[-0.115877,42.767162,2052.789],[-0.115553,42.767135,2051.417],[-0.115449,42.766751,2043.209],[-0.114701,42.766382,2033.419],[-0.114115,42.765883,2027.699],[-0.113486,42.765597,2021.09],[-0.113265,42.765717,2010.595],[-0.112617,42.765575,2003.89],[-0.112528,42.764423,2007.617],[-0.112932,42.763932,2004.265],[-0.11257,42.764057,1991.12],[-0.112487,42.763812,1975.045],[-0.112142,42.764006,1963.548],[-0.111933,42.763711,1955.961],[-0.11169,42.763656,1946.217],[-0.111637,42.763381,1932.709],[-0.111002,42.763415,1925.825],[-0.109803,42.762908,1896.745],[-0.109013,42.762877,1888.916],[-0.108644,42.762476,1882.281],[-0.10828,42.762575,1878.286],[-0.107572,42.762217,1864.743],[-0.106793,42.762031,1875.861],[-0.105291,42.761277,1874.576],[-0.104028,42.760941,1872.841],[-0.102793,42.76041,1857.871],[-0.10129,42.759437,1835.741],[-0.10023,42.759315,1842.315],[-0.097381,42.758239,1859.809],[-0.095947,42.757937,1861.938],[-0.094324,42.757188,1851.878],[-0.093741,42.757311,1854.779],[-0.09355,42.757221,1852.084],[-0.093481,42.756945,1844.789],[-0.092995,42.756863,1834.426],[-0.092955,42.756704,1822.464]]}}]}