{"type":"FeatureCollection","features":[{"type":"Feature","properties":{"ruta_id":"115016765","nombre":"LOITZATE y EKAITZA desde ZUBIETA ruta CIRCULAR","blog_url":"https://www.rutasporelmonte.com/loitzate-y-ekaitza-desde-zubieta-ruta-circular/"},"geometry":{"type":"LineString","coordinates":[[-1.742625,43.124892,206.535],[-1.742675,43.124934,206.586],[-1.742662,43.124979,207.014],[-1.742629,43.125037,207.709],[-1.742574,43.125072,208.234],[-1.742517,43.125095,209.384],[-1.74252,43.125145,210.938],[-1.742517,43.125195,212.783],[-1.742497,43.125238,214.524],[-1.742489,43.125286,215.539],[-1.742521,43.125331,217.64],[-1.742519,43.125379,218.529],[-1.742514,43.125427,220.718],[-1.742497,43.12548,221.894],[-1.742519,43.125533,222.657],[-1.742587,43.12555,222.922],[-1.742639,43.12558,223.209],[-1.742681,43.12562,223.15],[-1.742701,43.125667,212.83],[-1.742698,43.125724,212.364],[-1.742755,43.125749,211.619],[-1.74279,43.125801,211.45],[-1.742805,43.125851,209.925],[-1.74281,43.125898,209.586],[-1.742832,43.125941,207.865],[-1.742855,43.126006,206.924],[-1.742833,43.126051,206.928],[-1.742823,43.126098,205.989],[-1.742781,43.126138,205.317],[-1.742729,43.126166,203.609],[-1.742691,43.126218,203.583],[-1.742653,43.126266,202.463],[-1.742616,43.126309,200.317],[-1.742543,43.126342,193.582],[-1.742496,43.126302,193.533],[-1.742433,43.12631,193.238],[-1.742343,43.126345,193.159],[-1.742291,43.12638,193.128],[-1.742228,43.126365,195.327],[-1.742156,43.12639,199.952],[-1.742083,43.126415,205.153],[-1.74199,43.126417,211.708],[-1.741902,43.126435,217.909],[-1.741825,43.12645,221.326],[-1.741768,43.12647,222.736],[-1.741695,43.126473,222.74],[-1.741627,43.126478,222.735],[-1.74155,43.126475,222.616],[-1.741478,43.12647,222.061],[-1.741421,43.126502,221.532],[-1.741358,43.126515,221.261],[-1.74129,43.126525,221.25],[-1.741203,43.12652,221.421],[-1.741175,43.126563,223.341],[-1.741237,43.12658,227.705],[-1.741309,43.126558,227.709],[-1.741381,43.126551,227.743],[-1.741448,43.126551,231.783],[-1.741518,43.126566,239.617],[-1.741593,43.126573,240.752],[-1.741711,43.126581,241.013],[-1.741766,43.126613,242.298],[-1.741829,43.12663,245.089],[-1.741929,43.126642,246.278],[-1.742032,43.126674,246.767],[-1.742097,43.126681,247.172],[-1.742167,43.126686,247.813],[-1.742237,43.126698,249.014],[-1.742299,43.126698,251.109],[-1.742367,43.126703,253.718],[-1.742622,43.126773,254.928],[-1.742679,43.126806,254.922],[-1.742744,43.126794,254.797],[-1.742806,43.126789,253.368],[-1.742874,43.126819,252.933],[-1.742944,43.126816,249.664],[-1.743019,43.126813,247.433],[-1.743087,43.126831,244.692],[-1.74315,43.126824,243.597],[-1.743215,43.126842,243.523],[-1.743303,43.126852,243.625],[-1.743341,43.12689,245.309],[-1.743391,43.126925,247.39],[-1.743439,43.126953,250.11],[-1.743502,43.126968,251.874],[-1.743557,43.126991,254.579],[-1.743615,43.127016,256.76],[-1.743663,43.127049,259.085],[-1.743705,43.127089,261.416],[-1.743747,43.127124,264.335],[-1.743782,43.127166,266.754],[-1.743839,43.127201,268.166],[-1.743896,43.127219,268.029],[-1.743949,43.127242,268.221],[-1.744007,43.127272,268.309],[-1.744055,43.127305,268.787],[-1.744125,43.127312,270.577],[-1.744182,43.127339,270.961],[-1.744249,43.127354,271.766],[-1.744316,43.127356,272.847],[-1.744384,43.127369,273.142],[-1.744446,43.127377,273.523],[-1.744516,43.127384,274.082],[-1.744588,43.127392,276.221],[-1.744661,43.127397,277.924],[-1.744726,43.12742,278.204],[-1.744779,43.127445,278.314],[-1.744842,43.127467,278.309],[-1.74491,43.127479,278.073],[-1.744982,43.127481,277.983],[-1.745045,43.127491,277.867],[-1.745117,43.127493,277.822],[-1.745169,43.127518,279.093],[-1.745221,43.127475,277.528],[-1.745296,43.127453,276.989],[-1.745359,43.127441,276.898],[-1.745424,43.127429,276.857],[-1.745487,43.127411,276.748],[-1.74556,43.127404,276.861],[-1.745618,43.127386,277.017],[-1.745691,43.127374,277.609],[-1.745764,43.127362,279.965],[-1.745841,43.127352,282.715],[-1.745903,43.127337,284.869],[-1.745966,43.127334,286.664],[-1.746009,43.127297,287.435],[-1.746066,43.127274,287.75],[-1.746133,43.127257,288.161],[-1.746198,43.127235,289.08],[-1.74626,43.127223,290.189],[-1.746327,43.127225,290.884],[-1.746399,43.127213,292.307],[-1.746467,43.127223,294.417],[-1.74653,43.12723,296.009],[-1.746593,43.127243,297.259],[-1.746651,43.12726,298.229],[-1.746719,43.127287,299.223],[-1.746784,43.127295,300.248],[-1.746846,43.127317,300.259],[-1.746918,43.12733,300.214],[-1.746978,43.127363,299.575],[-1.747043,43.127361,299.374],[-1.7471,43.127381,299.323],[-1.74713,43.127424,301.314],[-1.747192,43.127447,301.554],[-1.747217,43.127495,301.909],[-1.747252,43.127543,303.009],[-1.74727,43.127591,305.792],[-1.747293,43.127644,307.622],[-1.747328,43.127687,307.646],[-1.747361,43.12773,307.721],[-1.747391,43.127777,307.762],[-1.747436,43.127824,306.657],[-1.747453,43.127869,306.458],[-1.747481,43.127919,306.427],[-1.747514,43.127971,306.466],[-1.747532,43.128024,306.646],[-1.747572,43.128069,308.288],[-1.747604,43.128109,308.516],[-1.747644,43.128146,309.609],[-1.747664,43.128189,312.055],[-1.747692,43.128234,314.865],[-1.747722,43.128282,317.539],[-1.74774,43.12833,319.984],[-1.747763,43.128378,320.865],[-1.747776,43.128431,322.33],[-1.747798,43.128484,324.381],[-1.747803,43.128531,325.55],[-1.747826,43.128581,327.879],[-1.747828,43.128631,328.213],[-1.747821,43.128679,328.543],[-1.747826,43.128726,328.807],[-1.747843,43.128773,329.309],[-1.74786,43.128825,329.482],[-1.74787,43.128875,330.792],[-1.74789,43.12892,332.256],[-1.747893,43.128977,332.791],[-1.747901,43.129047,333.052],[-1.747963,43.129054,333.527],[-1.747976,43.129101,335.318],[-1.747958,43.129144,338.537],[-1.747985,43.129187,339.456],[-1.747983,43.129232,339.659],[-1.747978,43.129282,339.603],[-1.747988,43.12933,339.623],[-1.748031,43.129377,339.609],[-1.748048,43.129422,339.746],[-1.748063,43.129479,339.986],[-1.748101,43.129534,340.27],[-1.748134,43.129572,341.365],[-1.748177,43.12961,342.126],[-1.748229,43.129645,342.381],[-1.748286,43.129682,342.752],[-1.748339,43.129705,342.641],[-1.748399,43.129717,342.55],[-1.748459,43.129737,342.399],[-1.748516,43.129769,341.307],[-1.748564,43.129802,340.427],[-1.748617,43.129829,339.409],[-1.7486,43.129891,339.19],[-1.748662,43.129893,339.02],[-1.74872,43.12987,338.414],[-1.748737,43.129825,338.119],[-1.74875,43.129777,337.75],[-1.748787,43.129739,338.275],[-1.748805,43.129696,341.586],[-1.748858,43.129666,346.165],[-1.748893,43.129626,348.144],[-1.74893,43.129589,349.723],[-1.748987,43.129569,349.983],[-1.749045,43.129552,350.311],[-1.749097,43.129517,350.409],[-1.749154,43.12948,350.493],[-1.749206,43.129455,350.023],[-1.749269,43.129468,347.877],[-1.749334,43.129453,346.532],[-1.749399,43.129435,344.833],[-1.749447,43.129405,344.678],[-1.749494,43.129362,343.459],[-1.749539,43.129324,343.468],[-1.749574,43.129284,343.447],[-1.749617,43.129241,344.554],[-1.74965,43.129201,346.556],[-1.749695,43.129168,347.211],[-1.749747,43.129133,347.509],[-1.749809,43.129125,347.916],[-1.749871,43.129095,348.996],[-1.749921,43.129063,350.72],[-1.749978,43.12903,353.995],[-1.750021,43.128993,356.676],[-1.750074,43.128958,357.311],[-1.750136,43.128931,357.962],[-1.750191,43.128903,358.241],[-1.750229,43.12886,358.28],[-1.750257,43.128818,359.853],[-1.750294,43.128778,360.804],[-1.750326,43.12873,362.914],[-1.750346,43.128677,365.009],[-1.750373,43.12863,366.746],[-1.750418,43.128585,368.696],[-1.750465,43.128555,369.76],[-1.750515,43.128522,371.285],[-1.750548,43.128475,372.666],[-1.750611,43.128453,376.811],[-1.750659,43.12842,380.572],[-1.750717,43.128397,383.051],[-1.750784,43.128369,384.66],[-1.750856,43.128351,385.085],[-1.750924,43.128314,385.689],[-1.750961,43.128276,386.617],[-1.751016,43.128246,387.709],[-1.751091,43.128238,387.869],[-1.751161,43.128226,388.589],[-1.751223,43.128203,390.133],[-1.751286,43.128203,392.078],[-1.751363,43.128166,392.339],[-1.751428,43.128151,392.374],[-1.751476,43.128191,389.675],[-1.751454,43.128236,389.764],[-1.751472,43.128279,390.143],[-1.751405,43.128292,392.214],[-1.751342,43.128297,395.254],[-1.751277,43.128317,395.509],[-1.751262,43.128374,395.909],[-1.751239,43.128422,397.632],[-1.751186,43.128449,398.732],[-1.751128,43.128464,399.166],[-1.751065,43.128496,399.271],[-1.751008,43.128524,399.462],[-1.750973,43.128569,399.557],[-1.750945,43.128614,401.158],[-1.750938,43.128662,401.257],[-1.750923,43.128719,401.356],[-1.750911,43.128779,400.721],[-1.750896,43.128824,400.441],[-1.750873,43.128867,400.705],[-1.750811,43.128904,400.809],[-1.750868,43.128876,401.033],[-1.750938,43.128884,400.673],[-1.750976,43.128842,401.077],[-1.751023,43.128802,402.092],[-1.751085,43.128785,400.183],[-1.751153,43.128778,401.468],[-1.751223,43.128775,405.819],[-1.751285,43.128767,406.148],[-1.751353,43.128752,406.327],[-1.751418,43.12874,408.328],[-1.75148,43.128762,409.889],[-1.75154,43.12878,410.117],[-1.751603,43.128785,411.609],[-1.751666,43.128785,413.853],[-1.751729,43.128797,414.123],[-1.751791,43.128797,414.247],[-1.751854,43.12882,414.352],[-1.751916,43.12882,415.453],[-1.752001,43.128843,418.738],[-1.752058,43.128861,423.179],[-1.752128,43.128859,427.188],[-1.752188,43.128871,427.777],[-1.75225,43.128878,428.314],[-1.75249,43.128918,432.054],[-1.752503,43.128871,431.909],[-1.752566,43.128871,432.009],[-1.752613,43.128841,433.462],[-1.75268,43.128839,434.562],[-1.752742,43.128824,434.236],[-1.752799,43.128801,434.581],[-1.752862,43.128798,434.962],[-1.752924,43.128786,435.047],[-1.752992,43.128773,435.488],[-1.753057,43.128763,437.397],[-1.75312,43.128763,438.266],[-1.753193,43.128765,438.546],[-1.753258,43.128765,438.688],[-1.753325,43.128772,440.916],[-1.753388,43.128777,444.509],[-1.753451,43.128775,448.135],[-1.753513,43.128778,450.945],[-1.75358,43.128783,453.499],[-1.753638,43.128798,455.854],[-1.7537,43.128798,457.745],[-1.753773,43.128783,460.37],[-1.75384,43.12877,462.331],[-1.753905,43.128765,463.75],[-1.753967,43.12876,465.279],[-1.754037,43.128753,470.976],[-1.754095,43.128778,471.69],[-1.754163,43.128753,471.719],[-1.754105,43.128725,471.809],[-1.7542,43.128718,472.848],[-1.754138,43.1287,472.178],[-1.754098,43.128662,471.542],[-1.754081,43.128614,472.717],[-1.754079,43.128562,473.478],[-1.754071,43.128515,474.713],[-1.754071,43.128462,474.894],[-1.754069,43.128415,474.923],[-1.754084,43.128365,473.132],[-1.754146,43.128352,472.972],[-1.754208,43.128347,472.913],[-1.754275,43.128359,473.514],[-1.754322,43.128391,476.709],[-1.754302,43.128346,478.658],[-1.754464,43.128396,483.638],[-1.754501,43.128434,485.872],[-1.754569,43.128446,487.637],[-1.754622,43.128469,489.258],[-1.754687,43.128494,490.153],[-1.754757,43.128496,490.094],[-1.754824,43.128494,490.133],[-1.754892,43.128524,488.252],[-1.754954,43.128546,482.837],[-1.755017,43.128564,482.849],[-1.755079,43.128577,487.013],[-1.755141,43.128584,489.309],[-1.755199,43.128607,489.434],[-1.755252,43.128639,493.164],[-1.755314,43.128652,495.738],[-1.755377,43.128669,498.333],[-1.755439,43.128681,501.374],[-1.755506,43.128681,504.469],[-1.755578,43.128699,506.75],[-1.755636,43.128724,508.369],[-1.755699,43.128729,512.158],[-1.755747,43.128769,513.833],[-1.755809,43.128769,514.223],[-1.755866,43.128797,514.315],[-1.755929,43.128775,514.309],[-1.755991,43.128758,515.814],[-1.756059,43.12875,516.174],[-1.756114,43.128728,518.148],[-1.756111,43.128676,519.063],[-1.756089,43.128631,519.184],[-1.756037,43.128598,519.369],[-1.755989,43.128568,519.36],[-1.755984,43.128518,520.679],[-1.755927,43.1285,522.578],[-1.755867,43.128482,522.761],[-1.755867,43.128437,522.721],[-1.755845,43.128392,522.813],[-1.755847,43.128344,522.809],[-1.755824,43.128299,522.897],[-1.755811,43.128252,535.977],[-1.755829,43.128207,539.081],[-1.755862,43.128159,542.486],[-1.755879,43.128114,546.797],[-1.755942,43.128114,548.132],[-1.755939,43.128051,547.563],[-1.755916,43.128004,545.172],[-1.755936,43.128049,541.351],[-1.755944,43.127999,541.396],[-1.755962,43.127956,541.331],[-1.755999,43.127916,541.324],[-1.756042,43.127879,541.309],[-1.756107,43.127864,546.25],[-1.75617,43.127881,549.64],[-1.75622,43.127908,551.414],[-1.756272,43.127941,553.629],[-1.756332,43.127961,555.26],[-1.756364,43.128003,557.345],[-1.756416,43.128043,557.586],[-1.756486,43.128061,557.635],[-1.756553,43.128076,557.594],[-1.756618,43.128101,555.742],[-1.756676,43.128126,555.622],[-1.756724,43.128163,555.714],[-1.756759,43.128206,557.409],[-1.756812,43.128229,566.985],[-1.756859,43.128266,567.235],[-1.756901,43.128299,567.889],[-1.756943,43.128341,568.154],[-1.757008,43.128354,568.115],[-1.757065,43.128377,572.09],[-1.75712,43.128404,575.641],[-1.757185,43.128412,576.95],[-1.75724,43.128377,576.929],[-1.757232,43.12833,576.972],[-1.757215,43.128287,577.113],[-1.757178,43.128247,577.114],[-1.75717,43.128197,577.109],[-1.757165,43.12815,580.568],[-1.757168,43.1281,580.668],[-1.757165,43.128055,580.932],[-1.757163,43.128008,580.997],[-1.757175,43.12796,581.138],[-1.757195,43.127912,581.153],[-1.757207,43.127864,582.154],[-1.757229,43.127811,584.913],[-1.757267,43.127761,586.072],[-1.757315,43.127721,587.881],[-1.757345,43.127676,588.861],[-1.757387,43.127643,589.817],[-1.757394,43.127596,594.509],[-1.757406,43.127549,598.479],[-1.757439,43.127509,602.959],[-1.757459,43.127462,605.513],[-1.757504,43.127429,607.098],[-1.757542,43.127392,608.239],[-1.75758,43.127354,611.094],[-1.757637,43.127304,608.385],[-1.757665,43.127346,609.324],[-1.757733,43.127369,609.313],[-1.757803,43.127387,609.395],[-1.757841,43.127424,609.449],[-1.757908,43.127434,609.323],[-1.75797,43.127451,607.709],[-1.758027,43.127476,606.93],[-1.75809,43.127489,605.97],[-1.758165,43.127496,605.884],[-1.758232,43.127496,605.849],[-1.758304,43.127504,606.13],[-1.758374,43.127504,607.275],[-1.758429,43.127539,613.056],[-1.758494,43.127541,613.075],[-1.758564,43.127539,613.074],[-1.758626,43.127547,613.066],[-1.758691,43.127557,613.029],[-1.758756,43.127559,615.921],[-1.758826,43.127559,616.209],[-1.758881,43.127534,616.737],[-1.758943,43.127521,616.917],[-1.759006,43.127508,617.431],[-1.759068,43.127496,618.146],[-1.75913,43.127473,618.517],[-1.759193,43.127451,620.252],[-1.759255,43.127428,621.883],[-1.759317,43.127401,622.992],[-1.759379,43.127376,625.021],[-1.759432,43.127351,625.833],[-1.759474,43.127304,626.323],[-1.759529,43.127267,626.715],[-1.759596,43.127232,627.409],[-1.759638,43.127199,627.444],[-1.759708,43.127177,627.454],[-1.759773,43.127155,623.698],[-1.759836,43.127132,623.643],[-1.759901,43.12713,623.694],[-1.759966,43.127113,623.189],[-1.760031,43.127093,622.99],[-1.760094,43.127073,623.619],[-1.760166,43.127055,623.048],[-1.760218,43.127028,623.724],[-1.760283,43.127016,624.204],[-1.760346,43.126994,625.314],[-1.760416,43.126982,625.309],[-1.760484,43.126975,625.323],[-1.760552,43.12696,624.113],[-1.760604,43.126928,624.147],[-1.760661,43.126901,624.122],[-1.760731,43.126888,624.483],[-1.760793,43.12689,630.348],[-1.760858,43.12688,629.099],[-1.760926,43.126892,630.138],[-1.760994,43.126879,629.637],[-1.761066,43.126871,629.061],[-1.761128,43.126881,632.921],[-1.761195,43.126876,632.913],[-1.76126,43.126861,633.309],[-1.761322,43.126839,633.327],[-1.761387,43.126831,632.947],[-1.76145,43.126816,632.991],[-1.76152,43.126813,632.756],[-1.761585,43.126823,631.687],[-1.761652,43.126831,631.482],[-1.761714,43.126828,631.063],[-1.761784,43.126823,630.162],[-1.761847,43.126806,630.081],[-1.761922,43.126791,629.616],[-1.761995,43.126794,629.576],[-1.76207,43.126806,629.513],[-1.762142,43.126799,630.109],[-1.762204,43.126789,631.452],[-1.762266,43.126807,633.482],[-1.762333,43.126805,633.636],[-1.762391,43.12679,633.961],[-1.762453,43.126798,634.612],[-1.76251,43.126778,636.317],[-1.762575,43.1268,639.768],[-1.762628,43.126775,639.757],[-1.76268,43.12675,639.386],[-1.762747,43.126758,638.853],[-1.762807,43.12678,638.704],[-1.762887,43.126797,638.714],[-1.762962,43.126802,638.909],[-1.763024,43.126784,639.086],[-1.763084,43.126804,639.286],[-1.763144,43.126792,639.32],[-1.763201,43.126764,639.585],[-1.763231,43.126724,642.866],[-1.763289,43.126706,646.831],[-1.763347,43.126689,650.922],[-1.76341,43.126681,653.251],[-1.763458,43.126653,653.85],[-1.763528,43.126643,657.648],[-1.7636,43.126648,661.561],[-1.763663,43.126638,663.017],[-1.763726,43.126625,664.609],[-1.763788,43.126612,666.515],[-1.763876,43.126612,668.455],[-1.763894,43.12656,669.349],[-1.763866,43.126503,670.754],[-1.763826,43.126463,671.015],[-1.763798,43.126421,671.14],[-1.763741,43.126399,671.091],[-1.763671,43.126422,670.62],[-1.763654,43.126345,673.369],[-1.763594,43.126322,673.327],[-1.763526,43.126315,673.368],[-1.763473,43.12629,673.314],[-1.763408,43.126278,673.309],[-1.763348,43.126246,672.323],[-1.763295,43.126218,674.313],[-1.76324,43.126186,676.157],[-1.763272,43.126141,683.532],[-1.763327,43.126106,683.543],[-1.763387,43.126081,683.588],[-1.763434,43.126051,682.929],[-1.763487,43.126026,683.738],[-1.763544,43.125999,684.717],[-1.763596,43.125967,687.265],[-1.763663,43.125967,689.668],[-1.763721,43.12595,692.014],[-1.763786,43.125937,694.309],[-1.763849,43.125917,695.997],[-1.763904,43.125892,697.057],[-1.763957,43.125865,698.691],[-1.763997,43.125825,699.986],[-1.764039,43.125788,702.447],[-1.764081,43.125755,704.352],[-1.764143,43.125733,706.093],[-1.764206,43.125728,706.782],[-1.764269,43.12572,706.981],[-1.764336,43.12573,706.922],[-1.764399,43.125725,706.462],[-1.764447,43.125697,706.208],[-1.764509,43.1257,706.209],[-1.764567,43.125682,706.473],[-1.764629,43.125657,709.053],[-1.764694,43.125657,711.157],[-1.764757,43.125652,713.452],[-1.764815,43.125637,714.043],[-1.764877,43.12562,715.048],[-1.764945,43.125625,716.089],[-1.765007,43.125612,716.918],[-1.765072,43.125597,718.877],[-1.765142,43.125594,720.341],[-1.765214,43.125589,721.981],[-1.765262,43.125551,723.609],[-1.765324,43.125543,724.409],[-1.765391,43.12555,726.115],[-1.765443,43.125523,726.645],[-1.765498,43.125493,727.499],[-1.765561,43.125495,729.154],[-1.765624,43.12549,730.595],[-1.765684,43.125465,732.55],[-1.765736,43.125437,733.541],[-1.765804,43.12543,733.91],[-1.765879,43.125433,735.269],[-1.765954,43.125458,736.614],[-1.766024,43.125473,728.154],[-1.766087,43.125478,728.109],[-1.766152,43.125473,727.509],[-1.766227,43.12547,729.262],[-1.766287,43.125458,734.152],[-1.76635,43.125441,734.236],[-1.766425,43.125418,734.291],[-1.76649,43.125398,734.362],[-1.766572,43.125383,734.367],[-1.76664,43.125361,735.928],[-1.766702,43.125354,735.977],[-1.766769,43.125346,736.076],[-1.766836,43.125338,736.684],[-1.766908,43.12534,737.207],[-1.766981,43.125347,738.117],[-1.767051,43.125354,739.109],[-1.767124,43.125352,739.679],[-1.767191,43.125355,739.969],[-1.767254,43.12536,739.573],[-1.767327,43.125372,739.278],[-1.767402,43.12537,738.889],[-1.767482,43.125378,738.024],[-1.767544,43.125378,737.555],[-1.767606,43.125381,737.584],[-1.767673,43.125391,737.523],[-1.767735,43.125399,737.777],[-1.767812,43.125411,739.661],[-1.767877,43.125401,740.027],[-1.76794,43.125413,740.209],[-1.768002,43.125411,740.338],[-1.768082,43.125428,740.538],[-1.768154,43.12545,741.312],[-1.768219,43.125458,741.657],[-1.768286,43.125466,741.888],[-1.768363,43.125469,741.983],[-1.768428,43.125459,742.694],[-1.768501,43.125469,742.963],[-1.768571,43.125461,743.182],[-1.768633,43.125463,743.313],[-1.768705,43.125466,743.643],[-1.768773,43.125459,744.807],[-1.76884,43.125464,745.109],[-1.768908,43.125464,745.552],[-1.768971,43.125471,746.752],[-1.769049,43.125471,746.856],[-1.769112,43.125456,747.061],[-1.769179,43.125451,748.722],[-1.769236,43.125419,750.057],[-1.769296,43.125407,751.828],[-1.769361,43.125392,752.587],[-1.769424,43.125372,753.346],[-1.769486,43.125364,754.142],[-1.769561,43.125364,754.522],[-1.769631,43.125369,756.414],[-1.769699,43.125354,757.109],[-1.769764,43.125342,761.145],[-1.769831,43.125354,763.255],[-1.769908,43.125367,765.239],[-1.769983,43.125362,765.564],[-1.770046,43.125354,765.695],[-1.770111,43.125339,765.62],[-1.770166,43.125367,765.681],[-1.770231,43.125369,765.36],[-1.770308,43.125359,764.939],[-1.770373,43.125356,763.931],[-1.770436,43.125344,762.961],[-1.770513,43.125314,758.907],[-1.770588,43.125304,757.209],[-1.770668,43.125312,757.234],[-1.770718,43.125347,757.224],[-1.770761,43.125309,757.528],[-1.770831,43.125304,763.533],[-1.770843,43.125351,765.144],[-1.770868,43.125393,764.769],[-1.77085,43.125445,764.62],[-1.770855,43.125502,762.939],[-1.770867,43.125549,761.698],[-1.770849,43.125601,761.629],[-1.770827,43.125649,760.5],[-1.770835,43.125702,762.62],[-1.770842,43.125749,763.109],[-1.77085,43.125799,764.573],[-1.77087,43.125842,767.663],[-1.770895,43.12589,769.757],[-1.770942,43.125928,769.882],[-1.770979,43.125971,769.883],[-1.771016,43.126013,769.728],[-1.771066,43.126051,767.749],[-1.771113,43.126084,765.668],[-1.771155,43.126122,763.557],[-1.771183,43.126175,761.052],[-1.771211,43.126215,761.053],[-1.771239,43.126262,761.008],[-1.771274,43.126307,761.309],[-1.771321,43.12634,761.286],[-1.771351,43.126385,761.446],[-1.771398,43.126415,761.28],[-1.771428,43.12647,761.175],[-1.77145,43.126513,760.966],[-1.771477,43.126565,760.431],[-1.771474,43.126612,759.342],[-1.771492,43.126655,759.111],[-1.771509,43.126698,759.06],[-1.771512,43.126748,759.066],[-1.771522,43.126798,759.029],[-1.771527,43.126853,759.521],[-1.771534,43.1269,761.309],[-1.771524,43.126953,761.327],[-1.771529,43.127005,761.357],[-1.771537,43.127057,760.841],[-1.771547,43.127112,759.996],[-1.771542,43.127164,759.847],[-1.771545,43.127209,759.512],[-1.771568,43.127259,759.463],[-1.771583,43.127304,759.812],[-1.771611,43.127357,759.881],[-1.771619,43.127404,760.235],[-1.771632,43.127456,762.086],[-1.771655,43.127504,764.614],[-1.77165,43.127557,765.709],[-1.77167,43.127602,765.744],[-1.771707,43.127657,765.664],[-1.771734,43.127699,765.228],[-1.771762,43.127746,765.213],[-1.771795,43.127804,765.224],[-1.771835,43.127852,765.839],[-1.771843,43.127904,766.29],[-1.771861,43.127954,766.169],[-1.771873,43.128001,765.438],[-1.771893,43.128051,764.539],[-1.771918,43.128103,764.101],[-1.771941,43.12815,763.521],[-1.771968,43.128198,762.109],[-1.77199,43.128243,760.924],[-1.771998,43.128288,759.964],[-1.77208,43.128303,759.688],[-1.772072,43.128356,759.293],[-1.77207,43.128416,759.174],[-1.772078,43.128471,759.029],[-1.77212,43.128526,758.37],[-1.77215,43.128581,757.899],[-1.772162,43.128626,758.228],[-1.772199,43.128664,758.539],[-1.772216,43.128712,759.001],[-1.772244,43.128754,759.221],[-1.772274,43.128806,760.609],[-1.772302,43.128856,761.594],[-1.772307,43.128904,761.764],[-1.772315,43.128949,761.838],[-1.77235,43.128991,761.843],[-1.772402,43.129026,761.124],[-1.772414,43.129079,759.629],[-1.772422,43.129124,758.62],[-1.772447,43.129167,757.919],[-1.772482,43.129207,757.028],[-1.772497,43.129255,755.672],[-1.772535,43.129297,754.113],[-1.77258,43.12934,753.714],[-1.772633,43.129378,753.509],[-1.77269,43.129421,753.368],[-1.772735,43.129468,753.158],[-1.772722,43.129545,751.912],[-1.772785,43.129568,751.937],[-1.772842,43.12959,751.948],[-1.77287,43.129637,751.953],[-1.77291,43.129684,751.964],[-1.772943,43.129726,753.733],[-1.772975,43.129776,755.932],[-1.772987,43.129823,756.945],[-1.773019,43.12987,758.447],[-1.773067,43.129907,759.311],[-1.773095,43.129957,761.209],[-1.773117,43.130005,762.285],[-1.77314,43.130053,762.785],[-1.773173,43.130096,762.989],[-1.77319,43.130149,763.544],[-1.773222,43.130197,765.335],[-1.773252,43.130252,765.86],[-1.773279,43.130302,765.651],[-1.773297,43.130357,765.58],[-1.773329,43.1304,764.969],[-1.773359,43.130455,764.867],[-1.773401,43.130497,764.981],[-1.773409,43.130542,765.019],[-1.773429,43.130597,765.509],[-1.773444,43.130642,766.687],[-1.773467,43.130694,767.417],[-1.773484,43.130739,768.771],[-1.773507,43.130786,770.856],[-1.773512,43.130833,771.237],[-1.773535,43.130878,771.522],[-1.773557,43.130928,771.873],[-1.773572,43.130976,771.922],[-1.773587,43.131021,772.941],[-1.773585,43.131068,772.918],[-1.773593,43.13112,773.198],[-1.773593,43.13117,772.117],[-1.773581,43.131227,770.709],[-1.773564,43.13127,769.782],[-1.773547,43.13132,768.822],[-1.773549,43.131373,768.296],[-1.773546,43.131426,767.081],[-1.773536,43.131478,766.412],[-1.773526,43.131536,766.427],[-1.773501,43.131584,766.278],[-1.773493,43.131639,766.217],[-1.773481,43.131687,766.086],[-1.773469,43.131734,766.252],[-1.773459,43.131781,765.853],[-1.773464,43.131826,765.708],[-1.773434,43.131874,765.309],[-1.773414,43.131919,765.336],[-1.773379,43.131959,764.786],[-1.773364,43.132011,763.31],[-1.773337,43.132058,762.245],[-1.773314,43.132103,761.936],[-1.773297,43.132148,761.681],[-1.773279,43.132191,761.432],[-1.773249,43.132236,761.331],[-1.773221,43.132286,761.21],[-1.773201,43.132331,759.525],[-1.773178,43.132386,759.026],[-1.773165,43.132434,758.908],[-1.77313,43.132484,758.809],[-1.77309,43.132524,758.513],[-1.773072,43.132567,758.313],[-1.773052,43.132615,757.537],[-1.77301,43.132663,756.812],[-1.77298,43.132715,756.263],[-1.772972,43.13277,755.498],[-1.772949,43.132823,755.039],[-1.772932,43.13287,754.928],[-1.772904,43.132927,754.737],[-1.772874,43.132975,754.449],[-1.772837,43.133018,754.202],[-1.772794,43.13306,753.922],[-1.772752,43.133105,753.709],[-1.772704,43.133145,751.615],[-1.772679,43.133188,750.865],[-1.772639,43.133228,749.099],[-1.772612,43.133275,748.574],[-1.772559,43.13333,748.265],[-1.772522,43.133375,747.82],[-1.772494,43.133425,747.311],[-1.772446,43.133467,747.29],[-1.772391,43.133492,747.119],[-1.772351,43.133534,747.213],[-1.772324,43.133577,747.243],[-1.772302,43.13362,747.207],[-1.772279,43.133678,747.309],[-1.772261,43.133728,747.832],[-1.772226,43.133771,749.792],[-1.772193,43.133816,750.686],[-1.772163,43.133858,750.811],[-1.772115,43.133895,751.082],[-1.772088,43.133945,751.347],[-1.772075,43.13399,752.168],[-1.77205,43.134033,752.967],[-1.772018,43.134081,753.136],[-1.771985,43.134129,753.167],[-1.771955,43.134182,752.981],[-1.771935,43.134234,752.719],[-1.771912,43.134277,752.209],[-1.771884,43.134319,750.517],[-1.771832,43.134361,750.077],[-1.771782,43.134388,749.371],[-1.771742,43.134441,746.336],[-1.771717,43.134484,739.237],[-1.771697,43.134532,737.572],[-1.771682,43.134577,737.533],[-1.771645,43.134632,737.572],[-1.7716,43.134665,739.081],[-1.771568,43.134712,741.973],[-1.77153,43.134752,742.585],[-1.771493,43.134795,742.513],[-1.771468,43.134845,742.409],[-1.771445,43.134888,741.888],[-1.771452,43.13494,741.578],[-1.771457,43.134992,741.582],[-1.771455,43.135039,741.517],[-1.771488,43.135092,741.548],[-1.771521,43.135134,741.343],[-1.771564,43.135181,741.444],[-1.771616,43.135209,741.853],[-1.771668,43.135234,741.762],[-1.771723,43.135264,744.078],[-1.771795,43.135281,746.633],[-1.771857,43.135294,747.126],[-1.771917,43.135307,747.309],[-1.771975,43.135324,747.398],[-1.77203,43.135349,746.698],[-1.772093,43.135364,745.432],[-1.772151,43.135389,745.497],[-1.772208,43.135407,745.558],[-1.772275,43.135424,745.893],[-1.772333,43.135444,746.734],[-1.772405,43.135467,747.563],[-1.772477,43.135482,747.732],[-1.772539,43.135479,748.481],[-1.772594,43.135504,748.561],[-1.772654,43.135516,748.717],[-1.772717,43.135526,749.109],[-1.772785,43.135536,749.649],[-1.772852,43.135554,749.979],[-1.772922,43.135574,750.413],[-1.77298,43.135589,751.048],[-1.773037,43.135612,752.259],[-1.773114,43.135639,753.244],[-1.773182,43.135654,755.035],[-1.773244,43.135667,757.334],[-1.773304,43.135694,759.953],[-1.773364,43.135711,762.023],[-1.773437,43.135738,762.083],[-1.773509,43.135748,762.311],[-1.773556,43.135778,762.609],[-1.773611,43.135803,762.953],[-1.773674,43.135831,763.283],[-1.773737,43.135868,763.477],[-1.773789,43.1359,764.172],[-1.773844,43.135928,764.253],[-1.773901,43.135946,764.718],[-1.773946,43.135983,765.359],[-1.774006,43.136001,766.488],[-1.774063,43.136021,767.057],[-1.774131,43.136044,767.111],[-1.774191,43.136067,767.421],[-1.774254,43.136095,767.603],[-1.774311,43.136128,768.209],[-1.774381,43.136148,768.952],[-1.774438,43.13617,772.032],[-1.774498,43.136203,773.586],[-1.774561,43.136225,773.811],[-1.774616,43.13625,773.972],[-1.774673,43.136268,774.027],[-1.774731,43.136298,773.948],[-1.774789,43.13633,774.077],[-1.774842,43.136375,774.036],[-1.774882,43.136417,773.472],[-1.774939,43.136442,773.313],[-1.774964,43.136487,773.414],[-1.774999,43.136539,773.909],[-1.775001,43.136591,775.498],[-1.774994,43.136638,777.348],[-1.774989,43.136685,779.222],[-1.774977,43.13673,780.677],[-1.774962,43.136777,781.218],[-1.774974,43.136825,782.113],[-1.774969,43.136887,783.134],[-1.774961,43.13694,784.223],[-1.774953,43.136988,785.222],[-1.774961,43.137038,786.584],[-1.774949,43.137083,786.807],[-1.774946,43.137133,786.817],[-1.774931,43.13718,786.909],[-1.774931,43.137225,787.059],[-1.774914,43.137278,788.049],[-1.774889,43.13732,788.663],[-1.774882,43.137368,789.048],[-1.774859,43.13742,789.569],[-1.774827,43.137467,791.274],[-1.774819,43.137524,792.845],[-1.774796,43.137579,793.084],[-1.774786,43.137629,793.343],[-1.774753,43.137669,793.365],[-1.774711,43.137711,793.368],[-1.774669,43.137749,793.014],[-1.774639,43.137799,793.009],[-1.774612,43.137849,793.127],[-1.774597,43.137901,793.677],[-1.774589,43.137948,794.861],[-1.774577,43.138,795.896],[-1.774575,43.138045,796.247],[-1.77455,43.138097,796.772],[-1.774543,43.138149,797.113],[-1.774526,43.138196,797.182],[-1.774489,43.138241,797.171],[-1.774467,43.138301,797.116],[-1.77445,43.138349,797.276],[-1.774427,43.138397,797.713],[-1.774397,43.138444,797.709],[-1.774375,43.138489,797.822],[-1.774357,43.138532,797.762],[-1.77433,43.13858,796.336],[-1.774313,43.13863,795.291],[-1.774295,43.138683,795.192],[-1.774287,43.138731,795.157],[-1.774265,43.138781,795.268],[-1.774233,43.138834,795.367],[-1.774201,43.138887,796.426],[-1.774189,43.138934,797.749],[-1.774142,43.138981,798.302],[-1.77411,43.139023,798.922],[-1.774082,43.139063,799.609],[-1.774047,43.13911,799.765],[-1.77403,43.139155,799.785],[-1.774002,43.139202,800.089],[-1.773977,43.139252,800.624],[-1.77395,43.139299,802.725],[-1.773963,43.139347,806.59],[-1.773956,43.139394,807.021],[-1.773944,43.139446,807.13],[-1.773937,43.139496,807.189],[-1.77393,43.139546,807.096],[-1.773927,43.139591,806.631],[-1.773915,43.139644,806.224],[-1.773922,43.139691,806.009],[-1.773925,43.139741,805.82],[-1.773922,43.139786,805.77],[-1.773909,43.139834,805.614],[-1.773899,43.139882,805.499],[-1.773902,43.139927,805.49],[-1.773887,43.139975,805.475],[-1.773884,43.140025,805.136],[-1.773876,43.140073,805.225],[-1.773864,43.140123,805.324],[-1.773852,43.140173,805.391],[-1.77384,43.14022,805.981],[-1.773837,43.140265,807.319],[-1.773834,43.140313,810.609],[-1.773844,43.140363,811.86],[-1.773851,43.140411,812.49],[-1.773866,43.140459,812.774],[-1.773876,43.140509,812.839],[-1.773879,43.140556,813.33],[-1.773872,43.140603,814.295],[-1.773859,43.140648,816.226],[-1.773841,43.140698,817.785],[-1.773833,43.140748,818.624],[-1.773871,43.14079,820.087],[-1.773863,43.140842,820.142],[-1.773878,43.140892,820.226],[-1.77389,43.140947,820.209],[-1.773887,43.140995,820.249],[-1.773907,43.141038,820.769],[-1.773924,43.141093,820.823],[-1.773937,43.14114,821.848],[-1.773949,43.141192,822.989],[-1.773951,43.141242,823.054],[-1.773974,43.141284,823.135],[-1.773987,43.141332,823.164],[-1.77402,43.141379,823.013],[-1.774033,43.141426,822.422],[-1.774061,43.141471,822.262],[-1.774084,43.141516,822.108],[-1.774116,43.141561,823.209],[-1.774144,43.141601,824.683],[-1.774174,43.141644,825.053],[-1.774214,43.141691,826.287],[-1.774234,43.141739,827.242],[-1.774262,43.141787,827.813],[-1.77428,43.141834,828.068],[-1.774313,43.141882,828.489],[-1.774335,43.141927,829.448],[-1.774362,43.141975,829.777],[-1.774375,43.142032,829.926],[-1.774377,43.142077,830.247],[-1.774359,43.142122,830.511],[-1.774367,43.142174,832.109],[-1.774355,43.142231,833.533],[-1.774355,43.142278,835.543],[-1.774317,43.142315,835.747],[-1.77429,43.142362,836.472],[-1.77427,43.142412,836.553],[-1.774262,43.142467,836.418],[-1.77426,43.14252,836.599],[-1.774265,43.142567,836.658],[-1.774265,43.142615,836.677],[-1.774278,43.142662,836.857],[-1.774293,43.14271,836.9],[-1.77431,43.142767,836.82],[-1.774317,43.142814,836.809],[-1.774345,43.142857,837.066],[-1.774362,43.142904,837.026],[-1.774402,43.142954,837.79],[-1.774407,43.143012,837.925],[-1.77441,43.14306,838.356],[-1.774427,43.143103,838.821],[-1.774459,43.143148,839.462],[-1.774469,43.143193,840.321],[-1.774479,43.143238,841.79],[-1.774507,43.143288,842.131],[-1.774535,43.143331,842.461],[-1.774548,43.143378,843.907],[-1.774583,43.143416,844.909],[-1.774615,43.143458,845.924],[-1.774633,43.143505,846.454],[-1.774651,43.143557,847.538],[-1.774686,43.1436,847.623],[-1.774709,43.143645,847.724],[-1.774757,43.143678,848.769],[-1.774795,43.143725,849.29],[-1.774838,43.14378,850.359],[-1.77488,43.143813,850.488],[-1.77494,43.143833,850.335],[-1.774997,43.143855,849.786],[-1.775052,43.143882,849.714],[-1.775112,43.143907,849.709],[-1.775165,43.143949,850.884],[-1.775202,43.143989,852.414],[-1.775264,43.143989,853.698],[-1.775327,43.143994,854.273],[-1.77539,43.144001,854.674],[-1.775463,43.143991,856.729],[-1.775525,43.143984,858.48],[-1.77559,43.143969,859.399],[-1.775645,43.143947,860.918],[-1.775713,43.143942,861.044],[-1.775775,43.143954,860.905],[-1.775847,43.143956,860.715],[-1.775902,43.143929,859.209],[-1.775955,43.143902,858.735],[-1.776008,43.143875,858.745],[-1.776066,43.143845,858.789],[-1.776138,43.143825,859.364],[-1.776205,43.1438,861.255],[-1.776285,43.143787,863.91],[-1.77635,43.14377,866.991],[-1.776428,43.143752,866.93],[-1.776503,43.143739,867.279],[-1.77657,43.143737,867.178],[-1.776632,43.14375,866.733],[-1.77671,43.14376,866.726],[-1.776773,43.143783,867.109],[-1.776835,43.143793,867.048],[-1.776897,43.143801,866.888],[-1.776955,43.143821,866.932],[-1.777015,43.143836,866.787],[-1.777077,43.143844,866.758],[-1.777135,43.143866,866.743],[-1.777208,43.143889,867.174],[-1.777265,43.143912,868.723],[-1.777318,43.143944,869.742],[-1.77737,43.143981,871.039],[-1.777433,43.144008,872.801],[-1.7775,43.144035,874.821],[-1.777563,43.14406,876.309],[-1.777616,43.144092,876.844],[-1.777686,43.144117,877.164],[-1.777741,43.144164,877.538],[-1.777769,43.144212,878.853],[-1.777821,43.14424,878.934],[-1.777871,43.144272,878.949],[-1.777941,43.144292,876.01],[-1.778008,43.144302,876.019],[-1.778078,43.144315,876.248],[-1.778136,43.144343,876.324],[-1.778193,43.144383,877.704],[-1.77822,43.144435,878.514],[-1.778257,43.144472,878.909],[-1.778297,43.144512,881.343],[-1.77834,43.144479,881.763],[-1.778415,43.144462,882.247],[-1.778488,43.144447,882.342],[-1.778558,43.144439,882.743],[-1.778621,43.144422,883.068],[-1.778664,43.144367,883.569],[-1.778694,43.144324,884.128],[-1.778742,43.144271,885.667],[-1.778785,43.144226,886.948],[-1.778808,43.144181,888.261],[-1.77885,43.144141,891.617],[-1.77889,43.144104,895.209],[-1.778953,43.144077,898.615],[-1.779023,43.144062,899.955],[-1.779088,43.14404,900.029],[-1.779141,43.144017,900.194],[-1.779203,43.144005,900.235],[-1.779251,43.143958,900.87],[-1.779299,43.14392,902.281],[-1.779349,43.143885,902.33],[-1.779394,43.143843,902.469],[-1.779429,43.143793,902.169],[-1.779454,43.143743,898.904],[-1.779476,43.1437,894.624],[-1.779514,43.143663,894.009],[-1.779551,43.143623,893.737],[-1.779581,43.143581,893.327],[-1.779589,43.143536,892.041],[-1.779591,43.143488,891.196],[-1.779629,43.143436,890.957],[-1.779669,43.143401,890.862],[-1.779729,43.143371,890.983],[-1.779784,43.143341,890.842],[-1.779854,43.143316,894.921],[-1.779916,43.143309,904.274],[-1.779986,43.143321,907.056],[-1.780049,43.143326,909.121],[-1.780126,43.143336,909.909],[-1.780186,43.143348,911.068],[-1.780251,43.143338,911.648],[-1.780316,43.14335,911.912],[-1.780384,43.143353,913.047],[-1.780447,43.14336,913.418],[-1.78051,43.14336,913.593],[-1.780578,43.14336,913.694],[-1.780651,43.143383,915.583],[-1.780714,43.143378,916.222],[-1.780792,43.14339,916.429],[-1.78087,43.14338,917.7],[-1.780935,43.143385,919.92],[-1.781005,43.143392,921.809],[-1.781078,43.143394,921.913],[-1.78115,43.143377,921.933],[-1.781218,43.143369,921.857],[-1.781265,43.143336,921.742],[-1.781323,43.143308,921.653],[-1.78138,43.143281,921.688],[-1.781437,43.143256,921.619],[-1.7815,43.143234,922.668],[-1.781557,43.143206,924.097],[-1.781622,43.143201,925.044],[-1.781685,43.143174,925.405],[-1.781742,43.143149,925.715],[-1.781782,43.143114,925.709],[-1.781852,43.143099,925.625],[-1.781929,43.143091,925.175],[-1.781991,43.143083,925.069],[-1.782059,43.143076,924.834],[-1.782141,43.143068,924.775],[-1.782209,43.143078,924.51],[-1.782277,43.143098,924.351],[-1.782339,43.143128,924.04],[-1.782404,43.14313,924.099],[-1.782479,43.143127,924.081],[-1.782547,43.143124,924.061],[-1.78261,43.143117,924.317],[-1.782682,43.14313,924.509],[-1.782742,43.143163,924.649],[-1.78276,43.14321,924.789],[-1.782722,43.143255,925.063],[-1.782685,43.143297,926.148],[-1.782637,43.14334,929.639],[-1.782607,43.143388,931.414],[-1.782572,43.143436,931.425],[-1.782515,43.143473,931.814],[-1.782453,43.143495,929.783],[-1.782391,43.14352,927.849],[-1.782336,43.143543,926.002],[-1.782274,43.143551,925.122],[-1.782206,43.143554,924.609],[-1.782148,43.143587,924.375],[-1.782086,43.143599,923.985],[-1.782023,43.143617,923.569],[-1.781951,43.143629,922.984],[-1.781879,43.143651,921.565],[-1.781809,43.143681,921.07],[-1.781752,43.143711,920.461],[-1.78169,43.143741,920.24],[-1.781622,43.143764,919.989],[-1.781565,43.143786,919.685],[-1.781507,43.143814,919.189],[-1.781447,43.143832,919.117],[-1.781395,43.143872,919.109],[-1.781348,43.14391,919.999],[-1.781285,43.143952,922.359],[-1.78125,43.144004,924.833],[-1.781213,43.144046,926.648],[-1.781178,43.144088,929.599],[-1.781138,43.144123,933.314],[-1.781106,43.144168,935.725],[-1.781086,43.144211,937.084],[-1.781031,43.144249,940.473],[-1.781028,43.144297,941.611],[-1.781015,43.14435,943.121],[-1.78101,43.144403,946.403],[-1.780993,43.14446,946.409],[-1.780961,43.144502,946.472],[-1.780973,43.144554,946.312],[-1.78097,43.144601,946.066],[-1.780958,43.144646,945.211],[-1.780935,43.144688,945.112],[-1.780907,43.144738,945.097],[-1.780914,43.144791,945.098],[-1.780924,43.144843,945.027],[-1.780934,43.144895,945.096],[-1.780956,43.144963,944.944],[-1.780953,43.145008,943.605],[-1.780976,43.145065,943.115],[-1.780991,43.145127,940.509],[-1.781024,43.145165,939.465],[-1.781052,43.14523,939.345],[-1.781067,43.14529,939.249],[-1.781102,43.145338,939.284],[-1.781112,43.145386,939.535],[-1.781112,43.145438,941.84],[-1.781114,43.145483,943.851],[-1.781132,43.145533,944.54],[-1.78116,43.145588,945.389],[-1.781183,43.145631,945.775],[-1.781188,43.145684,946.128],[-1.781193,43.145742,946.22],[-1.781185,43.145787,946.209],[-1.781192,43.145835,946.378],[-1.781205,43.145883,946.548],[-1.78121,43.145935,946.772],[-1.781205,43.145987,947.267],[-1.781237,43.146032,948.048],[-1.781234,43.146077,948.743],[-1.781236,43.146135,948.974],[-1.781244,43.146183,949.853],[-1.781239,43.146238,950.152],[-1.781236,43.146286,951.279],[-1.781221,43.146339,952.605],[-1.781196,43.146387,953.225],[-1.781179,43.146432,954.209],[-1.781156,43.146477,955.228],[-1.781141,43.146527,955.688],[-1.781114,43.14658,955.612],[-1.781087,43.146625,955.727],[-1.781054,43.146665,955.258],[-1.781007,43.146705,952.693],[-1.78099,43.146755,951.634],[-1.78101,43.146808,951.533],[-1.780975,43.14686,951.352],[-1.780928,43.146902,949.974],[-1.780888,43.146954,949.256],[-1.780863,43.146997,949.221],[-1.780848,43.147044,949.409],[-1.780833,43.147096,950.398],[-1.78077,43.147116,951.188],[-1.78072,43.147153,951.182],[-1.780683,43.147205,951.367],[-1.780643,43.147245,951.478],[-1.780605,43.147283,951.413],[-1.78055,43.147323,951.634],[-1.780498,43.147355,952.463],[-1.780466,43.147403,953.952],[-1.780431,43.147448,955.135],[-1.780389,43.147495,956.086],[-1.780331,43.14753,957.114],[-1.780288,43.147568,958.409],[-1.780258,43.147613,959.124],[-1.780233,43.147655,959.284],[-1.780191,43.1477,959.678],[-1.780136,43.147732,960.093],[-1.780078,43.147757,961.534],[-1.780043,43.147809,961.949],[-1.780021,43.147854,961.98],[-1.779993,43.147901,962.429],[-1.779958,43.147946,962.448],[-1.779928,43.147994,962.512],[-1.779945,43.148039,962.532],[-1.779922,43.148086,962.105],[-1.779869,43.148118,961.409],[-1.779819,43.148153,960.832],[-1.779786,43.148208,959.922],[-1.779756,43.148251,959.896],[-1.779714,43.148309,959.671],[-1.779686,43.148351,959.952],[-1.779671,43.148399,960.417],[-1.779701,43.148451,960.918],[-1.779693,43.148504,961.887],[-1.77967,43.148557,962.616],[-1.779635,43.148602,963.019],[-1.779607,43.148644,964.009],[-1.779587,43.148692,964.319],[-1.779592,43.148742,964.409],[-1.77962,43.148797,964.422],[-1.779607,43.148845,964.622],[-1.779577,43.148887,965.146],[-1.779537,43.148934,965.951],[-1.779505,43.148984,966.522],[-1.77946,43.149032,967.317],[-1.779432,43.149075,967.828],[-1.779404,43.149128,967.937],[-1.779377,43.14918,967.976],[-1.779342,43.149237,967.972],[-1.779319,43.14928,967.913],[-1.779276,43.14932,968.014],[-1.779236,43.149368,968.009],[-1.779236,43.149416,968.068],[-1.779234,43.149471,967.948],[-1.779234,43.149529,967.852],[-1.779192,43.149566,967.617],[-1.779164,43.149609,967.038],[-1.779137,43.149662,966.023],[-1.779109,43.149704,965.014],[-1.779076,43.149756,964.853],[-1.779026,43.149798,964.742],[-1.779001,43.149855,964.314],[-1.779026,43.149898,963.654],[-1.779026,43.14995,963.209],[-1.779019,43.15001,962.509],[-1.779009,43.150057,961.422],[-1.778989,43.150109,960.392],[-1.778991,43.150161,959.166],[-1.778999,43.150213,957.811],[-1.778964,43.150258,956.482],[-1.778957,43.150303,954.817],[-1.778964,43.150356,954.448],[-1.778964,43.150403,954.557],[-1.778924,43.150446,958.116],[-1.778907,43.150499,958.323],[-1.778922,43.150547,958.383],[-1.77894,43.150604,958.411],[-1.77897,43.150656,959.009],[-1.778947,43.150699,958.433],[-1.778945,43.150746,958.653],[-1.778935,43.150798,959.487],[-1.778933,43.150843,960.472],[-1.778905,43.150898,962.183],[-1.778885,43.150953,963.668],[-1.778855,43.151003,965.519],[-1.778853,43.15106,966.988],[-1.778845,43.15111,967.737],[-1.778845,43.151158,968.265],[-1.778818,43.151208,968.468],[-1.778813,43.151256,968.614],[-1.778821,43.151318,969.009],[-1.778841,43.151378,969.137],[-1.778853,43.151441,969.347],[-1.77883,43.151498,969.671],[-1.778825,43.151548,970.736],[-1.7788,43.151593,970.797],[-1.778777,43.151635,970.772],[-1.778779,43.15168,970.473],[-1.778797,43.151723,970.492],[-1.778805,43.15178,970.311],[-1.778805,43.151833,969.674],[-1.778805,43.15189,969.456],[-1.778793,43.151938,969.421],[-1.778806,43.151988,969.609],[-1.778826,43.152043,970.418],[-1.778838,43.152096,971.158],[-1.778835,43.152149,972.562],[-1.778827,43.152201,973.047],[-1.778835,43.152248,973.848],[-1.77883,43.152296,974.733],[-1.778832,43.152354,975.274],[-1.778837,43.152406,976.033],[-1.778819,43.152468,977.132],[-1.778814,43.152523,978.345],[-1.778792,43.152578,979.847],[-1.77876,43.152626,980.211],[-1.778703,43.152669,980.109],[-1.778718,43.152726,979.255],[-1.778723,43.152781,977.735],[-1.778735,43.152833,976.919],[-1.778737,43.15288,975.134],[-1.778722,43.15293,974.875],[-1.778729,43.15298,974.86],[-1.778721,43.15303,974.841],[-1.778731,43.153083,974.99],[-1.778744,43.153133,975.229],[-1.778756,43.153185,976.335],[-1.778758,43.15323,977.586],[-1.778785,43.153273,979.114],[-1.778818,43.153311,981.109],[-1.77884,43.153363,981.914],[-1.778857,43.153408,982.814],[-1.778882,43.153456,983.548],[-1.778899,43.153501,984.783],[-1.778912,43.153553,986.434],[-1.77892,43.153598,987.339],[-1.77895,43.153646,988.78],[-1.778963,43.153699,990.189],[-1.778968,43.153749,990.878],[-1.778956,43.153794,991.242],[-1.778966,43.153844,991.222],[-1.778968,43.153889,991.214],[-1.77898,43.153937,990.609],[-1.778982,43.15399,989.815],[-1.778979,43.15404,989.755],[-1.778966,43.154095,989.349],[-1.778973,43.154145,989.144],[-1.778975,43.1542,989.185],[-1.778993,43.15425,989.21],[-1.779008,43.154297,989.461],[-1.779038,43.154355,990.79],[-1.779075,43.154403,991.569],[-1.779098,43.154446,991.768],[-1.779133,43.154484,991.942],[-1.77916,43.154536,992.426],[-1.779167,43.154588,993.209],[-1.779205,43.154626,993.387],[-1.779222,43.154673,993.577],[-1.779255,43.154716,993.721],[-1.779295,43.154761,993.856],[-1.77932,43.154811,994.087],[-1.779363,43.154856,994.272],[-1.779405,43.154896,994.463],[-1.77943,43.154953,995.752],[-1.779435,43.155008,997.011],[-1.779442,43.155053,998.841],[-1.779442,43.155101,1000.381],[-1.77944,43.155151,1002.609],[-1.779442,43.155196,1004.309],[-1.779439,43.155241,1006.095],[-1.779479,43.155283,1008.215],[-1.779491,43.155328,1010.079],[-1.779514,43.155371,1011.474],[-1.779529,43.155416,1012.795],[-1.779534,43.155469,1013.83],[-1.779542,43.155514,1014.761],[-1.779559,43.155559,1014.83],[-1.779571,43.155612,1014.969],[-1.779584,43.155662,1014.977],[-1.779604,43.15571,1014.761],[-1.779624,43.155755,1014.727],[-1.779639,43.155807,1014.009],[-1.779677,43.155854,1012.998],[-1.77967,43.155901,1013.168],[-1.77969,43.155944,1013.262],[-1.779602,43.155944,1016.217],[-1.779675,43.155932,1015.258],[-1.779727,43.155959,1015.983],[-1.77976,43.156004,1015.814],[-1.779797,43.156052,1015.243],[-1.779814,43.156095,1015.672],[-1.779824,43.156148,1016.663],[-1.779821,43.156205,1016.844],[-1.779869,43.156238,1016.818],[-1.779897,43.156278,1016.809],[-1.779934,43.156323,1016.947],[-1.779984,43.15635,1016.937],[-1.780019,43.15639,1018.041],[-1.780046,43.156433,1018.046],[-1.780068,43.156478,1018.067],[-1.780085,43.156526,1017.392],[-1.780105,43.156571,1016.273],[-1.780135,43.156613,1015.932],[-1.780193,43.156643,1016.091],[-1.780253,43.156666,1016.096],[-1.780301,43.156704,1016.731],[-1.780326,43.156747,1017.524],[-1.780361,43.15679,1018.209],[-1.780383,43.156838,1019.83],[-1.780378,43.156883,1020.44],[-1.780418,43.156923,1021.544],[-1.780458,43.156876,1022.519],[-1.780483,43.156918,1024.44],[-1.780533,43.156945,1027.475],[-1.780608,43.156965,1031.046],[-1.780681,43.15697,1034.025],[-1.780744,43.156972,1034.164],[-1.780824,43.156965,1034.126],[-1.780894,43.156963,1034.647],[-1.780961,43.156958,1033.411],[-1.781031,43.156955,1032.409],[-1.781098,43.156943,1032.513],[-1.78117,43.156933,1032.553],[-1.781237,43.1569,1033.787],[-1.781299,43.156868,1035.222],[-1.781367,43.156861,1037.463],[-1.781429,43.156861,1038.118],[-1.781489,43.156849,1039.399],[-1.781551,43.156851,1040.668],[-1.781609,43.156836,1041.547],[-1.781664,43.156806,1042.043],[-1.781719,43.156776,1042.064],[-1.781779,43.156749,1042.01],[-1.781837,43.156724,1042.109],[-1.781895,43.156707,1042.175],[-1.781968,43.15669,1042.115],[-1.78203,43.156677,1042.749],[-1.782093,43.15666,1043.984],[-1.782183,43.156648,1049.945],[-1.782255,43.156628,1049.95],[-1.782332,43.156608,1049.991],[-1.782392,43.156588,1049.94],[-1.782455,43.156583,1049.999],[-1.782522,43.156561,1051.817],[-1.782585,43.156556,1051.687],[-1.78266,43.156554,1051.415],[-1.78273,43.156547,1051.109],[-1.782805,43.156545,1050.942],[-1.782877,43.156532,1049.162],[-1.782952,43.156552,1047.636],[-1.78302,43.15655,1046.861],[-1.78308,43.156527,1046.822],[-1.783147,43.156539,1046.917],[-1.783209,43.156544,1047.228],[-1.783272,43.156537,1047.817],[-1.783339,43.156534,1048.316],[-1.783402,43.156542,1048.791],[-1.783474,43.156545,1049.381],[-1.783539,43.156548,1053.819],[-1.783466,43.156553,1053.809],[-1.783396,43.156545,1055.58],[-1.783334,43.156555,1053.86],[-1.783229,43.156568,1058.314],[-1.783154,43.156576,1058.829],[-1.783086,43.156573,1058.89],[-1.783021,43.156583,1058.855],[-1.782959,43.156585,1058.996],[-1.782894,43.156578,1059.545],[-1.782822,43.156578,1059.514],[-1.782752,43.156601,1059.493],[-1.782692,43.156588,1058.965],[-1.782624,43.156586,1058.721],[-1.782562,43.156593,1058.309],[-1.78251,43.156618,1058.19],[-1.782437,43.156615,1057.61],[-1.782365,43.15663,1057.554],[-1.782518,43.156602,1054.139],[-1.782456,43.156612,1054.11],[-1.782381,43.156627,1054.685],[-1.782319,43.156634,1055.536],[-1.782257,43.156641,1056.865],[-1.782184,43.156659,1057.994],[-1.782126,43.156676,1058.076],[-1.782054,43.156686,1058.39],[-1.781991,43.156713,1059.019],[-1.781933,43.15673,1058.909],[-1.781865,43.156733,1059.078],[-1.781807,43.156748,1058.948],[-1.78175,43.156768,1058.322],[-1.781683,43.156788,1057.457],[-1.78163,43.15682,1056.278],[-1.781592,43.156858,1054.673],[-1.78153,43.156866,1053.544],[-1.781458,43.156866,1052.613],[-1.781391,43.156876,1052.372],[-1.781323,43.156896,1050.635],[-1.781251,43.156908,1049.386],[-1.781181,43.156921,1048.214],[-1.781114,43.156939,1046.809],[-1.781041,43.156957,1045.954],[-1.780969,43.156984,1045.044],[-1.780906,43.156992,1044.968],[-1.780844,43.15698,1043.733],[-1.780767,43.156983,1043.624],[-1.780707,43.156965,1042.529],[-1.78063,43.156965,1042.59],[-1.78056,43.15697,1042.559],[-1.780498,43.156992,1042.528],[-1.780433,43.156994,1042.556],[-1.780366,43.156984,1040.259],[-1.780301,43.156994,1040.214],[-1.780231,43.156989,1039.609],[-1.780183,43.157021,1039.616],[-1.780121,43.157014,1040.336],[-1.780048,43.157016,1041.45],[-1.779983,43.157014,1041.485],[-1.779915,43.157011,1041.476],[-1.779845,43.156999,1041.761],[-1.779775,43.156996,1041.472],[-1.779708,43.156994,1037.351],[-1.779631,43.156986,1035.42],[-1.779561,43.156999,1033.254],[-1.779493,43.157009,1032.956],[-1.77943,43.157007,1032.711],[-1.779367,43.157017,1032.209],[-1.779297,43.157005,1032.226],[-1.77924,43.156982,1032.036],[-1.779163,43.156969,1030.73],[-1.779101,43.156959,1028.895],[-1.779039,43.156959,1027.546],[-1.778962,43.156969,1026.961],[-1.778899,43.156981,1026.952],[-1.778841,43.157006,1026.831],[-1.778771,43.157021,1026.99],[-1.778706,43.157048,1026.928],[-1.778638,43.157076,1027.189],[-1.778575,43.157098,1027.117],[-1.778498,43.15711,1027.109],[-1.77843,43.157135,1026.593],[-1.778373,43.157163,1026.313],[-1.778305,43.157185,1019.527],[-1.778237,43.157205,1019.522],[-1.778167,43.157225,1019.573],[-1.77811,43.157262,1019.588],[-1.778045,43.157285,1019.559],[-1.777983,43.157297,1015.298],[-1.777911,43.157304,1014.587],[-1.777848,43.157312,1014.059],[-1.777776,43.157327,1013.803],[-1.777693,43.157357,1013.623],[-1.777633,43.157394,1013.509],[-1.777581,43.157424,1012.956],[-1.777526,43.157451,1012.586],[-1.777471,43.157483,1011.19],[-1.777413,43.157506,1010.565],[-1.77735,43.157518,1010.026],[-1.777288,43.157536,1009.111],[-1.777216,43.157553,1007.462],[-1.777158,43.157568,1006.211],[-1.777073,43.157595,1005.64],[-1.777011,43.157635,1004.398],[-1.776951,43.157668,1003.015],[-1.776884,43.1577,1002.626],[-1.776817,43.157737,1002.709],[-1.776755,43.157772,1002.68],[-1.776698,43.15781,1002.62],[-1.776653,43.15785,1002.734],[-1.776603,43.157888,1002.119],[-1.776565,43.157931,1001.91],[-1.776525,43.157981,1001.755],[-1.77649,43.158024,1001.676],[-1.776442,43.158059,1001.515],[-1.77638,43.158097,1000.474],[-1.776322,43.15813,1000.497],[-1.776262,43.158152,1000.423],[-1.776199,43.158172,1000.825],[-1.776142,43.158212,1001.709],[-1.776082,43.158227,1002.52],[-1.776029,43.15825,1003.08],[-1.775966,43.158283,1003.834],[-1.775909,43.158318,1004.229],[-1.775856,43.158353,1004.65],[-1.775789,43.158383,1005.975],[-1.775726,43.158406,1006.396],[-1.775676,43.158436,1006.495],[-1.775626,43.158468,1006.064],[-1.775581,43.1585,1004.476],[-1.775506,43.158527,1003.79],[-1.775448,43.158559,1003.719],[-1.775393,43.158591,1003.709],[-1.775326,43.158628,1004.288],[-1.775268,43.158661,1007.488],[-1.775228,43.158698,1007.672],[-1.775155,43.158708,1007.727],[-1.775093,43.158735,1007.848],[-1.775043,43.158763,1008.363],[-1.775005,43.158803,1008.644],[-1.774948,43.158821,1010.043],[-1.774886,43.158834,1012.642],[-1.774821,43.158821,1013.841],[-1.774761,43.158836,1015.481],[-1.774696,43.158848,1016.609],[-1.774621,43.158843,1018.009],[-1.774554,43.158841,1020.515],[-1.774492,43.158853,1021.935],[-1.774424,43.158858,1023.579],[-1.774362,43.158875,1024.974],[-1.774302,43.158902,1026.415],[-1.774235,43.15891,1027.97],[-1.774177,43.158933,1032.191],[-1.774115,43.158958,1032.88],[-1.774047,43.15898,1033.129],[-1.773979,43.159005,1034.054],[-1.773919,43.159052,1034.656],[-1.773899,43.159095,1035.511],[-1.773856,43.159128,1036.409],[-1.773811,43.159168,1037.856],[-1.773764,43.159213,1039.696],[-1.773721,43.15926,1039.77],[-1.773691,43.159303,1039.985],[-1.773643,43.15934,1040.176],[-1.773585,43.159363,1039.911],[-1.773535,43.159396,1039.612],[-1.77348,43.159423,1039.681],[-1.773418,43.159456,1037.75],[-1.773351,43.159481,1035.753],[-1.773306,43.159521,1034.604],[-1.773248,43.159539,1034.514],[-1.773176,43.159559,1034.509],[-1.773119,43.159577,1034.526],[-1.773054,43.159584,1034.966],[-1.772997,43.159612,1036.08],[-1.772937,43.159632,1036.535],[-1.77287,43.159647,1038.096],[-1.772812,43.159669,1039.081],[-1.772745,43.159689,1041.522],[-1.77269,43.159711,1041.971],[-1.772632,43.159728,1042.19],[-1.772574,43.159746,1042.323],[-1.772524,43.159774,1042.483],[-1.772464,43.159796,1042.911],[-1.772404,43.159818,1044.209],[-1.772334,43.159821,1046.523],[-1.772279,43.159854,1047.043],[-1.772217,43.159874,1047.627],[-1.772164,43.159912,1048.622],[-1.772111,43.15994,1049.653],[-1.772058,43.159972,1051.698],[-1.772013,43.160004,1052.169],[-1.77198,43.160052,1052.658],[-1.771938,43.160097,1054.497],[-1.771866,43.160119,1056.451],[-1.771806,43.160151,1057.801],[-1.771753,43.160178,1058.111],[-1.771693,43.160205,1059.009],[-1.771636,43.160227,1059.376],[-1.771568,43.16026,1060.366],[-1.771515,43.160285,1061.26],[-1.771457,43.1603,1062.265],[-1.77139,43.160317,1062.636],[-1.77133,43.160347,1062.891],[-1.771272,43.160367,1063.352],[-1.771205,43.16038,1063.741],[-1.771137,43.160387,1064.13],[-1.771074,43.160404,1064.268],[-1.771012,43.160434,1064.442],[-1.770945,43.160446,1064.726],[-1.770873,43.160438,1064.909],[-1.770806,43.160428,1065.127],[-1.770743,43.160425,1065.447],[-1.770666,43.160453,1070.061],[-1.770596,43.160486,1070.756],[-1.770546,43.160519,1070.737],[-1.770501,43.160551,1070.412],[-1.770454,43.160583,1070.713],[-1.770409,43.160625,1069.692],[-1.770339,43.160648,1069.641],[-1.770277,43.160676,1069.556],[-1.770219,43.160704,1068.459],[-1.770169,43.160731,1066.414],[-1.770091,43.160749,1065.209],[-1.770024,43.160771,1065.196],[-1.769944,43.160781,1064.946],[-1.769874,43.160804,1064.83],[-1.769809,43.160821,1064.975],[-1.769737,43.160831,1065.126],[-1.76967,43.160841,1065.481],[-1.769607,43.160844,1065.822],[-1.76954,43.160857,1065.761],[-1.769475,43.160857,1065.66],[-1.769395,43.160865,1064.898],[-1.769328,43.160873,1064.615],[-1.769255,43.16089,1064.526],[-1.769187,43.160902,1064.309],[-1.769119,43.1609,1064.36],[-1.769054,43.160893,1063.98],[-1.768977,43.160906,1062.444],[-1.768905,43.160911,1062.189],[-1.768857,43.160948,1061.94],[-1.7688,43.160971,1061.835],[-1.768738,43.160991,1061.766],[-1.768668,43.161004,1061.645],[-1.768601,43.161021,1059.994],[-1.768526,43.161046,1055.369],[-1.768476,43.161078,1055.304],[-1.768446,43.16112,1055.324],[-1.768388,43.161147,1055.309],[-1.768343,43.161182,1055.357],[-1.76829,43.161219,1051.947],[-1.768282,43.161267,1051.971],[-1.768235,43.161297,1051.956],[-1.768157,43.16131,1051.967],[-1.768085,43.161318,1051.452],[-1.76802,43.161333,1049.143],[-1.767943,43.16135,1049.112],[-1.767885,43.161368,1048.961],[-1.767825,43.161396,1048.718],[-1.767767,43.161419,1048.398],[-1.767704,43.161412,1047.417],[-1.767624,43.161422,1046.809],[-1.767546,43.16143,1046.642],[-1.767489,43.161448,1045.712],[-1.767426,43.161446,1045.426],[-1.767349,43.161436,1045.471],[-1.767282,43.161461,1046.042],[-1.767225,43.161484,1046.347],[-1.767158,43.161499,1046.918],[-1.767088,43.161511,1047.587],[-1.767018,43.161519,1049.666],[-1.766961,43.161537,1050.517],[-1.766898,43.161549,1050.987],[-1.76684,43.161534,1051.215],[-1.766772,43.161547,1051.609],[-1.7667,43.161554,1051.962],[-1.766638,43.161556,1052.852],[-1.766566,43.161571,1054.066],[-1.766501,43.161593,1054.971],[-1.766426,43.161606,1055.132],[-1.766361,43.161639,1055.517],[-1.766301,43.161672,1055.848],[-1.766258,43.161707,1055.647],[-1.766216,43.161744,1051.056],[-1.766181,43.161784,1046.373],[-1.766118,43.161802,1043.485],[-1.76606,43.16182,1041.513],[-1.765997,43.161862,1038.509],[-1.765947,43.161895,1036.028],[-1.765907,43.161937,1034.878],[-1.765857,43.161974,1034.082],[-1.765807,43.162009,1033.077],[-1.765754,43.162042,1032.698],[-1.765734,43.162085,1030.633],[-1.765716,43.16213,1030.234],[-1.765664,43.16216,1030.253],[-1.765594,43.162178,1030.232],[-1.765526,43.162188,1030.568],[-1.765481,43.162226,1032.742],[-1.765451,43.162173,1032.726],[-1.765393,43.162148,1032.709],[-1.765331,43.16216,1030.377],[-1.765261,43.162153,1030.097],[-1.765199,43.16212,1030.011],[-1.765131,43.162102,1027.116],[-1.765073,43.162082,1025.767],[-1.765013,43.162067,1022.562],[-1.764951,43.162049,1017.393],[-1.764883,43.162041,1017.382],[-1.764818,43.162048,1017.391],[-1.764768,43.162015,1017.296],[-1.764701,43.161992,1017.031],[-1.764649,43.161965,1014.824],[-1.764596,43.161942,1013.409],[-1.764531,43.161914,1012.34],[-1.764466,43.161892,1011.16],[-1.764403,43.16186,1009.594],[-1.764345,43.16184,1007.199],[-1.76428,43.161818,1002.79],[-1.764188,43.161846,1000.755],[-1.764175,43.161798,1000.276],[-1.764118,43.16177,1000.165],[-1.764051,43.161762,1000.174],[-1.763984,43.161759,987.554],[-1.763916,43.161744,986.556],[-1.763858,43.161729,986.111],[-1.763798,43.161694,984.009],[-1.763735,43.161669,983.696],[-1.763682,43.161642,979.916],[-1.763625,43.161624,977.47],[-1.763563,43.161592,976.475],[-1.763503,43.161577,976.476],[-1.763441,43.161564,976.451],[-1.763389,43.161539,977.172],[-1.763321,43.161524,977.851],[-1.763291,43.161484,977.45],[-1.763224,43.161462,976.673],[-1.763166,43.161437,976.085],[-1.763109,43.161419,975.913],[-1.763039,43.161406,975.809],[-1.762977,43.161388,975.498],[-1.762912,43.161386,973.668],[-1.76284,43.161361,973.052],[-1.762788,43.161323,972.647],[-1.762718,43.161325,972.558],[-1.76265,43.16133,972.533],[-1.762585,43.161313,971.634],[-1.762525,43.161293,971.113],[-1.762467,43.161266,968.642],[-1.762414,43.161239,966.692],[-1.762376,43.161201,966.173],[-1.762314,43.161181,965.62],[-1.762247,43.161168,965.609],[-1.762202,43.16113,965.52],[-1.76214,43.161103,965.49],[-1.762083,43.161076,965.474],[-1.762035,43.161044,965.249],[-1.76199,43.161004,963.63],[-1.761933,43.160977,961.515],[-1.761865,43.160954,961.066],[-1.761862,43.160906,960.625],[-1.76181,43.160859,960.094],[-1.761757,43.160827,959.984],[-1.7617,43.160802,958.907],[-1.76163,43.160794,958.617],[-1.761572,43.160779,958.309],[-1.761527,43.160742,957.079],[-1.76153,43.160687,955.469],[-1.761473,43.160667,953.033],[-1.76141,43.160652,950.918],[-1.76135,43.160625,950.889],[-1.761297,43.16059,950.444],[-1.761245,43.16055,949.795],[-1.761187,43.160525,948.424],[-1.76113,43.160488,947.413],[-1.76107,43.160446,945.935],[-1.761027,43.160396,945.286],[-1.761005,43.160349,943.614],[-1.760987,43.160302,941.609],[-1.760965,43.160257,939.864],[-1.760925,43.16021,939.964],[-1.760877,43.160177,940.598],[-1.760829,43.160149,940.553],[-1.760776,43.160112,940.884],[-1.760739,43.16007,942.959],[-1.760729,43.160022,942.95],[-1.760684,43.159989,942.969],[-1.760631,43.159954,942.918],[-1.760584,43.159924,942.881],[-1.760554,43.159877,942.761],[-1.760491,43.15987,942.717],[-1.760459,43.159827,942.509],[-1.760436,43.159777,942.039],[-1.760376,43.159739,941.939],[-1.760314,43.159696,941.063],[-1.760267,43.159664,940.528],[-1.760215,43.159632,940.519],[-1.76018,43.159592,940.584],[-1.760127,43.159552,944.525],[-1.760079,43.159514,944.594],[-1.760032,43.159472,944.593],[-1.76001,43.159429,945.792],[-1.760012,43.159384,947.573],[-1.759962,43.159349,948.52],[-1.759917,43.159312,948.909],[-1.759877,43.159272,948.98],[-1.759819,43.159235,949.02],[-1.759774,43.159197,950.284],[-1.759707,43.159167,950.459],[-1.759645,43.159144,951.57],[-1.75958,43.159124,953.565],[-1.759527,43.159092,955.596],[-1.759449,43.159034,958.275],[-1.759384,43.159031,963.454],[-1.759322,43.159041,963.297],[-1.759244,43.159031,963.223],[-1.759194,43.158999,969.825],[-1.759126,43.159016,952.309],[-1.759054,43.159003,949.32],[-1.758992,43.158985,949.37],[-1.758919,43.158973,949.344],[-1.758857,43.158955,949.779],[-1.75879,43.158938,949.58],[-1.758732,43.15892,948.875],[-1.758665,43.158902,947.586],[-1.758598,43.158894,947.345],[-1.758541,43.158876,947.164],[-1.758474,43.158859,946.898],[-1.758416,43.158839,946.715],[-1.758349,43.158829,946.726],[-1.758281,43.158837,946.809],[-1.758216,43.158847,948.76],[-1.758156,43.158824,949.32],[-1.758093,43.158796,949.644],[-1.75805,43.158759,950.139],[-1.757992,43.158742,951.04],[-1.757937,43.15872,952.445],[-1.757879,43.158685,954.216],[-1.757819,43.158663,956.265],[-1.757764,43.158635,956.454],[-1.757706,43.158613,956.582],[-1.757643,43.158598,956.443],[-1.757588,43.158575,956.417],[-1.757533,43.158542,956.009],[-1.757476,43.158505,955.579],[-1.757426,43.158467,955.119],[-1.757368,43.158449,955.033],[-1.757303,43.158429,955.548],[-1.75724,43.158407,955.579],[-1.757185,43.158364,955.574],[-1.757128,43.158331,955.525],[-1.757065,43.158324,955.584],[-1.756988,43.158317,954.193],[-1.756925,43.158304,954.347],[-1.756862,43.158296,955.729],[-1.756805,43.158276,956.821],[-1.756767,43.158238,958.209],[-1.756712,43.158211,960.785],[-1.756654,43.158191,962.475],[-1.756644,43.158144,964.549],[-1.756591,43.158111,965.124],[-1.756526,43.158099,966.885],[-1.756464,43.158087,968.97],[-1.756409,43.158062,970.511],[-1.756356,43.158039,972.35],[-1.756306,43.158012,974.079],[-1.756243,43.157987,975.348],[-1.756178,43.157972,976.661],[-1.756133,43.157939,976.117],[-1.756071,43.157949,976.709],[-1.756056,43.157904,976.965],[-1.755983,43.157897,979.575],[-1.755921,43.157882,982.549],[-1.755868,43.157857,986.534],[-1.75582,43.157822,991.035],[-1.755762,43.157779,993.53],[-1.7557,43.157766,994.591],[-1.755633,43.157749,995.53],[-1.755558,43.157731,996.849],[-1.7555,43.157716,998.092],[-1.755442,43.157693,998.773],[-1.75539,43.157656,1000.32],[-1.755328,43.157639,1002.909],[-1.75528,43.157606,1004.31],[-1.755232,43.157576,1005.71],[-1.755162,43.157569,1008.614],[-1.755117,43.157534,1008.779],[-1.755099,43.157491,1008.73],[-1.755101,43.157443,1008.375],[-1.755044,43.157395,1006.456],[-1.754981,43.157367,1006.615],[-1.754934,43.15733,1007.114],[-1.754901,43.15729,1007.314],[-1.754843,43.15726,1011.354],[-1.754801,43.157223,1015.409],[-1.754764,43.157185,1017.009],[-1.754736,43.157142,1018.692],[-1.754698,43.1571,1019.792],[-1.754661,43.157062,1020.626],[-1.754624,43.157024,1020.821],[-1.754582,43.156986,1022.742],[-1.754524,43.156958,1024.337],[-1.754494,43.156913,1025.358],[-1.754497,43.156868,1027.757],[-1.754475,43.156825,1030.476],[-1.754452,43.156782,1031.429],[-1.754437,43.156734,1033.2],[-1.754404,43.156692,1033.22],[-1.754422,43.156645,1033.209],[-1.754385,43.156602,1033.093],[-1.754358,43.156559,1032.393],[-1.75428,43.156504,1033.047],[-1.754222,43.156489,1036.922],[-1.754202,43.156446,1037.933],[-1.754157,43.156399,1042.598],[-1.754124,43.156357,1043.639],[-1.754087,43.156312,1047.038],[-1.754067,43.156267,1048.067],[-1.754039,43.156227,1048.177],[-1.753997,43.15619,1049.261],[-1.753944,43.156158,1052.727],[-1.753921,43.156115,1053.209],[-1.753874,43.15608,1056.458],[-1.753811,43.156047,1060.768],[-1.753819,43.155997,1061.182],[-1.753766,43.155974,1060.947],[-1.753721,43.155924,1060.948],[-1.753666,43.155902,1060.963],[-1.753598,43.15589,1060.934],[-1.753546,43.155863,1059.093],[-1.753489,43.155838,1059.012],[-1.753421,43.155813,1059.098],[-1.753369,43.155765,1059.015],[-1.753299,43.155743,1057.226],[-1.753246,43.15572,1055.309],[-1.753176,43.155705,1052.75],[-1.753106,43.155695,1050.56],[-1.753041,43.155685,1049.244],[-1.752969,43.155683,1047.729],[-1.752907,43.15566,1047.28],[-1.752827,43.155652,1047.015],[-1.752754,43.155634,1046.756],[-1.752691,43.155622,1047.025],[-1.752623,43.155607,1047.474],[-1.75256,43.15562,1049.069],[-1.752488,43.155625,1049.804],[-1.752413,43.155637,1050.124],[-1.75235,43.155644,1050.909],[-1.752285,43.155649,1052.097],[-1.752225,43.155624,1052.377],[-1.75216,43.155599,1052.781],[-1.752098,43.155586,1054.086],[-1.75205,43.155546,1053.967],[-1.75199,43.155521,1053.932],[-1.751923,43.155509,1053.883],[-1.751863,43.155484,1053.092],[-1.751823,43.155439,1053.181],[-1.751778,43.155402,1053.032],[-1.751725,43.155374,1053.692],[-1.751662,43.155359,1054.011],[-1.751604,43.155336,1054.409],[-1.751579,43.155294,1056.784],[-1.751512,43.155264,1058.174],[-1.751464,43.155214,1058.368],[-1.751451,43.155167,1058.053],[-1.751418,43.155122,1056.674],[-1.751365,43.155079,1056.099],[-1.75133,43.155029,1055.78],[-1.75129,43.154991,1055.279],[-1.751242,43.154951,1054.048],[-1.751182,43.154931,1054.176],[-1.751167,43.154884,1056.69],[-1.751144,43.154841,1056.619],[-1.751121,43.154789,1056.609],[-1.751079,43.154732,1056.618],[-1.751006,43.154712,1055.918],[-1.750956,43.154675,1055.952],[-1.750924,43.154628,1055.997],[-1.750881,43.154591,1053.428],[-1.750816,43.154579,1050.993],[-1.750769,43.154546,1049.194],[-1.750722,43.154516,1047.183],[-1.750689,43.154471,1046.912],[-1.750634,43.154431,1046.744],[-1.750569,43.154416,1046.605],[-1.750511,43.154393,1046.615],[-1.750443,43.15439,1041.609],[-1.750381,43.154383,1041.675],[-1.750319,43.154368,1036.525],[-1.750309,43.154276,1036.519],[-1.750304,43.154231,1036.524],[-1.750281,43.154189,1036.585],[-1.750254,43.154146,1033.64],[-1.750229,43.154103,1030.161],[-1.750216,43.154053,1029.28],[-1.750191,43.154011,1028.439],[-1.750203,43.153959,1025.967],[-1.75018,43.153917,1025.081],[-1.750142,43.153874,1023.019],[-1.750092,43.153834,1020.809],[-1.750054,43.153797,1019.677],[-1.750001,43.153757,1018.177],[-1.749948,43.153719,1016.091],[-1.749885,43.153686,1014.026],[-1.749838,43.153646,1011.357],[-1.74983,43.153601,1009.222],[-1.749795,43.153563,1007.543],[-1.749748,43.153526,1006.832],[-1.749708,43.153486,1004.961],[-1.749665,43.153453,1003.191],[-1.749618,43.153423,1001.981],[-1.749578,43.153376,1000.219],[-1.749535,43.153339,999.109],[-1.7495,43.153297,997.55],[-1.749483,43.153254,996.84],[-1.749446,43.153212,993.634],[-1.749423,43.153164,990.599],[-1.749395,43.153121,987.39],[-1.749397,43.153074,986.285],[-1.749387,43.153027,983.626],[-1.749354,43.152989,980.745],[-1.749364,43.152936,977.764],[-1.749322,43.152901,974.781],[-1.749269,43.152856,973.461],[-1.749241,43.152811,971.917],[-1.749223,43.152758,970.509],[-1.749206,43.152706,970.229],[-1.749216,43.152661,970.069],[-1.749196,43.152618,969.693],[-1.749173,43.152575,968.738],[-1.749158,43.15253,965.399],[-1.749141,43.152487,963.174],[-1.749129,43.15244,960.365],[-1.749102,43.152392,957.614],[-1.749069,43.152352,957.423],[-1.749034,43.152312,957.413],[-1.749009,43.152265,957.343],[-1.749017,43.15222,957.207],[-1.749002,43.152175,956.709],[-1.74895,43.152143,950.882],[-1.74891,43.152103,950.742],[-1.748867,43.152065,947.726],[-1.748849,43.152022,947.771],[-1.748807,43.151989,947.762],[-1.748775,43.151947,946.237],[-1.74872,43.15192,945.688],[-1.748678,43.151882,944.637],[-1.748653,43.151834,943.386],[-1.748635,43.151781,941.842],[-1.7486,43.151743,941.422],[-1.74856,43.1517,939.714],[-1.748525,43.151662,939.109],[-1.74847,43.151634,938.985],[-1.74848,43.151587,938.525],[-1.748452,43.151534,938.419],[-1.748435,43.151484,937.634],[-1.748428,43.151439,936.075],[-1.748391,43.151399,933.66],[-1.748373,43.151356,932.031],[-1.748353,43.151306,930.78],[-1.748355,43.151251,929.419],[-1.748322,43.151203,928.973],[-1.748345,43.151153,928.985],[-1.748323,43.151105,929.313],[-1.748293,43.151062,929.309],[-1.748261,43.151015,929.248],[-1.748221,43.150977,929.258],[-1.748179,43.150939,928.412],[-1.748131,43.150899,928.087],[-1.748129,43.150854,927.638],[-1.748101,43.150809,926.773],[-1.748043,43.150779,925.864],[-1.748008,43.150729,925.033],[-1.747986,43.150679,923.492],[-1.747939,43.150637,920.689],[-1.747906,43.150587,919.306],[-1.747869,43.150539,918.726],[-1.747832,43.150499,918.509],[-1.747785,43.150461,918.389],[-1.747732,43.150431,918.079],[-1.747672,43.150408,918.053],[-1.747625,43.150378,918.018],[-1.74758,43.150346,917.999],[-1.747535,43.150314,918.074],[-1.747475,43.150277,921.495],[-1.747502,43.150232,921.424],[-1.747507,43.150184,921.423],[-1.747487,43.150134,921.443],[-1.747477,43.150087,921.464],[-1.747457,43.150035,916.31],[-1.747447,43.14999,915.209],[-1.747449,43.14994,912.725],[-1.747427,43.149897,910.015],[-1.747382,43.149865,909.139],[-1.74733,43.149833,908.974],[-1.747302,43.14978,908.055],[-1.747269,43.14974,905.37],[-1.747247,43.149693,902.331],[-1.747249,43.149641,898.82],[-1.747254,43.149591,897.489],[-1.747241,43.149546,896.956],[-1.747214,43.149504,895.859],[-1.747269,43.149474,894.614],[-1.747316,43.149442,893.209],[-1.747349,43.149392,891.656],[-1.747376,43.149334,890.176],[-1.747386,43.149289,888.11],[-1.747386,43.149236,887.895],[-1.747409,43.149188,887.836],[-1.747419,43.149131,888.951],[-1.747417,43.149076,889.022],[-1.747427,43.149029,889.081],[-1.747467,43.148987,889.04],[-1.747495,43.148947,888.511],[-1.7475,43.148902,887.221],[-1.747483,43.14885,886.103],[-1.747461,43.148797,884.609],[-1.747453,43.148747,883.582],[-1.747455,43.148697,883.112],[-1.747472,43.148654,881.626],[-1.747495,43.148607,880.741],[-1.747522,43.14856,878.862],[-1.747514,43.148508,876.217],[-1.747497,43.148458,875.498],[-1.747472,43.148405,874.077],[-1.747477,43.148357,873.826],[-1.747452,43.148314,873.568],[-1.747457,43.148264,872.742],[-1.747419,43.148222,871.126],[-1.747392,43.148177,872.009],[-1.747392,43.148127,872.037],[-1.747402,43.148077,873.657],[-1.747407,43.148029,874.051],[-1.747397,43.147979,874.026],[-1.747412,43.147926,874.067],[-1.74741,43.147868,871.222],[-1.74742,43.147775,868.663],[-1.747468,43.14772,866.682],[-1.747513,43.147677,865.491],[-1.747565,43.147647,864.395],[-1.747627,43.147617,863.249],[-1.747659,43.147577,861.923],[-1.747686,43.147527,861.309],[-1.747679,43.147482,860.36],[-1.747667,43.147435,860.16],[-1.747685,43.147383,860.094],[-1.74774,43.147351,860.589],[-1.747808,43.147336,860.87],[-1.74787,43.147314,861.295],[-1.747933,43.147336,863.896],[-1.74793,43.147269,865.425],[-1.747875,43.147244,866.684],[-1.747825,43.147211,867.463],[-1.747803,43.147164,867.944],[-1.7478,43.147117,870.618],[-1.747777,43.147067,872.309],[-1.747735,43.147034,875.797],[-1.747702,43.146991,875.717],[-1.747697,43.146944,875.871],[-1.747685,43.146892,875.856],[-1.747678,43.146844,875.397],[-1.747703,43.146796,875.242],[-1.747738,43.146723,875.343],[-1.747725,43.146675,874.942],[-1.747687,43.146638,874.841],[-1.74767,43.146595,873.591],[-1.747633,43.146557,872.881],[-1.74752,43.14649,870.019],[-1.747585,43.146467,869.609],[-1.74758,43.146412,868.73],[-1.747557,43.14637,863.84],[-1.74752,43.146332,863.854],[-1.747482,43.146265,862.429],[-1.747497,43.146217,861.48],[-1.747494,43.14617,861.125],[-1.747472,43.146122,860.546],[-1.747472,43.14607,859.225],[-1.747462,43.14602,858.864],[-1.74743,43.145977,858.523],[-1.7474,43.145937,858.083],[-1.747368,43.145895,857.611],[-1.747341,43.145853,857.509],[-1.747318,43.145811,857.123],[-1.747296,43.145768,856.963],[-1.747256,43.145733,856.717],[-1.747226,43.145686,854.242],[-1.747198,43.145643,851.683],[-1.747161,43.145605,850.418],[-1.747114,43.145567,849.489],[-1.747067,43.145532,848.748],[-1.747035,43.14549,848.597],[-1.74699,43.145452,848.263],[-1.746992,43.145397,846.644],[-1.746989,43.14535,845.718],[-1.746952,43.145313,846.009],[-1.74693,43.145258,846.097],[-1.746922,43.145206,846.037],[-1.746889,43.145166,851.111],[-1.746941,43.145191,850.176],[-1.746993,43.145226,850.187],[-1.74705,43.145253,849.282],[-1.747112,43.145268,848.253],[-1.747147,43.14518,846.362],[-1.747187,43.145145,846.131],[-1.7472,43.145097,846.433],[-1.747205,43.145052,846.523],[-1.747222,43.145005,846.515],[-1.74726,43.144967,845.909],[-1.74723,43.144927,844.994],[-1.747295,43.144929,843.044],[-1.747277,43.144886,841.998],[-1.747394,43.144868,841.363],[-1.747459,43.144851,837.934],[-1.747504,43.144816,835.399],[-1.747512,43.144748,834.75],[-1.747562,43.144718,833.629],[-1.74762,43.144745,830.648],[-1.747642,43.144788,829.733],[-1.747702,43.144811,829.723],[-1.747769,43.144823,829.715],[-1.747836,43.14482,829.809],[-1.747899,43.144848,829.974],[-1.747954,43.144878,829.494],[-1.748006,43.144843,827.078],[-1.748079,43.144835,823.913],[-1.748137,43.144858,816.764],[-1.74821,43.1448,813.169],[-1.748245,43.144758,812.85],[-1.748273,43.144706,812.459],[-1.748308,43.144661,812.238],[-1.748346,43.144614,812.126],[-1.748401,43.144582,811.047],[-1.748463,43.144552,810.111],[-1.748521,43.144524,808.309],[-1.748574,43.144499,807.173],[-1.748632,43.144474,805.813],[-1.74869,43.144449,805.047],[-1.74874,43.144411,804.972],[-1.748787,43.144381,804.733],[-1.748844,43.144348,804.648],[-1.748896,43.144306,804.549],[-1.748958,43.144284,804.268],[-1.749015,43.144261,801.817],[-1.749065,43.144228,801.499],[-1.749117,43.1442,801.207],[-1.749162,43.14416,801.127],[-1.749202,43.144102,798.909],[-1.749232,43.144062,796.76],[-1.7493,43.144065,794.51],[-1.749372,43.144048,790.334],[-1.749412,43.144011,786.739],[-1.749464,43.143973,785.44],[-1.749521,43.143848,781.025],[-1.749573,43.143821,780.836],[-1.749628,43.143788,780.665],[-1.749695,43.143771,780.274],[-1.749797,43.143651,776.722],[-1.74986,43.143636,776.562],[-1.749928,43.143619,775.708],[-1.74999,43.143607,775.409],[-1.750028,43.143567,774.993],[-1.750076,43.143537,773.783],[-1.750104,43.143492,771.117],[-1.750131,43.143445,767.642],[-1.750158,43.143403,766.093],[-1.750221,43.143381,764.838],[-1.750256,43.143343,763.869],[-1.750319,43.143211,761.338],[-1.750331,43.143148,758.237],[-1.750314,43.1431,757.092],[-1.750341,43.142968,752.873],[-1.750348,43.142791,749.72],[-1.750315,43.142748,750.109],[-1.75038,43.142713,752.02],[-1.750435,43.142688,752.14],[-1.750495,43.142675,751.914],[-1.750563,43.142637,751.079],[-1.750668,43.142699,750.46],[-1.750726,43.142721,748.755],[-1.750759,43.142761,747.816],[-1.750822,43.142763,737.965],[-1.750855,43.142721,737.664],[-1.750918,43.142631,729.466],[-1.750935,43.142583,728.229],[-1.75096,43.142538,724.621],[-1.750962,43.142453,720.409],[-1.750999,43.142413,718.057],[-1.751042,43.142368,716.387],[-1.75105,43.142306,714.431],[-1.751052,43.142253,713.856],[-1.751035,43.142205,713.677],[-1.750995,43.14217,713.052],[-1.750987,43.142117,709.333],[-1.751004,43.142065,708.942],[-1.750991,43.14202,708.161],[-1.750888,43.141923,702.318],[-1.750831,43.14187,702.198],[-1.750784,43.141835,702.017],[-1.750764,43.14179,702.709],[-1.750742,43.141747,702.782],[-1.750712,43.141702,702.712],[-1.750722,43.141657,701.816],[-1.750747,43.141612,700.521],[-1.75078,43.141574,700.392],[-1.750815,43.141534,698.627],[-1.750832,43.141484,697.728],[-1.750874,43.141439,696.437],[-1.750897,43.141394,695.666],[-1.750934,43.141357,694.167],[-1.750964,43.14131,688.381],[-1.750984,43.141262,686.319],[-1.751022,43.141215,684.109],[-1.751047,43.141172,682.917],[-1.751065,43.14112,681.067],[-1.751063,43.141068,680.871],[-1.751046,43.141013,680.146],[-1.751029,43.140963,678.777],[-1.750997,43.140921,677.172],[-1.750972,43.140879,674.263],[-1.750929,43.140836,673.472],[-1.750924,43.140788,671.211],[-1.750916,43.14074,669.036],[-1.750949,43.140685,668.717],[-1.750977,43.14064,668.518],[-1.751002,43.140597,667.609],[-1.751029,43.140554,666.494],[-1.751069,43.140517,666.424],[-1.751119,43.140474,666.438],[-1.751136,43.140427,666.333],[-1.751176,43.14039,665.494],[-1.751236,43.140378,663.269],[-1.751209,43.140476,662.27],[-1.751177,43.140419,662.229],[-1.751139,43.140374,662.278],[-1.751104,43.140322,656.377],[-1.751069,43.140272,656.161],[-1.751024,43.140232,655.127],[-1.750982,43.14019,654.809],[-1.750917,43.140157,654.138],[-1.75087,43.140112,654.248],[-1.750833,43.140075,654.242],[-1.750786,43.140037,654.167],[-1.750736,43.139997,654.298],[-1.750683,43.13996,654.253],[-1.750633,43.139932,653.294],[-1.750571,43.139907,652.893],[-1.750519,43.139874,652.542],[-1.750454,43.139839,651.882],[-1.750399,43.139804,650.743],[-1.750366,43.139766,650.317],[-1.750341,43.139723,649.109],[-1.750308,43.139683,648.239],[-1.750286,43.13964,646.379],[-1.750269,43.139595,643.873],[-1.750249,43.139548,640.888],[-1.750214,43.139506,639.279],[-1.750189,43.139464,638.034],[-1.750176,43.139417,636.435],[-1.750149,43.139375,634.264],[-1.750137,43.13933,631.643],[-1.750114,43.139287,628.652],[-1.750089,43.139235,627.453],[-1.750096,43.13919,625.408],[-1.750089,43.139143,624.109],[-1.750064,43.139101,623.836],[-1.750022,43.139048,623.636],[-1.749989,43.139001,623.42],[-1.749962,43.138959,623.055],[-1.749934,43.138911,622.256],[-1.749909,43.138863,621.271],[-1.749849,43.13883,620.812],[-1.749831,43.138787,620.191],[-1.749781,43.138754,618.14],[-1.749719,43.138726,616.876],[-1.749656,43.138723,615.49],[-1.749594,43.138696,614.719],[-1.749522,43.138689,613.109],[-1.749459,43.138672,610.228],[-1.749394,43.138664,607.428],[-1.749324,43.138657,607.062],[-1.749251,43.138664,606.437],[-1.749174,43.138671,605.438],[-1.749114,43.138696,602.583],[-1.749057,43.138719,600.794],[-1.748979,43.138732,598.833],[-1.748914,43.138747,597.032],[-1.748847,43.138759,593.445],[-1.748765,43.138777,590.847],[-1.7487,43.13878,590.011],[-1.748637,43.138773,588.909],[-1.748569,43.138776,588.095],[-1.748507,43.138784,588.025],[-1.748429,43.138782,588.129],[-1.748372,43.138762,588.184],[-1.748305,43.138769,588.325],[-1.748243,43.138757,587.92],[-1.748188,43.13872,586.841],[-1.748131,43.138698,583.17],[-1.748069,43.138683,580.189],[-1.748007,43.138658,578.082],[-1.747934,43.138635,576.043],[-1.747886,43.1386,575.317],[-1.747851,43.138555,575.409],[-1.747809,43.138515,575.389],[-1.747786,43.13847,576.159],[-1.747744,43.138435,576.313],[-1.747681,43.138402,576.478],[-1.747611,43.138387,576.469],[-1.747549,43.13836,576.434],[-1.747502,43.138323,574.825],[-1.747442,43.138298,572.874],[-1.74739,43.138271,571.643],[-1.747325,43.138246,571.378],[-1.747273,43.138206,569.933],[-1.747211,43.138178,569.226],[-1.747156,43.138136,568.609],[-1.747098,43.138099,568.518],[-1.747051,43.138056,566.848],[-1.747016,43.138013,566.082],[-1.746976,43.137966,563.717],[-1.746928,43.137919,561.928],[-1.746893,43.137877,560.143],[-1.746848,43.137845,558.714],[-1.746791,43.137812,558.843],[-1.746713,43.137794,558.852],[-1.746646,43.137784,559.681],[-1.746591,43.137757,559.661],[-1.746541,43.137725,560.617],[-1.746484,43.13769,560.809],[-1.746422,43.137663,561.459],[-1.746352,43.137646,562.039],[-1.74631,43.137603,561.863],[-1.746247,43.137588,562.068],[-1.746179,43.137568,560.679],[-1.746126,43.137536,560.444],[-1.746074,43.137509,559.035],[-1.746014,43.137492,557.534],[-1.745961,43.137469,557.433],[-1.745906,43.137441,557.275],[-1.745831,43.137426,555.828],[-1.745768,43.137406,553.12],[-1.745703,43.137369,552.109],[-1.745641,43.137329,551.888],[-1.745589,43.137301,549.858],[-1.745539,43.137264,548.452],[-1.745496,43.137229,547.497],[-1.745431,43.137209,546.018],[-1.745356,43.137192,545.793],[-1.745298,43.137177,542.774],[-1.745225,43.13717,538.143],[-1.745155,43.137155,535.352],[-1.745085,43.137133,532.979],[-1.745027,43.137113,530.105],[-1.744962,43.137098,528.725],[-1.7449,43.137071,527.709],[-1.744847,43.137043,525.718],[-1.744789,43.137016,524.728],[-1.744717,43.136984,523.082],[-1.744659,43.136947,521.497],[-1.744599,43.136922,520.238],[-1.744532,43.136902,519.153],[-1.744452,43.136867,515.594],[-1.74441,43.136834,508.693],[-1.744347,43.136817,508.652],[-1.744285,43.136824,508.678],[-1.744215,43.136821,508.633],[-1.744152,43.136828,508.526],[-1.74408,43.136828,509.009],[-1.744007,43.13681,508.468],[-1.743929,43.136802,507.978],[-1.743867,43.136817,501.682],[-1.743799,43.13681,501.687],[-1.743731,43.136795,501.668],[-1.743654,43.136797,501.613],[-1.743601,43.136772,501.624],[-1.743544,43.136732,499.773],[-1.743494,43.1367,499.852],[-1.743419,43.136703,499.823],[-1.743357,43.136705,499.683],[-1.743289,43.136697,499.511],[-1.743224,43.136684,498.609],[-1.743137,43.136674,497.943],[-1.743062,43.136662,495.353],[-1.742995,43.136645,493.597],[-1.74293,43.136667,493.012],[-1.742853,43.136669,492.813],[-1.742785,43.136646,492.758],[-1.742722,43.136629,492.899],[-1.742647,43.136609,492.958],[-1.742597,43.136571,492.867],[-1.742527,43.136566,494.724],[-1.742469,43.136541,494.604],[-1.742407,43.136543,494.414],[-1.742334,43.136541,492.809],[-1.742262,43.136523,492.153],[-1.742197,43.136523,490.583],[-1.742124,43.13651,487.987],[-1.742047,43.136512,485.852],[-1.741982,43.136507,484.493],[-1.741919,43.136479,480.718],[-1.741857,43.136457,477.629],[-1.741789,43.136434,475.678],[-1.741726,43.136417,475.427],[-1.741651,43.136397,474.922],[-1.741584,43.136389,474.662],[-1.741512,43.136374,472.708],[-1.741445,43.136362,470.809],[-1.741368,43.136359,469.953],[-1.741291,43.136344,467.813],[-1.741223,43.136344,466.377],[-1.741166,43.136326,464.842],[-1.741104,43.136318,463.123],[-1.741052,43.136288,462.978],[-1.741002,43.136326,462.059],[-1.740974,43.136286,460.678],[-1.740924,43.136251,460.557],[-1.740879,43.136218,460.542],[-1.740827,43.136188,459.522],[-1.740767,43.136158,456.414],[-1.74071,43.136133,456.509],[-1.740652,43.136105,456.345],[-1.74059,43.136072,456.715],[-1.740523,43.136052,458.349],[-1.740478,43.13602,460.344],[-1.740523,43.135973,460.255],[-1.740595,43.135948,459.47],[-1.740668,43.13591,459.531],[-1.740726,43.13588,459.23],[-1.740793,43.135845,459.069],[-1.740856,43.135828,459.114],[-1.740904,43.135796,456.754],[-1.740969,43.135768,453.209],[-1.741027,43.13574,452.309],[-1.741082,43.135708,451.642],[-1.741135,43.13567,451.032],[-1.741193,43.13563,450.846],[-1.741246,43.135607,450.851],[-1.741276,43.135555,450.852],[-1.741278,43.135505,450.717],[-1.74121,43.135485,450.418],[-1.74114,43.13548,449.847],[-1.74107,43.135463,449.226],[-1.740998,43.135458,449.159],[-1.740935,43.135448,448.703],[-1.740868,43.13545,447.723],[-1.740793,43.135445,447.909],[-1.74073,43.135443,447.966],[-1.740665,43.135436,448.266],[-1.74059,43.135431,448.16],[-1.740518,43.135426,448.195],[-1.740453,43.135451,447.956],[-1.740381,43.135488,446.911],[-1.740328,43.135525,444.842],[-1.740276,43.135555,442.761],[-1.740244,43.135595,441.18],[-1.740199,43.135632,439.319],[-1.740146,43.135664,437.709],[-1.740091,43.135686,437.119],[-1.740029,43.135698,436.909],[-1.739964,43.1357,436.852],[-1.739887,43.135712,436.442],[-1.739822,43.135727,435.396],[-1.73975,43.135725,434.651],[-1.739675,43.13574,434.362],[-1.73961,43.135743,434.057],[-1.73954,43.135738,434.078],[-1.739485,43.1357,433.117],[-1.739437,43.13565,431.366],[-1.739384,43.1356,430.444],[-1.739351,43.135553,429.405],[-1.739328,43.135505,427.815],[-1.739296,43.135463,427.709],[-1.739268,43.135415,427.065],[-1.739251,43.135372,426.395],[-1.739243,43.135324,425.239],[-1.739241,43.135272,424.574],[-1.739258,43.135222,423.015],[-1.739258,43.135172,421.45],[-1.73926,43.135125,418.881],[-1.739257,43.135063,418.57],[-1.739262,43.135013,418.449],[-1.73927,43.134963,418.351],[-1.739253,43.134913,418.201],[-1.739255,43.134861,417.211],[-1.73927,43.134816,416.709],[-1.739272,43.134756,415.446],[-1.739272,43.134703,414.486],[-1.739282,43.134658,414.49],[-1.739294,43.134606,414.485],[-1.739294,43.134558,414.956],[-1.739312,43.1345,415.331],[-1.739327,43.134452,415.332],[-1.739347,43.134405,415.481],[-1.739367,43.134362,414.98],[-1.739389,43.134305,413.272],[-1.739406,43.134258,412.113],[-1.739429,43.134211,412.014],[-1.739471,43.134168,411.909],[-1.739491,43.134118,411.478],[-1.739504,43.13406,411.238],[-1.739514,43.134012,409.752],[-1.739507,43.133959,408.997],[-1.739482,43.133911,407.228],[-1.739427,43.133871,402.053],[-1.739385,43.133838,400.544],[-1.739338,43.133796,400.323],[-1.739293,43.133758,399.742],[-1.739235,43.133731,399.679],[-1.739205,43.133679,398.905],[-1.739148,43.133651,398.825],[-1.739103,43.133616,398.609],[-1.739065,43.133576,398.368],[-1.739037,43.133533,397.618],[-1.739005,43.133483,397.512],[-1.738963,43.13344,397.337],[-1.738926,43.133397,397.258],[-1.738863,43.133374,397.163],[-1.738805,43.133337,397.154],[-1.738752,43.133294,396.273],[-1.738709,43.133259,394.272],[-1.738666,43.133226,392.867],[-1.738616,43.133191,392.381],[-1.738554,43.133161,392.119],[-1.738489,43.133136,392.109],[-1.738436,43.133113,391.917],[-1.738388,43.13308,391.827],[-1.738335,43.133053,390.731],[-1.73828,43.133025,389.846],[-1.738227,43.133,388.757],[-1.73819,43.132958,387.142],[-1.738133,43.13293,386.113],[-1.738085,43.132902,384.682],[-1.738013,43.132879,384.041],[-1.737951,43.132851,384.084],[-1.737893,43.132824,384.007],[-1.737841,43.132791,383.817],[-1.737789,43.132748,383.709],[-1.737737,43.132713,383.349],[-1.737699,43.132676,382.789],[-1.737649,43.132633,382.943],[-1.737611,43.132595,382.918],[-1.737576,43.132543,383.619],[-1.737546,43.132491,384.184],[-1.737523,43.132448,384.265],[-1.737483,43.132403,384.054],[-1.737455,43.132351,383.913],[-1.737435,43.132306,380.399],[-1.737395,43.132266,379.107],[-1.737365,43.132221,377.727],[-1.737322,43.132184,376.109],[-1.737285,43.132142,375.57],[-1.737238,43.132105,375.61],[-1.737178,43.132062,375.514],[-1.737121,43.132015,375.879],[-1.737094,43.131968,376.68],[-1.737069,43.131926,377.125],[-1.737044,43.131874,377.536],[-1.737012,43.131824,378.075],[-1.736985,43.131779,378.474],[-1.736968,43.131734,379.031],[-1.736955,43.131682,379.761],[-1.736938,43.131639,380.407],[-1.736916,43.131594,380.409],[-1.736884,43.131539,380.544],[-1.736846,43.131491,380.444],[-1.736839,43.131441,379.568],[-1.736804,43.131399,378.623],[-1.736754,43.131356,377.924],[-1.736707,43.131318,376.029],[-1.736674,43.131271,374.65],[-1.736629,43.131228,372.779],[-1.736569,43.131186,370.568],[-1.736516,43.131131,368.953],[-1.736468,43.131078,368.104],[-1.736431,43.131031,366.514],[-1.736396,43.130984,363.409],[-1.736354,43.130947,361.576],[-1.736302,43.130892,359.466],[-1.736249,43.130859,357.74],[-1.736219,43.130814,354.635],[-1.736174,43.130772,352.656],[-1.736124,43.13074,351.391],[-1.736091,43.130702,349.572],[-1.736044,43.13067,348.081],[-1.735994,43.130617,345.57],[-1.735966,43.130574,343.742],[-1.735929,43.130532,342.022],[-1.735902,43.130479,341.114],[-1.735892,43.130427,340.409],[-1.735887,43.130379,340.245],[-1.735862,43.130319,339.855],[-1.735845,43.130256,338.479],[-1.73584,43.130208,337.924],[-1.73583,43.130153,337.425],[-1.735822,43.130096,337.06],[-1.73581,43.130049,336.761],[-1.735783,43.129989,336.37],[-1.735756,43.129942,335.639],[-1.735743,43.129892,334.714],[-1.735718,43.129842,333.854],[-1.73562,43.129809,332.109],[-1.73556,43.129827,331.309],[-1.735602,43.12979,331.092],[-1.735617,43.129742,330.862],[-1.735577,43.129707,330.726],[-1.735509,43.129697,330.761],[-1.735442,43.129697,330.752],[-1.735385,43.129715,330.887],[-1.735322,43.129737,330.798],[-1.735249,43.129724,330.767],[-1.735202,43.129677,330.066],[-1.735189,43.129617,328.485],[-1.735191,43.129572,327.489],[-1.735199,43.129524,326.017],[-1.735212,43.129472,324.709],[-1.735209,43.129415,323.099],[-1.735214,43.129358,322.369],[-1.735229,43.129303,322.123],[-1.735234,43.129251,321.978],[-1.735249,43.129206,320.889],[-1.735262,43.129156,318.614],[-1.735282,43.129108,318.255],[-1.735294,43.129056,317.664],[-1.735344,43.129013,317.253],[-1.735409,43.128988,316.795],[-1.735486,43.128968,316.049],[-1.735551,43.128951,314.423],[-1.735623,43.128936,313.309],[-1.735693,43.128929,312.47],[-1.735758,43.128917,311.59],[-1.73583,43.128914,309.814],[-1.735898,43.128897,308.139],[-1.735973,43.128862,305.68],[-1.736023,43.128819,304.345],[-1.73607,43.128772,303.256],[-1.736108,43.128729,302.635],[-1.736141,43.128686,301.994],[-1.736178,43.128644,300.578],[-1.736228,43.128592,298.533],[-1.736263,43.128549,296.326],[-1.736298,43.128509,295.509],[-1.73633,43.128462,293.858],[-1.73637,43.128415,293.038],[-1.73642,43.128383,293.392],[-1.736495,43.128328,293.647],[-1.736478,43.128283,294.428],[-1.736438,43.128241,294.843],[-1.73637,43.128233,294.784],[-1.736298,43.128226,294.073],[-1.736233,43.128216,293.382],[-1.736161,43.128218,293.158],[-1.736089,43.128218,292.952],[-1.736012,43.128211,292.417],[-1.73594,43.128209,291.809],[-1.73587,43.128186,290.576],[-1.735793,43.128183,288.956],[-1.735728,43.128185,286.69],[-1.735651,43.128185,284.245],[-1.735583,43.128195,282.036],[-1.73552,43.128195,280.491],[-1.735458,43.128198,279.252],[-1.735383,43.1282,278.991],[-1.735313,43.128207,277.89],[-1.735266,43.128175,274.564],[-1.735294,43.128133,273.406],[-1.735371,43.128116,273.316],[-1.735428,43.128091,272.909],[-1.735461,43.128048,270.287],[-1.735524,43.128008,267.337],[-1.735596,43.127988,266.871],[-1.735651,43.127956,266.586],[-1.735693,43.127914,265.617],[-1.73574,43.127871,263.852],[-1.735793,43.127838,263.453],[-1.735855,43.12781,263.192],[-1.735885,43.12776,263.111],[-1.735928,43.127717,263.353],[-1.735988,43.127702,263.304],[-1.736056,43.127692,263.414],[-1.736124,43.127685,263.509],[-1.736189,43.12768,263.556],[-1.736264,43.127663,262.286],[-1.736327,43.127655,261.63],[-1.7364,43.127635,261.295],[-1.736458,43.1276,261.156],[-1.73649,43.127555,261.011],[-1.736542,43.127528,259.612],[-1.736587,43.127491,259.611],[-1.736635,43.127456,259.62],[-1.73669,43.127423,259.685],[-1.736748,43.127403,260.689],[-1.736816,43.127356,263.717],[-1.736779,43.127311,263.509],[-1.736721,43.127293,263.549],[-1.736643,43.127288,263.579],[-1.736581,43.127291,263.553],[-1.736509,43.127294,263.548],[-1.736442,43.127286,256.349],[-1.736385,43.127256,252.134],[-1.73635,43.127214,247.125],[-1.736308,43.127176,245.764],[-1.736246,43.127156,245.593],[-1.736176,43.127148,244.449],[-1.736121,43.12712,243.702],[-1.736061,43.127107,243.522],[-1.735988,43.127095,243.409],[-1.735923,43.127095,243.415],[-1.735863,43.127082,242.975],[-1.735801,43.12709,241.579],[-1.735728,43.127095,239.764],[-1.735661,43.127088,238.555],[-1.735684,43.12704,236.21],[-1.735752,43.127012,235.441],[-1.735825,43.126992,232.86],[-1.735887,43.126984,232.389],[-1.735964,43.126974,232.083],[-1.736036,43.126947,231.125],[-1.736096,43.126934,230.417],[-1.736164,43.126919,230.309],[-1.736239,43.126904,229.959],[-1.736312,43.126879,229.789],[-1.736375,43.126854,227.813],[-1.736448,43.126834,225.858],[-1.736508,43.126811,224.859],[-1.736573,43.126793,223.544],[-1.736611,43.126756,222.035],[-1.736664,43.126723,220.194],[-1.736722,43.126693,219.083],[-1.736769,43.126645,219.064],[-1.736811,43.126612,219.006],[-1.736881,43.126582,218.816],[-1.736951,43.126582,218.609],[-1.737031,43.126585,218.647],[-1.737113,43.126573,216.847],[-1.737193,43.126571,214.161],[-1.737273,43.126563,212.716],[-1.737335,43.126561,211.977],[-1.737412,43.126573,211.212],[-1.737474,43.12658,210.683],[-1.737547,43.126583,209.942],[-1.737614,43.126598,210.051],[-1.737679,43.126596,210.095],[-1.737751,43.126584,210.549],[-1.737811,43.126596,210.423],[-1.737873,43.126609,210.409],[-1.737948,43.126607,209.95],[-1.73802,43.126612,209.43],[-1.7381,43.12661,209.124],[-1.738177,43.126618,209.189],[-1.738234,43.126583,211.67],[-1.738301,43.126561,212.395],[-1.738363,43.126544,212.736],[-1.738436,43.126536,214.175],[-1.738501,43.126513,214.314],[-1.738573,43.126481,214.177],[-1.73864,43.126456,213.661],[-1.738705,43.126443,213.427],[-1.738758,43.126415,212.709],[-1.738823,43.126387,212.588],[-1.738906,43.126372,212.248],[-1.738973,43.126345,212.132],[-1.73903,43.126322,211.337],[-1.739095,43.126285,210.318],[-1.739172,43.126275,209.413],[-1.739235,43.126263,209.214],[-1.739298,43.126261,209.073],[-1.739366,43.126276,208.422],[-1.739426,43.126203,207.364],[-1.739479,43.126161,207.306],[-1.739507,43.126109,207.316],[-1.739569,43.126091,208.509],[-1.739639,43.126081,209.487],[-1.739711,43.126041,210.887],[-1.740081,43.126146,208.611],[-1.740151,43.126136,211.286],[-1.740224,43.126144,212.087],[-1.740227,43.126097,212.312],[-1.740525,43.126155,212.123],[-1.740602,43.126127,213.992],[-1.740659,43.126104,215.161],[-1.740722,43.126107,216.368],[-1.740789,43.126107,216.342],[-1.740851,43.1261,216.326],[-1.740921,43.126112,216.109],[-1.740989,43.12613,215.647],[-1.741371,43.126127,213.127],[-1.741449,43.126132,211.461],[-1.741517,43.126129,211.426],[-1.741584,43.126127,211.547],[-1.741652,43.126117,212.352],[-1.741719,43.126084,212.943],[-1.741797,43.126082,213.872],[-1.741872,43.1261,214.731],[-1.741937,43.126095,216.318],[-1.742024,43.1261,218.598],[-1.742089,43.1261,219.217],[-1.742156,43.126087,219.109],[-1.742223,43.126082,219.252],[-1.742293,43.126095,218.822],[-1.74237,43.1261,217.716],[-1.742442,43.126107,216.911],[-1.742514,43.126102,215.262],[-1.742591,43.126109,214.527],[-1.742664,43.126102,213.678],[-1.742732,43.126099,213.457],[-1.742815,43.126091,213.456],[-1.742868,43.126051,213.319],[-1.74288,43.125998,213.409],[-1.742842,43.125941,213.419],[-1.742819,43.125899,213.509],[-1.742804,43.125844,213.872],[-1.742802,43.125787,213.682],[-1.742762,43.125742,211.436],[-1.74274,43.12569,210.561],[-1.742713,43.125643,210.322],[-1.74268,43.1256,208.367],[-1.742693,43.125547,208.038],[-1.742648,43.125512,206.877],[-1.742563,43.125484,206.036],[-1.742525,43.125446,206.066],[-1.742482,43.125408,206.029],[-1.742437,43.12536,206.721],[-1.742404,43.12532,207.109],[-1.742424,43.125273,209.877],[-1.742437,43.12522,213.127],[-1.742445,43.125173,217.481],[-1.742463,43.12512,219.116],[-1.742441,43.12507,222.147],[-1.742448,43.125023,222.712],[-1.742463,43.124973,223.023]]}}]}