{"type":"FeatureCollection","features":[{"type":"Feature","properties":{"ruta_id":"116451524","nombre":"TOLOÑO desde RIVAS de TERESO","blog_url":"https://www.rutasporelmonte.com/tolono-desde-rivas-de-tereso/"},"geometry":{"type":"LineString","coordinates":[[-2.744933,42.613918,786.992],[-2.744833,42.61401,786.973],[-2.744781,42.613895,786.92],[-2.744828,42.613928,793.509],[-2.744895,42.613923,793.81],[-2.744968,42.613915,793.46],[-2.745033,42.6139,793.345],[-2.745101,42.61391,793.533],[-2.745129,42.61396,793.714],[-2.745159,42.61401,793.75],[-2.745169,42.614058,794.464],[-2.745177,42.614108,795.021],[-2.745189,42.614156,796.313],[-2.745181,42.614204,798.282],[-2.745214,42.614246,799.743],[-2.745222,42.614293,802.317],[-2.745257,42.614333,806.009],[-2.74532,42.614348,807.989],[-2.745387,42.614355,810.649],[-2.74545,42.61434,810.794],[-2.745522,42.614335,810.972],[-2.745585,42.61434,810.793],[-2.745655,42.61432,810.759],[-2.7457,42.614287,810.773],[-2.745737,42.614249,811.06],[-2.745785,42.614219,812.342],[-2.745832,42.614184,814.523],[-2.745852,42.614136,817.883],[-2.745894,42.614094,818.211],[-2.745909,42.614039,819.509],[-2.745919,42.613989,819.883],[-2.745934,42.613934,820.043],[-2.745966,42.613889,820.168],[-2.745984,42.613844,820.446],[-2.746002,42.613792,820.597],[-2.746025,42.613745,820.693],[-2.746062,42.613702,821.687],[-2.74611,42.61367,822.854],[-2.746172,42.613642,824.156],[-2.746235,42.613617,824.849],[-2.746307,42.6136,824.702],[-2.746372,42.613607,824.722],[-2.746437,42.613625,822.509],[-2.746499,42.613638,822.065],[-2.746562,42.613653,821.735],[-2.746629,42.613658,821.57],[-2.746691,42.613658,821.558],[-2.746748,42.613623,821.539],[-2.746761,42.613578,821.735],[-2.746761,42.613531,822.139],[-2.746741,42.613486,822.246],[-2.746721,42.613441,822.688],[-2.746694,42.613399,823.177],[-2.746657,42.613347,823.461],[-2.746635,42.613304,823.727],[-2.746592,42.613267,824.309],[-2.746559,42.613222,824.598],[-2.746537,42.613167,826.328],[-2.746512,42.613122,827.413],[-2.746537,42.61308,828.871],[-2.746559,42.613032,830.882],[-2.746612,42.612994,831.788],[-2.746672,42.612961,832.152],[-2.746727,42.612941,832.149],[-2.746789,42.612918,832.131],[-2.746839,42.612885,831.712],[-2.746882,42.612847,831.232],[-2.746947,42.612832,830.705],[-2.747027,42.612839,829.709],[-2.747092,42.612854,829.762],[-2.747154,42.612846,829.752],[-2.747224,42.612848,829.827],[-2.747289,42.612831,829.875],[-2.747356,42.612834,829.826],[-2.747423,42.612834,829.842],[-2.747493,42.612827,829.646],[-2.747558,42.612809,829.553],[-2.747615,42.612789,829.475],[-2.747685,42.612787,829.376],[-2.747745,42.612777,829.39],[-2.747813,42.612775,829.019],[-2.747886,42.612768,828.209],[-2.747951,42.612756,827.878],[-2.748026,42.612758,827.498],[-2.748091,42.61276,827.043],[-2.748159,42.612743,827.021],[-2.748224,42.612738,826.942],[-2.748287,42.612746,827.228],[-2.748357,42.612756,828.542],[-2.748425,42.612761,829.529],[-2.748482,42.612779,831.151],[-2.748545,42.612796,832.558],[-2.74861,42.612808,834.152],[-2.74868,42.61283,835.717],[-2.748732,42.612858,838.009],[-2.748797,42.612903,840.696],[-2.74885,42.612935,844.516],[-2.748913,42.612972,844.591],[-2.74895,42.61301,844.549],[-2.749082,42.613142,850.19],[-2.749072,42.613202,852.656],[-2.749115,42.613257,854.52],[-2.749167,42.613305,855.177],[-2.749179,42.61335,855.799],[-2.749241,42.613412,856.882],[-2.749286,42.613484,858.943],[-2.749329,42.613517,860.217],[-2.749346,42.613562,861.209],[-2.749404,42.613579,862.689],[-2.749607,42.613622,865.679],[-2.749662,42.613654,866.754],[-2.749695,42.613692,867.322],[-2.74969,42.613744,867.993],[-2.749767,42.613757,868.619],[-2.750027,42.61394,866.263],[-2.75003,42.613997,865.89],[-2.750125,42.614035,865.762],[-2.750093,42.613993,865.726],[-2.750153,42.613961,869.747],[-2.750216,42.613924,870.011],[-2.750283,42.613899,869.909],[-2.750335,42.613857,865.563],[-2.750382,42.613822,862.253],[-2.750429,42.613789,859.898],[-2.750472,42.613751,857.536],[-2.750537,42.613736,857.047],[-2.750592,42.613713,856.743],[-2.750647,42.61369,856.427],[-2.750699,42.613657,856.374],[-2.750729,42.613615,856.556],[-2.750772,42.613582,856.587],[-2.750835,42.613557,857.042],[-2.750912,42.613529,858.626],[-2.750954,42.613496,861.209],[-2.750994,42.613459,863.019],[-2.751051,42.613426,865.049],[-2.751128,42.613398,865.824],[-2.751183,42.613373,866.452],[-2.75125,42.613346,867.323],[-2.751332,42.613329,868.349],[-2.751405,42.613327,868.923],[-2.751472,42.61332,869.34],[-2.751539,42.613305,869.552],[-2.751602,42.613297,869.676],[-2.751654,42.613269,869.59],[-2.751712,42.613249,869.119],[-2.751769,42.613221,868.609],[-2.751822,42.613194,868.448],[-2.751877,42.613169,868.388],[-2.751934,42.613142,868.463],[-2.751996,42.613112,868.411],[-2.752064,42.613085,868.582],[-2.752116,42.613053,868.878],[-2.752173,42.613025,869.462],[-2.752236,42.613012,870.519],[-2.752286,42.612977,870.781],[-2.752349,42.612954,871.137],[-2.752414,42.612934,871.349],[-2.752477,42.612926,871.713],[-2.752537,42.612903,871.709],[-2.752602,42.612873,870.324],[-2.752667,42.612861,870.124],[-2.752739,42.612851,870.169],[-2.752804,42.612864,870.247],[-2.752874,42.612859,871.028],[-2.752951,42.612862,872.914],[-2.753024,42.612857,874.578],[-2.753092,42.612857,875.635],[-2.753159,42.612839,876.587],[-2.753221,42.612819,876.551],[-2.753289,42.612801,876.501],[-2.753359,42.612788,876.611],[-2.753422,42.612793,876.609],[-2.753494,42.612771,876.776],[-2.753562,42.612768,877.456],[-2.753632,42.612756,878.311],[-2.753685,42.612731,879.389],[-2.75374,42.612698,881.09],[-2.753807,42.612681,882.556],[-2.753869,42.612651,883.68],[-2.753939,42.612621,885.247],[-2.754012,42.612616,887.099],[-2.754084,42.612604,888.093],[-2.754139,42.612579,888.565],[-2.754197,42.612557,888.521],[-2.75426,42.612547,888.509],[-2.754337,42.61253,888.51],[-2.754409,42.612512,888.47],[-2.754497,42.612502,887.585],[-2.754567,42.612492,886.443],[-2.75464,42.612489,885.734],[-2.754707,42.612484,886.06],[-2.754769,42.612464,886.764],[-2.754827,42.612437,887.731],[-2.754897,42.612429,887.923],[-2.754969,42.612417,888.676],[-2.755034,42.612387,889.09],[-2.755111,42.61237,889.019],[-2.755173,42.612348,889.009],[-2.755243,42.612325,888.868],[-2.755323,42.612318,888.788],[-2.755385,42.612298,888.763],[-2.755465,42.612296,888.761],[-2.755525,42.612284,888.912],[-2.755592,42.612276,889.038],[-2.755664,42.612261,889.012],[-2.755731,42.612258,889.169],[-2.755801,42.612258,889.941],[-2.755873,42.612266,891.457],[-2.755946,42.612269,892.7],[-2.756023,42.612282,893.62],[-2.756086,42.612282,894.409],[-2.756148,42.612292,895.176],[-2.75621,42.61231,895.456],[-2.756297,42.612318,895.861],[-2.75636,42.612338,895.899],[-2.756422,42.612353,895.98],[-2.756497,42.612366,896.156],[-2.756564,42.612376,896.65],[-2.756624,42.612389,897.057],[-2.756689,42.612401,897.199],[-2.756759,42.612411,897.791],[-2.756822,42.612404,898.581],[-2.75689,42.612396,899.019],[-2.756963,42.612394,899.209],[-2.757033,42.612397,899.79],[-2.757108,42.61241,899.76],[-2.757166,42.612395,899.845],[-2.757236,42.612382,899.743],[-2.757301,42.612384,899.414],[-2.757359,42.612404,898.81],[-2.757429,42.612417,896.014],[-2.757491,42.61243,894.961],[-2.757553,42.612428,894.163],[-2.757621,42.61243,892.639],[-2.757694,42.612432,891.501],[-2.757767,42.612455,890.521],[-2.757829,42.612462,889.609],[-2.757897,42.61248,887.534],[-2.757947,42.612507,885.334],[-2.758017,42.612532,881.769],[-2.758089,42.612555,879.547],[-2.758157,42.612572,877.958],[-2.758207,42.612609,877.234],[-2.75827,42.612627,877.118],[-2.758327,42.612654,877.285],[-2.758382,42.612691,877.227],[-2.758435,42.612729,877.536],[-2.75848,42.612761,877.717],[-2.758538,42.612784,878.218],[-2.758593,42.612812,879.909],[-2.758656,42.612819,881.294],[-2.758724,42.612809,882.784],[-2.758789,42.612812,883.869],[-2.758866,42.612817,884.627],[-2.758936,42.612824,885.038],[-2.759003,42.612822,885.464],[-2.759068,42.612829,885.978],[-2.759148,42.612837,886.885],[-2.759206,42.612857,887.897],[-2.759274,42.612879,890.879],[-2.759341,42.612907,893.605],[-2.759398,42.612939,895.325],[-2.759455,42.612967,898.209],[-2.759518,42.613002,900.048],[-2.759578,42.613017,901.968],[-2.759641,42.613035,903.043],[-2.759716,42.613058,903.941],[-2.759789,42.613076,904.882],[-2.759849,42.613088,905.048],[-2.759924,42.613101,905.142],[-2.759991,42.613123,905.349],[-2.760044,42.613148,905.551],[-2.760112,42.613168,906.126],[-2.760174,42.613196,907.247],[-2.760224,42.613231,908.011],[-2.760272,42.613259,909.109],[-2.760325,42.613289,909.793],[-2.760382,42.613307,910.633],[-2.760455,42.613327,911.668],[-2.760523,42.613355,913.046],[-2.760606,42.613373,913.237],[-2.760673,42.613368,913.953],[-2.760736,42.613356,914.177],[-2.760799,42.613334,915.174],[-2.760872,42.613326,915.456],[-2.760929,42.613288,915.661],[-2.760982,42.613258,915.621],[-2.761037,42.613226,915.613],[-2.761104,42.613214,914.909],[-2.761159,42.613182,914.197],[-2.761189,42.613132,913.487],[-2.761214,42.61309,912.662],[-2.761267,42.613055,912.57],[-2.761312,42.61302,912.451],[-2.761347,42.612978,912.377],[-2.761397,42.61294,912.181],[-2.76144,42.612902,912.078],[-2.761492,42.61286,912.09],[-2.761522,42.612818,912.347],[-2.761549,42.612763,913.829],[-2.761577,42.61272,915.121],[-2.761622,42.61268,916.809],[-2.761674,42.612647,917.965],[-2.761726,42.612612,918.875],[-2.761784,42.612592,918.97],[-2.761867,42.612597,918.938],[-2.761935,42.612595,919.069],[-2.761997,42.612588,918.375],[-2.762067,42.612586,915.959],[-2.762139,42.612591,914.986],[-2.762206,42.612586,913.948],[-2.762271,42.612581,913.654],[-2.762338,42.612566,913.556],[-2.762405,42.612571,913.611],[-2.76247,42.612581,914.409],[-2.76254,42.612568,914.716],[-2.762603,42.612563,914.836],[-2.762666,42.612573,914.931],[-2.762726,42.612606,915.269],[-2.762779,42.612643,915.33],[-2.762839,42.612671,915.886],[-2.762909,42.612688,918.61],[-2.762971,42.6127,921.627],[-2.763036,42.61271,924.599],[-2.763093,42.612733,926.342],[-2.763146,42.612763,928.722],[-2.763219,42.612788,931.014],[-2.763274,42.61281,932.809],[-2.763346,42.61284,934.565],[-2.763409,42.612867,934.745],[-2.763464,42.612895,934.88],[-2.763529,42.612908,935.258],[-2.763601,42.612906,935.339],[-2.763664,42.612906,937.735],[-2.763724,42.612924,938.419],[-2.763782,42.612941,940.846],[-2.763845,42.612951,942.158],[-2.76391,42.612961,943.492],[-2.763977,42.612966,943.973],[-2.764049,42.612971,945.42],[-2.764111,42.612979,946.309],[-2.764158,42.613009,948.22],[-2.764211,42.613036,949.26],[-2.764254,42.613076,950.975],[-2.764294,42.613124,952.453],[-2.764337,42.613174,953.434],[-2.76439,42.613209,954.36],[-2.764433,42.613254,954.374],[-2.764465,42.613296,954.571],[-2.76452,42.613336,954.723],[-2.764583,42.613373,954.849],[-2.764636,42.613405,956.302],[-2.764684,42.613433,956.922],[-2.764731,42.613468,957.909],[-2.764781,42.613495,958.195],[-2.764836,42.613517,958.345],[-2.764891,42.613547,958.42],[-2.764951,42.61356,958.668],[-2.765016,42.613588,959.989],[-2.765031,42.613635,960.455],[-2.765043,42.613692,960.589],[-2.76507,42.613742,960.576],[-2.765103,42.613794,960.448],[-2.765128,42.613842,960.423],[-2.765138,42.613897,960.583],[-2.765165,42.613947,960.911],[-2.765178,42.613995,961.209],[-2.765215,42.614038,961.363],[-2.765228,42.614091,961.283],[-2.765261,42.614131,961.378],[-2.765313,42.614176,961.676],[-2.765361,42.614206,962.477],[-2.765408,42.614244,964.323],[-2.765456,42.614289,966.357],[-2.765471,42.614336,967.134],[-2.765523,42.614381,968.846],[-2.765561,42.614421,970.626],[-2.765614,42.614459,972.847],[-2.765649,42.614497,974.111],[-2.765706,42.614535,974.509],[-2.765758,42.61457,974.873],[-2.765806,42.614605,975.093],[-2.765829,42.61465,976.158],[-2.765876,42.614698,976.746],[-2.765914,42.614735,977.667],[-2.765971,42.614772,978.493],[-2.766019,42.614804,980.887],[-2.766072,42.614829,981.734],[-2.76613,42.614856,983.226],[-2.766183,42.614883,983.625],[-2.766245,42.614906,984.226],[-2.766303,42.614933,984.208],[-2.766365,42.614948,984.209],[-2.766427,42.614965,984.333],[-2.766492,42.614988,984.363],[-2.766557,42.615013,984.338],[-2.766615,42.615043,984.986],[-2.76666,42.615083,985.577],[-2.766702,42.615121,986.053],[-2.766755,42.615148,986.917],[-2.766812,42.615168,987.564],[-2.766855,42.615208,987.646],[-2.766878,42.615255,987.813],[-2.766941,42.615297,988.043],[-2.766999,42.615324,988.107],[-2.767064,42.615356,988.109],[-2.767124,42.615379,988.252],[-2.767172,42.615414,988.212],[-2.76724,42.615427,988.287],[-2.767297,42.615445,988.485],[-2.767367,42.615458,989.036],[-2.76743,42.615466,989.372],[-2.767498,42.615466,990.386],[-2.767561,42.615461,991.343],[-2.767628,42.615474,991.825],[-2.767701,42.615487,992.742],[-2.767763,42.615487,993.122],[-2.767831,42.615485,993.414],[-2.767893,42.615507,994.809],[-2.767946,42.61553,995.375],[-2.767999,42.61556,996.215],[-2.768022,42.615602,997.14],[-2.768072,42.615635,998.128],[-2.768144,42.615643,999.249],[-2.768191,42.615676,1000.295],[-2.768234,42.615713,1002.249],[-2.768287,42.615736,1004.626],[-2.768334,42.615771,1006.688],[-2.768381,42.615801,1007.365],[-2.768438,42.615829,1007.868],[-2.768466,42.615876,1009.014],[-2.768503,42.615914,1009.709],[-2.768546,42.615949,1010.347],[-2.768603,42.615977,1010.537],[-2.768645,42.616024,1010.632],[-2.768667,42.616071,1010.73],[-2.768692,42.616114,1011.371],[-2.768717,42.616159,1011.867],[-2.768735,42.616207,1013.021],[-2.768752,42.61625,1014.138],[-2.768785,42.616288,1014.45],[-2.768828,42.616333,1016.741],[-2.768865,42.616373,1018.481],[-2.76888,42.616426,1020.109],[-2.76891,42.616466,1020.809],[-2.768963,42.616506,1020.815],[-2.769005,42.616546,1020.835],[-2.76906,42.616578,1020.85],[-2.769115,42.616608,1020.938],[-2.769165,42.61665,1021.399],[-2.769225,42.616673,1022.145],[-2.769282,42.616696,1023.059],[-2.769332,42.616723,1023.886],[-2.769355,42.61677,1024.628],[-2.769365,42.616818,1025.262],[-2.769392,42.61687,1026.083],[-2.769425,42.616915,1026.311],[-2.76947,42.61696,1027.709],[-2.769528,42.616988,1029.097],[-2.769583,42.61701,1029.847],[-2.769645,42.61702,1031.422],[-2.769708,42.617048,1031.41],[-2.769773,42.617065,1031.571],[-2.769835,42.617083,1031.347],[-2.769902,42.617091,1030.641],[-2.769965,42.617123,1030.218],[-2.77004,42.617146,1030.22],[-2.770117,42.617169,1030.241],[-2.770174,42.617192,1030.581],[-2.770234,42.61723,1030.709],[-2.770297,42.617253,1030.909],[-2.770362,42.617275,1030.985],[-2.770417,42.617303,1031.045],[-2.770472,42.617333,1031.28],[-2.770525,42.61736,1031.468],[-2.770568,42.617397,1032.789],[-2.770621,42.617432,1034.325],[-2.770673,42.617472,1035.569],[-2.770741,42.617497,1037.076],[-2.770791,42.617524,1038.248],[-2.770834,42.617557,1038.971],[-2.770882,42.617595,1039.241],[-2.770929,42.61763,1039.415],[-2.770957,42.617673,1039.509],[-2.770974,42.617718,1040.088],[-2.771009,42.617765,1041.048],[-2.771036,42.61781,1041.933],[-2.771054,42.617853,1042.941],[-2.771086,42.617893,1043.152],[-2.771139,42.617923,1043.468],[-2.771154,42.617975,1043.592],[-2.771172,42.61803,1043.749],[-2.771214,42.618067,1044.091],[-2.771264,42.6181,1044.313],[-2.771314,42.618142,1045.043],[-2.771361,42.61818,1047.307],[-2.771406,42.618212,1048.209],[-2.771458,42.61825,1048.732],[-2.771528,42.618272,1049.132],[-2.771601,42.618279,1049.197],[-2.771671,42.618269,1048.665],[-2.771734,42.618286,1048.236],[-2.771807,42.618308,1047.032],[-2.771869,42.618328,1045.076],[-2.771936,42.618336,1044.623],[-2.771996,42.618351,1044.615],[-2.772064,42.618361,1044.763],[-2.772132,42.618388,1045.244],[-2.77218,42.618416,1045.418],[-2.77225,42.618459,1045.609],[-2.772293,42.618507,1046.697],[-2.772365,42.618522,1046.917],[-2.772442,42.618554,1047.262],[-2.77249,42.618597,1047.44],[-2.772533,42.618632,1047.741],[-2.772583,42.618675,1048.327],[-2.772641,42.61869,1050.571],[-2.772706,42.618713,1051.078],[-2.772748,42.618746,1051.81],[-2.772801,42.618773,1052.056],[-2.772816,42.618818,1052.559],[-2.772839,42.618863,1053.214],[-2.772862,42.618905,1054.409],[-2.772897,42.618943,1054.476],[-2.77294,42.618976,1054.446],[-2.77298,42.619016,1052.651],[-2.773025,42.619049,1051.299],[-2.77307,42.619082,1051.24],[-2.773122,42.619119,1051.426],[-2.773184,42.619149,1054.13],[-2.773212,42.619194,1056.287],[-2.773252,42.619231,1057.489],[-2.773304,42.619261,1059.562],[-2.773362,42.619306,1060.183],[-2.773399,42.619348,1060.811],[-2.773447,42.619388,1062.109],[-2.773474,42.619433,1062.937],[-2.773519,42.619465,1064.677],[-2.773561,42.6195,1066.142],[-2.773591,42.619543,1066.37],[-2.773583,42.61959,1066.751],[-2.773585,42.61964,1066.867],[-2.773598,42.619697,1068.511],[-2.773605,42.61975,1070.978],[-2.773633,42.619792,1072.17],[-2.773651,42.619835,1072.321],[-2.773681,42.619885,1072.641],[-2.773731,42.619917,1073.605],[-2.773734,42.619962,1073.809],[-2.773727,42.620007,1073.983],[-2.773707,42.620055,1073.913],[-2.7737,42.620107,1074.358],[-2.773705,42.620157,1074.776],[-2.773737,42.620207,1076.497],[-2.77371,42.620249,1080.173],[-2.77367,42.620292,1081.827],[-2.773632,42.62034,1082.934],[-2.77358,42.620373,1084.476],[-2.773547,42.620411,1084.993],[-2.773512,42.620451,1085.465],[-2.773475,42.620499,1085.521],[-2.77345,42.620549,1085.909],[-2.773405,42.620581,1085.95],[-2.773363,42.620614,1086.18],[-2.773315,42.620642,1086.595],[-2.773257,42.620669,1087.833],[-2.773197,42.620697,1090.794],[-2.773159,42.620742,1091.83],[-2.773112,42.620772,1093.384],[-2.773044,42.620775,1095.221],[-2.772977,42.620773,1098.183],[-2.772905,42.620765,1100.943],[-2.77285,42.620733,1102.264],[-2.772795,42.620713,1105.71],[-2.772738,42.62069,1107.809],[-2.772676,42.62067,1111.885],[-2.772611,42.62065,1113.355],[-2.772541,42.620637,1114.54],[-2.772476,42.620632,1115.388],[-2.772411,42.620627,1115.889],[-2.772346,42.62062,1116.375],[-2.772281,42.620615,1117.879],[-2.772216,42.620602,1118.486],[-2.772156,42.62059,1119.688],[-2.772091,42.620588,1120.337],[-2.772031,42.620578,1121.049],[-2.771968,42.620566,1121.813],[-2.771905,42.620571,1123.109],[-2.771843,42.620578,1124.494],[-2.771776,42.620575,1126.124],[-2.771709,42.620565,1126.439],[-2.771644,42.620565,1126.727],[-2.771582,42.620545,1127.048],[-2.771525,42.620527,1128.524],[-2.771467,42.620505,1129.928],[-2.771404,42.620495,1130.955],[-2.771337,42.620478,1131.327],[-2.771269,42.62046,1131.844],[-2.771206,42.620458,1131.905],[-2.771146,42.620471,1132.215],[-2.771086,42.620458,1132.409],[-2.771028,42.620441,1133.855],[-2.77096,42.620429,1134.815],[-2.770895,42.620412,1136.95],[-2.77083,42.620407,1137.728],[-2.770757,42.620409,1138.789],[-2.770687,42.620427,1139.335],[-2.770625,42.620399,1141.379],[-2.770565,42.620384,1141.826],[-2.77049,42.620389,1143.558],[-2.770425,42.620381,1145.123],[-2.770368,42.620358,1145.783],[-2.770293,42.620353,1146.111],[-2.770223,42.62035,1146.809],[-2.770158,42.620348,1147.973],[-2.770091,42.620338,1148.943],[-2.770023,42.620333,1150.468],[-2.769951,42.620326,1152.476],[-2.769889,42.620318,1153.777],[-2.769817,42.620323,1155.073],[-2.769754,42.620311,1155.477],[-2.769686,42.620304,1156.464],[-2.769628,42.620322,1157.846],[-2.769571,42.62035,1158.626],[-2.769599,42.620393,1160.147],[-2.769614,42.62044,1162.411],[-2.769616,42.620485,1164.809],[-2.769578,42.620525,1168.133],[-2.769611,42.620565,1168.933],[-2.769581,42.620605,1169.838],[-2.769566,42.62065,1171.116],[-2.769586,42.620695,1172.357],[-2.769539,42.620732,1173.753],[-2.769477,42.620764,1175.837],[-2.76946,42.620811,1177.064],[-2.769465,42.620858,1178.616],[-2.76948,42.620905,1181.154],[-2.769527,42.62094,1183.356],[-2.76965,42.620973,1186.811],[-2.769615,42.620935,1189.409],[-2.769583,42.62099,1190.366],[-2.769538,42.621022,1190.376],[-2.769498,42.621062,1190.321],[-2.769431,42.621085,1190.349],[-2.769363,42.621092,1188.95],[-2.769301,42.621089,1188.986],[-2.769233,42.621084,1190.92],[-2.769165,42.621074,1191.257],[-2.76911,42.621051,1192.659],[-2.769045,42.621074,1193.821],[-2.76901,42.621114,1194.341],[-2.769023,42.621159,1194.605],[-2.768993,42.621204,1195.609],[-2.769055,42.621222,1197.653],[-2.769105,42.621257,1198.973],[-2.769063,42.621299,1201.578],[-2.768995,42.621304,1202.096],[-2.768938,42.621281,1203.827],[-2.768871,42.621291,1205.223],[-2.768801,42.621294,1205.597],[-2.768736,42.621302,1206.434],[-2.768694,42.621345,1206.896],[-2.768666,42.621392,1208.576],[-2.768716,42.621427,1210.29],[-2.768769,42.621452,1214.019],[-2.768806,42.621489,1214.509],[-2.768768,42.621532,1216.858],[-2.768808,42.62145,1218.858],[-2.768781,42.621507,1217.993],[-2.768729,42.621467,1218.221],[-2.768772,42.621504,1218.522],[-2.768712,42.621516,1212.028],[-2.768635,42.621526,1216.262],[-2.768592,42.621463,1216.259],[-2.76853,42.62145,1217.071],[-2.768472,42.621433,1216.996],[-2.768409,42.621436,1213.431],[-2.768374,42.621479,1212.924],[-2.768331,42.621512,1212.209],[-2.768286,42.621544,1211.53],[-2.768219,42.621566,1211.32],[-2.768142,42.621568,1210.815],[-2.768082,42.621581,1210.393],[-2.768009,42.621604,1208.314],[-2.767951,42.621632,1207.65],[-2.767899,42.62167,1207.684],[-2.767829,42.621685,1208.141],[-2.767762,42.621708,1210.173],[-2.767782,42.62176,1210.331],[-2.767829,42.621798,1210.361],[-2.767812,42.62185,1210.307],[-2.76775,42.621868,1210.109],[-2.767685,42.621893,1209.134],[-2.767642,42.62193,1208.154],[-2.767599,42.621975,1207.949],[-2.767546,42.622012,1207.957],[-2.767501,42.622044,1208.328],[-2.767454,42.622074,1208.434],[-2.767402,42.622109,1208.498],[-2.767339,42.622136,1208.535],[-2.767281,42.622169,1208.547],[-2.767228,42.622209,1209.058],[-2.767163,42.622209,1211.252],[-2.767096,42.622227,1212.517],[-2.767049,42.62226,1214.709],[-2.766976,42.62226,1216.516],[-2.766914,42.62225,1217.976],[-2.766847,42.622247,1218.331],[-2.766847,42.622297,1220.369],[-2.7668,42.62233,1222.53],[-2.766737,42.622333,1223.276],[-2.766682,42.622368,1223.41],[-2.766625,42.622393,1223.667],[-2.766567,42.622375,1224.639],[-2.766505,42.622355,1225.958],[-2.766442,42.622367,1227.152],[-2.766382,42.622355,1227.117],[-2.766315,42.62235,1227.109],[-2.76626,42.622328,1226.486],[-2.766197,42.622333,1226.436],[-2.766127,42.622298,1227.891],[-2.766072,42.622271,1229.689],[-2.76601,42.622264,1232.06],[-2.765973,42.622301,1235.116],[-2.765913,42.622289,1239.79],[-2.765876,42.622244,1240.257],[-2.765828,42.622214,1240.469],[-2.76582,42.622266,1241.736],[-2.765798,42.622309,1244.917],[-2.765753,42.622341,1246.218],[-2.765703,42.622373,1248.009],[-2.76564,42.622371,1249.644],[-2.76559,42.622399,1249.794],[-2.765528,42.622396,1250.129],[-2.76547,42.622373,1250.247],[-2.765407,42.622381,1251.658],[-2.76534,42.622374,1252.184],[-2.765267,42.622391,1253.978],[-2.7652,42.622401,1256.965],[-2.765133,42.622411,1260.227],[-2.76506,42.622426,1263.147],[-2.765,42.622436,1263.829],[-2.764937,42.622439,1264.521],[-2.764887,42.622477,1265.009],[-2.764839,42.622514,1265.345],[-2.764784,42.622547,1265.725],[-2.764727,42.62257,1266.16],[-2.764679,42.622602,1268.058],[-2.764616,42.622615,1268.079],[-2.764558,42.622635,1268.075],[-2.764501,42.622658,1268.089],[-2.764429,42.622673,1267.796],[-2.764369,42.622691,1267.728],[-2.764321,42.622726,1267.691],[-2.764249,42.622786,1267.881],[-2.764181,42.622823,1270.919],[-2.764101,42.622801,1271.109],[-2.764028,42.622848,1274.86],[-2.764113,42.622796,1277.27],[-2.764056,42.622819,1282.975],[-2.764039,42.622862,1285.983],[-2.764002,42.622824,1294.494],[-2.763895,42.622861,1295.28],[-2.764007,42.622898,1285.654],[-2.764,42.622853,1286.361],[-2.764035,42.622806,1289.243],[-2.764007,42.622848,1286.874],[-2.764054,42.622816,1297.656],[-2.764122,42.622814,1297.621],[-2.764185,42.622804,1287.509],[-2.764252,42.622804,1284.978],[-2.764315,42.622791,1283.958],[-2.76438,42.622781,1282.543],[-2.764443,42.622764,1280.611],[-2.764493,42.622737,1280.072],[-2.76454,42.622702,1278.278],[-2.76459,42.622675,1276.722],[-2.76464,42.622642,1274.829],[-2.7647,42.622602,1274.121],[-2.764745,42.622565,1272.989],[-2.764775,42.622515,1272.506],[-2.764828,42.62249,1271.726],[-2.764901,42.622468,1271.009],[-2.764973,42.622455,1270.799],[-2.765033,42.622435,1269.949],[-2.765098,42.622417,1268.974],[-2.765165,42.622399,1268.032],[-2.765233,42.622412,1267.063],[-2.765291,42.622385,1266.569],[-2.765344,42.62236,1266.193],[-2.765406,42.622368,1266.07],[-2.765471,42.622356,1266.132],[-2.765536,42.622374,1266.348],[-2.765598,42.622386,1266.161],[-2.76566,42.622376,1265.917],[-2.765718,42.622354,1264.109],[-2.765813,42.622314,1262.135],[-2.765825,42.622267,1258.085],[-2.765805,42.622222,1256.52],[-2.765867,42.622249,1253.018],[-2.765924,42.622269,1249.389],[-2.765994,42.622281,1248.685],[-2.766056,42.622273,1247.859],[-2.766114,42.622288,1246.686],[-2.766174,42.622306,1245.548],[-2.766239,42.622296,1244.555],[-2.766299,42.622309,1243.507],[-2.766361,42.622307,1240.117],[-2.766419,42.622327,1239.709],[-2.766484,42.622329,1239.566],[-2.766544,42.622342,1237.876],[-2.766611,42.622357,1236.591],[-2.766676,42.62235,1234.899],[-2.766736,42.62233,1233.35],[-2.766796,42.622317,1231.956],[-2.766868,42.6223,1229.32],[-2.76692,42.622272,1224.677],[-2.766982,42.622285,1224.399],[-2.767047,42.622268,1223.313],[-2.767114,42.622235,1221.543],[-2.767161,42.622193,1220.807],[-2.767211,42.622166,1218.809],[-2.767264,42.622139,1217.672],[-2.767327,42.622131,1217.642],[-2.767392,42.622101,1217.567],[-2.767459,42.622076,1217.445],[-2.767527,42.622061,1217.436],[-2.767584,42.622039,1216.772],[-2.767644,42.622016,1215.496],[-2.767694,42.621989,1214.953],[-2.767751,42.621954,1214.815],[-2.767803,42.621912,1214.581],[-2.767855,42.621879,1214.061],[-2.767913,42.621856,1213.017],[-2.767975,42.621831,1213.009],[-2.768013,42.621788,1213.019],[-2.768065,42.621753,1214.239],[-2.768097,42.621713,1214.154],[-2.768127,42.621673,1213.892],[-2.768167,42.621635,1213.723],[-2.768187,42.621585,1212.899],[-2.7682,42.62154,1211.383],[-2.768235,42.621493,1210.06],[-2.768255,42.62145,1207.362],[-2.768212,42.621415,1203.456],[-2.76827,42.621388,1202.759],[-2.768308,42.621351,1202.914],[-2.76837,42.621381,1204.209],[-2.768322,42.621409,1204.036],[-2.76827,42.621367,1204.046],[-2.768135,42.621425,1212.681],[-2.7682,42.621408,1212.689],[-2.768263,42.62139,1211.43],[-2.768403,42.621385,1214.016],[-2.76824,42.6214,1215.41],[-2.768302,42.621402,1213.487],[-2.768234,42.621407,1214.069],[-2.768301,42.621384,1215.344],[-2.768163,42.621391,1214.305],[-2.768226,42.621381,1212.515],[-2.768298,42.621446,1213.709],[-2.76826,42.621404,1213.695],[-2.76832,42.621382,1213.655],[-2.768355,42.621339,1216.69],[-2.76823,42.621406,1217.078],[-2.768305,42.621334,1207.279],[-2.768197,42.621402,1204.875],[-2.768147,42.621197,1208.289],[-2.768249,42.621079,1207.776],[-2.768387,42.621047,1206.958],[-2.768449,42.62104,1206.967],[-2.768491,42.620975,1206.981],[-2.768539,42.620928,1207.019],[-2.768589,42.620895,1203.109],[-2.768619,42.620853,1199.437],[-2.768669,42.620816,1196.777],[-2.768744,42.620799,1195.542],[-2.768821,42.620794,1193.79],[-2.768879,42.620769,1193.521],[-2.768949,42.620764,1193.447],[-2.769017,42.620769,1193.981],[-2.76909,42.620792,1194.618],[-2.769155,42.620804,1195.91],[-2.769215,42.620789,1195.999],[-2.769272,42.620766,1195.907],[-2.76933,42.620748,1195.427],[-2.769395,42.620743,1193.509],[-2.769465,42.620731,1192.59],[-2.769523,42.620716,1191.31],[-2.76958,42.620689,1189.235],[-2.769577,42.620644,1186.113],[-2.769577,42.620599,1183.414],[-2.769587,42.620551,1181.68],[-2.76958,42.620503,1180.734],[-2.769627,42.620468,1176.341],[-2.769675,42.62044,1175.273],[-2.769678,42.620392,1173.478],[-2.76965,42.620349,1171.933],[-2.769657,42.620304,1171.426],[-2.769724,42.620299,1170.309],[-2.769787,42.620292,1169.368],[-2.769867,42.620294,1167.998],[-2.769924,42.620314,1166.933],[-2.769987,42.620309,1166.971],[-2.770072,42.620299,1166.862],[-2.770149,42.620311,1166.638],[-2.770214,42.620323,1166.372],[-2.770294,42.620323,1165.729],[-2.770361,42.620321,1163.831],[-2.770413,42.620353,1163.411],[-2.770473,42.620363,1162.621],[-2.770543,42.620368,1159.503],[-2.770595,42.620398,1157.409],[-2.770663,42.620415,1155.222],[-2.770726,42.62041,1154.282],[-2.770791,42.620413,1153.637],[-2.770864,42.620403,1152.435],[-2.770937,42.620398,1150.066],[-2.771004,42.620405,1149.322],[-2.771066,42.620427,1148.466],[-2.771123,42.620445,1147.323],[-2.771196,42.620433,1147.065],[-2.771271,42.620425,1146.845],[-2.771321,42.620453,1143.647],[-2.771379,42.620475,1141.811],[-2.771446,42.620488,1141.309],[-2.771508,42.620498,1141.015],[-2.771566,42.620516,1140.665],[-2.771636,42.620536,1139.99],[-2.771698,42.620544,1139.158],[-2.77176,42.620547,1138.429],[-2.771815,42.62057,1137.435],[-2.771885,42.62057,1135.429],[-2.771952,42.620563,1135.076],[-2.772012,42.620573,1134.658],[-2.772077,42.620578,1133.162],[-2.77214,42.62058,1131.883],[-2.77221,42.620582,1129.311],[-2.772277,42.620577,1127.309],[-2.772345,42.620589,1125.157],[-2.772405,42.620609,1123.527],[-2.772472,42.620621,1123.432],[-2.772537,42.620638,1123.42],[-2.772595,42.620655,1123.281],[-2.77266,42.62067,1123.077],[-2.772725,42.62069,1122.781],[-2.772792,42.620697,1121.938],[-2.77286,42.62072,1119.93],[-2.77292,42.620735,1119.714],[-2.773028,42.620718,1119.354],[-2.773095,42.620726,1118.109],[-2.77316,42.620713,1116.409],[-2.773178,42.620666,1112.892],[-2.773238,42.620639,1110.862],[-2.773256,42.620594,1107.357],[-2.773301,42.620557,1106.135],[-2.773323,42.620495,1105.176],[-2.773363,42.620458,1101.922],[-2.773431,42.620456,1099.276],[-2.773481,42.620411,1096.473],[-2.773524,42.620371,1096.345],[-2.773592,42.620349,1095.453],[-2.773622,42.620299,1093.004],[-2.773635,42.620249,1091.614],[-2.773662,42.620122,1087.709],[-2.773685,42.62008,1086.286],[-2.773692,42.620035,1084.326],[-2.773704,42.619987,1084.171],[-2.773722,42.619942,1084.039],[-2.773719,42.619889,1082.95],[-2.773706,42.619836,1081.726],[-2.773671,42.619796,1079.31],[-2.773659,42.619749,1078.347],[-2.773642,42.619702,1077.759],[-2.773615,42.619659,1077.539],[-2.773587,42.619607,1077.001],[-2.77356,42.619559,1076.421],[-2.773545,42.619511,1074.709],[-2.773508,42.619454,1073.564],[-2.77346,42.619404,1072.154],[-2.773435,42.619356,1069.779],[-2.773402,42.619314,1068.537],[-2.773359,42.619276,1067.068],[-2.773317,42.619243,1065.594],[-2.773269,42.619211,1065.658],[-2.773222,42.619169,1065.675],[-2.773187,42.619127,1065.317],[-2.77316,42.619085,1065.229],[-2.773102,42.619047,1064.1],[-2.773047,42.619015,1064.12],[-2.772989,42.618975,1063.909],[-2.772949,42.618932,1063.833],[-2.772911,42.61888,1063.743],[-2.772871,42.61884,1063.598],[-2.772824,42.618793,1063.276],[-2.772784,42.618756,1062.677],[-2.772756,42.618713,1062.433],[-2.772723,42.618671,1062.467],[-2.772665,42.618654,1062.514],[-2.772617,42.618619,1062.936],[-2.772562,42.618587,1062.983],[-2.772517,42.618554,1062.725],[-2.77246,42.618526,1061.117],[-2.772413,42.618494,1059.709],[-2.772365,42.618459,1059.719],[-2.772332,42.618417,1059.759],[-2.772274,42.61838,1061.574],[-2.772227,42.618348,1062.612],[-2.77215,42.618311,1064.033],[-2.772087,42.618296,1064.129],[-2.772022,42.618291,1064.263],[-2.771947,42.618278,1063.59],[-2.771889,42.618251,1062.012],[-2.771821,42.618243,1061.434],[-2.771754,42.618243,1060.255],[-2.771696,42.618223,1059.01],[-2.771619,42.618218,1057.209],[-2.771547,42.618231,1056.714],[-2.77148,42.618213,1054.214],[-2.771422,42.61818,1052.619],[-2.771365,42.618142,1049.817],[-2.771328,42.6181,1049.138],[-2.771281,42.618063,1049.044],[-2.771251,42.618013,1048.418],[-2.771219,42.617963,1047.315],[-2.771184,42.617921,1047.327],[-2.771151,42.617874,1047.439],[-2.771131,42.617826,1047.701],[-2.771083,42.617784,1047.921],[-2.771053,42.617742,1048.509],[-2.771038,42.617692,1048.774],[-2.771003,42.617647,1048.774],[-2.770963,42.61761,1048.749],[-2.770901,42.617578,1048.347],[-2.770843,42.617551,1047.748],[-2.770795,42.617513,1047.554],[-2.770747,42.61748,1047.388],[-2.770695,42.617455,1047.315],[-2.770632,42.617432,1047.497],[-2.77058,42.61739,1047.413],[-2.770548,42.617345,1047.543],[-2.7705,42.617313,1047.707],[-2.770447,42.617278,1047.709],[-2.770405,42.61724,1047.792],[-2.770348,42.617222,1047.542],[-2.770278,42.617195,1045.657],[-2.77022,42.617158,1044.145],[-2.770153,42.617138,1043.476],[-2.770088,42.617115,1042.412],[-2.769921,42.617035,1038.626],[-2.769858,42.617012,1038.813],[-2.769775,42.617009,1038.565],[-2.769702,42.617016,1039.492],[-2.769642,42.616986,1040.273],[-2.769607,42.616948,1040.32],[-2.76955,42.616918,1041.009],[-2.76949,42.61689,1041.08],[-2.769438,42.61686,1041.09],[-2.769396,42.616822,1040.995],[-2.769379,42.616777,1039.283],[-2.769369,42.616732,1037.964],[-2.769372,42.616685,1037.08],[-2.769309,42.616658,1034.094],[-2.769239,42.616633,1032.881],[-2.769182,42.616603,1031.463],[-2.769129,42.616546,1030.821],[-2.769077,42.616519,1029.741],[-2.769022,42.616476,1029.605],[-2.768984,42.616439,1029.509],[-2.768931,42.616389,1029.373],[-2.768838,42.616301,1027.823],[-2.768783,42.616264,1027.048],[-2.768761,42.616221,1024.496],[-2.768749,42.616173,1021.177],[-2.768747,42.616128,1020.093],[-2.7687,42.616096,1019.827],[-2.768697,42.616048,1019.784],[-2.76867,42.615998,1019.566],[-2.768613,42.615958,1019.511],[-2.768561,42.615916,1019.521],[-2.768519,42.615883,1019.803],[-2.768477,42.615846,1019.809],[-2.768454,42.615798,1019.852],[-2.768389,42.615775,1018.612],[-2.768329,42.615748,1017.557],[-2.768294,42.615705,1017.415],[-2.768277,42.615647,1017.476],[-2.768109,42.615579,1017.312],[-2.768069,42.615541,1016.966],[-2.768009,42.615508,1016.493],[-2.767954,42.615481,1014.945],[-2.767856,42.615448,1012.329],[-2.767791,42.615453,1012.0],[-2.767739,42.615428,1012.02],[-2.767691,42.615396,1011.909],[-2.767619,42.615393,1011.533],[-2.767509,42.61541,1010.923],[-2.767451,42.615425,1009.318],[-2.767393,42.615402,1008.236],[-2.767333,42.615375,1007.017],[-2.767273,42.615358,1005.923],[-2.767206,42.615333,1005.717],[-2.767136,42.615301,1005.664],[-2.767079,42.615283,1005.486],[-2.767027,42.61525,1005.336],[-2.766982,42.615213,1005.217],[-2.766937,42.615176,1003.818],[-2.76688,42.615141,1003.209],[-2.766828,42.615113,1002.554],[-2.766775,42.615081,1001.074],[-2.766732,42.615036,999.739],[-2.766672,42.615001,998.847],[-2.76663,42.614968,998.788],[-2.766572,42.614945,998.284],[-2.766502,42.614925,996.988],[-2.766437,42.614905,995.925],[-2.76638,42.61488,994.687],[-2.766328,42.614843,994.365],[-2.766256,42.614813,994.068],[-2.766186,42.614793,993.014],[-2.766131,42.614765,992.109],[-2.766071,42.614742,991.017],[-2.766016,42.614712,990.547],[-2.765983,42.614672,990.532],[-2.765935,42.614625,990.43],[-2.765883,42.614573,990.021],[-2.765846,42.614525,989.857],[-2.765803,42.614482,989.291],[-2.765741,42.614447,988.758],[-2.765691,42.614412,988.55],[-2.765653,42.614375,988.263],[-2.76562,42.614333,987.344],[-2.765578,42.6143,986.318],[-2.765528,42.614258,985.909],[-2.765485,42.61422,985.597],[-2.765443,42.614172,984.697],[-2.765396,42.614127,984.412],[-2.765358,42.614082,984.09],[-2.765318,42.614044,983.251],[-2.765271,42.614009,982.267],[-2.765228,42.613974,982.191],[-2.765208,42.613929,981.998],[-2.765188,42.613884,981.71],[-2.765151,42.613846,981.792],[-2.765144,42.613791,980.873],[-2.765126,42.613741,980.22],[-2.765124,42.613696,980.109],[-2.765087,42.613649,979.76],[-2.765052,42.613601,977.89],[-2.76502,42.613558,976.475],[-2.76497,42.613521,975.473],[-2.764915,42.613484,974.724],[-2.764858,42.613442,974.16],[-2.764801,42.6134,973.244],[-2.764744,42.61337,972.811],[-2.764689,42.61335,972.823],[-2.764636,42.613318,972.894],[-2.764588,42.613273,972.757],[-2.764541,42.613238,972.722],[-2.764493,42.613196,972.209],[-2.764446,42.613159,971.86],[-2.764401,42.613114,971.55],[-2.764363,42.613064,971.425],[-2.76433,42.613021,970.993],[-2.764293,42.612984,970.794],[-2.764235,42.612946,970.62],[-2.764168,42.612918,970.494],[-2.7641,42.6129,970.271],[-2.764032,42.612907,970.293],[-2.763967,42.612894,970.027],[-2.763909,42.612866,969.368],[-2.763847,42.612856,967.914],[-2.763784,42.612853,966.909],[-2.763722,42.612851,964.773],[-2.763655,42.612854,962.863],[-2.763592,42.612846,962.218],[-2.76353,42.612839,961.346],[-2.763457,42.612832,959.017],[-2.76339,42.612807,957.963],[-2.763323,42.61278,957.477],[-2.763273,42.612738,957.394],[-2.763211,42.612713,957.186],[-2.763156,42.612693,956.691],[-2.763091,42.612671,955.181],[-2.763021,42.612659,951.619],[-2.762953,42.612654,949.709],[-2.762885,42.612631,949.55],[-2.762822,42.612614,949.29],[-2.76275,42.612596,948.885],[-2.762677,42.612583,948.473],[-2.762617,42.612566,947.434],[-2.762545,42.612551,946.76],[-2.762483,42.612546,946.124],[-2.762421,42.612534,945.991],[-2.762361,42.612546,945.453],[-2.762289,42.612541,944.413],[-2.762216,42.612533,943.943],[-2.762136,42.612518,943.307],[-2.762063,42.612523,942.809],[-2.762,42.612525,942.682],[-2.761937,42.612522,942.662],[-2.761874,42.612515,941.487],[-2.761797,42.612518,940.595],[-2.761734,42.612528,939.956],[-2.761679,42.612558,938.152],[-2.761622,42.612585,936.416],[-2.761562,42.612607,935.753],[-2.761535,42.61265,934.225],[-2.76151,42.6127,933.778],[-2.761503,42.612758,932.433],[-2.761456,42.612801,931.026],[-2.761409,42.612844,930.909],[-2.761392,42.612902,930.958],[-2.761354,42.612954,931.738],[-2.761289,42.612976,932.193],[-2.761242,42.613008,933.031],[-2.761202,42.61305,934.332],[-2.76113,42.613082,934.478],[-2.761082,42.613112,934.472],[-2.761022,42.613129,934.029],[-2.760995,42.613179,933.861],[-2.760957,42.613227,933.873],[-2.76091,42.613265,933.885],[-2.760847,42.613295,933.813],[-2.760777,42.613317,933.809],[-2.760705,42.61332,933.818],[-2.760647,42.613303,933.878],[-2.760582,42.613281,933.143],[-2.760525,42.613299,932.651],[-2.760462,42.613299,931.572],[-2.7604,42.613282,930.298],[-2.760347,42.613245,928.932],[-2.760294,42.613217,927.939],[-2.760239,42.613194,926.951],[-2.760194,42.613162,925.579],[-2.760142,42.613119,924.105],[-2.760102,42.613081,922.925],[-2.76003,42.613064,920.709],[-2.75997,42.613042,919.588],[-2.759898,42.613044,918.378],[-2.759853,42.613006,916.633],[-2.759783,42.613014,914.721],[-2.759735,42.612967,914.672],[-2.759663,42.612965,914.698],[-2.759596,42.61295,914.642],[-2.759538,42.61293,914.629],[-2.759473,42.612917,914.761],[-2.759413,42.612897,913.941],[-2.759348,42.612862,913.281],[-2.759291,42.612827,913.009],[-2.759233,42.612797,912.509],[-2.759173,42.612782,911.545],[-2.75909,42.612765,911.325],[-2.759028,42.61275,911.32],[-2.758958,42.612745,911.318],[-2.758896,42.612752,911.369],[-2.758831,42.612752,911.265],[-2.758768,42.612745,911.169],[-2.758691,42.612743,910.976],[-2.758629,42.61274,910.848],[-2.758564,42.612735,910.862],[-2.758516,42.612695,910.683],[-2.758479,42.612643,908.811],[-2.758429,42.612603,907.709],[-2.758374,42.612573,907.017],[-2.758304,42.612561,907.547],[-2.757829,42.612408,898.632],[-2.757767,42.612411,897.52],[-2.757707,42.612394,897.171],[-2.757632,42.612392,897.047],[-2.757562,42.612397,896.771],[-2.757487,42.612392,896.678],[-2.757414,42.61239,896.66],[-2.757344,42.612388,896.667],[-2.756989,42.612366,901.381],[-2.756921,42.612354,901.619],[-2.756851,42.612352,903.609],[-2.756789,42.612359,905.067],[-2.756727,42.612354,905.077],[-2.756662,42.612337,905.392],[-2.756595,42.612312,905.61],[-2.756513,42.612294,906.281],[-2.756443,42.612279,907.357],[-2.75638,42.612254,908.991],[-2.756307,42.612249,909.898],[-2.756244,42.612246,909.89],[-2.756174,42.612231,909.215],[-2.756112,42.612221,906.865],[-2.756042,42.612216,904.911],[-2.755965,42.612219,903.309],[-2.755897,42.612222,902.142],[-2.75582,42.612222,900.272],[-2.755752,42.61222,898.477],[-2.755684,42.612223,898.275],[-2.755617,42.612243,898.226],[-2.75554,42.612241,898.872],[-2.755462,42.612234,899.546],[-2.75539,42.612249,899.453],[-2.75533,42.612274,899.515],[-2.755252,42.612281,899.698],[-2.755177,42.612286,899.615],[-2.755112,42.612293,900.426],[-2.755052,42.612306,900.709],[-2.754979,42.612328,900.72],[-2.754926,42.612356,900.72],[-2.754864,42.612378,900.325],[-2.754796,42.612386,900.243],[-2.754739,42.612411,900.284],[-2.754679,42.612428,900.56],[-2.754614,42.612445,901.334],[-2.754539,42.612453,902.461],[-2.754476,42.612478,903.633],[-2.754409,42.612473,904.512],[-2.754347,42.612488,904.532],[-2.75428,42.612505,904.505],[-2.754202,42.612508,904.109],[-2.754122,42.612521,903.972],[-2.754059,42.612531,903.932],[-2.754002,42.612564,903.957],[-2.753942,42.612576,903.975],[-2.753882,42.612586,904.276],[-2.753815,42.612603,904.392],[-2.753755,42.612625,904.286],[-2.753683,42.612645,904.053],[-2.753615,42.612652,903.985],[-2.75355,42.612659,902.223],[-2.753483,42.612677,901.283],[-2.753425,42.612697,900.611],[-2.753353,42.612702,900.309],[-2.753291,42.61271,899.383],[-2.753229,42.612722,898.773],[-2.753166,42.61274,898.298],[-2.753086,42.612753,897.766],[-2.753014,42.612763,896.297],[-2.752954,42.61278,895.343],[-2.752884,42.612787,894.827],[-2.752812,42.612797,893.824],[-2.752739,42.612802,892.556],[-2.752676,42.612809,891.427],[-2.752608,42.612814,889.568],[-2.752553,42.612836,888.914],[-2.752498,42.612859,888.509],[-2.75242,42.612872,887.873],[-2.75235,42.612877,885.323],[-2.752292,42.612902,884.228],[-2.75224,42.612927,883.746],[-2.752178,42.612965,883.217],[-2.752131,42.612997,881.853],[-2.752069,42.61302,881.797],[-2.752021,42.613067,880.474],[-2.751973,42.613104,880.146],[-2.75191,42.613129,878.799],[-2.751842,42.613142,878.207],[-2.751787,42.61318,878.127],[-2.751747,42.613223,877.909],[-2.751692,42.613246,876.92],[-2.751622,42.613261,875.77],[-2.751559,42.613281,875.225],[-2.751482,42.613296,874.843],[-2.751415,42.613294,874.444],[-2.751355,42.613321,874.08],[-2.751292,42.613331,873.964],[-2.751215,42.613348,873.891],[-2.751155,42.613375,873.843],[-2.751092,42.613397,873.842],[-2.75103,42.613409,873.922],[-2.750952,42.613421,874.314],[-2.750899,42.613453,875.009],[-2.750839,42.613476,875.245],[-2.750777,42.613506,875.775],[-2.750715,42.613536,876.48],[-2.750665,42.613568,876.778],[-2.750608,42.613595,877.329],[-2.75056,42.613632,877.525],[-2.750493,42.613657,877.539],[-2.750438,42.613679,877.476],[-2.750388,42.613722,877.038],[-2.75034,42.613754,876.719],[-2.750313,42.613796,876.509],[-2.750281,42.613836,876.119],[-2.750249,42.613879,876.109],[-2.750209,42.613917,875.882],[-2.750156,42.61395,874.632],[-2.750096,42.613973,873.247],[-2.750028,42.613946,872.325],[-2.74998,42.613906,872.166],[-2.749952,42.613859,872.182],[-2.74991,42.613811,871.956],[-2.749863,42.613778,871.813],[-2.749811,42.613745,871.475],[-2.749776,42.613702,871.121],[-2.749748,42.613657,870.841],[-2.749695,42.613624,870.605],[-2.74965,42.613582,868.909],[-2.749582,42.613559,868.173],[-2.749525,42.613532,868.063],[-2.749453,42.613519,867.418],[-2.74939,42.613502,866.236],[-2.749343,42.613457,864.657],[-2.749316,42.613412,863.343],[-2.749286,42.613372,862.937],[-2.749246,42.613332,862.894],[-2.749228,42.613287,862.756],[-2.749208,42.613234,862.687],[-2.749158,42.613191,861.942],[-2.749151,42.613144,861.726],[-2.749098,42.613099,861.609],[-2.749058,42.613064,861.679],[-2.74901,42.613027,861.759],[-2.748982,42.612985,861.824],[-2.748935,42.61294,861.722],[-2.748895,42.612893,861.753],[-2.748843,42.612856,861.059],[-2.748785,42.612841,861.143],[-2.74873,42.612821,861.24],[-2.748665,42.612814,861.262],[-2.748612,42.612779,861.246],[-2.748552,42.612746,861.488],[-2.748479,42.612726,861.816],[-2.748412,42.612704,862.009],[-2.748355,42.612681,862.065],[-2.74829,42.612664,861.915],[-2.74822,42.612677,860.94],[-2.74814,42.612692,859.728],[-2.748067,42.612692,859.029],[-2.748005,42.612702,858.085],[-2.747942,42.612695,856.949],[-2.747877,42.612697,856.046],[-2.747799,42.612695,855.268],[-2.747732,42.612697,855.154],[-2.74766,42.61269,855.056],[-2.747593,42.6127,854.711],[-2.747535,42.61273,854.209],[-2.747472,42.612757,853.746],[-2.747412,42.612772,852.676],[-2.74735,42.612774,851.351],[-2.747277,42.612781,850.099],[-2.747212,42.612791,849.65],[-2.747149,42.612794,848.556],[-2.747087,42.612806,848.18],[-2.747025,42.612811,848.047],[-2.746952,42.612803,848.199],[-2.746882,42.612826,849.435],[-2.746805,42.612828,849.586],[-2.746738,42.612845,849.514],[-2.746701,42.612885,849.509],[-2.746634,42.61291,848.184],[-2.746589,42.612945,846.784],[-2.746541,42.612992,845.349],[-2.746529,42.613042,842.837],[-2.746544,42.613087,842.348],[-2.746542,42.613142,840.554],[-2.746585,42.613184,839.978],[-2.746605,42.613232,839.365],[-2.746623,42.613282,839.227],[-2.746715,42.613415,839.592],[-2.746722,42.613473,839.573],[-2.746677,42.613585,839.32],[-2.746602,42.613598,838.909],[-2.74654,42.613583,837.93],[-2.74648,42.613566,836.28],[-2.74641,42.613548,834.795],[-2.746348,42.61355,833.773],[-2.74627,42.613567,833.254],[-2.746207,42.613592,833.09],[-2.746162,42.613624,832.484],[-2.746115,42.613656,832.231],[-2.74607,42.613694,831.823],[-2.746038,42.613741,829.886],[-2.74603,42.613788,828.96],[-2.746008,42.613848,827.026],[-2.745986,42.6139,825.909],[-2.745953,42.613947,823.999],[-2.745928,42.614,822.739],[-2.74589,42.614037,821.564],[-2.745843,42.614067,821.552],[-2.745816,42.614112,821.513],[-2.745783,42.61415,821.489],[-2.745748,42.61419,821.863],[-2.745703,42.614223,822.73],[-2.745645,42.61425,824.682],[-2.745575,42.614273,824.958],[-2.745515,42.61429,824.852],[-2.745447,42.614298,824.617],[-2.745387,42.614286,824.609],[-2.745317,42.614293,824.266],[-2.745244,42.614271,823.096],[-2.745192,42.614236,822.781],[-2.745169,42.614191,822.449],[-2.745169,42.614143,822.47],[-2.745149,42.6141,821.516],[-2.745154,42.61405,818.08],[-2.745152,42.614005,815.617],[-2.745114,42.613957,813.969],[-2.745096,42.613907,811.289],[-2.745108,42.613857,808.006],[-2.745075,42.613782,809.026],[-2.745092,42.613829,809.009],[-2.745039,42.613856,809.029]]}}]}