{"type":"FeatureCollection","features":[{"type":"Feature","properties":{"ruta_id":"121737296","nombre":"GAZUME desde ITURRIOTZ ruta CIRCULAR","blog_url":"https://www.rutasporelmonte.com/gazume-desde-iturriotz/"},"geometry":{"type":"LineString","coordinates":[[-2.147847,43.194672,593.513],[-2.147877,43.194557,592.643],[-2.148002,43.194834,593.707],[-2.148007,43.194899,593.509],[-2.147817,43.194972,593.922],[-2.147797,43.194857,594.063],[-2.14779,43.19481,594.042],[-2.14783,43.194847,593.948],[-2.147892,43.194844,593.854],[-2.147962,43.194837,593.718],[-2.148024,43.194834,593.643],[-2.148096,43.194819,593.61],[-2.148154,43.194802,593.677],[-2.148219,43.194744,593.925],[-2.148291,43.194731,593.926],[-2.148358,43.194721,593.908],[-2.14841,43.194686,593.409],[-2.148467,43.194663,593.013],[-2.148524,43.194641,592.554],[-2.148577,43.194609,592.093],[-2.148629,43.194571,591.339],[-2.148621,43.194521,590.855],[-2.148601,43.194473,590.429],[-2.148559,43.194435,590.294],[-2.148511,43.194403,589.891],[-2.148483,43.194345,588.668],[-2.148483,43.19429,587.357],[-2.148478,43.194242,586.2],[-2.148448,43.1942,585.42],[-2.148396,43.194173,584.909],[-2.148371,43.19413,585.046],[-2.148343,43.194073,585.337],[-2.1483,43.19403,585.646],[-2.148223,43.194038,585.822],[-2.148191,43.193991,586.338],[-2.148219,43.193946,586.442],[-2.148236,43.193903,586.617],[-2.148268,43.193858,587.594],[-2.148321,43.193825,588.451],[-2.148368,43.193787,589.473],[-2.148413,43.19375,590.485],[-2.148443,43.19371,591.613],[-2.14849,43.19368,592.409],[-2.148512,43.193632,594.078],[-2.148485,43.193584,595.399],[-2.148477,43.193536,596.288],[-2.148432,43.193499,597.234],[-2.148439,43.193454,597.98],[-2.148444,43.193407,598.624],[-2.148429,43.193362,599.579],[-2.148419,43.193317,600.266],[-2.148402,43.193247,601.033],[-2.148404,43.1932,601.443],[-2.148357,43.193152,602.664],[-2.14832,43.193102,603.71],[-2.148292,43.193047,604.909],[-2.148304,43.193,605.335],[-2.148299,43.192948,606.076],[-2.148296,43.192895,606.815],[-2.148298,43.192843,607.491],[-2.148318,43.192796,607.997],[-2.148343,43.192748,608.841],[-2.148363,43.1927,610.076],[-2.148403,43.192663,610.743],[-2.148458,43.19263,611.11],[-2.148505,43.192588,612.098],[-2.148558,43.192553,612.715],[-2.148613,43.192526,613.126],[-2.148656,43.192493,613.809],[-2.148701,43.19246,614.78],[-2.148754,43.192435,615.221],[-2.148799,43.1924,616.24],[-2.148829,43.192353,617.946],[-2.148872,43.192318,619.082],[-2.148957,43.19226,620.856],[-2.149065,43.192217,622.091],[-2.149123,43.192192,622.818],[-2.149166,43.192157,624.365],[-2.149289,43.192069,628.779],[-2.149356,43.192062,629.105],[-2.149428,43.192062,629.125],[-2.149473,43.192027,630.709],[-2.149585,43.191945,634.548],[-2.149657,43.19191,635.899],[-2.14971,43.191875,637.398],[-2.149777,43.191883,636.654],[-2.149869,43.191886,636.04],[-2.149932,43.191869,636.664],[-2.15003,43.191837,638.119],[-2.15009,43.19182,639.026],[-2.150167,43.19181,639.563],[-2.150242,43.191807,639.522],[-2.150335,43.191799,639.762],[-2.150385,43.191771,641.108],[-2.150443,43.191714,644.009],[-2.150501,43.191687,645.263],[-2.150558,43.191662,646.254],[-2.15072,43.191577,649.113],[-2.150757,43.19154,650.429],[-2.150817,43.191507,651.475],[-2.150889,43.191465,652.949],[-2.150922,43.191415,654.964],[-2.150997,43.191397,655.751],[-2.151054,43.191365,656.898],[-2.151107,43.19133,657.929],[-2.151164,43.191305,658.6],[-2.151216,43.191277,659.42],[-2.151229,43.191229,661.009],[-2.151222,43.191179,662.793],[-2.151232,43.191127,664.544],[-2.151209,43.191085,665.513],[-2.151207,43.191038,666.379],[-2.151215,43.190991,667.255],[-2.1512,43.190938,668.169],[-2.15118,43.190878,669.264],[-2.151168,43.190825,670.191],[-2.151146,43.190773,670.868],[-2.151111,43.190728,671.594],[-2.151106,43.190681,672.357],[-2.151101,43.190633,673.022],[-2.151091,43.19058,673.909],[-2.151109,43.190532,674.42],[-2.151101,43.190485,675.271],[-2.151089,43.190438,676.05],[-2.151107,43.190388,676.556],[-2.151102,43.190333,677.312],[-2.151085,43.190286,678.256],[-2.151087,43.190239,678.891],[-2.151134,43.190202,679.138],[-2.151179,43.190162,679.985],[-2.151229,43.190127,680.661],[-2.151274,43.190094,681.421],[-2.151329,43.190071,682.113],[-2.151382,43.190034,683.209],[-2.151445,43.190014,684.327],[-2.151488,43.189981,685.148],[-2.15154,43.189954,685.687],[-2.151603,43.189934,686.243],[-2.151673,43.189921,686.839],[-2.151721,43.189888,687.633],[-2.151776,43.189861,688.768],[-2.151834,43.189834,689.985],[-2.151914,43.189817,691.722],[-2.151979,43.189802,693.316],[-2.152042,43.189797,694.976],[-2.152082,43.189762,696.213],[-2.15214,43.189747,697.809],[-2.152205,43.189744,699.422],[-2.152268,43.189752,701.083],[-2.152325,43.18973,702.582],[-2.152395,43.189732,704.378],[-2.152448,43.18979,705.434],[-2.152501,43.189765,706.958],[-2.152568,43.189752,708.563],[-2.152636,43.18974,710.36],[-2.152701,43.189723,712.127],[-2.152769,43.18972,713.715],[-2.152829,43.189698,714.765],[-2.152892,43.189688,716.111],[-2.15294,43.189646,716.809],[-2.152995,43.189614,718.062],[-2.153052,43.189594,719.423],[-2.15311,43.189579,720.872],[-2.15317,43.189559,722.278],[-2.153208,43.189522,723.214],[-2.15327,43.189512,724.998],[-2.153342,43.189505,726.713],[-2.153419,43.189497,727.56],[-2.153467,43.189459,728.367],[-2.153489,43.189409,727.919],[-2.153544,43.189386,728.109],[-2.153601,43.189354,728.219],[-2.153654,43.189327,728.509],[-2.153711,43.1893,728.992],[-2.153753,43.189263,729.193],[-2.153818,43.189253,730.122],[-2.153883,43.189245,731.258],[-2.153938,43.189222,731.854],[-2.153985,43.189185,732.428],[-2.15403,43.189153,732.843],[-2.154083,43.189126,733.44],[-2.154106,43.189083,733.557],[-2.154136,43.189043,734.163],[-2.154186,43.189011,735.244],[-2.154206,43.188954,735.618],[-2.154213,43.188896,735.809],[-2.154208,43.188851,736.167],[-2.154198,43.188779,736.478],[-2.15421,43.188734,737.197],[-2.154222,43.188686,737.763],[-2.154215,43.188638,738.049],[-2.154217,43.188585,738.323],[-2.154252,43.188535,739.378],[-2.154267,43.188487,739.835],[-2.154247,43.188442,739.552],[-2.154199,43.188405,738.582],[-2.154174,43.18836,738.143],[-2.154199,43.188317,738.717],[-2.154157,43.188277,737.809],[-2.154142,43.188225,737.699],[-2.154134,43.18817,737.51],[-2.154141,43.188122,737.749],[-2.154126,43.188065,737.535],[-2.154141,43.188018,738.051],[-2.154159,43.187968,738.595],[-2.154204,43.187936,739.55],[-2.154264,43.187914,740.667],[-2.154276,43.187867,741.154],[-2.154304,43.187819,741.823],[-2.154364,43.187696,742.583],[-2.154399,43.187653,742.811],[-2.154409,43.187603,742.809],[-2.154431,43.187556,743.063],[-2.154476,43.187516,743.624],[-2.154481,43.187464,743.233],[-2.154484,43.187417,742.629],[-2.154477,43.187372,741.985],[-2.154544,43.187295,742.639],[-2.154571,43.187252,742.994],[-2.154583,43.1872,742.861],[-2.154601,43.187155,743.068],[-2.154618,43.18711,743.271],[-2.154643,43.187062,743.641],[-2.154693,43.187029,744.815],[-2.154731,43.186986,745.409],[-2.154796,43.186969,746.338],[-2.154828,43.186922,746.169],[-2.154845,43.186874,745.538],[-2.154882,43.186837,745.444],[-2.154929,43.1868,745.49],[-2.154957,43.186748,744.894],[-2.154999,43.186713,744.859],[-2.155067,43.186695,745.536],[-2.15512,43.186655,745.963],[-2.15513,43.18661,746.663],[-2.155207,43.18661,747.844],[-2.155275,43.186613,748.918],[-2.155338,43.186636,749.209],[-2.155413,43.186649,749.867],[-2.15548,43.186652,750.548],[-2.155543,43.18668,751.137],[-2.155603,43.186697,752.453],[-2.155666,43.186715,753.949],[-2.155736,43.186722,755.293],[-2.155791,43.1867,755.888],[-2.155843,43.186672,756.275],[-2.155895,43.186647,756.972],[-2.155957,43.186637,757.761],[-2.156017,43.186615,758.721],[-2.156084,43.186632,759.213],[-2.156156,43.186632,760.009],[-2.156218,43.18665,760.437],[-2.156281,43.186637,761.378],[-2.156358,43.186624,762.377],[-2.156426,43.186619,763.263],[-2.156486,43.186602,764.319],[-2.156551,43.186587,765.513],[-2.156621,43.186579,766.638],[-2.156686,43.186569,767.895],[-2.156749,43.186549,769.372],[-2.156801,43.186517,770.866],[-2.156861,43.186537,771.729],[-2.156918,43.186517,773.121],[-2.156976,43.186499,774.709],[-2.157039,43.186489,776.797],[-2.157111,43.186491,778.898],[-2.157171,43.186469,780.527],[-2.157201,43.186429,781.473],[-2.157254,43.186404,783.089],[-2.157316,43.186407,785.163],[-2.157379,43.186379,787.318],[-2.157412,43.186337,789.315],[-2.15748,43.186332,791.422],[-2.157507,43.186289,793.111],[-2.15755,43.186247,795.321],[-2.157612,43.186249,797.303],[-2.15757,43.186282,795.509],[-2.15764,43.18627,798.132],[-2.157722,43.186258,801.193],[-2.157779,43.186226,803.072],[-2.157817,43.186186,804.458],[-2.157852,43.186141,805.554],[-2.157877,43.186096,806.228],[-2.15789,43.186049,806.543],[-2.157883,43.186001,806.23],[-2.157933,43.185974,807.487],[-2.157963,43.185934,807.917],[-2.157985,43.185882,808.187],[-2.158027,43.185849,808.615],[-2.158087,43.185829,809.709],[-2.158137,43.185801,810.832],[-2.158172,43.185759,811.543],[-2.15822,43.185721,812.292],[-2.158258,43.185681,812.578],[-2.158281,43.185634,812.484],[-2.158321,43.185594,812.388],[-2.158369,43.185561,812.713],[-2.158386,43.185513,813.18],[-2.158423,43.185473,813.867],[-2.158478,43.18545,814.673],[-2.158526,43.18542,815.185],[-2.158563,43.185377,815.313],[-2.158611,43.185332,815.409],[-2.158644,43.185285,816.078],[-2.158671,43.185235,816.679],[-2.158668,43.185188,816.588],[-2.158655,43.185138,816.224],[-2.158682,43.185091,816.55],[-2.158737,43.185068,817.024],[-2.158795,43.18505,817.389],[-2.158857,43.185038,817.616],[-2.158924,43.185026,818.293],[-2.158992,43.185013,819.263],[-2.15908,43.184996,820.444],[-2.15915,43.184978,821.518],[-2.15921,43.184963,822.409],[-2.159275,43.184956,823.437],[-2.159337,43.184951,824.448],[-2.159407,43.184943,825.587],[-2.159472,43.184935,826.653],[-2.159534,43.18492,827.529],[-2.159607,43.184923,828.843],[-2.159665,43.184938,830.188],[-2.159728,43.184938,831.225],[-2.15979,43.184948,832.582],[-2.159848,43.184928,833.269],[-2.159911,43.184936,834.504],[-2.159976,43.184944,835.824],[-2.160041,43.184957,837.309],[-2.160111,43.18497,839.137],[-2.160173,43.184985,840.698],[-2.160241,43.184982,842.187],[-2.160289,43.18495,842.953],[-2.160361,43.184948,844.359],[-2.160434,43.184931,845.773],[-2.160486,43.184898,846.828],[-2.160539,43.184871,848.135],[-2.160604,43.184844,849.722],[-2.160654,43.184817,851.153],[-2.160706,43.184789,852.704],[-2.160761,43.184767,854.414],[-2.160801,43.18472,856.109],[-2.160873,43.184705,857.916],[-2.16093,43.18468,859.217],[-2.160958,43.184635,860.426],[-2.161026,43.184592,862.192],[-2.161089,43.184565,863.588],[-2.161126,43.184522,864.652],[-2.161154,43.18448,865.597],[-2.161201,43.184445,866.394],[-2.161218,43.184398,867.681],[-2.161226,43.184348,869.098],[-2.161241,43.1843,870.415],[-2.161248,43.184252,871.726],[-2.161261,43.184202,873.109],[-2.161274,43.18415,874.73],[-2.161302,43.184107,876.271],[-2.161315,43.18406,877.78],[-2.161327,43.184008,879.456],[-2.161335,43.18396,881.092],[-2.161372,43.183918,882.876],[-2.161374,43.183865,884.631],[-2.161402,43.183823,886.598],[-2.161432,43.183776,888.425],[-2.161447,43.183731,890.141],[-2.161499,43.183696,891.781],[-2.161546,43.183661,893.309],[-2.161601,43.183626,895.009],[-2.161663,43.183611,896.075],[-2.161715,43.183584,897.346],[-2.161772,43.183562,898.415],[-2.161834,43.183537,899.661],[-2.161886,43.183509,900.967],[-2.161916,43.183467,902.761],[-2.161974,43.183442,903.736],[-2.162027,43.183415,904.823],[-2.16209,43.183398,905.48],[-2.16215,43.183375,906.456],[-2.162197,43.183343,907.659],[-2.162255,43.183323,908.414],[-2.162315,43.183296,909.409],[-2.162367,43.183271,910.336],[-2.162415,43.183239,911.567],[-2.162452,43.183202,912.946],[-2.162492,43.183164,914.422],[-2.16252,43.183122,916.088],[-2.162562,43.183084,917.322],[-2.162614,43.183059,918.097],[-2.162674,43.183042,918.324],[-2.162712,43.183004,919.421],[-2.16276,43.182974,920.117],[-2.162777,43.182929,921.687],[-2.162815,43.182887,922.815],[-2.162875,43.182857,923.609],[-2.162915,43.182814,925.172],[-2.16297,43.182786,926.083],[-2.163022,43.182761,926.782],[-2.163067,43.182728,927.778],[-2.163117,43.182701,928.294],[-2.163187,43.182684,928.198],[-2.163229,43.182649,929.173],[-2.163267,43.182609,930.36],[-2.163305,43.182572,931.457],[-2.16336,43.182544,932.263],[-2.16342,43.182519,933.244],[-2.163465,43.182477,934.918],[-2.163515,43.182442,936.209],[-2.163548,43.182404,937.567],[-2.16359,43.182367,938.878],[-2.163635,43.182309,940.817],[-2.163683,43.182279,941.883],[-2.163725,43.182239,943.399],[-2.16375,43.182196,944.893],[-2.163783,43.182153,946.178],[-2.163823,43.18211,947.535],[-2.16387,43.182073,948.892],[-2.163898,43.18203,950.211],[-2.163936,43.181988,951.621],[-2.163969,43.181945,953.003],[-2.164002,43.181905,953.909],[-2.163997,43.18186,954.912],[-2.164014,43.181815,956.083],[-2.164067,43.18179,956.992],[-2.164122,43.181767,957.818],[-2.164179,43.181735,959.214],[-2.164229,43.181705,960.998],[-2.164187,43.18167,961.343],[-2.164217,43.181628,961.96],[-2.16428,43.181606,963.367],[-2.164317,43.181569,964.361],[-2.164349,43.181529,965.421],[-2.164382,43.181491,966.713],[-2.164427,43.181459,968.409],[-2.164522,43.181436,971.757],[-2.164585,43.181458,972.938],[-2.164648,43.181445,975.237],[-2.164708,43.181433,977.563],[-2.164768,43.181403,980.049],[-2.164821,43.181366,981.953],[-2.164856,43.181326,983.478],[-2.164894,43.181284,985.185],[-2.164949,43.181247,987.182],[-2.165006,43.181224,988.836],[-2.165071,43.181216,989.517],[-2.165124,43.181191,990.918],[-2.165179,43.181166,992.609],[-2.165249,43.181166,993.534],[-2.165307,43.181136,995.425],[-2.16538,43.181096,996.634],[-2.165432,43.181061,996.57],[-2.1655,43.181053,996.396],[-2.165563,43.18105,996.19],[-2.165596,43.181005,995.935],[-2.165636,43.180963,995.752],[-2.165656,43.181008,995.169],[-2.165598,43.181028,995.758],[-2.16552,43.181033,996.352],[-2.165633,43.181013,995.417],[-2.165663,43.180971,995.409],[-2.165608,43.180934,996.216],[-2.165568,43.180894,996.777],[-2.16552,43.180866,996.836],[-2.165467,43.180829,996.612],[-2.165425,43.180789,995.698],[-2.165382,43.180747,994.752],[-2.165349,43.180702,993.827],[-2.165327,43.180655,992.974],[-2.165274,43.180628,992.391],[-2.165222,43.180593,991.717],[-2.165164,43.180561,991.587],[-2.165131,43.180523,990.515],[-2.165079,43.180495,989.709],[-2.165077,43.18045,988.282],[-2.16501,43.180435,987.773],[-2.164917,43.180382,984.652],[-2.164949,43.180319,982.868],[-2.164904,43.180286,980.994],[-2.164847,43.180263,979.218],[-2.16474,43.180203,975.823],[-2.164775,43.180141,974.09],[-2.164785,43.180091,972.217],[-2.16474,43.180058,970.984],[-2.164698,43.180018,969.407],[-2.164646,43.179983,968.017],[-2.164596,43.179943,966.509],[-2.164566,43.179901,965.319],[-2.164518,43.179866,964.32],[-2.164485,43.179826,963.349],[-2.164458,43.179776,962.145],[-2.164391,43.179739,961.481],[-2.164359,43.179686,960.045],[-2.164321,43.179649,958.98],[-2.164266,43.179601,957.577],[-2.164226,43.179563,956.444],[-2.164191,43.179521,955.259],[-2.164169,43.179474,953.903],[-2.164222,43.179437,952.823],[-2.16418,43.179397,951.509],[-2.164137,43.179362,950.276],[-2.164085,43.179334,949.097],[-2.164032,43.179304,947.796],[-2.16402,43.179259,946.142],[-2.163953,43.179261,945.878],[-2.163896,43.179228,944.312],[-2.163874,43.179183,942.517],[-2.163837,43.17914,940.764],[-2.163795,43.179098,939.021],[-2.163758,43.179053,937.488],[-2.163716,43.179016,936.024],[-2.163703,43.178969,934.526],[-2.163686,43.178919,932.909],[-2.163621,43.178891,932.139],[-2.163574,43.178858,931.15],[-2.163549,43.178815,930.059],[-2.163517,43.178767,928.775],[-2.1635,43.178722,927.641],[-2.163463,43.17868,926.685],[-2.163418,43.178643,925.79],[-2.163368,43.178611,925.097],[-2.163306,43.178583,924.064],[-2.163234,43.178571,923.389],[-2.163186,43.178543,922.306],[-2.163184,43.178493,920.626],[-2.163149,43.17845,919.109],[-2.163119,43.17841,917.719],[-2.163089,43.178367,916.23],[-2.163027,43.178337,915.089],[-2.162985,43.178292,913.485],[-2.162937,43.178259,912.351],[-2.162894,43.178217,910.945],[-2.162851,43.17818,909.71],[-2.162789,43.178165,909.257],[-2.162731,43.178147,908.424],[-2.162693,43.17811,907.273],[-2.162643,43.17807,905.985],[-2.162605,43.17803,904.713],[-2.162555,43.177995,903.609],[-2.162518,43.177958,902.658],[-2.162481,43.177913,901.389],[-2.162449,43.177865,899.828],[-2.162406,43.17783,898.614],[-2.162394,43.177785,897.47],[-2.162392,43.17774,896.034],[-2.16234,43.17771,894.749],[-2.162313,43.177668,893.236],[-2.162255,43.177645,892.393],[-2.162223,43.17758,890.353],[-2.162191,43.17754,889.104],[-2.162173,43.177495,887.914],[-2.162171,43.177447,887.009],[-2.162158,43.177394,886.076],[-2.162156,43.177344,885.177],[-2.162129,43.177294,884.096],[-2.162116,43.177241,883.012],[-2.162089,43.177198,881.848],[-2.162049,43.177153,880.232],[-2.162029,43.177106,878.717],[-2.162001,43.177061,877.154],[-2.161944,43.177043,876.221],[-2.161944,43.176998,874.725],[-2.161944,43.176953,873.326],[-2.161926,43.176908,871.808],[-2.161916,43.176858,870.209],[-2.161919,43.176813,869.043],[-2.161887,43.176761,867.274],[-2.161827,43.176736,866.043],[-2.161857,43.176686,864.979],[-2.1619,43.176646,864.295],[-2.161957,43.176614,863.749],[-2.161975,43.176571,862.654],[-2.161925,43.176531,861.591],[-2.161868,43.176489,860.158],[-2.161825,43.176456,859.211],[-2.161775,43.176419,858.121],[-2.161743,43.176376,857.003],[-2.161706,43.176333,856.109],[-2.161658,43.176286,855.112],[-2.161625,43.176234,854.143],[-2.161593,43.176187,853.292],[-2.161551,43.176147,852.548],[-2.161504,43.176112,852.024],[-2.161467,43.176069,851.988],[-2.161437,43.176021,851.843],[-2.161374,43.176011,852.05],[-2.161312,43.175981,852.157],[-2.16125,43.175948,852.475],[-2.161197,43.175911,852.828],[-2.161122,43.175883,853.42],[-2.161042,43.175865,853.909],[-2.160977,43.175843,854.338],[-2.160915,43.17583,854.849],[-2.16086,43.175805,855.498],[-2.160793,43.175782,855.824],[-2.160735,43.175762,855.97],[-2.160678,43.175739,856.124],[-2.16062,43.175714,856.419],[-2.160563,43.175689,856.656],[-2.160501,43.175674,856.243],[-2.160434,43.175654,855.838],[-2.160399,43.175616,856.17],[-2.160349,43.175579,856.317],[-2.160307,43.175539,856.409],[-2.160259,43.175509,856.124],[-2.160211,43.175477,855.855],[-2.160163,43.175449,855.534],[-2.160118,43.175409,855.36],[-2.16007,43.175376,855.076],[-2.160027,43.175334,854.97],[-2.159975,43.175307,854.555],[-2.159932,43.175269,854.182],[-2.159899,43.175227,853.239],[-2.159889,43.17518,852.575],[-2.159841,43.175137,851.528],[-2.159779,43.17511,850.72],[-2.159732,43.175072,849.909],[-2.15968,43.175047,849.248],[-2.159608,43.175029,848.439],[-2.15955,43.175011,847.888],[-2.159513,43.175098,848.024],[-2.159495,43.175033,847.52],[-2.159528,43.174943,847.344],[-2.159506,43.174998,847.449],[-2.159524,43.175041,847.826],[-2.159536,43.175099,848.383],[-2.159526,43.175147,848.482],[-2.159519,43.1752,848.643],[-2.159541,43.175252,849.217],[-2.159553,43.175307,849.109],[-2.159581,43.175349,848.929],[-2.159596,43.175397,848.56],[-2.159633,43.175449,848.289],[-2.159678,43.175482,848.435],[-2.159735,43.175514,848.831],[-2.159783,43.175544,849.215],[-2.15983,43.175579,849.28],[-2.159898,43.175602,849.767],[-2.159948,43.175637,849.674],[-2.159985,43.175674,849.356],[-2.160038,43.175706,849.259],[-2.16008,43.175746,848.814],[-2.160117,43.175784,848.409],[-2.160159,43.175826,848.096],[-2.160204,43.175859,847.677],[-2.160262,43.175891,847.686],[-2.160299,43.175934,846.882],[-2.160346,43.175972,846.478],[-2.160379,43.17601,845.892],[-2.160396,43.176053,844.877],[-2.160438,43.176095,844.534],[-2.160493,43.176125,845.181],[-2.160521,43.176165,845.149],[-2.160551,43.176213,845.002],[-2.160586,43.176255,844.922],[-2.160611,43.176303,844.609],[-2.160609,43.176356,843.725],[-2.160636,43.176398,843.746],[-2.160674,43.176446,844.425],[-2.160702,43.176491,845.051],[-2.160724,43.176538,845.527],[-2.160722,43.176583,845.541],[-2.160739,43.176631,845.976],[-2.160744,43.176676,846.283],[-2.160756,43.176729,847.08],[-2.160769,43.176776,847.866],[-2.160767,43.176821,848.129],[-2.160772,43.176873,848.721],[-2.16077,43.176921,849.109],[-2.160758,43.176968,849.227],[-2.160741,43.177011,849.228],[-2.160723,43.177054,849.267],[-2.160693,43.177101,848.823],[-2.160653,43.177141,847.789],[-2.160598,43.177166,845.823],[-2.160535,43.177173,843.288],[-2.160513,43.177225,843.215],[-2.160458,43.177255,841.612],[-2.160425,43.177293,841.136],[-2.16039,43.17734,840.817],[-2.160345,43.177378,839.818],[-2.160327,43.177425,840.209],[-2.160282,43.17746,839.294],[-2.160192,43.17751,836.235],[-2.160145,43.177547,835.114],[-2.160147,43.177599,836.58],[-2.160142,43.177646,837.666],[-2.160087,43.177668,835.77],[-2.160047,43.177706,835.095],[-2.160039,43.177759,836.292],[-2.160021,43.177811,836.549],[-2.159988,43.177854,835.987],[-2.159976,43.177902,836.342],[-2.159931,43.177944,835.326],[-2.159904,43.177986,835.109],[-2.159884,43.178041,835.529],[-2.159839,43.178086,834.11],[-2.159832,43.178138,833.769],[-2.159794,43.178178,832.455],[-2.159776,43.17823,831.781],[-2.159764,43.178282,831.315],[-2.159779,43.178327,831.66],[-2.159776,43.178375,831.547],[-2.159796,43.17842,832.064],[-2.159749,43.178465,830.785],[-2.159702,43.1785,829.589],[-2.159659,43.178538,828.417],[-2.159659,43.178591,828.409],[-2.159651,43.178639,828.589],[-2.159596,43.178666,827.47],[-2.159543,43.178694,826.439],[-2.1595,43.178732,825.745],[-2.159473,43.178779,825.541],[-2.15944,43.178826,825.245],[-2.159393,43.178866,824.14],[-2.159338,43.178906,822.877],[-2.159293,43.178943,821.884],[-2.159243,43.179013,820.917],[-2.15921,43.179053,820.387],[-2.159178,43.179096,819.615],[-2.159145,43.179138,818.909],[-2.159107,43.179185,818.162],[-2.159079,43.179228,817.733],[-2.159061,43.179273,817.742],[-2.159048,43.179318,817.958],[-2.159025,43.17937,817.864],[-2.158992,43.17942,817.428],[-2.158969,43.179462,817.173],[-2.158989,43.179509,818.44],[-2.158956,43.179551,817.777],[-2.158916,43.179594,816.677],[-2.158879,43.179641,815.761],[-2.158854,43.179683,815.227],[-2.158802,43.179715,813.509],[-2.158792,43.17976,813.628],[-2.158765,43.179803,813.169],[-2.158738,43.179856,812.738],[-2.158723,43.179901,812.764],[-2.158693,43.179948,812.31],[-2.158666,43.179993,811.954],[-2.158653,43.18004,811.679],[-2.158658,43.180092,811.916],[-2.158641,43.180142,811.573],[-2.158601,43.180202,810.429],[-2.158579,43.180249,809.9],[-2.158541,43.180297,809.52],[-2.158491,43.18033,809.009],[-2.158443,43.180362,808.683],[-2.158396,43.180407,808.824],[-2.158338,43.18044,808.473],[-2.158283,43.180463,807.799],[-2.158231,43.180501,807.695],[-2.158181,43.180534,807.439],[-2.158121,43.180562,806.984],[-2.158066,43.18059,806.651],[-2.158016,43.180632,807.168],[-2.157961,43.180665,807.172],[-2.157901,43.180698,807.013],[-2.157844,43.18073,807.114],[-2.157776,43.180753,806.509],[-2.157721,43.180785,806.758],[-2.157666,43.18081,806.669],[-2.157603,43.180822,805.888],[-2.157541,43.180834,804.994],[-2.157469,43.180859,804.88],[-2.157422,43.180891,805.774],[-2.157374,43.180919,806.229],[-2.157322,43.180956,807.166],[-2.157285,43.180994,808.123],[-2.157215,43.181027,808.332],[-2.157135,43.181052,808.292],[-2.157078,43.18107,808.111],[-2.15702,43.181087,808.009],[-2.156955,43.181115,808.364],[-2.156892,43.181138,808.035],[-2.156832,43.181158,807.694],[-2.15677,43.181183,807.39],[-2.15671,43.1812,806.866],[-2.156652,43.181235,807.05],[-2.156617,43.181273,807.845],[-2.15656,43.181305,808.012],[-2.156502,43.181342,808.379],[-2.156469,43.181382,809.467],[-2.156411,43.181425,809.981],[-2.156363,43.181465,810.319],[-2.156321,43.181498,810.509],[-2.156253,43.181528,809.847],[-2.156183,43.181551,808.928],[-2.15612,43.181574,808.287],[-2.156078,43.181619,809.193],[-2.156031,43.181654,809.439],[-2.155984,43.181686,809.633],[-2.155947,43.181729,810.548],[-2.155907,43.181764,811.015],[-2.155845,43.181782,810.372],[-2.155785,43.181805,809.813],[-2.155713,43.181823,809.043],[-2.155653,43.181835,808.107],[-2.1556,43.181858,808.009],[-2.155548,43.181883,808.082],[-2.155486,43.181905,807.763],[-2.155434,43.181937,808.082],[-2.155379,43.181959,807.818],[-2.155312,43.181969,806.754],[-2.155259,43.181992,806.638],[-2.155202,43.182015,806.543],[-2.155139,43.182027,805.99],[-2.155054,43.182062,806.087],[-2.154981,43.182084,805.719],[-2.154913,43.182111,805.609],[-2.15485,43.182126,805.119],[-2.154785,43.182148,804.909],[-2.154715,43.182181,805.192],[-2.154658,43.182201,804.963],[-2.154596,43.182228,804.982],[-2.154538,43.182255,804.998],[-2.15449,43.18229,805.364],[-2.154443,43.182327,805.738],[-2.154386,43.18236,805.983],[-2.154343,43.182403,806.88],[-2.154303,43.18244,807.637],[-2.154246,43.182478,808.234],[-2.154188,43.182506,808.555],[-2.154125,43.182526,808.01],[-2.154073,43.182561,808.109],[-2.154006,43.182579,807.554],[-2.153936,43.182599,807.065],[-2.153878,43.182616,806.534],[-2.15382,43.182654,806.68],[-2.15377,43.182682,806.646],[-2.15372,43.182712,806.76],[-2.153668,43.182759,807.415],[-2.153623,43.182796,807.762],[-2.15358,43.182838,808.299],[-2.153545,43.182881,808.816],[-2.15349,43.182906,808.576],[-2.153437,43.182933,808.313],[-2.153404,43.182971,808.809],[-2.153349,43.183004,808.872],[-2.153311,43.183056,809.563],[-2.153238,43.183134,809.542],[-2.153186,43.183172,809.158],[-2.153134,43.183204,808.594],[-2.153084,43.183237,807.978],[-2.153041,43.183275,807.673],[-2.152983,43.183305,806.78],[-2.152943,43.183345,806.397],[-2.152926,43.183397,806.262],[-2.152898,43.183439,805.783],[-2.152901,43.183484,806.111],[-2.152899,43.183529,806.309],[-2.152866,43.183579,805.367],[-2.152831,43.183626,804.188],[-2.152791,43.183661,802.337],[-2.152803,43.183711,802.633],[-2.152773,43.183751,801.339],[-2.152773,43.183803,801.183],[-2.152785,43.18386,801.458],[-2.152775,43.183913,800.655],[-2.152748,43.183956,798.912],[-2.152731,43.184001,797.797],[-2.152708,43.184069,796.223],[-2.152688,43.184114,795.125],[-2.152683,43.184169,794.509],[-2.152701,43.184219,794.38],[-2.152726,43.184262,794.321],[-2.152736,43.184315,793.59],[-2.152748,43.184377,792.636],[-2.152768,43.184474,790.762],[-2.152756,43.184522,788.766],[-2.152768,43.184572,787.281],[-2.152785,43.184619,785.988],[-2.152817,43.184661,785.155],[-2.152882,43.184748,783.269],[-2.152887,43.184796,781.304],[-2.152929,43.184829,780.824],[-2.152951,43.184881,779.109],[-2.152983,43.184944,777.127],[-2.15303,43.184989,776.018],[-2.153083,43.185039,774.797],[-2.153146,43.185074,774.243],[-2.153189,43.185112,773.239],[-2.153222,43.18515,772.073],[-2.1533,43.185197,771.218],[-2.153333,43.185242,769.765],[-2.153436,43.18531,767.982],[-2.153499,43.18534,767.319],[-2.153641,43.185427,764.909],[-2.153689,43.185455,764.019],[-2.153739,43.185482,763.209],[-2.153796,43.185509,762.512],[-2.153878,43.185534,762.073],[-2.15393,43.185572,760.762],[-2.153988,43.185614,759.578],[-2.154053,43.185637,759.334],[-2.154106,43.185669,758.418],[-2.154143,43.185706,757.253],[-2.154376,43.185843,753.96],[-2.154436,43.185866,753.687],[-2.154499,43.185884,753.921],[-2.154692,43.186047,750.341],[-2.154767,43.186094,749.705],[-2.154812,43.186134,749.109],[-2.154989,43.186254,749.673],[-2.155022,43.186302,749.144],[-2.155064,43.186345,748.933],[-2.155086,43.186393,748.179],[-2.155093,43.186518,746.965],[-2.15511,43.186651,745.849],[-2.155095,43.186696,745.984],[-2.155045,43.186729,745.831],[-2.155012,43.186789,746.448],[-2.154789,43.186992,746.491],[-2.154699,43.187119,745.681],[-2.154666,43.187162,744.919],[-2.154649,43.187205,744.809],[-2.154606,43.187247,743.99],[-2.154578,43.187302,743.671],[-2.154541,43.187372,743.41],[-2.154519,43.187425,743.546],[-2.154359,43.187773,742.772],[-2.154341,43.187818,742.346],[-2.154316,43.187861,741.781],[-2.154344,43.187926,741.868],[-2.154344,43.187971,741.695],[-2.154321,43.188023,740.942],[-2.154283,43.188061,740.122],[-2.154243,43.188103,739.414],[-2.154185,43.188161,738.409],[-2.154175,43.188211,738.265],[-2.154173,43.188256,738.146],[-2.154181,43.188304,738.395],[-2.154163,43.188352,737.891],[-2.154146,43.188397,737.217],[-2.154171,43.188444,737.791],[-2.154173,43.188501,737.586],[-2.154181,43.188546,737.683],[-2.154216,43.188584,738.34],[-2.154229,43.188629,738.462],[-2.154232,43.188687,738.083],[-2.154237,43.188734,737.711],[-2.154232,43.188784,737.109],[-2.154224,43.188829,736.697],[-2.154247,43.188882,736.528],[-2.154255,43.188932,736.477],[-2.154255,43.18898,736.273],[-2.154215,43.189028,735.539],[-2.15419,43.18907,735.283],[-2.154165,43.18912,735.068],[-2.15411,43.18916,734.195],[-2.154058,43.189195,733.332],[-2.154006,43.189237,732.583],[-2.153959,43.189269,732.025],[-2.153901,43.189296,731.617],[-2.153868,43.189336,731.309],[-2.153796,43.189361,730.659],[-2.153753,43.189394,730.52],[-2.153683,43.189422,730.289],[-2.15361,43.18942,729.545],[-2.153555,43.189445,729.491],[-2.153503,43.18947,728.655],[-2.153445,43.189497,727.87],[-2.153397,43.189527,727.197],[-2.15333,43.18951,726.444],[-2.153267,43.189512,724.863],[-2.153189,43.18953,722.744],[-2.153119,43.18955,720.918],[-2.153076,43.189587,720.009],[-2.153046,43.189632,719.437],[-2.152986,43.189664,718.148],[-2.152926,43.189706,717.027],[-2.152883,43.189741,716.023],[-2.152811,43.189751,714.389],[-2.152759,43.189784,712.713],[-2.152694,43.189782,711.228],[-2.152629,43.18979,709.785],[-2.152566,43.1898,708.292],[-2.152503,43.189803,706.889],[-2.152443,43.18979,705.306],[-2.152396,43.189755,704.226],[-2.152328,43.189728,702.609],[-2.152261,43.189721,700.919],[-2.152206,43.189749,699.42],[-2.152124,43.189732,697.579],[-2.152066,43.18977,695.785],[-2.152008,43.189755,694.451],[-2.151948,43.189788,692.655],[-2.151886,43.189813,691.17],[-2.151841,43.189845,690.057],[-2.151784,43.18988,688.884],[-2.151716,43.189903,687.558],[-2.151658,43.189931,686.752],[-2.151585,43.189939,686.017],[-2.151515,43.189961,685.409],[-2.151463,43.189993,684.886],[-2.151431,43.190035,683.757],[-2.151384,43.190065,682.646],[-2.151329,43.190087,681.832],[-2.151267,43.19011,681.158],[-2.15121,43.190128,680.542],[-2.151147,43.190166,679.747],[-2.151094,43.190211,679.194],[-2.151077,43.190254,678.791],[-2.151094,43.190306,677.876],[-2.151111,43.190354,676.99],[-2.151149,43.190404,676.119],[-2.151154,43.190452,675.309],[-2.151161,43.190497,674.658],[-2.151173,43.19055,673.679],[-2.15118,43.190598,673.088],[-2.151198,43.190643,672.364],[-2.151203,43.190703,671.67],[-2.151211,43.19075,671.054],[-2.151214,43.190797,670.469],[-2.151246,43.19084,669.916],[-2.151253,43.19089,669.063],[-2.151251,43.190942,668.021],[-2.151243,43.190987,667.241],[-2.151306,43.191059,665.905],[-2.151308,43.191107,665.109],[-2.151333,43.191149,663.793],[-2.151351,43.191194,662.124],[-2.151386,43.191234,660.663],[-2.151333,43.191264,659.699],[-2.151263,43.191266,659.745],[-2.151225,43.191313,658.289],[-2.151172,43.191373,656.384],[-2.151144,43.191418,654.691],[-2.151069,43.191425,654.568],[-2.150647,43.191688,644.641],[-2.150552,43.191715,643.681],[-2.15024,43.191838,637.809],[-2.150033,43.191885,635.409],[-2.14997,43.1919,634.785],[-2.149605,43.192035,629.966],[-2.149073,43.192358,615.225],[-2.149021,43.1924,613.821],[-2.148884,43.192497,611.237],[-2.148801,43.192574,608.821],[-2.148588,43.192709,607.566],[-2.148536,43.192741,607.043],[-2.148491,43.192776,606.46],[-2.148448,43.192814,606.151],[-2.148376,43.192942,605.001],[-2.148359,43.192995,604.511],[-2.148356,43.193045,603.809],[-2.148391,43.193092,602.646],[-2.148388,43.193149,602.127],[-2.148418,43.193189,601.336],[-2.148466,43.193239,600.372],[-2.148494,43.193284,599.648],[-2.148514,43.193329,599.122],[-2.148522,43.193376,598.377],[-2.148535,43.193429,597.464],[-2.148577,43.193561,595.031],[-2.148575,43.193606,594.317],[-2.148555,43.193668,592.487],[-2.14856,43.19372,590.415],[-2.14854,43.193815,587.209],[-2.14848,43.193845,586.592],[-2.148427,43.193868,586.153],[-2.148319,43.19393,585.972],[-2.148279,43.194087,585.488],[-2.148331,43.194119,585.254],[-2.148379,43.194164,584.858],[-2.148404,43.194206,585.773],[-2.148439,43.194248,586.64],[-2.148452,43.194295,587.677],[-2.148517,43.194328,588.022],[-2.148559,43.194363,588.662],[-2.148611,43.194395,588.908],[-2.148666,43.194418,589.209],[-2.148723,43.194436,589.483],[-2.14876,43.194474,589.834],[-2.148803,43.194514,590.173],[-2.1488,43.194566,590.699],[-2.14876,43.194609,591.285],[-2.1487,43.194646,591.989],[-2.148647,43.194673,592.374],[-2.148572,43.194686,592.821],[-2.14851,43.194696,593.178]]}}]}