{"type":"FeatureCollection","features":[{"type":"Feature","properties":{"ruta_id":"127634606","nombre":"CASCADA de PUTZUBELTZ paseo sencillo de IDA y VUELTA","blog_url":"https://www.rutasporelmonte.com/cascada-de-putzubeltz-ruta-facil/"},"geometry":{"type":"LineString","coordinates":[[-1.735488,43.179617,211.532],[-1.735533,43.179582,211.292],[-1.73548,43.179542,211.811],[-1.735423,43.179517,212.509],[-1.735358,43.179494,213.544],[-1.73532,43.179436,214.685],[-1.735315,43.179288,217.53],[-1.735337,43.17924,217.837],[-1.735392,43.179202,216.87],[-1.735652,43.179089,213.59],[-1.735692,43.179046,214.047],[-1.735734,43.179013,214.215],[-1.735777,43.178966,214.323],[-1.735834,43.178946,213.856],[-1.735889,43.178923,213.959],[-1.735967,43.178813,217.214],[-1.736044,43.178788,217.709],[-1.736117,43.178775,217.736],[-1.736192,43.178753,218.037],[-1.73625,43.17873,218.232],[-1.736312,43.178697,218.429],[-1.736379,43.178674,218.292],[-1.736434,43.178641,218.212],[-1.736496,43.178619,217.899],[-1.736546,43.178582,218.117],[-1.736593,43.178542,218.475],[-1.736648,43.178475,218.859],[-1.73667,43.178408,219.703],[-1.736683,43.178361,220.423],[-1.736708,43.178311,221.409],[-1.736741,43.178273,222.316],[-1.736778,43.178235,223.027],[-1.736828,43.178202,223.212],[-1.736893,43.178172,222.869],[-1.736955,43.178147,222.372],[-1.736995,43.178107,222.632],[-1.737045,43.17807,222.519],[-1.7371,43.178048,222.147],[-1.737165,43.178033,221.845],[-1.73721,43.17799,222.846],[-1.737257,43.177958,223.788],[-1.73732,43.17793,224.416],[-1.737375,43.177907,224.709],[-1.73745,43.177912,224.045],[-1.737515,43.177884,224.186],[-1.737572,43.177861,224.341],[-1.737632,43.177829,224.498],[-1.73769,43.177814,224.081],[-1.73777,43.177792,223.241],[-1.737843,43.177772,223.198],[-1.737885,43.17772,224.276],[-1.737913,43.177675,224.944],[-1.73792,43.177623,225.789],[-1.737903,43.177575,226.906],[-1.73787,43.177535,228.326],[-1.73785,43.177483,230.209],[-1.737842,43.177438,232.449],[-1.737872,43.177396,233.58],[-1.737927,43.177358,233.645],[-1.737974,43.177315,234.092],[-1.738027,43.17728,233.835],[-1.738057,43.177235,234.585],[-1.7381,43.177193,235.192],[-1.738158,43.177165,234.66],[-1.738211,43.177123,234.398],[-1.738273,43.177103,232.719],[-1.73834,43.17709,230.809],[-1.738407,43.177067,231.119],[-1.738449,43.177024,231.309],[-1.738507,43.176924,231.292],[-1.738517,43.176864,232.063],[-1.738522,43.176766,233.338],[-1.738522,43.176719,234.155],[-1.738539,43.176671,234.148],[-1.738559,43.176623,233.928],[-1.738577,43.176571,233.885],[-1.738602,43.176529,233.083],[-1.738615,43.176484,233.091],[-1.738675,43.176501,232.795],[-1.73881,43.176556,232.349],[-1.738472,43.176378,243.223],[-1.738632,43.176373,234.209],[-1.73869,43.176171,237.32],[-1.738713,43.176103,238.191],[-1.738755,43.175973,242.196],[-1.738825,43.175908,242.573],[-1.738897,43.1759,240.776],[-1.73897,43.175875,240.576],[-1.739042,43.175852,239.913],[-1.739109,43.175842,238.941],[-1.739166,43.175814,238.659],[-1.739228,43.175802,238.755],[-1.739275,43.175772,239.307],[-1.739392,43.175722,239.817],[-1.739449,43.175699,239.909],[-1.739539,43.175682,240.466],[-1.739604,43.175664,240.637],[-1.739646,43.175631,240.982],[-1.739663,43.175588,241.239],[-1.73973,43.175553,241.052],[-1.739783,43.175526,241.372],[-1.739813,43.175486,241.869],[-1.73982,43.175439,242.617],[-1.739798,43.175382,243.785],[-1.739791,43.17533,244.672],[-1.739743,43.175283,245.813],[-1.739691,43.175251,246.914],[-1.739634,43.175218,248.109],[-1.739457,43.175093,250.658],[-1.739514,43.17507,250.529],[-1.739574,43.175048,250.544],[-1.739637,43.175025,250.791],[-1.739702,43.175005,250.984],[-1.739769,43.175003,251.644],[-1.739899,43.175011,253.281],[-1.739889,43.174961,254.619],[-1.739947,43.174976,254.977],[-1.740015,43.174954,255.964],[-1.74008,43.174951,254.706],[-1.740118,43.174913,255.016],[-1.740361,43.174695,257.109],[-1.740466,43.174623,257.017],[-1.740583,43.174553,257.888],[-1.740668,43.174521,258.573],[-1.740733,43.174489,259.22],[-1.740796,43.174464,259.643],[-1.740888,43.174441,259.693],[-1.740881,43.174496,257.29],[-1.740864,43.174553,254.788],[-1.740926,43.174531,255.346],[-1.741006,43.174493,256.261],[-1.741054,43.174458,257.121],[-1.741127,43.174426,257.813],[-1.741179,43.174399,258.609],[-1.741237,43.174379,259.087],[-1.741302,43.174357,259.228],[-1.741369,43.174332,259.343],[-1.741432,43.174285,259.93],[-1.741489,43.174258,259.523],[-1.741539,43.174228,259.233],[-1.741559,43.174178,259.86],[-1.741639,43.173925,259.938],[-1.741702,43.17351,262.156],[-1.741742,43.173455,262.695],[-1.741794,43.173422,262.749],[-1.741856,43.173394,262.623],[-1.741961,43.173376,262.609],[-1.742109,43.173679,258.61],[-1.742169,43.173699,258.751],[-1.742236,43.173676,259.496],[-1.742328,43.173629,258.873],[-1.742735,43.173197,259.496],[-1.742777,43.173152,258.966],[-1.742809,43.17311,259.553],[-1.742857,43.173075,259.641],[-1.742925,43.173025,260.269],[-1.743025,43.172917,263.458],[-1.743075,43.17289,264.052],[-1.74326,43.172958,261.617],[-1.743617,43.172761,264.409],[-1.743647,43.172708,265.536],[-1.743705,43.172676,266.367],[-1.743798,43.172654,266.972],[-1.743863,43.172652,267.249],[-1.744051,43.172607,268.872],[-1.744123,43.172585,268.962],[-1.744486,43.172413,271.679],[-1.744546,43.172318,270.747],[-1.744499,43.172283,268.195],[-1.744452,43.17232,267.779],[-1.744409,43.172283,266.005],[-1.744386,43.172228,264.525],[-1.744429,43.172111,271.409],[-1.744362,43.172111,269.838],[-1.744297,43.172096,269.029],[-1.744237,43.172079,268.134],[-1.744167,43.172047,267.151],[-1.744105,43.172064,267.354],[-1.744042,43.172072,267.894],[-1.74397,43.172095,268.221],[-1.74398,43.172152,266.939],[-1.743997,43.172195,265.737],[-1.743937,43.17208,269.047],[-1.744009,43.172065,268.429],[-1.744044,43.171875,274.921],[-1.744021,43.17194,271.309],[-1.744011,43.171892,274.345],[-1.744044,43.17184,277.016],[-1.744114,43.171808,277.771],[-1.744186,43.171805,277.988],[-1.744084,43.171597,288.151],[-1.744121,43.171635,286.061],[-1.744148,43.171748,280.328],[-1.744138,43.171811,277.256],[-1.744078,43.171706,284.064],[-1.744038,43.171798,279.536],[-1.744023,43.17186,276.117],[-1.744058,43.171918,272.318],[-1.74407,43.171973,270.009],[-1.743905,43.17114,304.294],[-1.743923,43.171038,306.335],[-1.744121,43.171821,276.94],[-1.744069,43.171794,279.257],[-1.744041,43.171849,276.55],[-1.744009,43.171904,273.61],[-1.743996,43.171957,271.097],[-1.743973,43.17202,269.815],[-1.74397,43.172065,268.963],[-1.743992,43.17212,267.446],[-1.743994,43.172175,266.288],[-1.744004,43.17223,264.916],[-1.743974,43.172283,265.109],[-1.743934,43.172328,265.125],[-1.743891,43.172365,264.986],[-1.743831,43.172392,266.251],[-1.743789,43.172444,266.218],[-1.743739,43.172481,266.361],[-1.743681,43.172504,266.721],[-1.743623,43.172519,267.558],[-1.743571,43.172557,268.426],[-1.743524,43.172587,269.014],[-1.743526,43.172632,267.798],[-1.743483,43.172665,267.415],[-1.743418,43.172712,266.226],[-1.743355,43.172745,264.909],[-1.743292,43.172778,263.96],[-1.743267,43.17282,263.891],[-1.743189,43.17284,264.596],[-1.743132,43.172887,263.713],[-1.743119,43.172932,262.236],[-1.743101,43.172985,260.376],[-1.743069,43.173027,258.463],[-1.743027,43.173062,257.491],[-1.742965,43.173089,258.139],[-1.742892,43.173112,258.692],[-1.742827,43.173129,259.073],[-1.742767,43.173144,259.52],[-1.742712,43.173187,260.409],[-1.74268,43.173227,260.79],[-1.742633,43.17327,261.541],[-1.742583,43.173323,262.246],[-1.742561,43.173376,261.773],[-1.742543,43.173419,261.146],[-1.742513,43.173461,260.696],[-1.74247,43.173501,260.193],[-1.742432,43.173543,259.451],[-1.742379,43.173578,259.249],[-1.742304,43.173581,260.483],[-1.742227,43.173584,261.725],[-1.742159,43.173564,261.617],[-1.742111,43.173597,260.109],[-1.742036,43.173585,259.669],[-1.741974,43.173568,259.11],[-1.741907,43.173541,259.645],[-1.741847,43.173554,260.052],[-1.741805,43.173587,259.965],[-1.741768,43.173627,259.885],[-1.74172,43.17367,260.052],[-1.741748,43.173625,260.01],[-1.741785,43.173552,260.788],[-1.741775,43.173605,259.995],[-1.741722,43.173765,259.249],[-1.741707,43.17381,259.023],[-1.74169,43.173853,258.909],[-1.74168,43.173911,258.66],[-1.741665,43.173968,258.521],[-1.741642,43.174016,259.096],[-1.74161,43.174068,259.623],[-1.741582,43.174108,260.146],[-1.74154,43.17416,260.736],[-1.741505,43.174207,260.673],[-1.741458,43.174247,260.541],[-1.741408,43.174277,260.649],[-1.741346,43.174294,261.165],[-1.741278,43.174304,261.768],[-1.741218,43.174324,261.614],[-1.741143,43.174344,261.709],[-1.741088,43.174367,261.237],[-1.741021,43.174385,261.128],[-1.740964,43.174403,260.883],[-1.740892,43.174426,260.46],[-1.740834,43.174448,259.893],[-1.740734,43.174481,259.623],[-1.740684,43.174508,258.95],[-1.740641,43.174548,257.428],[-1.740558,43.174556,257.916],[-1.74052,43.174594,256.932],[-1.74046,43.174621,257.392],[-1.740392,43.174648,258.111],[-1.740344,43.17468,258.309],[-1.740306,43.174722,258.054],[-1.740256,43.17476,257.915],[-1.740214,43.174807,256.81],[-1.740172,43.174852,256.057],[-1.740114,43.174882,256.06],[-1.740061,43.174905,256.33],[-1.740006,43.174937,256.567],[-1.739943,43.174947,255.625],[-1.739881,43.174964,254.443],[-1.739819,43.174986,252.872],[-1.739751,43.174988,251.813],[-1.739679,43.174998,251.114],[-1.739621,43.175023,250.709],[-1.739558,43.175051,250.588],[-1.73955,43.175099,250.129],[-1.739552,43.175154,249.664],[-1.739605,43.175212,248.541],[-1.739672,43.175217,247.774],[-1.739744,43.175229,246.884],[-1.739792,43.175264,245.871],[-1.739832,43.175309,244.789],[-1.739865,43.175349,243.837],[-1.739888,43.175396,242.951],[-1.739873,43.175449,242.201],[-1.739833,43.175502,241.511],[-1.739791,43.175539,241.009],[-1.739724,43.175557,241.026],[-1.739624,43.175597,241.397],[-1.739564,43.175629,241.152],[-1.739497,43.175654,240.879],[-1.739439,43.175692,240.162],[-1.739381,43.17573,239.742],[-1.739319,43.175768,239.259],[-1.739256,43.175801,238.677],[-1.739184,43.175824,238.295],[-1.739126,43.175852,238.583],[-1.739069,43.175879,238.925],[-1.739009,43.175904,239.217],[-1.738954,43.175932,239.109],[-1.738907,43.175967,238.549],[-1.738855,43.176004,238.31],[-1.738808,43.176049,238.055],[-1.738745,43.176077,238.462],[-1.738713,43.176124,237.665],[-1.73871,43.176174,236.915],[-1.7387,43.176226,236.312],[-1.73869,43.176273,235.61],[-1.738702,43.17632,234.888],[-1.7387,43.176377,233.982],[-1.738665,43.17642,233.543],[-1.738637,43.176462,233.217],[-1.738615,43.176517,232.609],[-1.738587,43.176585,233.149],[-1.738574,43.176632,233.13],[-1.738557,43.176679,233.275],[-1.738532,43.176722,233.632],[-1.738517,43.176782,233.395],[-1.73849,43.17683,233.345],[-1.738475,43.176878,232.762],[-1.738452,43.176923,232.31],[-1.738397,43.176973,232.438],[-1.73835,43.177005,232.581],[-1.738302,43.177035,233.461],[-1.738267,43.177075,233.717],[-1.738244,43.177127,233.109],[-1.738186,43.177152,234.219],[-1.738134,43.177177,234.88],[-1.738081,43.177209,234.975],[-1.738049,43.177262,233.892],[-1.737997,43.17731,233.555],[-1.737935,43.177333,234.455],[-1.737885,43.177363,234.572],[-1.737872,43.177408,232.95],[-1.737892,43.177465,230.088],[-1.737897,43.17751,228.221],[-1.737935,43.177553,226.741],[-1.73789,43.177595,226.705],[-1.73786,43.177657,225.709],[-1.73784,43.177707,224.723],[-1.73779,43.177745,223.974],[-1.73773,43.17778,223.579],[-1.73767,43.177793,224.256],[-1.737612,43.177813,224.649],[-1.737545,43.177826,224.999],[-1.737488,43.177866,224.566],[-1.737433,43.177896,224.534],[-1.737366,43.177918,224.472],[-1.737313,43.177941,224.122],[-1.73726,43.177969,223.362],[-1.737212,43.178006,222.108],[-1.737134,43.178024,222.709],[-1.737086,43.178062,222.043],[-1.737039,43.178107,222.364],[-1.736976,43.178145,222.399],[-1.736914,43.17816,222.766],[-1.736861,43.178203,222.729],[-1.736801,43.178243,222.529],[-1.736766,43.178281,221.846],[-1.736744,43.178328,220.634],[-1.736737,43.17839,219.832],[-1.736725,43.178435,219.332],[-1.736695,43.178475,218.692],[-1.73665,43.178508,218.111],[-1.736612,43.178545,218.009],[-1.736567,43.178583,217.834],[-1.736504,43.178625,217.755],[-1.736442,43.178647,218.03],[-1.736369,43.178672,218.387],[-1.736306,43.178697,218.57],[-1.736246,43.178727,218.33],[-1.736191,43.17876,217.847],[-1.736133,43.178793,217.135],[-1.736071,43.178813,216.763],[-1.736001,43.17882,216.735],[-1.735949,43.178852,215.686],[-1.735894,43.178889,214.014],[-1.735849,43.178921,213.909],[-1.735797,43.178949,214.254],[-1.735737,43.178981,214.555],[-1.735682,43.179018,214.41],[-1.73563,43.179058,214.187],[-1.735575,43.179085,213.79],[-1.735527,43.179118,214.11],[-1.735474,43.179163,214.757],[-1.735431,43.179206,215.665],[-1.735396,43.179256,215.973],[-1.735381,43.179308,215.574],[-1.735366,43.179356,215.156],[-1.735331,43.179418,214.721],[-1.735374,43.179473,213.409],[-1.735399,43.179516,212.858],[-1.735459,43.179548,212.079]]}}]}