{"type":"FeatureCollection","features":[{"type":"Feature","properties":{"ruta_id":"130775882","nombre":"MIRADOR del ROC del QUER","blog_url":"https://www.rutasporelmonte.com/mirador-del-roc-del-quer/"},"geometry":{"type":"LineString","coordinates":[[1.586772,42.571525,1980.889],[1.586837,42.571515,1980.806],[1.586914,42.57153,1980.826],[1.586976,42.571503,1980.809],[1.586934,42.571465,1980.869],[1.586942,42.57141,1980.881],[1.586957,42.571365,1980.868],[1.586962,42.571307,1980.885],[1.586982,42.57126,1980.835],[1.586989,42.57121,1980.833],[1.587017,42.571167,1980.836],[1.587027,42.571115,1980.876],[1.58702,42.57107,1980.87],[1.587052,42.571022,1980.852],[1.587057,42.570969,1980.853],[1.587035,42.570921,1980.808],[1.587043,42.570873,1980.809],[1.587083,42.57082,1980.846],[1.587105,42.570775,1980.878],[1.587125,42.570722,1980.815],[1.58715,42.570677,1980.892],[1.587145,42.570735,1980.882],[1.587157,42.570645,1994.82],[1.587177,42.570597,1995.343],[1.587217,42.57056,1995.643],[1.587265,42.570527,1994.517],[1.58729,42.570484,1993.582],[1.587312,42.570437,1994.443],[1.587337,42.570384,1996.017],[1.587362,42.570334,1998.509],[1.587397,42.570294,2001.089],[1.587402,42.570234,2003.561],[1.58743,42.570187,2002.528],[1.587445,42.570139,2001.785],[1.587475,42.570096,2000.355],[1.587502,42.570049,1999.193],[1.587537,42.570006,1998.636],[1.587569,42.569958,1997.796],[1.587606,42.569918,1998.69],[1.587656,42.569876,1999.527],[1.587706,42.569838,1999.868],[1.587741,42.5698,1999.814],[1.587783,42.569757,1999.509],[1.587821,42.569712,1999.993],[1.587839,42.569659,1999.435],[1.587866,42.569607,1999.772],[1.587883,42.569552,1999.829],[1.587875,42.569499,1999.959],[1.587877,42.569452,2000.037],[1.587874,42.569402,1999.97],[1.587842,42.569345,1999.36],[1.587814,42.569305,1999.764],[1.587761,42.569265,2000.031],[1.587719,42.569225,2001.461],[1.587671,42.569182,2002.607],[1.587631,42.569139,2003.709],[1.587593,42.569104,2004.994],[1.587546,42.569074,2007.136],[1.587494,42.569032,2008.553],[1.587447,42.568999,2009.73],[1.5874,42.568962,2010.52],[1.587363,42.568999,2004.578],[1.587431,42.569006,2003.091],[1.587501,42.568991,2001.891],[1.587568,42.568991,2002.835],[1.58763,42.568978,2004.626],[1.587695,42.568951,2003.747],[1.587753,42.568936,2004.311],[1.587825,42.568938,2005.009],[1.587893,42.568933,2004.233],[1.587958,42.568931,2003.665],[1.58803,42.568918,2003.652],[1.588095,42.568911,2004.649],[1.588138,42.568876,2004.799],[1.588205,42.568876,2007.577],[1.588263,42.568863,2007.42],[1.588323,42.568833,2006.74],[1.58839,42.568826,2005.834],[1.588462,42.568814,2004.049],[1.588534,42.568796,2002.102],[1.588599,42.568779,2000.922],[1.588652,42.568754,1999.009],[1.58871,42.568726,1998.445],[1.588772,42.568704,1998.027],[1.58879,42.568656,1998.624],[1.588728,42.568618,1997.271],[1.58882,42.568681,1998.861],[1.588892,42.568669,1999.249],[1.588949,42.568651,1999.842],[1.589011,42.568633,2000.362],[1.589073,42.56862,2000.536],[1.589131,42.568592,2001.467],[1.589189,42.56856,1999.381],[1.589251,42.568557,1999.519],[1.589313,42.568527,1999.409],[1.589391,42.56852,2000.377],[1.589444,42.56849,1999.749],[1.589509,42.568468,1999.216],[1.589582,42.56844,1997.193],[1.589637,42.568418,1996.013],[1.589694,42.568398,1995.691],[1.589756,42.568365,1996.524],[1.589818,42.568342,1997.344],[1.589875,42.568319,1997.798],[1.58993,42.568296,1998.069],[1.589997,42.568278,1997.204],[1.59006,42.568275,1996.624],[1.590105,42.568238,1995.509],[1.590145,42.568191,1993.917],[1.590175,42.568143,1992.789],[1.590217,42.568101,1991.026],[1.590277,42.568079,1990.233],[1.590332,42.568057,1989.633],[1.590402,42.568034,1990.561],[1.590419,42.567984,1990.474],[1.590446,42.567937,1989.714],[1.590494,42.567895,1988.888],[1.590511,42.567845,1988.461],[1.590553,42.56781,1986.821],[1.590561,42.567763,1983.913],[1.590596,42.567715,1982.709],[1.590623,42.567672,1980.757],[1.590676,42.567639,1979.839],[1.590726,42.567597,1979.356],[1.590759,42.567555,1978.253],[1.590772,42.567508,1976.383],[1.590802,42.567461,1977.731],[1.590845,42.567423,1978.094],[1.590897,42.567398,1976.644],[1.590852,42.567436,1972.378],[1.59081,42.567403,1972.311],[1.590813,42.567358,1971.721],[1.59076,42.567335,1971.003],[1.590783,42.567293,1968.109],[1.590845,42.567286,1965.312],[1.59092,42.567299,1964.164],[1.590988,42.567304,1962.891],[1.591043,42.567327,1961.538],[1.591101,42.567309,1963.218],[1.591188,42.567251,1968.696],[1.591121,42.567259,1966.859],[1.591074,42.567291,1963.779],[1.591009,42.567299,1963.253],[1.590882,42.567294,1962.973],[1.590824,42.567272,1965.385],[1.590771,42.567312,1965.313],[1.590721,42.567349,1965.409],[1.590784,42.567361,1966.868],[1.590849,42.567368,1966.62],[1.590911,42.567385,1967.077],[1.590894,42.567433,1969.044],[1.590839,42.567453,1970.114],[1.590796,42.567488,1972.442],[1.590754,42.567525,1973.675],[1.590714,42.567568,1975.265],[1.590682,42.567613,1976.449],[1.59066,42.567663,1978.431],[1.590638,42.567706,1978.661],[1.590596,42.567744,1979.407],[1.590568,42.567787,1979.809],[1.590555,42.56784,1982.314],[1.590523,42.567885,1983.496],[1.590486,42.567922,1984.183],[1.590463,42.567967,1984.73],[1.590416,42.568002,1986.04],[1.590363,42.56803,1987.428],[1.590301,42.56806,1989.251],[1.590258,42.5681,1991.531],[1.59023,42.568145,1991.675],[1.590203,42.56819,1992.478],[1.59015,42.568222,1993.033],[1.590127,42.56827,1995.626],[1.590062,42.56828,1995.909],[1.589999,42.5683,1994.778],[1.589934,42.568327,1993.58],[1.589872,42.568362,1993.337],[1.589819,42.568392,1994.394],[1.589766,42.568419,1995.354],[1.589708,42.568437,1996.822],[1.58964,42.568447,1998.295],[1.58959,42.568475,1998.695],[1.589543,42.56851,1999.319],[1.589488,42.56853,2000.957],[1.58942,42.568545,2001.0],[1.589345,42.568547,2001.62],[1.589285,42.568559,2002.909],[1.589217,42.568571,2005.616],[1.589159,42.568594,2006.248],[1.589106,42.568621,2006.765],[1.589039,42.568626,2007.032],[1.588979,42.568641,2006.852],[1.588917,42.568673,2006.87],[1.588845,42.568705,2006.163],[1.588788,42.568727,2004.613],[1.588733,42.568755,2003.437],[1.588661,42.56877,2002.847],[1.588591,42.568785,2003.729],[1.588531,42.568795,2004.721],[1.588471,42.568815,2004.309],[1.588414,42.568847,2004.965],[1.588356,42.568864,2005.477],[1.588284,42.568884,2006.164],[1.588224,42.568894,2005.711],[1.588159,42.568907,2004.221],[1.588092,42.568917,2003.539],[1.588019,42.568927,2003.212],[1.587961,42.568944,2004.082],[1.587891,42.568957,2003.666],[1.587826,42.568949,2001.977],[1.587754,42.568952,2001.761],[1.587689,42.568974,2002.627],[1.587627,42.568984,2003.009],[1.587554,42.568991,2002.878],[1.587481,42.568993,2002.37],[1.587419,42.569008,2002.527],[1.587431,42.569056,2004.544],[1.587488,42.569086,2005.474],[1.587545,42.569118,2005.472],[1.587607,42.56915,2004.695],[1.587662,42.569183,2004.335],[1.587719,42.569206,2003.569],[1.587762,42.569243,2002.479],[1.5878,42.569281,2001.005],[1.58783,42.569326,1999.325],[1.587857,42.569374,1998.409],[1.587869,42.569431,1997.988],[1.587879,42.569483,1997.77],[1.587874,42.569533,1998.947],[1.587846,42.569581,1999.494],[1.587826,42.569628,1999.154],[1.587804,42.569686,1998.512],[1.587777,42.569739,1998.315],[1.587744,42.569784,1998.445],[1.587691,42.569832,1997.049],[1.587666,42.56988,1996.821],[1.587628,42.56992,1995.541],[1.587601,42.569968,1995.805],[1.587566,42.570013,1995.109],[1.587538,42.570053,1995.283],[1.5875,42.570088,1995.465],[1.58747,42.57013,1994.612],[1.58744,42.570173,1994.169],[1.587408,42.57022,1995.189],[1.587376,42.570263,1995.487],[1.587346,42.570313,1994.71],[1.587321,42.57036,1994.18],[1.587296,42.570402,1994.164],[1.587211,42.570517,1992.716],[1.587174,42.570564,1992.776],[1.587151,42.570609,1992.513],[1.587146,42.570667,1992.309],[1.587139,42.570717,1992.042],[1.587132,42.570765,1991.034],[1.587099,42.570807,1989.241],[1.587082,42.570864,1988.768],[1.58707,42.570912,1988.128],[1.58704,42.570955,1987.016],[1.587025,42.571,1986.599],[1.58701,42.571053,1985.759],[1.586982,42.571096,1984.683],[1.586957,42.571144,1984.094],[1.586935,42.571194,1985.057],[1.586928,42.571247,1985.022],[1.586913,42.571302,1984.309],[1.5869,42.571355,1983.08],[1.58688,42.571403,1984.082],[1.586855,42.571451,1983.799]]}}]}