{"type":"FeatureCollection","features":[{"type":"Feature","properties":{"ruta_id":"138716040","nombre":"CASCADA de IXKIER y RUTA de los 3 PUENTES desde Lekunberri","blog_url":"https://www.rutasporelmonte.com/cascada-de-ixkier-y-ruta-de-los-3-puentes-desde-lekunberri/"},"geometry":{"type":"LineString","coordinates":[[-1.891244,43.001213,575.134],[-1.891182,43.000825,575.155],[-1.891037,43.00078,575.11],[-1.891175,43.001002,575.109],[-1.89122,43.001055,575.164],[-1.891493,43.001108,575.186],[-1.89157,43.000955,575.161],[-1.891423,43.000932,575.19],[-1.891395,43.000979,578.974],[-1.89135,43.001016,581.119],[-1.891353,43.001074,580.513],[-1.891358,43.001121,578.417],[-1.891326,43.001169,576.113],[-1.891263,43.001187,573.665],[-1.891188,43.001184,571.668],[-1.891123,43.001167,569.714],[-1.891065,43.001147,569.109],[-1.891017,43.001119,568.147],[-1.89097,43.001082,567.839],[-1.890918,43.001055,567.564],[-1.890851,43.00103,567.663],[-1.890803,43.000993,567.787],[-1.890766,43.00095,569.352],[-1.890731,43.000902,570.696],[-1.890689,43.000857,570.75],[-1.890646,43.00082,571.066],[-1.890624,43.000772,572.623],[-1.890547,43.000745,572.983],[-1.890485,43.000715,573.111],[-1.890432,43.000685,572.809],[-1.890384,43.000647,572.713],[-1.890337,43.000609,572.835],[-1.890282,43.000577,573.21],[-1.89023,43.000544,573.359],[-1.890183,43.000507,573.463],[-1.890141,43.000474,573.538],[-1.890098,43.000432,573.042],[-1.890021,43.000409,572.246],[-1.889968,43.000386,571.782],[-1.889901,43.000373,570.555],[-1.889833,43.00035,569.307],[-1.889776,43.000307,568.917],[-1.889711,43.000315,569.009],[-1.889664,43.000285,569.296],[-1.889621,43.000243,570.878],[-1.889604,43.000191,570.913],[-1.889602,43.000143,570.992],[-1.889547,43.000113,570.936],[-1.889489,43.000081,570.541],[-1.889446,43.000036,570.185],[-1.889406,42.999993,569.759],[-1.889351,42.999955,569.595],[-1.889288,42.99993,569.486],[-1.889315,42.99988,569.26],[-1.889353,42.99984,569.126],[-1.889403,42.999788,569.209],[-1.889458,42.999756,569.229],[-1.88951,42.999728,569.271],[-1.889578,42.999698,569.296],[-1.88963,42.99966,569.235],[-1.889673,42.999613,565.759],[-1.889683,42.999561,565.424],[-1.889645,42.999509,565.028],[-1.889612,42.999461,564.052],[-1.88957,42.999421,562.878],[-1.889525,42.999381,561.117],[-1.889477,42.999349,560.887],[-1.88945,42.999299,560.715],[-1.8894,42.999259,561.209],[-1.889343,42.999222,562.022],[-1.889285,42.999194,563.584],[-1.889242,42.999161,565.659],[-1.889205,42.999124,565.898],[-1.889158,42.999159,565.542],[-1.889116,42.999201,565.817],[-1.889061,42.999226,566.031],[-1.889006,42.999251,566.015],[-1.888956,42.999284,565.791],[-1.888894,42.999289,568.193],[-1.888831,42.999284,569.865],[-1.888768,42.999306,570.121],[-1.888691,42.999329,571.109],[-1.888626,42.999302,571.91],[-1.888574,42.99926,572.142],[-1.888537,42.999217,572.317],[-1.888495,42.999175,572.446],[-1.888462,42.999135,572.93],[-1.888435,42.999087,573.235],[-1.888402,42.999044,573.399],[-1.888385,42.998997,573.593],[-1.888412,42.998954,572.369],[-1.888442,42.998899,571.884],[-1.888477,42.998861,571.707],[-1.888509,42.998816,571.717],[-1.888527,42.998764,571.709],[-1.888562,42.998701,571.469],[-1.888575,42.998654,570.991],[-1.888597,42.998607,570.996],[-1.888634,42.998565,571.025],[-1.888667,42.998513,572.019],[-1.888687,42.998468,572.474],[-1.888709,42.998416,572.778],[-1.888722,42.998369,573.052],[-1.888764,42.998322,573.248],[-1.888747,42.998272,573.127],[-1.888719,42.998222,572.868],[-1.888721,42.99817,571.714],[-1.888744,42.998128,569.609],[-1.888792,42.9981,569.273],[-1.888792,42.998053,569.875],[-1.888794,42.997998,570.35],[-1.888797,42.997948,570.669],[-1.88877,42.997898,571.293],[-1.888742,42.997855,573.418],[-1.888749,42.997795,571.932],[-1.888757,42.997733,571.326],[-1.888765,42.997671,571.262],[-1.888767,42.997626,571.066],[-1.888779,42.997573,571.029],[-1.888774,42.997528,571.021],[-1.888754,42.997481,571.109],[-1.888771,42.997433,571.377],[-1.888776,42.997385,571.449],[-1.888773,42.997325,571.924],[-1.888806,42.997278,572.213],[-1.888801,42.997233,572.647],[-1.888811,42.997185,572.942],[-1.888818,42.99714,573.026],[-1.888836,42.997085,573.06],[-1.888849,42.997038,572.866],[-1.888872,42.996993,572.552],[-1.888887,42.99694,572.153],[-1.888909,42.99689,571.908],[-1.888942,42.996845,571.609],[-1.888965,42.9968,571.366],[-1.888985,42.996752,570.828],[-1.889002,42.996707,570.813],[-1.88905,42.996664,570.732],[-1.889073,42.996617,570.296],[-1.889075,42.996572,569.621],[-1.889147,42.996554,564.265],[-1.889147,42.996506,564.239],[-1.889227,42.996453,565.595],[-1.889167,42.996488,566.335],[-1.889219,42.99643,566.386],[-1.889274,42.996387,566.314],[-1.889296,42.996337,566.309],[-1.889311,42.996292,566.364],[-1.889346,42.996249,568.456],[-1.889384,42.996204,568.531],[-1.889426,42.996169,568.74],[-1.889479,42.996137,569.294],[-1.889526,42.996092,570.349],[-1.889561,42.996049,571.243],[-1.889594,42.996004,571.847],[-1.889621,42.995946,572.043],[-1.889656,42.995898,571.533],[-1.889659,42.995828,569.823],[-1.889661,42.995768,568.815],[-1.889764,42.995686,568.109],[-1.889812,42.995619,568.544],[-1.889825,42.995566,572.156],[-1.889845,42.995514,577.131],[-1.88986,42.995459,580.77],[-1.88988,42.995407,582.054],[-1.889908,42.995362,582.649],[-1.889931,42.995307,582.973],[-1.889968,42.99527,583.537],[-1.890011,42.995227,584.243],[-1.890033,42.99516,585.693],[-1.89,42.995093,586.065],[-1.889968,42.995045,586.221],[-1.889925,42.995008,586.309],[-1.8899,42.994955,586.42],[-1.889877,42.994913,584.242],[-1.889907,42.994865,581.287],[-1.889892,42.99481,577.956],[-1.889842,42.994763,576.38],[-1.889825,42.994715,575.665],[-1.889805,42.994658,572.289],[-1.88978,42.994611,568.393],[-1.889797,42.994561,564.639],[-1.889807,42.994501,563.038],[-1.889827,42.994456,562.27],[-1.889839,42.994406,562.117],[-1.889861,42.994354,562.209],[-1.889881,42.994306,562.364],[-1.889919,42.994256,563.466],[-1.889931,42.994209,563.441],[-1.889926,42.994156,563.08],[-1.889953,42.994109,562.644],[-1.889955,42.994059,562.349],[-1.889977,42.994012,562.023],[-1.89,42.99397,561.917],[-1.890005,42.993923,561.583],[-1.890012,42.993871,560.976],[-1.890014,42.993818,560.69],[-1.890022,42.993765,559.919],[-1.89001,42.99371,559.909],[-1.889998,42.993658,559.978],[-1.89,42.993608,560.05],[-1.89,42.993558,560.315],[-1.889983,42.993505,560.464],[-1.889948,42.99346,560.518],[-1.889908,42.993418,561.033],[-1.889878,42.993378,561.077],[-1.88984,42.993338,561.011],[-1.889778,42.993316,561.117],[-1.88973,42.993283,561.216],[-1.889678,42.993255,561.276],[-1.889625,42.993218,561.313],[-1.889558,42.993188,561.309],[-1.889511,42.993158,561.272],[-1.889464,42.99312,561.554],[-1.889399,42.993098,562.619],[-1.889322,42.99306,562.668],[-1.889255,42.993028,562.662],[-1.889205,42.992995,561.247],[-1.889158,42.992965,564.221],[-1.889118,42.992923,564.165],[-1.889071,42.992888,564.051],[-1.889046,42.992845,564.123],[-1.889006,42.992808,563.683],[-1.888971,42.99276,561.411],[-1.888933,42.992717,561.409],[-1.888883,42.99269,561.483],[-1.888848,42.99265,561.415],[-1.88881,42.992612,561.42],[-1.88878,42.992572,560.469],[-1.888738,42.992532,559.193],[-1.888683,42.992499,556.398],[-1.888635,42.992464,553.382],[-1.888597,42.992416,550.856],[-1.888539,42.992373,548.842],[-1.888484,42.99234,547.685],[-1.888412,42.992308,547.389],[-1.888352,42.992278,547.217],[-1.8883,42.992248,547.709],[-1.888232,42.99221,554.619],[-1.88817,42.992168,554.641],[-1.888102,42.992128,554.646],[-1.888039,42.992086,554.625],[-1.887971,42.992051,557.489],[-1.887913,42.992018,557.464],[-1.88785,42.991983,557.268],[-1.887802,42.991951,557.112],[-1.887757,42.991919,556.528],[-1.8877,42.991882,556.754],[-1.887637,42.991874,560.456],[-1.887597,42.991837,560.211],[-1.887557,42.991792,560.209],[-1.887517,42.991747,560.386],[-1.887457,42.991715,560.328],[-1.887435,42.991668,558.073],[-1.887422,42.991623,558.082],[-1.887405,42.99157,558.026],[-1.887398,42.991518,558.271],[-1.887391,42.991473,558.855],[-1.887416,42.991428,559.569],[-1.887433,42.991376,560.555],[-1.887466,42.991324,560.737],[-1.887483,42.991281,560.849],[-1.887506,42.991226,560.813],[-1.887526,42.991179,560.109],[-1.887541,42.991126,558.984],[-1.887583,42.991088,559.056],[-1.887653,42.991071,559.171],[-1.887703,42.991033,560.06],[-1.887763,42.991013,562.564],[-1.88781,42.990981,566.569],[-1.887868,42.990958,569.543],[-1.887943,42.990938,571.977],[-1.888001,42.990901,573.123],[-1.888073,42.990869,573.215],[-1.888136,42.990854,573.365],[-1.888198,42.990834,572.911],[-1.888255,42.990809,571.409],[-1.888333,42.990806,567.052],[-1.888385,42.990774,566.934],[-1.888448,42.990737,566.959],[-1.888481,42.990694,566.978],[-1.888536,42.990626,566.952],[-1.888593,42.990559,562.897],[-1.888635,42.990499,561.711],[-1.888657,42.990444,561.515],[-1.88867,42.990391,561.081],[-1.888682,42.990344,561.065],[-1.8887,42.990296,560.968],[-1.888715,42.990249,561.014],[-1.888725,42.990196,561.109],[-1.888742,42.990151,561.237],[-1.888752,42.990103,561.649],[-1.88876,42.990056,563.324],[-1.88875,42.990003,568.253],[-1.888788,42.98996,568.657],[-1.888758,42.989918,568.982],[-1.88871,42.989885,568.916],[-1.888695,42.989837,570.24],[-1.888632,42.989824,558.966],[-1.888624,42.989779,552.939],[-1.888612,42.989724,551.001],[-1.888619,42.989679,551.021],[-1.888616,42.989634,550.409],[-1.888678,42.989614,551.634],[-1.88868,42.989567,553.096],[-1.888682,42.989512,555.461],[-1.888682,42.989467,556.84],[-1.888669,42.989422,558.444],[-1.888684,42.989374,558.819],[-1.888681,42.989321,560.813],[-1.888603,42.989311,561.917],[-1.888536,42.989298,561.943],[-1.888511,42.98925,561.923],[-1.888454,42.989225,561.483],[-1.888416,42.98918,560.811],[-1.888371,42.989137,560.709],[-1.888318,42.989097,560.043],[-1.888298,42.989044,559.775],[-1.888305,42.988989,558.87],[-1.888287,42.988939,558.519],[-1.888304,42.988894,558.493],[-1.888262,42.988857,558.548],[-1.888222,42.988815,559.142],[-1.888165,42.988795,560.466],[-1.888103,42.988778,561.662],[-1.888038,42.988745,563.642],[-1.887978,42.988728,564.622],[-1.8879,42.988715,567.314],[-1.887837,42.98871,571.409],[-1.887775,42.988712,573.255],[-1.887713,42.988702,574.627],[-1.88764,42.988714,576.462],[-1.88758,42.988736,577.441],[-1.887512,42.988758,577.645],[-1.887457,42.988783,577.77],[-1.887412,42.98882,576.454],[-1.887362,42.988847,575.118],[-1.8873,42.988865,574.264],[-1.887243,42.98889,571.654],[-1.887195,42.988928,570.156],[-1.887152,42.988968,569.011],[-1.887114,42.989008,569.009],[-1.887081,42.989046,569.166],[-1.887034,42.989086,569.058],[-1.886992,42.989119,569.093],[-1.886949,42.989157,568.112],[-1.886912,42.989205,567.066],[-1.886875,42.989248,566.821],[-1.886848,42.989293,566.545],[-1.886801,42.989328,566.369],[-1.886754,42.989366,565.755],[-1.886727,42.989413,564.991],[-1.886707,42.989458,562.881],[-1.886644,42.989486,562.819],[-1.886596,42.989524,562.909],[-1.886538,42.989539,564.81],[-1.886475,42.989572,565.172],[-1.886418,42.989599,565.417],[-1.886346,42.989619,567.146],[-1.886281,42.989624,568.03],[-1.886216,42.989616,568.565],[-1.886168,42.989584,569.169],[-1.886093,42.989567,571.063],[-1.886035,42.989552,572.319],[-1.885973,42.989525,573.093],[-1.8859,42.98951,574.165],[-1.88584,42.98949,575.221],[-1.885773,42.989458,576.809],[-1.885723,42.989418,577.25],[-1.885688,42.989366,577.762],[-1.885643,42.989316,578.847],[-1.885618,42.989269,578.916],[-1.885583,42.989194,579.29],[-1.885555,42.989142,577.715],[-1.885572,42.989085,577.329],[-1.885562,42.989027,576.063],[-1.885537,42.988975,576.119],[-1.885515,42.988922,576.556],[-1.885478,42.988865,576.559],[-1.885438,42.988815,576.714],[-1.885413,42.988768,576.809],[-1.885388,42.988718,576.746],[-1.885381,42.988666,576.218],[-1.885349,42.988623,576.013],[-1.885324,42.988575,575.842],[-1.885257,42.988547,575.476],[-1.885195,42.98853,570.271],[-1.885215,42.988485,569.045],[-1.885185,42.988535,574.859],[-1.885122,42.988455,574.895],[-1.885067,42.988402,574.882],[-1.885024,42.988362,566.843],[-1.884182,42.98817,561.717],[-1.884132,42.988135,570.509],[-1.884077,42.988095,572.239],[-1.884015,42.988125,571.931],[-1.883957,42.988157,571.326],[-1.88389,42.988154,571.285],[-1.883827,42.988167,569.729],[-1.883754,42.988162,565.374],[-1.883692,42.988159,564.628],[-1.883627,42.988167,564.162],[-1.883555,42.988175,564.038],[-1.883482,42.988178,564.022],[-1.883407,42.98817,564.162],[-1.883337,42.988175,564.208],[-1.883264,42.988195,565.109],[-1.883204,42.988212,568.233],[-1.883132,42.988207,568.815],[-1.883069,42.988207,568.84],[-1.883007,42.98821,568.629],[-1.882935,42.988212,568.193],[-1.882877,42.988197,567.158],[-1.882805,42.988189,565.422],[-1.882742,42.988179,565.176],[-1.88267,42.988154,564.642],[-1.88261,42.988126,564.198],[-1.882555,42.988099,562.515],[-1.882508,42.988066,561.026],[-1.882461,42.988028,559.309],[-1.882424,42.987988,558.48],[-1.882399,42.987945,557.582],[-1.882351,42.987902,555.847],[-1.882313,42.987862,554.326],[-1.88231,42.987812,557.07],[-1.882302,42.987765,557.815],[-1.882375,42.987777,567.049],[-1.882405,42.987819,567.143],[-1.882473,42.987822,567.089],[-1.882541,42.987832,566.197],[-1.882601,42.987822,565.523],[-1.882648,42.987792,564.625],[-1.882683,42.98775,562.809],[-1.882715,42.987708,559.43],[-1.882738,42.987755,553.932],[-1.882801,42.987743,553.227],[-1.882858,42.987711,551.496],[-1.882915,42.987744,550.38],[-1.88288,42.987791,549.355],[-1.882857,42.987834,548.469],[-1.88294,42.987817,548.093],[-1.883017,42.987815,547.729],[-1.883082,42.987813,547.354],[-1.883099,42.987866,547.256],[-1.883144,42.987824,549.211],[-1.883167,42.987781,549.809],[-1.883137,42.987826,556.826],[-1.883184,42.987793,557.048],[-1.883167,42.987836,556.813],[-1.883209,42.987769,560.562],[-1.883192,42.987812,560.966],[-1.883172,42.987769,557.591],[-1.883142,42.987726,555.895],[-1.883055,42.987879,556.179],[-1.883063,42.987831,556.175],[-1.88303,42.987871,546.944],[-1.883093,42.987854,548.105],[-1.882935,42.987876,552.815],[-1.882945,42.987831,552.409],[-1.882902,42.987763,550.995],[-1.882945,42.987711,551.357],[-1.882922,42.987761,552.312],[-1.882857,42.987736,554.921],[-1.882904,42.987768,554.925],[-1.882971,42.98776,554.44],[-1.882883,42.987703,561.414],[-1.882835,42.987738,561.788],[-1.882758,42.987753,561.494],[-1.882695,42.987768,560.829],[-1.882635,42.987778,560.6],[-1.882577,42.987808,560.12],[-1.88252,42.987831,560.509],[-1.88245,42.987854,555.713],[-1.882403,42.987824,555.645],[-1.882363,42.987781,555.46],[-1.882306,42.987763,555.699],[-1.882231,42.987735,555.853],[-1.882196,42.987697,565.018],[-1.882159,42.98765,565.122],[-1.882187,42.987607,565.196],[-1.882157,42.987557,563.122],[-1.882152,42.987512,562.842],[-1.88212,42.987469,562.222],[-1.882083,42.987429,563.814],[-1.88203,42.987394,564.009],[-1.88187,42.987284,564.335],[-1.881833,42.987237,563.997],[-1.881781,42.987182,561.672],[-1.881728,42.98714,561.681],[-1.88168,42.98711,561.625],[-1.881657,42.987062,561.72],[-1.88162,42.987017,561.954],[-1.88157,42.986972,562.398],[-1.881512,42.986945,563.614],[-1.881484,42.986903,564.324],[-1.881424,42.986886,564.904],[-1.881382,42.986941,564.714],[-1.881405,42.986896,564.309],[-1.881077,42.987073,567.573],[-1.881005,42.987061,565.215],[-1.880963,42.987026,562.99],[-1.880881,42.987026,561.159],[-1.880819,42.987018,561.153],[-1.880754,42.987023,561.138],[-1.880697,42.986995,561.182],[-1.880622,42.986985,560.436],[-1.880559,42.986975,561.492],[-1.880497,42.986988,560.439],[-1.880424,42.986973,557.801],[-1.880349,42.98698,557.121],[-1.880281,42.986982,557.209],[-1.880219,42.986959,557.084],[-1.880159,42.986977,556.926],[-1.880086,42.98698,556.811],[-1.880014,42.986967,556.41],[-1.879944,42.98695,552.014],[-1.879877,42.986932,548.819],[-1.879815,42.986919,546.683],[-1.87975,42.986902,546.057],[-1.879683,42.986895,545.943],[-1.879621,42.986892,545.961],[-1.879519,42.986892,546.221],[-1.879454,42.98689,547.013],[-1.879367,42.986888,546.909],[-1.879265,42.98677,544.667],[-1.879287,42.986685,542.069],[-1.879239,42.986717,541.554],[-1.879239,42.986762,541.033],[-1.879201,42.986632,537.377],[-1.879191,42.986587,537.382],[-1.879269,42.986567,537.586],[-1.879206,42.986562,537.96],[-1.879171,42.98652,538.396],[-1.879234,42.986493,541.112],[-1.879301,42.986498,542.432],[-1.879368,42.986485,547.905],[-1.879431,42.986502,549.909],[-1.879504,42.98654,550.912],[-1.879592,42.986548,551.114],[-1.879655,42.986541,553.329],[-1.8796,42.986508,552.888],[-1.879543,42.986488,551.712],[-1.879461,42.986478,551.887],[-1.879334,42.986491,557.161],[-1.879274,42.986506,559.725],[-1.879311,42.986424,557.931],[-1.879273,42.986386,557.819],[-1.879215,42.986368,557.809],[-1.879152,42.986388,557.819],[-1.879095,42.986411,557.809],[-1.879047,42.986449,557.722],[-1.878977,42.986464,557.724],[-1.878889,42.986464,557.759],[-1.878802,42.986472,558.038],[-1.878735,42.98646,558.022],[-1.878655,42.986452,558.777],[-1.878587,42.986442,560.041],[-1.878535,42.986415,559.975],[-1.878467,42.986415,559.231],[-1.878397,42.986435,558.975],[-1.878334,42.986432,558.928],[-1.878269,42.986437,558.92],[-1.878211,42.986404,558.909],[-1.878149,42.986379,561.328],[-1.878089,42.986369,562.11],[-1.878042,42.986334,562.255],[-1.877987,42.986312,562.684],[-1.877932,42.986287,562.648],[-1.877887,42.986255,562.023],[-1.877839,42.986225,561.497],[-1.877767,42.986217,555.371],[-1.877704,42.986202,555.077],[-1.877646,42.986187,554.637],[-1.877584,42.986162,554.549],[-1.877519,42.986137,554.113],[-1.877459,42.986109,555.009],[-1.877401,42.986087,560.194],[-1.877356,42.986052,562.796],[-1.877294,42.986022,563.431],[-1.877231,42.986007,564.09],[-1.877178,42.985974,564.964],[-1.87714,42.985937,565.739],[-1.877052,42.985927,565.313],[-1.877,42.985897,565.557],[-1.876942,42.985869,565.323],[-1.876887,42.985841,563.154],[-1.876844,42.985808,559.956],[-1.876804,42.98576,557.911],[-1.876722,42.985725,555.609],[-1.876655,42.985695,554.886],[-1.876598,42.985667,554.688],[-1.876538,42.985649,554.243],[-1.876478,42.985636,554.162],[-1.876425,42.985604,553.416],[-1.876348,42.985622,551.661],[-1.876288,42.985609,548.495],[-1.876238,42.985581,548.749],[-1.875995,42.985476,549.455],[-1.875945,42.985434,547.043],[-1.875907,42.985384,546.464],[-1.875837,42.985351,546.51],[-1.875787,42.985323,548.009],[-1.875744,42.98528,548.515],[-1.875671,42.985282,549.177],[-1.875606,42.98529,549.952],[-1.875538,42.985297,550.171],[-1.875485,42.98532,557.145],[-1.875408,42.985325,559.83],[-1.875365,42.98529,560.714],[-1.875303,42.985283,561.348],[-1.875255,42.985243,561.424],[-1.875198,42.985211,561.584],[-1.87509,42.985196,560.907],[-1.875028,42.985148,560.517],[-1.874966,42.985133,559.809],[-1.874948,42.98509,559.539],[-1.874918,42.985042,557.121],[-1.874895,42.984999,556.676],[-1.874828,42.984972,555.455],[-1.874756,42.984965,555.299],[-1.874659,42.984948,555.144],[-1.874594,42.98493,555.068],[-1.874494,42.98487,553.872],[-1.874559,42.984822,553.548],[-1.874531,42.984864,553.571],[-1.874386,42.984946,553.541],[-1.874321,42.984924,553.615],[-1.874263,42.984899,553.609],[-1.87421,42.984876,556.718],[-1.874162,42.984823,559.82],[-1.87422,42.984868,565.335],[-1.87418,42.984763,563.984],[-1.874232,42.984726,562.528],[-1.874224,42.984679,562.573],[-1.874211,42.984747,555.167],[-1.874146,42.984745,555.161],[-1.874063,42.98474,554.957],[-1.874001,42.984737,555.182],[-1.873918,42.98471,555.143],[-1.87384,42.984697,563.517],[-1.873758,42.984685,564.009],[-1.87368,42.984663,564.039],[-1.873615,42.984635,562.721],[-1.87354,42.984615,562.166],[-1.873455,42.984602,561.715],[-1.873375,42.984609,561.189],[-1.873292,42.984612,560.774],[-1.8732,42.984619,560.268],[-1.873115,42.984614,559.522],[-1.87302,42.984612,559.078],[-1.872947,42.984595,558.239],[-1.872875,42.984565,558.001],[-1.872825,42.984538,557.821],[-1.872753,42.984501,557.709],[-1.872708,42.984464,557.624],[-1.872651,42.984434,557.556],[-1.872619,42.984392,557.251],[-1.872569,42.984337,557.23],[-1.872511,42.98432,557.224],[-1.872218,42.984253,561.649],[-1.872151,42.98426,562.623],[-1.872089,42.984235,564.217],[-1.872064,42.98419,563.773],[-1.872016,42.98416,562.937],[-1.871943,42.984135,562.149],[-1.871896,42.984077,559.613],[-1.871851,42.984045,557.109],[-1.871784,42.984018,555.824],[-1.871696,42.983968,555.266],[-1.871481,42.983996,553.521],[-1.871229,42.983888,553.66],[-1.871186,42.98385,553.484],[-1.871123,42.983828,547.939],[-1.87108,42.983795,545.663],[-1.871038,42.983757,543.427],[-1.870986,42.983722,543.093],[-1.870923,42.983687,542.452],[-1.870886,42.983649,540.953],[-1.870873,42.983601,537.008],[-1.870748,42.983553,529.509],[-1.870746,42.98342,529.386],[-1.870724,42.983368,531.858],[-1.870729,42.983323,533.663],[-1.870644,42.98332,535.682],[-1.870541,42.983242,543.496],[-1.870563,42.983195,545.831],[-1.870496,42.983143,549.345],[-1.870463,42.983105,547.489],[-1.87046,42.98306,547.195],[-1.870425,42.983022,547.315],[-1.870403,42.98296,547.765],[-1.870335,42.982943,550.111],[-1.870252,42.9829,550.309],[-1.870269,42.982853,550.162],[-1.870241,42.982805,549.644],[-1.870168,42.982797,546.939],[-1.870043,42.982752,537.348],[-1.869888,42.982665,536.142],[-1.869813,42.98255,541.937],[-1.869653,42.98257,543.631],[-1.869591,42.982563,543.975],[-1.869506,42.982588,544.661],[-1.869439,42.9826,544.532],[-1.869324,42.982598,543.992],[-1.869262,42.982605,543.911],[-1.86915,42.982583,543.509],[-1.869085,42.982568,543.374],[-1.869018,42.982555,542.526],[-1.868966,42.982525,538.461],[-1.868919,42.982592,536.58],[-1.868977,42.98262,534.574],[-1.868792,42.982417,523.269],[-1.86871,42.982432,523.213],[-1.868687,42.982474,523.347],[-1.86862,42.982507,543.053],[-1.868552,42.98252,545.748],[-1.868447,42.982532,545.561],[-1.868384,42.98252,543.917],[-1.868317,42.98249,543.509],[-1.868262,42.982458,543.585],[-1.868195,42.982445,543.817],[-1.868113,42.982437,545.192],[-1.868033,42.982414,545.821],[-1.867958,42.982399,546.345],[-1.867883,42.982394,546.61],[-1.867825,42.982379,546.784],[-1.867763,42.982377,548.058],[-1.867716,42.982335,549.644],[-1.867638,42.982318,551.421],[-1.867573,42.982303,554.141],[-1.8675,42.9823,557.205],[-1.867443,42.98228,558.409],[-1.86737,42.982272,558.493],[-1.867303,42.982245,556.955],[-1.867246,42.982213,551.85],[-1.867198,42.982175,548.089],[-1.86715,42.982137,541.913],[-1.867083,42.98212,541.568],[-1.867005,42.982128,541.042],[-1.866945,42.982088,538.866],[-1.866892,42.982053,536.242],[-1.866837,42.982031,533.933],[-1.866822,42.981978,532.823],[-1.866804,42.981931,531.315],[-1.866761,42.981891,529.109],[-1.866706,42.981856,529.464],[-1.866621,42.981816,529.146],[-1.866579,42.981781,531.081],[-1.866574,42.981724,532.66],[-1.866554,42.981677,532.734],[-1.866504,42.981595,534.579],[-1.866481,42.981543,535.153],[-1.866386,42.981561,538.617],[-1.866288,42.981469,543.723],[-1.866245,42.981426,541.352],[-1.866175,42.981476,546.853],[-1.866203,42.981516,548.008],[-1.86608,42.981431,550.309],[-1.866047,42.981386,552.436],[-1.866,42.981424,556.238],[-1.865927,42.981432,558.113],[-1.865877,42.981395,558.732],[-1.865815,42.981385,561.376],[-1.865813,42.981337,561.671],[-1.865751,42.981344,560.015],[-1.865689,42.981334,558.249],[-1.865611,42.981346,553.215],[-1.865564,42.981383,552.123],[-1.865492,42.981401,551.883],[-1.865425,42.981373,550.911],[-1.865363,42.981376,550.909],[-1.865301,42.981379,550.933],[-1.865236,42.981369,552.575],[-1.865158,42.981377,552.96],[-1.865096,42.981389,552.829],[-1.865043,42.981422,552.833],[-1.864956,42.981429,550.348],[-1.865053,42.981462,549.122],[-1.864961,42.981465,547.766],[-1.864858,42.981437,541.562],[-1.864795,42.98144,539.841],[-1.864733,42.981422,537.981],[-1.864723,42.981484,535.109],[-1.864713,42.981439,532.009],[-1.864683,42.981392,531.385],[-1.864605,42.981397,531.257],[-1.864577,42.981447,532.092],[-1.86454,42.981384,536.611],[-1.864578,42.981426,540.655],[-1.86458,42.981378,542.39],[-1.864512,42.981385,542.354],[-1.864462,42.981518,540.228],[-1.864422,42.981475,537.354],[-1.864387,42.981435,537.282],[-1.864335,42.981408,538.043],[-1.864268,42.981378,539.217],[-1.864206,42.9814,540.009],[-1.864144,42.981398,540.799],[-1.864101,42.98136,540.611],[-1.864038,42.98133,540.826],[-1.863963,42.981302,540.765],[-1.863898,42.981292,541.629],[-1.863841,42.981272,545.114],[-1.863776,42.98124,547.678],[-1.863701,42.981188,549.562],[-1.863664,42.98114,550.128],[-1.863611,42.981107,551.172],[-1.863553,42.981065,551.313],[-1.863481,42.981035,551.214],[-1.863429,42.981002,551.209],[-1.863394,42.98095,551.358],[-1.863331,42.980913,552.05],[-1.863274,42.980876,552.325],[-1.863224,42.980849,552.474],[-1.863181,42.980801,553.458],[-1.863128,42.980759,553.943],[-1.863055,42.980732,554.047],[-1.862993,42.980732,555.931],[-1.86293,42.980704,556.657],[-1.862867,42.980686,556.537],[-1.862802,42.980663,554.349],[-1.86274,42.980645,549.813],[-1.862693,42.980613,544.009],[-1.86265,42.98057,542.264],[-1.862598,42.980543,542.496],[-1.862535,42.98054,542.861],[-1.862465,42.980537,543.92],[-1.862425,42.980499,544.084],[-1.862372,42.980467,544.069],[-1.862312,42.98045,543.943],[-1.862244,42.980438,542.417],[-1.862192,42.980408,537.083],[-1.862145,42.980335,535.969],[-1.862077,42.98032,535.904],[-1.862014,42.980328,535.624],[-1.861944,42.980318,536.109],[-1.861889,42.980285,537.987],[-1.861819,42.980263,537.799],[-1.861751,42.980241,537.714],[-1.861688,42.980236,537.073],[-1.861616,42.980236,535.257],[-1.861554,42.980223,532.462],[-1.861494,42.980186,530.346],[-1.861424,42.980124,531.43],[-1.861414,42.980169,534.966],[-1.861352,42.980176,535.897],[-1.861307,42.980136,538.623],[-1.86124,42.980138,540.125],[-1.861165,42.980141,544.109],[-1.861102,42.980161,547.44],[-1.86104,42.980149,549.072],[-1.860965,42.980152,549.337],[-1.860892,42.980162,549.496],[-1.860829,42.980174,547.04],[-1.860784,42.980137,545.385],[-1.860746,42.980097,545.019],[-1.860684,42.980095,544.663],[-1.860612,42.980097,543.699],[-1.860544,42.980095,542.999],[-1.860476,42.980087,541.707],[-1.860404,42.980074,541.327],[-1.860341,42.980061,540.609],[-1.860296,42.980029,539.62],[-1.860234,42.980002,538.382],[-1.860171,42.979972,536.077],[-1.860106,42.979955,534.656],[-1.860036,42.979945,534.19],[-1.859981,42.97992,533.695],[-1.859911,42.979923,533.669],[-1.859853,42.979885,534.083],[-1.859771,42.97988,537.719],[-1.859678,42.979867,539.654],[-1.859611,42.979899,538.756],[-1.859609,42.979847,538.711],[-1.859632,42.979799,539.409],[-1.859639,42.979902,541.556],[-1.859644,42.979947,541.828],[-1.859672,42.97999,542.173],[-1.859609,42.979993,552.332],[-1.859571,42.980031,552.326],[-1.859556,42.980083,551.041],[-1.859546,42.98013,551.025],[-1.859551,42.980185,537.919],[-1.859524,42.980235,533.495],[-1.859571,42.98027,532.377],[-1.859578,42.980317,532.361],[-1.859568,42.980367,532.027],[-1.859566,42.980419,532.109],[-1.859646,42.980449,532.798],[-1.859758,42.980449,537.82],[-1.859831,42.980469,543.115],[-1.859878,42.980499,543.754],[-1.85989,42.980544,543.798],[-1.859932,42.980594,547.963],[-1.859969,42.980636,547.597],[-1.859994,42.980586,546.531],[-1.860049,42.980556,545.347],[-1.860111,42.980563,544.811],[-1.860096,42.980621,544.821],[-1.860168,42.980619,544.703],[-1.86031,42.980622,551.009],[-1.860372,42.980627,551.332],[-1.860444,42.980604,551.334],[-1.860619,42.980684,545.279],[-1.860802,42.980729,536.288],[-1.860854,42.980762,533.212],[-1.860927,42.98078,530.317],[-1.860992,42.980782,528.071],[-1.86107,42.980805,526.355],[-1.861135,42.98082,524.451],[-1.861212,42.98081,523.291],[-1.861292,42.9808,522.881],[-1.861352,42.98081,522.719],[-1.861412,42.980823,523.009],[-1.861479,42.980846,524.49],[-1.861551,42.980876,525.172],[-1.861604,42.980903,526.227],[-1.861634,42.980946,526.886],[-1.861697,42.980963,526.89],[-1.861805,42.980951,527.295],[-1.862035,42.980989,527.769],[-1.86207,42.981034,527.573],[-1.862103,42.981077,527.199],[-1.86216,42.981105,527.292],[-1.862215,42.981128,527.273],[-1.862245,42.981168,527.52],[-1.862295,42.98121,529.309],[-1.862353,42.981238,531.87],[-1.862391,42.981286,533.382],[-1.862474,42.981346,535.417],[-1.862517,42.981381,536.156],[-1.862585,42.981413,536.29],[-1.862648,42.981431,536.515],[-1.862698,42.981476,536.569],[-1.862756,42.981519,536.463],[-1.862816,42.981539,536.139],[-1.862908,42.981534,536.188],[-1.862965,42.981552,536.124],[-1.863047,42.981584,536.226],[-1.863109,42.981612,537.109],[-1.863166,42.981632,539.339],[-1.863213,42.981679,540.281],[-1.863225,42.981724,540.496],[-1.86323,42.981779,540.855],[-1.863275,42.981819,541.419],[-1.863353,42.981839,541.834],[-1.863418,42.981876,541.948],[-1.863485,42.981908,541.812],[-1.863573,42.981943,541.738],[-1.863645,42.981951,540.384],[-1.863707,42.981954,539.907],[-1.863757,42.981989,538.617],[-1.863829,42.982001,538.309],[-1.863899,42.981991,537.469],[-1.863966,42.982004,536.821],[-1.864033,42.982024,536.846],[-1.864218,42.982027,536.975],[-1.864281,42.982027,536.949],[-1.864346,42.98201,537.144],[-1.864424,42.98199,537.348],[-1.864492,42.981965,537.622],[-1.864575,42.981973,538.718],[-1.864643,42.98198,539.661],[-1.864968,42.981967,543.421],[-1.865038,42.981957,543.313],[-1.865113,42.981949,543.109],[-1.865183,42.981949,543.167],[-1.865251,42.981957,543.129],[-1.865333,42.981962,543.074],[-1.865406,42.981965,542.643],[-1.865531,42.981985,540.887],[-1.865594,42.98198,540.382],[-1.865671,42.981965,540.146],[-1.865739,42.981977,539.86],[-1.865801,42.982007,539.476],[-1.865856,42.982049,539.243],[-1.865906,42.982076,539.064],[-1.865939,42.982116,537.31],[-1.866026,42.982133,535.709],[-1.866118,42.982133,534.165],[-1.866188,42.982153,532.467],[-1.866258,42.982158,532.472],[-1.866323,42.982163,532.411],[-1.866391,42.982163,532.825],[-1.866456,42.98217,533.72],[-1.866526,42.982202,535.024],[-1.866589,42.982237,536.068],[-1.866631,42.982275,537.494],[-1.866689,42.982295,538.282],[-1.866777,42.98232,539.543],[-1.86682,42.982372,540.917],[-1.866843,42.982422,542.609],[-1.866896,42.982462,542.899],[-1.866964,42.982485,542.911],[-1.867012,42.982522,543.026],[-1.867067,42.98255,542.775],[-1.867124,42.982582,542.679],[-1.867192,42.982595,542.554],[-1.867237,42.982628,542.388],[-1.867307,42.98265,542.242],[-1.867374,42.982658,542.258],[-1.867447,42.98269,543.145],[-1.86751,42.98272,543.847],[-1.86759,42.982737,543.711],[-1.867652,42.982744,543.509],[-1.867719,42.982771,543.355],[-1.867809,42.982831,543.067],[-1.867854,42.982868,542.832],[-1.867947,42.982915,542.311],[-1.868014,42.98292,542.385],[-1.868086,42.982942,540.85],[-1.868144,42.982962,540.454],[-1.868212,42.982975,540.388],[-1.868274,42.982993,540.234],[-1.868329,42.98302,539.012],[-1.868402,42.983035,538.232],[-1.86856,42.983078,537.805],[-1.868625,42.983063,537.609],[-1.868662,42.983111,537.862],[-1.868732,42.983126,537.874],[-1.868809,42.983123,538.289],[-1.868879,42.98314,538.878],[-1.868936,42.983167,539.142],[-1.868983,42.983199,539.357],[-1.86903,42.983244,539.781],[-1.869257,42.983349,541.325],[-1.869335,42.983356,542.851],[-1.869475,42.983423,543.291],[-1.869632,42.983575,541.181],[-1.869705,42.98356,541.619],[-1.86978,42.98358,544.509],[-1.869868,42.983607,546.18],[-1.869941,42.983627,547.332],[-1.870006,42.983639,548.887],[-1.870053,42.983674,549.716],[-1.870088,42.983722,549.75],[-1.870106,42.983799,549.635],[-1.870141,42.983846,548.359],[-1.870191,42.983879,548.333],[-1.870253,42.983909,548.369],[-1.870303,42.983951,549.982],[-1.870355,42.983979,550.443],[-1.870367,42.984024,550.817],[-1.870392,42.984067,552.409],[-1.870457,42.9841,552.489],[-1.870494,42.984145,552.511],[-1.870522,42.984192,551.826],[-1.870582,42.984209,551.015],[-1.87064,42.984246,551.169],[-1.870705,42.984256,551.064],[-1.870757,42.984288,551.758],[-1.870807,42.984326,552.182],[-1.870859,42.984351,553.188],[-1.870922,42.984359,553.457],[-1.870995,42.984381,555.3],[-1.87107,42.984418,555.82],[-1.87114,42.984443,555.909],[-1.871203,42.984456,555.916],[-1.871271,42.984481,553.848],[-1.871344,42.984506,552.163],[-1.871391,42.984536,551.412],[-1.871446,42.984563,551.466],[-1.871526,42.984578,551.261],[-1.871593,42.984608,554.165],[-1.871651,42.984628,555.679],[-1.871744,42.98467,556.995],[-1.871816,42.984685,557.181],[-1.871874,42.984712,557.561],[-1.871934,42.984732,559.017],[-1.872004,42.984734,560.609],[-1.872047,42.984801,565.719],[-1.872119,42.984806,567.631],[-1.872119,42.984889,567.666],[-1.872072,42.984931,567.595],[-1.872135,42.984966,563.259],[-1.872213,42.984974,557.974],[-1.872298,42.984981,552.658],[-1.872396,42.984989,549.782],[-1.872464,42.985021,547.328],[-1.872517,42.985049,546.381],[-1.872587,42.985086,544.261],[-1.872659,42.985103,541.317],[-1.872709,42.985135,541.809],[-1.872762,42.985177,542.079],[-1.872805,42.985222,542.611],[-1.872853,42.985252,542.826],[-1.872918,42.98527,542.915],[-1.872986,42.985258,543.469],[-1.873058,42.985268,544.244],[-1.873125,42.985296,544.978],[-1.873178,42.985319,547.722],[-1.873238,42.985337,550.258],[-1.873306,42.985317,551.165],[-1.873378,42.985325,552.468],[-1.873445,42.98534,553.414],[-1.873502,42.985365,554.809],[-1.873569,42.985363,561.067],[-1.873632,42.9854,561.089],[-1.873672,42.985445,561.044],[-1.873712,42.985485,561.213],[-1.873764,42.985515,561.057],[-1.873827,42.98554,561.162],[-1.873872,42.985577,562.456],[-1.873937,42.985609,563.19],[-1.874017,42.985616,563.386],[-1.874089,42.985631,563.437],[-1.874141,42.985663,563.149],[-1.874209,42.985683,562.113],[-1.874267,42.985701,561.509],[-1.87433,42.985714,559.924],[-1.874383,42.985739,558.756],[-1.874441,42.985771,558.361],[-1.874503,42.985804,558.23],[-1.874555,42.985839,558.274],[-1.874613,42.985864,558.489],[-1.874663,42.985891,558.553],[-1.874718,42.985924,558.757],[-1.87478,42.985934,559.013],[-1.874838,42.985966,559.441],[-1.874898,42.985994,560.481],[-1.874971,42.986009,561.409],[-1.875033,42.986017,562.109],[-1.875086,42.986045,562.225],[-1.875148,42.986063,562.397],[-1.875211,42.986085,562.162],[-1.875274,42.986093,562.331],[-1.875344,42.98611,562.345],[-1.875411,42.986108,562.82],[-1.875458,42.986138,562.814],[-1.875501,42.986173,562.828],[-1.875564,42.986201,563.154],[-1.875634,42.986194,563.518],[-1.875669,42.986232,564.298],[-1.875597,42.986232,561.217],[-1.875657,42.98621,556.809],[-1.87571,42.986245,556.692],[-1.875757,42.986282,555.864],[-1.875804,42.986315,555.869],[-1.875841,42.986358,555.618],[-1.875878,42.986396,555.912],[-1.8759,42.986441,555.677],[-1.875935,42.986481,555.431],[-1.875983,42.986526,554.615],[-1.876033,42.986558,554.111],[-1.876083,42.986598,554.122],[-1.876133,42.986635,554.162],[-1.876161,42.986675,554.908],[-1.876201,42.98672,558.809],[-1.876258,42.986743,562.313],[-1.876286,42.98679,564.235],[-1.876336,42.986827,565.81],[-1.876388,42.986864,566.859],[-1.876431,42.986897,568.743],[-1.876481,42.986929,569.818],[-1.876536,42.986977,569.982],[-1.876571,42.98702,569.956],[-1.876604,42.98706,569.132],[-1.876649,42.987103,568.679],[-1.876686,42.987151,567.905],[-1.876721,42.987196,567.125],[-1.876773,42.987229,566.509],[-1.876845,42.987246,566.068],[-1.876903,42.987271,565.82],[-1.876946,42.987309,565.845],[-1.877008,42.987334,566.474],[-1.87708,42.987364,567.368],[-1.87714,42.987384,567.483],[-1.877202,42.987402,568.127],[-1.877249,42.987437,569.961],[-1.877302,42.98746,570.537],[-1.877359,42.987482,570.576],[-1.877432,42.987504,570.59],[-1.87751,42.987516,569.719],[-1.877575,42.987538,569.409],[-1.87764,42.987556,569.388],[-1.877695,42.987594,569.35],[-1.877772,42.987579,570.135],[-1.877834,42.987576,570.344],[-1.877909,42.987566,570.578],[-1.877977,42.987563,570.663],[-1.878039,42.987551,570.677],[-1.878096,42.987531,570.531],[-1.878184,42.987526,570.897],[-1.878246,42.987513,570.687],[-1.878309,42.987525,570.542],[-1.878376,42.98752,570.326],[-1.878441,42.987523,569.809],[-1.878509,42.987513,569.169],[-1.878571,42.987508,567.741],[-1.878633,42.9875,566.526],[-1.878706,42.987482,564.975],[-1.878776,42.987475,564.279],[-1.878858,42.987468,564.134],[-1.878925,42.987448,563.738],[-1.878992,42.987421,563.212],[-1.879052,42.987411,563.588],[-1.879127,42.987426,562.925],[-1.879185,42.987406,562.826],[-1.879258,42.987403,562.608],[-1.879325,42.987408,562.009],[-1.879385,42.987396,560.983],[-1.87945,42.987394,560.855],[-1.879533,42.987379,560.34],[-1.879608,42.987372,560.169],[-1.879683,42.987375,560.193],[-1.879751,42.987377,559.868],[-1.879814,42.987367,559.682],[-1.879962,42.98734,553.086],[-1.880034,42.987327,552.442],[-1.880101,42.987299,554.793],[-1.880161,42.987264,555.565],[-1.880226,42.987251,556.321],[-1.880294,42.987251,559.109],[-1.880349,42.987226,563.28],[-1.880414,42.987229,565.052],[-1.880474,42.987217,565.767],[-1.880529,42.987194,566.476],[-1.880581,42.987157,566.41],[-1.880653,42.987134,566.535],[-1.88072,42.987122,564.089],[-1.880785,42.987115,563.283],[-1.880828,42.987082,558.649],[-1.880873,42.987047,557.664],[-1.880926,42.987012,557.606],[-1.880994,42.986999,557.616],[-1.881069,42.986986,557.709],[-1.881132,42.986976,559.287],[-1.881212,42.986963,559.189],[-1.881265,42.986925,559.234],[-1.881323,42.986898,559.263],[-1.881398,42.98689,559.147],[-1.881473,42.986907,559.182],[-1.881531,42.986935,560.546],[-1.881608,42.986965,560.84],[-1.881668,42.986998,561.976],[-1.88172,42.987031,561.928],[-1.88173,42.987076,561.789],[-1.88175,42.987129,562.017],[-1.881788,42.987176,562.009],[-1.881831,42.987211,561.973],[-1.881881,42.987253,561.595],[-1.881924,42.987291,561.72],[-1.881979,42.987324,560.739],[-1.882014,42.987367,560.643],[-1.882062,42.987404,560.628],[-1.882085,42.987452,560.692],[-1.882128,42.987494,560.316],[-1.882168,42.987534,560.592],[-1.882191,42.987586,557.997],[-1.882204,42.987633,556.123],[-1.882231,42.987675,554.425],[-1.882243,42.987722,554.409],[-1.882266,42.987769,554.41],[-1.882313,42.987827,554.492],[-1.882341,42.987872,554.427],[-1.882361,42.987917,556.416],[-1.882384,42.987959,556.84],[-1.882449,42.988011,557.145],[-1.882484,42.988061,557.369],[-1.882556,42.988081,557.483],[-1.882623,42.988099,558.789],[-1.882666,42.988136,559.939],[-1.882726,42.988153,560.101],[-1.882781,42.988175,560.221],[-1.882854,42.988193,560.309],[-1.882916,42.988208,560.414],[-1.882988,42.988215,561.626],[-1.883053,42.988212,565.011],[-1.883131,42.988207,570.15],[-1.883199,42.988222,572.714],[-1.883284,42.98822,572.549],[-1.883349,42.988217,572.523],[-1.883411,42.98822,572.777],[-1.883481,42.98822,567.733],[-1.883554,42.988207,564.732],[-1.883624,42.988194,561.192],[-1.883702,42.988176,559.211],[-1.883764,42.988158,557.209],[-1.883824,42.988146,557.174],[-1.883889,42.988149,557.196],[-1.883964,42.988137,557.191],[-1.884046,42.98814,559.53],[-1.884104,42.988168,560.024],[-1.884169,42.98819,560.329],[-1.884239,42.988202,560.683],[-1.885157,42.988405,560.937],[-1.885182,42.988457,567.823],[-1.885207,42.988504,567.852],[-1.88525,42.988544,567.053],[-1.885287,42.988589,566.808],[-1.885324,42.988637,566.809],[-1.885377,42.988677,566.636],[-1.885425,42.988707,566.458],[-1.88544,42.988757,565.643],[-1.88547,42.9888,565.392],[-1.88549,42.988848,565.356],[-1.885527,42.988898,565.231],[-1.885564,42.988948,565.055],[-1.885582,42.989,564.849],[-1.885595,42.98905,564.085],[-1.88561,42.989098,564.114],[-1.885615,42.989143,564.254],[-1.88561,42.98919,564.509],[-1.88561,42.989253,565.209],[-1.88563,42.98931,565.642],[-1.885645,42.989363,565.814],[-1.885658,42.989416,563.919],[-1.885681,42.989461,562.618],[-1.885733,42.989504,561.712],[-1.885781,42.989537,561.447],[-1.885839,42.98956,560.871],[-1.885902,42.989585,560.535],[-1.885959,42.989615,560.511],[-1.886019,42.989633,560.674],[-1.886084,42.98964,561.456],[-1.886162,42.98964,562.921],[-1.886224,42.989643,564.809],[-1.886284,42.989628,566.248],[-1.886336,42.989603,568.22],[-1.886378,42.989568,570.555],[-1.886431,42.989525,574.284],[-1.886479,42.989497,577.148],[-1.886529,42.98947,578.893],[-1.886594,42.989428,579.077],[-1.886651,42.98939,580.461],[-1.886704,42.989352,581.597],[-1.886749,42.989312,581.574],[-1.886792,42.989267,581.556],[-1.886837,42.989225,580.021],[-1.886869,42.989183,579.409],[-1.886937,42.98919,579.268],[-1.886915,42.989137,579.19],[-1.886932,42.989094,579.065],[-1.886994,42.989086,570.824],[-1.887022,42.989041,569.838],[-1.887072,42.989013,568.513],[-1.887117,42.98897,567.887],[-1.887169,42.988938,563.811],[-1.887222,42.988896,562.917],[-1.887285,42.988883,562.913],[-1.887345,42.988843,563.543],[-1.8874,42.988818,563.707],[-1.887452,42.988781,563.909],[-1.887512,42.988759,563.922],[-1.887572,42.988741,563.944],[-1.887647,42.988716,563.519],[-1.887712,42.988699,562.358],[-1.887782,42.988712,562.062],[-1.887857,42.98872,561.597],[-1.887942,42.988707,561.541],[-1.888007,42.9887,561.585],[-1.888072,42.988708,560.721],[-1.888134,42.988746,559.847],[-1.888181,42.988781,559.829],[-1.888214,42.988823,559.821],[-1.888267,42.988868,560.809],[-1.888307,42.988916,562.075],[-1.888347,42.988954,563.077],[-1.888377,42.988996,565.152],[-1.888419,42.989044,567.131],[-1.888427,42.989104,568.395],[-1.888432,42.989156,568.37],[-1.888465,42.989204,568.524],[-1.888515,42.989244,568.518],[-1.888558,42.989277,568.314],[-1.888571,42.989322,568.038],[-1.888606,42.989369,567.07],[-1.888618,42.989426,566.817],[-1.888645,42.989476,566.009],[-1.888677,42.989523,565.674],[-1.888714,42.98957,564.366],[-1.888736,42.989615,562.111],[-1.888726,42.989667,561.67],[-1.888704,42.989717,561.454],[-1.888716,42.989762,561.559],[-1.888736,42.989819,562.973],[-1.888729,42.989869,563.257],[-1.888719,42.989919,563.173],[-1.888717,42.989967,563.019],[-1.888717,42.99002,562.009],[-1.888737,42.990068,561.119],[-1.888744,42.990123,561.009],[-1.888767,42.990171,559.982],[-1.888772,42.990219,559.364],[-1.888765,42.990266,558.879],[-1.888745,42.990323,557.588],[-1.888737,42.990373,556.992],[-1.888707,42.990423,556.667],[-1.888697,42.990476,556.351],[-1.88868,42.990519,556.195],[-1.888658,42.990564,556.151],[-1.88863,42.990617,556.843],[-1.888578,42.990669,557.364],[-1.888515,42.990714,558.61],[-1.888465,42.990744,560.109],[-1.888418,42.990789,561.395],[-1.888371,42.990826,562.397],[-1.888303,42.990848,562.812],[-1.888251,42.990893,565.681],[-1.888188,42.990903,567.035],[-1.888131,42.990921,568.84],[-1.888063,42.990933,568.834],[-1.888,42.990948,569.278],[-1.887927,42.990938,567.834],[-1.887862,42.990945,564.686],[-1.88779,42.990972,558.16],[-1.887738,42.991015,553.026],[-1.887696,42.991055,550.309],[-1.887658,42.991105,549.189],[-1.887628,42.991145,549.021],[-1.887586,42.991193,549.046],[-1.887558,42.991233,549.625],[-1.887536,42.991285,552.449],[-1.887489,42.991332,553.734],[-1.887474,42.991377,554.128],[-1.887444,42.991422,557.722],[-1.887446,42.991474,560.058],[-1.887423,42.991517,562.611],[-1.887438,42.991567,563.321],[-1.887445,42.991615,563.503],[-1.88748,42.991653,563.609],[-1.887512,42.991696,563.692],[-1.88754,42.991743,563.484],[-1.887568,42.991793,562.949],[-1.887605,42.99183,562.918],[-1.88765,42.991865,561.742],[-1.887702,42.9919,559.577],[-1.887744,42.991937,557.891],[-1.887804,42.991965,556.035],[-1.887857,42.991997,555.661],[-1.887912,42.992025,555.522],[-1.887979,42.992057,555.362],[-1.888052,42.992085,555.208],[-1.888097,42.992125,554.909],[-1.888139,42.99216,554.483],[-1.888191,42.992188,554.125],[-1.888246,42.992218,553.74],[-1.888303,42.992243,553.929],[-1.888365,42.992265,553.923],[-1.888412,42.992308,553.958],[-1.888464,42.992343,554.152],[-1.888527,42.992358,554.476],[-1.88858,42.992386,555.232],[-1.88862,42.992426,555.621],[-1.888652,42.992468,557.841],[-1.888687,42.99251,559.105],[-1.888729,42.992547,560.309],[-1.888761,42.992594,561.853],[-1.888806,42.992631,563.135],[-1.888859,42.992669,563.24],[-1.888902,42.992702,563.699],[-1.888952,42.99273,563.883],[-1.889015,42.99277,563.918],[-1.889058,42.992815,564.472],[-1.889105,42.992865,564.266],[-1.889153,42.992903,564.322],[-1.889225,42.992936,563.711],[-1.88927,42.992978,563.721],[-1.88931,42.993013,563.603],[-1.889353,42.993051,563.509],[-1.889406,42.993079,563.642],[-1.889458,42.993111,563.224],[-1.889515,42.993139,562.829],[-1.889575,42.993179,562.428],[-1.889637,42.993214,561.422],[-1.889674,42.993259,560.537],[-1.889727,42.993284,559.031],[-1.889789,42.993317,558.735],[-1.889841,42.993347,558.691],[-1.889889,42.993379,558.599],[-1.889934,42.993426,558.107],[-1.889971,42.993479,557.327],[-1.889999,42.993526,557.209],[-1.890019,42.993571,557.25],[-1.890042,42.993621,557.292],[-1.89007,42.993664,557.467],[-1.890072,42.993709,557.796],[-1.890082,42.993761,557.96],[-1.890052,42.993809,557.965],[-1.890037,42.993862,557.989],[-1.890035,42.993909,557.913],[-1.890025,42.993956,557.789],[-1.890015,42.994008,557.344],[-1.89,42.994058,557.505],[-1.889973,42.994116,557.615],[-1.889956,42.994173,557.909],[-1.889951,42.99422,558.135],[-1.889933,42.994265,558.787],[-1.889918,42.99431,559.042],[-1.889901,42.994365,559.131],[-1.889891,42.994413,559.385],[-1.889869,42.99446,560.06],[-1.889852,42.994508,561.134],[-1.889852,42.994553,563.248],[-1.889865,42.9946,564.414],[-1.889863,42.994657,564.737],[-1.889841,42.994712,564.849],[-1.889844,42.994757,564.813],[-1.889847,42.994804,564.709],[-1.889847,42.994856,564.744],[-1.889854,42.994903,565.026],[-1.889862,42.994953,565.481],[-1.889874,42.995011,565.64],[-1.889877,42.995061,566.694],[-1.889907,42.995113,567.349],[-1.889907,42.99516,567.483],[-1.889897,42.995212,567.697],[-1.889909,42.995262,568.263],[-1.889924,42.995314,568.461],[-1.889912,42.995362,568.721],[-1.889904,42.995414,568.913],[-1.889866,42.995452,569.109],[-1.889854,42.9955,569.937],[-1.889857,42.995568,571.689],[-1.889834,42.995618,573.454],[-1.889822,42.99567,575.683],[-1.889805,42.995715,576.837],[-1.889768,42.995768,577.922],[-1.889733,42.995816,577.996],[-1.889743,42.995871,576.99],[-1.8897,42.995908,575.716],[-1.889657,42.995946,574.357],[-1.88961,42.995984,572.5],[-1.889598,42.996037,570.12],[-1.889566,42.99608,569.909],[-1.889554,42.996127,569.996],[-1.889519,42.996172,569.978],[-1.889477,42.996212,569.973],[-1.889429,42.996259,569.932],[-1.889391,42.996309,569.586],[-1.889344,42.996344,569.471],[-1.889307,42.996391,569.485],[-1.889277,42.996436,569.459],[-1.889242,42.996474,569.775],[-1.88922,42.996526,569.963],[-1.889197,42.996573,570.144],[-1.889159,42.99662,570.018],[-1.889112,42.996667,569.909],[-1.889065,42.996715,569.957],[-1.889018,42.996752,569.929],[-1.888993,42.996794,569.524],[-1.888955,42.996841,569.543],[-1.88892,42.996884,569.517],[-1.888885,42.996922,569.512],[-1.888875,42.996972,569.316],[-1.88886,42.997024,568.87],[-1.888833,42.997071,568.276],[-1.88882,42.997123,568.225],[-1.888803,42.997168,568.226],[-1.888795,42.997218,568.208],[-1.888797,42.997268,568.409],[-1.888772,42.997321,568.533],[-1.888765,42.997374,568.525],[-1.888777,42.997426,568.58],[-1.888774,42.997471,568.479],[-1.888762,42.997516,568.323],[-1.888757,42.997566,568.058],[-1.888767,42.997619,568.062],[-1.888774,42.997671,568.046],[-1.888781,42.997724,568.012],[-1.888778,42.997771,568.065],[-1.888763,42.997816,568.268],[-1.88876,42.997864,568.314],[-1.888783,42.997914,568.409],[-1.888776,42.997964,568.827],[-1.888769,42.998016,568.989],[-1.888767,42.998063,568.994],[-1.888752,42.998111,568.933],[-1.888734,42.998166,569.017],[-1.888722,42.998218,569.082],[-1.888709,42.99827,568.936],[-1.888692,42.998327,568.58],[-1.888687,42.998372,568.116],[-1.888694,42.998424,567.739],[-1.888686,42.998479,567.701],[-1.888674,42.998532,567.921],[-1.888684,42.998577,568.109],[-1.888676,42.998622,569.374],[-1.888631,42.998655,570.836],[-1.888586,42.998695,573.521],[-1.888546,42.99874,575.03],[-1.888503,42.998782,575.264],[-1.888465,42.998824,575.389],[-1.888458,42.998874,575.693],[-1.888445,42.998922,576.087],[-1.888408,42.99897,577.033],[-1.888381,42.999012,577.569],[-1.888393,42.999064,578.004],[-1.888421,42.999111,578.424],[-1.888413,42.999156,578.509],[-1.88839,42.999198,578.697],[-1.888382,42.99925,578.619],[-1.88843,42.999297,578.584],[-1.88847,42.999337,578.193],[-1.888508,42.999374,577.877],[-1.888555,42.999414,577.332],[-1.888598,42.999447,576.796],[-1.888638,42.999492,575.93],[-1.888671,42.999534,575.896],[-1.888728,42.999556,573.995],[-1.888781,42.999588,573.149],[-1.888833,42.999616,572.923],[-1.88887,42.999656,571.909],[-1.888913,42.999696,569.27],[-1.888961,42.999733,568.882],[-1.888994,42.999771,568.747],[-1.889041,42.999801,568.776],[-1.889088,42.999831,568.75],[-1.889145,42.999856,568.685],[-1.889198,42.999901,568.779],[-1.889258,42.999936,568.853],[-1.889311,42.999961,569.019],[-1.889366,42.999999,569.489],[-1.889406,43.000036,569.506],[-1.889456,43.000076,569.626],[-1.889504,43.000108,569.509],[-1.889561,43.000138,569.289],[-1.889584,43.000186,568.351],[-1.889619,43.000228,568.366],[-1.889682,43.000256,568.465],[-1.889732,43.000286,569.479],[-1.889795,43.000306,570.124],[-1.889857,43.000329,569.918],[-1.889904,43.000376,569.572],[-1.889957,43.000399,566.958],[-1.89002,43.000429,566.263],[-1.890057,43.000471,565.444],[-1.890094,43.000518,565.118],[-1.890151,43.000546,564.809],[-1.890208,43.000581,565.027],[-1.890271,43.000598,565.099],[-1.890319,43.000626,565.434],[-1.890377,43.000651,566.833],[-1.890432,43.000684,568.197],[-1.89047,43.000721,568.372],[-1.89053,43.000754,568.796],[-1.890567,43.000791,569.82],[-1.89061,43.000828,570.166],[-1.890663,43.000865,570.461],[-1.89072,43.0009,570.521],[-1.890773,43.000935,570.813],[-1.8908,43.00098,570.809],[-1.890833,43.001025,570.557],[-1.890898,43.001055,570.499],[-1.890938,43.001092,568.894],[-1.890981,43.001134,568.833],[-1.891039,43.001169,568.837],[-1.891094,43.001196,568.892]]}}]}