{"type":"FeatureCollection","features":[{"type":"Feature","properties":{"ruta_id":"139240724","nombre":"CASCADA de O SALDO desde ESCARRILLA ruta CIRCULAR","blog_url":"https://www.rutasporelmonte.com/cascada-el-saldo-de-escarrilla/"},"geometry":{"type":"LineString","coordinates":[[-0.316,42.736837,1181.556],[-0.316082,42.73685,1181.559],[-0.316125,42.736892,1181.914],[-0.316175,42.736924,1182.109],[-0.31621,42.736966,1182.246],[-0.316162,42.737009,1183.568],[-0.316105,42.737046,1183.994],[-0.316083,42.737089,1184.057],[-0.316108,42.737144,1184.169],[-0.316141,42.737189,1184.165],[-0.316176,42.737229,1184.712],[-0.316243,42.737259,1184.767],[-0.316308,42.737282,1184.999],[-0.316365,42.737324,1184.932],[-0.316422,42.737349,1184.892],[-0.31649,42.737381,1183.911],[-0.316542,42.737406,1183.609],[-0.316599,42.737433,1183.164],[-0.316659,42.737451,1182.626],[-0.316719,42.737466,1182.362],[-0.316781,42.737484,1182.345],[-0.316854,42.737491,1182.347],[-0.316919,42.737498,1182.443],[-0.316994,42.737493,1182.73],[-0.317057,42.737476,1182.765],[-0.317125,42.737471,1182.847],[-0.317187,42.737461,1182.843],[-0.31726,42.737458,1182.664],[-0.317322,42.737458,1182.41],[-0.317385,42.73745,1182.109],[-0.317453,42.737447,1181.225],[-0.317526,42.737425,1180.657],[-0.317588,42.737402,1180.623],[-0.31765,42.737409,1180.766],[-0.31764,42.737364,1181.018],[-0.317683,42.737327,1182.724],[-0.317733,42.737295,1182.911],[-0.31779,42.737263,1183.036],[-0.317835,42.737231,1182.838],[-0.317878,42.737191,1183.011],[-0.317938,42.737171,1182.721],[-0.317998,42.737129,1182.703],[-0.318068,42.737109,1184.809],[-0.31813,42.737089,1185.532],[-0.318202,42.737071,1185.554],[-0.318247,42.737033,1185.49],[-0.318292,42.737001,1184.683],[-0.318352,42.736991,1183.045],[-0.318419,42.736971,1181.341],[-0.318484,42.736968,1181.318],[-0.318556,42.736946,1181.333],[-0.318624,42.736939,1181.315],[-0.318699,42.736937,1181.365],[-0.318764,42.736955,1181.168],[-0.318829,42.736968,1180.614],[-0.318902,42.736976,1186.709],[-0.318972,42.736988,1186.787],[-0.319037,42.737006,1186.839],[-0.319089,42.737038,1187.015],[-0.319146,42.73707,1188.758],[-0.319198,42.737095,1187.64],[-0.319275,42.737103,1192.266],[-0.319338,42.737098,1194.593],[-0.319403,42.737103,1196.748],[-0.319373,42.737063,1196.78],[-0.319438,42.737056,1198.259],[-0.319506,42.737078,1199.103],[-0.319588,42.737075,1201.023],[-0.319648,42.737088,1202.809],[-0.319701,42.737048,1204.736],[-0.319761,42.737033,1205.328],[-0.319808,42.736995,1205.354],[-0.319885,42.737003,1205.587],[-0.319955,42.737033,1205.519],[-0.320022,42.737056,1205.975],[-0.320057,42.737011,1208.222],[-0.32009,42.736973,1209.647],[-0.320152,42.736958,1210.729],[-0.320217,42.736948,1211.757],[-0.320279,42.736921,1213.0],[-0.320262,42.736874,1214.32],[-0.320212,42.736847,1214.409],[-0.320157,42.736815,1214.376],[-0.320107,42.736787,1214.258],[-0.320169,42.736767,1214.264],[-0.320221,42.736742,1214.827],[-0.320284,42.736734,1215.319],[-0.320297,42.736686,1216.465],[-0.320357,42.736676,1216.682],[-0.32041,42.736651,1216.757],[-0.320443,42.736608,1218.749],[-0.320485,42.736573,1218.776],[-0.320522,42.736536,1219.39],[-0.320575,42.736513,1219.519],[-0.32064,42.736505,1219.609],[-0.320672,42.736465,1224.138],[-0.32072,42.736432,1227.82],[-0.320773,42.736405,1228.576],[-0.320836,42.736387,1229.249],[-0.320893,42.736362,1230.691],[-0.32094,42.736332,1234.187],[-0.321005,42.736317,1234.484],[-0.32108,42.736307,1234.869],[-0.321153,42.736309,1235.391],[-0.321208,42.736286,1235.354],[-0.32124,42.736239,1235.356],[-0.32131,42.736236,1234.311],[-0.321363,42.736208,1233.409],[-0.321431,42.73618,1234.176],[-0.321474,42.736135,1237.198],[-0.321526,42.73611,1237.864],[-0.321566,42.736073,1239.287],[-0.321659,42.736046,1239.349],[-0.321721,42.736033,1239.455],[-0.321838,42.736096,1236.692],[-0.321783,42.736123,1226.327],[-0.321793,42.736176,1227.149],[-0.322063,42.736186,1247.282],[-0.32213,42.736194,1252.643],[-0.322115,42.736247,1244.117],[-0.322082,42.736285,1244.009],[-0.322082,42.736237,1243.989],[-0.322145,42.736265,1249.361],[-0.32221,42.736272,1249.357],[-0.322262,42.736304,1250.47],[-0.322335,42.736329,1253.112],[-0.3224,42.736349,1254.678],[-0.322492,42.736367,1254.485],[-0.322504,42.736415,1254.47],[-0.322546,42.73645,1254.412],[-0.322604,42.736482,1255.738],[-0.322652,42.73651,1257.97],[-0.322705,42.73654,1258.117],[-0.322732,42.736497,1263.109],[-0.322784,42.736472,1263.124],[-0.322841,42.736494,1263.226],[-0.322911,42.736481,1264.452],[-0.322934,42.736524,1266.935],[-0.323004,42.736531,1267.157],[-0.323067,42.736564,1268.293],[-0.323129,42.736561,1268.98],[-0.323187,42.736586,1269.815],[-0.32325,42.736614,1270.447],[-0.323317,42.736639,1270.631],[-0.323374,42.736671,1271.161],[-0.323437,42.736691,1271.407],[-0.323502,42.736676,1272.909],[-0.32356,42.736653,1279.164],[-0.323598,42.736613,1279.156],[-0.323656,42.736595,1279.112],[-0.323724,42.736578,1281.575],[-0.323779,42.736555,1282.057],[-0.323844,42.736537,1282.823],[-0.323906,42.73651,1282.87],[-0.323973,42.736493,1288.955],[-0.324035,42.736491,1289.127],[-0.324098,42.736484,1289.195],[-0.32415,42.736456,1289.349],[-0.324212,42.736443,1289.923],[-0.324274,42.736428,1290.909],[-0.324311,42.736388,1295.94],[-0.324371,42.736373,1295.992],[-0.324431,42.73635,1296.738],[-0.324498,42.736335,1298.251],[-0.324531,42.73629,1298.263],[-0.324603,42.736255,1303.479],[-0.324666,42.736238,1305.956],[-0.324731,42.736218,1307.171],[-0.324786,42.736196,1307.843],[-0.324849,42.736178,1308.473],[-0.324912,42.736161,1310.585],[-0.324975,42.736148,1310.513],[-0.325033,42.736126,1310.509],[-0.325095,42.736111,1310.228],[-0.325152,42.736081,1310.01],[-0.325205,42.736051,1313.726],[-0.325247,42.736014,1313.789],[-0.3253,42.735989,1313.761],[-0.325368,42.735984,1313.727],[-0.325428,42.735957,1313.764],[-0.325481,42.735925,1315.929],[-0.325541,42.735907,1317.771],[-0.325599,42.735879,1319.361],[-0.325629,42.735839,1319.721],[-0.325686,42.735814,1320.113],[-0.325716,42.735772,1322.109],[-0.325724,42.735725,1324.217],[-0.325761,42.735683,1324.229],[-0.325784,42.735635,1324.365],[-0.325837,42.73567,1325.768],[-0.32588,42.735707,1327.18],[-0.325943,42.735725,1327.256],[-0.326006,42.735728,1327.383],[-0.326071,42.735728,1327.498],[-0.326384,42.735725,1335.28],[-0.326817,42.73569,1336.366],[-0.327424,42.735488,1340.629],[-0.327681,42.735406,1345.721],[-0.327711,42.735449,1349.309],[-0.327779,42.735434,1352.997],[-0.327839,42.735459,1355.449],[-0.327887,42.735499,1355.675],[-0.327952,42.735521,1355.238],[-0.328009,42.735539,1353.63],[-0.328079,42.735549,1352.766],[-0.328142,42.735551,1352.073],[-0.328195,42.735574,1352.098],[-0.328273,42.735582,1355.32],[-0.32834,42.735582,1359.036],[-0.328402,42.735597,1359.017],[-0.32845,42.73563,1359.018],[-0.328468,42.735673,1360.909],[-0.328481,42.735723,1365.964],[-0.328509,42.735765,1367.616],[-0.328546,42.735717,1369.372],[-0.328571,42.735672,1371.745],[-0.328578,42.735622,1374.197],[-0.328575,42.735574,1374.383],[-0.328598,42.735526,1374.88],[-0.328621,42.735483,1375.015],[-0.328603,42.73544,1376.117],[-0.328543,42.735412,1377.145],[-0.328481,42.735414,1376.147],[-0.328441,42.735374,1375.311],[-0.328393,42.735339,1375.409],[-0.328336,42.735319,1375.315],[-0.328303,42.735279,1376.947],[-0.328256,42.735242,1385.313],[-0.328204,42.735217,1385.366],[-0.328196,42.735167,1385.398],[-0.328253,42.735145,1385.384],[-0.32832,42.735152,1387.891],[-0.328357,42.73511,1387.966],[-0.3284,42.735075,1388.488],[-0.328493,42.735113,1390.279],[-0.328561,42.73511,1390.305],[-0.328628,42.735103,1390.325],[-0.328693,42.7351,1390.309],[-0.328753,42.735113,1390.318],[-0.328821,42.735123,1390.38],[-0.328883,42.735141,1394.546],[-0.328928,42.735173,1397.219],[-0.328983,42.735205,1400.871],[-0.329036,42.735237,1401.627],[-0.329116,42.735237,1403.614],[-0.329183,42.73524,1403.679],[-0.32923,42.735202,1403.631],[-0.329273,42.735167,1403.663],[-0.329336,42.735172,1403.644],[-0.329409,42.73518,1409.418],[-0.329474,42.735173,1412.509],[-0.329537,42.735161,1414.587],[-0.329597,42.735151,1414.659],[-0.32966,42.735146,1414.675],[-0.329757,42.735121,1416.898],[-0.329815,42.735099,1417.84],[-0.329872,42.735076,1420.266],[-0.329945,42.735068,1421.083],[-0.330008,42.735048,1422.878],[-0.330056,42.73508,1427.78],[-0.330041,42.735125,1427.322],[-0.329989,42.735155,1427.362],[-0.329946,42.735192,1427.208],[-0.329926,42.735242,1427.209],[-0.329881,42.735274,1427.323],[-0.329823,42.735299,1427.335],[-0.329776,42.735332,1430.171],[-0.329721,42.73537,1430.244],[-0.329718,42.735415,1430.746],[-0.329738,42.73546,1430.742],[-0.329776,42.735503,1430.749],[-0.329806,42.735546,1430.684],[-0.329848,42.735579,1430.776],[-0.329895,42.735614,1427.977],[-0.329935,42.735661,1427.761],[-0.329975,42.735699,1429.427],[-0.33001,42.735746,1429.609],[-0.330057,42.735784,1429.938],[-0.330097,42.735819,1430.05],[-0.330105,42.735866,1431.226],[-0.330138,42.735918,1431.899],[-0.330175,42.735956,1432.611],[-0.330212,42.735998,1432.667],[-0.33024,42.736053,1432.974],[-0.33028,42.736095,1433.569],[-0.330328,42.736128,1433.521],[-0.330356,42.736175,1433.577],[-0.330388,42.736215,1433.161],[-0.33043,42.73626,1433.127],[-0.330463,42.736298,1433.109],[-0.330513,42.736333,1433.198],[-0.330558,42.736368,1433.16],[-0.33062,42.736388,1433.826],[-0.330688,42.736398,1433.819],[-0.33076,42.736396,1433.841],[-0.330825,42.736389,1429.857],[-0.330875,42.736357,1428.194],[-0.330937,42.736332,1426.399],[-0.331,42.736325,1425.681],[-0.331072,42.736307,1425.349],[-0.331137,42.73631,1425.302],[-0.331192,42.736333,1425.322],[-0.33126,42.736336,1425.309],[-0.331327,42.736349,1425.065],[-0.331375,42.736382,1424.817],[-0.331417,42.736422,1423.633],[-0.331445,42.736465,1423.456],[-0.331473,42.736505,1423.348],[-0.331518,42.736542,1425.914],[-0.331573,42.736572,1425.951],[-0.33162,42.736624,1425.986],[-0.331625,42.736669,1425.938],[-0.331643,42.736716,1425.975],[-0.331715,42.736729,1425.128],[-0.331773,42.736752,1425.22],[-0.33184,42.73677,1425.109],[-0.331895,42.736797,1425.268],[-0.331952,42.736822,1425.52],[-0.332022,42.73683,1425.526],[-0.332079,42.736853,1427.069],[-0.332214,42.736871,1427.991],[-0.332281,42.736871,1428.287],[-0.332336,42.736891,1427.274],[-0.332376,42.736926,1424.599],[-0.332414,42.736969,1424.141],[-0.332427,42.737019,1423.957],[-0.332464,42.737067,1424.1],[-0.332509,42.737099,1427.82],[-0.332587,42.737094,1428.809],[-0.33265,42.737091,1428.836],[-0.332727,42.737101,1428.848],[-0.33279,42.737103,1428.894],[-0.332853,42.737105,1428.867],[-0.332926,42.737105,1427.549],[-0.332978,42.737147,1427.625],[-0.333046,42.737157,1427.622],[-0.333106,42.737189,1427.767],[-0.333143,42.737232,1427.989],[-0.333163,42.737279,1428.225],[-0.333171,42.737327,1429.026],[-0.333201,42.737367,1429.708],[-0.333246,42.737404,1429.909],[-0.333288,42.737439,1431.433],[-0.333345,42.737457,1433.295],[-0.333398,42.737487,1434.631],[-0.33346,42.737502,1434.814],[-0.333522,42.737525,1434.986],[-0.333584,42.737533,1435.832],[-0.333631,42.737568,1436.469],[-0.333676,42.737603,1437.364],[-0.333743,42.73761,1439.266],[-0.3338,42.737632,1441.189],[-0.333858,42.737657,1442.106],[-0.333926,42.737667,1442.226],[-0.333998,42.737667,1442.409],[-0.334068,42.737672,1442.889],[-0.334135,42.737664,1444.091],[-0.334183,42.737632,1444.887],[-0.334245,42.737617,1446.34],[-0.334305,42.737602,1448.012],[-0.334335,42.737647,1450.488],[-0.334373,42.73769,1451.235],[-0.334443,42.737703,1451.53],[-0.334511,42.737706,1452.862],[-0.334571,42.737734,1453.796],[-0.334628,42.737707,1455.331],[-0.33471,42.737724,1455.324],[-0.334768,42.737744,1455.409],[-0.334848,42.737734,1455.36],[-0.334916,42.737716,1455.412],[-0.334981,42.737716,1454.558],[-0.335048,42.737706,1453.981],[-0.335088,42.737743,1452.733],[-0.335108,42.73779,1451.479],[-0.33511,42.737848,1450.226],[-0.335075,42.737888,1449.911],[-0.335053,42.737933,1449.943],[-0.335011,42.73797,1450.091],[-0.334974,42.738007,1450.581],[-0.334911,42.738034,1452.319],[-0.334866,42.738069,1453.209],[-0.334821,42.738109,1454.12],[-0.334796,42.738152,1455.012],[-0.334779,42.738202,1454.998],[-0.334757,42.738249,1454.821],[-0.334732,42.738297,1454.253],[-0.334729,42.738345,1454.239],[-0.334704,42.73839,1454.166],[-0.334651,42.73842,1454.051],[-0.334646,42.738472,1454.083],[-0.334629,42.738515,1453.921],[-0.334614,42.738565,1453.341],[-0.334589,42.738608,1453.205],[-0.334564,42.738651,1452.709],[-0.334557,42.738698,1451.473],[-0.33455,42.738743,1450.435],[-0.334558,42.738795,1450.021],[-0.334576,42.73885,1449.954],[-0.334574,42.738907,1449.996],[-0.334567,42.73896,1450.232],[-0.334575,42.73901,1450.239],[-0.334563,42.73906,1450.464],[-0.334503,42.739083,1450.516],[-0.334475,42.739131,1450.984],[-0.334437,42.739168,1451.707],[-0.334455,42.739211,1453.017],[-0.33446,42.739264,1454.109],[-0.33448,42.739312,1454.679],[-0.334488,42.739374,1454.661],[-0.33449,42.739426,1454.617],[-0.334505,42.739484,1454.45],[-0.33455,42.739521,1454.432],[-0.334572,42.739568,1455.358],[-0.334582,42.739613,1455.835],[-0.334589,42.739663,1455.91],[-0.334617,42.739703,1455.972],[-0.334637,42.739748,1455.926],[-0.334679,42.739785,1455.447],[-0.334699,42.739833,1455.411],[-0.334734,42.739873,1455.409],[-0.334741,42.739918,1455.443],[-0.334741,42.739963,1454.745],[-0.334756,42.740018,1453.881],[-0.334791,42.740071,1453.564],[-0.334761,42.740121,1453.536],[-0.334764,42.740166,1453.442],[-0.334786,42.740213,1454.489],[-0.334811,42.740256,1455.014],[-0.334849,42.740298,1455.286],[-0.334862,42.740345,1454.965],[-0.33484,42.740393,1454.068],[-0.33483,42.740438,1452.614],[-0.334868,42.740486,1452.609],[-0.334928,42.740514,1452.627],[-0.334906,42.740557,1452.649],[-0.334891,42.740605,1452.685],[-0.334901,42.740657,1454.038],[-0.334879,42.740705,1456.16],[-0.334926,42.740742,1456.876],[-0.334959,42.740785,1458.383],[-0.334974,42.740832,1458.738],[-0.334982,42.740879,1458.81],[-0.335015,42.740921,1459.677],[-0.335053,42.740961,1460.261],[-0.335076,42.741014,1460.127],[-0.335098,42.741059,1459.909],[-0.335136,42.741102,1459.768],[-0.335121,42.741147,1459.71],[-0.335049,42.741172,1459.746],[-0.335007,42.741205,1459.619],[-0.335002,42.741255,1459.531],[-0.33499,42.74131,1460.027],[-0.334957,42.741352,1460.154],[-0.334879,42.741334,1460.219],[-0.334819,42.741307,1460.491],[-0.334762,42.741337,1460.412],[-0.334707,42.741367,1459.432],[-0.334707,42.741422,1458.505],[-0.334664,42.741459,1458.109],[-0.334599,42.741466,1457.332],[-0.334586,42.741521,1456.954],[-0.334594,42.741576,1456.68],[-0.334599,42.741621,1452.773],[-0.334567,42.741666,1450.575],[-0.33459,42.741723,1449.591],[-0.334618,42.741763,1448.268],[-0.334593,42.74181,1447.573],[-0.334538,42.741837,1447.365],[-0.334523,42.741904,1447.676],[-0.334476,42.741949,1447.59],[-0.334428,42.741982,1445.119],[-0.33437,42.741999,1442.709],[-0.334325,42.742034,1440.848],[-0.334265,42.742046,1440.82],[-0.334193,42.742061,1440.796],[-0.33413,42.742071,1441.079],[-0.334065,42.742074,1440.731],[-0.333998,42.742076,1439.877],[-0.333938,42.742091,1438.134],[-0.333868,42.742088,1435.929],[-0.333798,42.74208,1435.541],[-0.333736,42.74208,1435.037],[-0.333661,42.742098,1435.049],[-0.333626,42.742138,1434.913],[-0.333581,42.74217,1434.809],[-0.333561,42.742213,1434.794],[-0.333523,42.74226,1433.826],[-0.333465,42.742293,1433.572],[-0.333432,42.742335,1433.315],[-0.333392,42.742377,1433.027],[-0.3334,42.742422,1432.183],[-0.333332,42.742435,1429.49],[-0.333337,42.742505,1423.295],[-0.33336,42.74255,1416.957],[-0.333378,42.742605,1416.369],[-0.33341,42.742647,1413.304],[-0.333452,42.742687,1412.924],[-0.333412,42.742727,1420.009],[-0.333469,42.742752,1426.937],[-0.333497,42.742807,1427.069],[-0.333474,42.742859,1427.075],[-0.333466,42.742911,1426.928],[-0.333449,42.742974,1423.38],[-0.333456,42.743021,1425.066],[-0.333463,42.743233,1423.683],[-0.333585,42.74357,1421.628],[-0.333533,42.743518,1419.84],[-0.33346,42.743478,1417.363],[-0.33341,42.74345,1419.844],[-0.33344,42.743505,1421.118],[-0.333477,42.743548,1421.609],[-0.333475,42.743491,1422.257],[-0.33342,42.743518,1421.439],[-0.333468,42.743548,1420.745],[-0.33358,42.743596,1422.238],[-0.333503,42.743588,1422.18],[-0.333636,42.74362,1422.116],[-0.333559,42.743627,1420.883],[-0.333531,42.743582,1426.158],[-0.333453,42.743467,1425.75],[-0.333313,42.743389,1424.114],[-0.333236,42.743387,1425.454],[-0.333146,42.743452,1432.509],[-0.333004,42.743465,1438.309],[-0.333134,42.74337,1454.092],[-0.333327,42.743403,1457.594],[-0.333235,42.74338,1452.91],[-0.333255,42.743473,1454.133],[-0.333363,42.743558,1450.865],[-0.333075,42.743471,1458.051],[-0.332812,42.743776,1452.398],[-0.33311,42.743634,1469.683],[-0.333177,42.743607,1469.635],[-0.333444,42.743567,1466.048],[-0.333477,42.743525,1469.561],[-0.333185,42.743568,1469.817],[-0.333002,42.74359,1465.709],[-0.333069,42.743578,1465.325],[-0.333139,42.743558,1464.787],[-0.333269,42.743503,1455.123],[-0.333166,42.743558,1455.156],[-0.333121,42.74359,1456.738],[-0.333261,42.74357,1460.994],[-0.333308,42.74353,1460.891],[-0.33337,42.743498,1460.796],[-0.333437,42.74346,1460.758],[-0.333295,42.74349,1459.394],[-0.333328,42.743447,1458.057],[-0.333046,42.743674,1461.122],[-0.332738,42.743729,1464.409],[-0.333066,42.743664,1462.53],[-0.333208,42.743492,1459.882],[-0.333301,42.743432,1446.288],[-0.333283,42.74322,1438.481],[-0.333346,42.74318,1418.913],[-0.333353,42.743135,1419.069],[-0.333385,42.743072,1419.156],[-0.333407,42.743024,1419.291],[-0.333414,42.742972,1419.393],[-0.333409,42.742924,1420.022],[-0.333399,42.742877,1420.362],[-0.333367,42.74283,1420.608],[-0.333349,42.742777,1421.109],[-0.333331,42.742725,1422.733],[-0.333374,42.74269,1425.295],[-0.333366,42.742637,1425.261],[-0.333341,42.742594,1425.274],[-0.333346,42.742546,1425.236],[-0.333331,42.742501,1425.232],[-0.333301,42.742459,1425.189],[-0.333376,42.742442,1424.344],[-0.333406,42.742402,1424.236],[-0.333433,42.74235,1424.221],[-0.333448,42.742305,1424.441],[-0.33351,42.742282,1426.105],[-0.333515,42.742234,1426.409],[-0.333548,42.742189,1427.443],[-0.333581,42.742149,1427.785],[-0.333811,42.742114,1430.491],[-0.333964,42.742081,1430.274],[-0.334019,42.742103,1430.286],[-0.334144,42.742076,1432.452],[-0.334206,42.742079,1434.219],[-0.334271,42.742069,1436.214],[-0.334281,42.742021,1437.686],[-0.334351,42.741993,1440.163],[-0.334411,42.741971,1440.944],[-0.334441,42.741931,1440.918],[-0.334493,42.741899,1441.009],[-0.334516,42.741854,1441.357],[-0.334559,42.741809,1443.339],[-0.334574,42.741762,1444.685],[-0.334552,42.741712,1445.428],[-0.334557,42.741665,1446.31],[-0.334585,42.741612,1448.636],[-0.334587,42.741565,1448.593],[-0.334584,42.741518,1448.598],[-0.334602,42.741471,1448.47],[-0.334624,42.741428,1448.065],[-0.334682,42.741398,1447.868],[-0.334719,42.74135,1447.814],[-0.334747,42.741307,1447.809],[-0.334814,42.741312,1447.927],[-0.334874,42.741327,1448.199],[-0.334941,42.741334,1449.455],[-0.334991,42.741302,1450.058],[-0.334976,42.741254,1450.42],[-0.334996,42.741211,1452.916],[-0.335051,42.741186,1453.973],[-0.335091,42.741146,1454.238],[-0.335073,42.741096,1454.31],[-0.335046,42.741054,1456.095],[-0.335033,42.741009,1457.449],[-0.335031,42.740954,1457.623],[-0.334993,42.740909,1457.709],[-0.334968,42.740862,1457.74],[-0.334945,42.74082,1458.682],[-0.3349,42.740775,1460.838],[-0.334872,42.740727,1461.781],[-0.334865,42.740679,1462.073],[-0.33488,42.740632,1462.879],[-0.334888,42.740577,1462.936],[-0.33487,42.74052,1463.321],[-0.334848,42.740473,1463.333],[-0.334798,42.740446,1462.857],[-0.334815,42.740396,1462.3],[-0.334843,42.740349,1461.32],[-0.334818,42.740297,1457.709],[-0.334781,42.740254,1457.356],[-0.334768,42.740202,1457.338],[-0.334763,42.740152,1457.394],[-0.334753,42.740097,1457.747],[-0.334741,42.740049,1457.849],[-0.334716,42.740007,1457.925],[-0.334731,42.739957,1458.332],[-0.334714,42.739892,1458.947],[-0.334687,42.739849,1458.929],[-0.334667,42.739789,1458.677],[-0.334632,42.739749,1457.161],[-0.3346,42.739704,1455.227],[-0.334585,42.739654,1454.309],[-0.334568,42.739609,1453.068],[-0.334561,42.739564,1452.19],[-0.334529,42.739514,1451.066],[-0.334496,42.739469,1449.869],[-0.334473,42.739416,1449.691],[-0.33447,42.739368,1449.597],[-0.334463,42.739323,1449.754],[-0.334438,42.73928,1450.089],[-0.334433,42.739235,1450.381],[-0.334416,42.73919,1452.399],[-0.334399,42.739147,1453.307],[-0.334427,42.739102,1454.127],[-0.334479,42.739069,1455.009],[-0.334529,42.739039,1455.14],[-0.334552,42.738989,1455.152],[-0.33457,42.738944,1455.328],[-0.334538,42.738902,1455.351],[-0.334521,42.738857,1455.383],[-0.334514,42.738812,1455.149],[-0.334497,42.738765,1453.296],[-0.334495,42.738712,1452.891],[-0.33449,42.73865,1450.963],[-0.334513,42.738597,1448.117],[-0.334541,42.738497,1445.287],[-0.334576,42.738457,1445.415],[-0.334599,42.738415,1445.409],[-0.334676,42.738312,1448.992],[-0.334703,42.738265,1450.154],[-0.334723,42.738218,1450.49],[-0.334723,42.738168,1451.153],[-0.334748,42.738116,1452.095],[-0.334773,42.738068,1453.761],[-0.334806,42.738028,1454.998],[-0.334873,42.738008,1456.143],[-0.334925,42.737978,1456.695],[-0.334968,42.737943,1457.572],[-0.33501,42.737901,1458.013],[-0.335042,42.737856,1458.314],[-0.335039,42.737809,1459.109],[-0.335026,42.737757,1459.328],[-0.334963,42.737735,1459.39],[-0.334895,42.737715,1459.436],[-0.334868,42.737762,1459.349],[-0.3348,42.73774,1459.361],[-0.334738,42.737745,1459.327],[-0.334683,42.737698,1459.344],[-0.334611,42.737698,1459.389],[-0.334539,42.737726,1468.781],[-0.334477,42.737706,1468.747],[-0.33441,42.737691,1468.729],[-0.334353,42.737663,1466.721],[-0.334306,42.73762,1464.609],[-0.334244,42.737617,1460.875],[-0.334179,42.737632,1457.927],[-0.334112,42.737654,1457.283],[-0.334054,42.737669,1456.546],[-0.333992,42.737672,1455.878],[-0.33392,42.737675,1454.624],[-0.333845,42.737677,1454.261],[-0.33379,42.73764,1454.066],[-0.333723,42.737613,1453.988],[-0.333655,42.737606,1453.843],[-0.333602,42.737578,1453.664],[-0.333562,42.737541,1453.21],[-0.333494,42.737541,1451.909],[-0.333431,42.737553,1450.545],[-0.333383,42.737516,1449.377],[-0.333328,42.737484,1447.683],[-0.33328,42.737452,1446.136],[-0.333232,42.737422,1445.028],[-0.333177,42.737392,1444.874],[-0.333149,42.737352,1442.961],[-0.333129,42.737302,1442.576],[-0.333099,42.73726,1442.158],[-0.333041,42.737222,1442.075],[-0.332983,42.737189,1441.928],[-0.332896,42.737124,1441.02],[-0.332833,42.737129,1440.909],[-0.33277,42.737114,1441.058],[-0.332708,42.737099,1440.71],[-0.332636,42.737091,1441.386],[-0.332559,42.737104,1441.949],[-0.332489,42.737092,1441.431],[-0.332434,42.73707,1441.457],[-0.332391,42.737032,1441.274],[-0.332368,42.736984,1441.149],[-0.332335,42.736944,1440.121],[-0.33231,42.736901,1437.931],[-0.332268,42.736861,1436.361],[-0.332203,42.736883,1435.607],[-0.332138,42.736885,1434.809],[-0.332076,42.736875,1431.954],[-0.332009,42.736838,1431.446],[-0.331924,42.736828,1431.772],[-0.331854,42.736821,1431.925],[-0.331804,42.736784,1432.557],[-0.331736,42.736757,1432.783],[-0.331684,42.736732,1432.77],[-0.331631,42.736697,1432.775],[-0.331596,42.736659,1432.767],[-0.331564,42.736604,1432.656],[-0.331532,42.736556,1432.859],[-0.331474,42.736538,1432.814],[-0.331429,42.736503,1432.709],[-0.331384,42.73646,1432.666],[-0.331369,42.736412,1431.648],[-0.331327,42.736374,1431.554],[-0.331269,42.736351,1431.367],[-0.331196,42.736334,1429.259],[-0.331133,42.736321,1428.565],[-0.33107,42.736298,1428.432],[-0.330998,42.736295,1428.577],[-0.330938,42.736285,1429.799],[-0.330866,42.736295,1430.888],[-0.330821,42.736328,1431.124],[-0.330786,42.736371,1432.926],[-0.330726,42.736384,1435.109],[-0.330666,42.736394,1436.339],[-0.330604,42.736389,1437.661],[-0.330532,42.736379,1438.487],[-0.330484,42.736346,1439.94],[-0.330442,42.736308,1442.022],[-0.330415,42.736265,1443.398],[-0.330362,42.736218,1443.455],[-0.330332,42.736173,1443.41],[-0.33029,42.736138,1443.112],[-0.330258,42.736098,1442.045],[-0.33022,42.736051,1440.947],[-0.330183,42.736011,1440.411],[-0.330135,42.735961,1439.809],[-0.330105,42.735921,1439.665],[-0.330083,42.735876,1439.557],[-0.330063,42.735829,1439.553],[-0.330023,42.735782,1439.546],[-0.329983,42.735739,1440.438],[-0.329946,42.735702,1440.474],[-0.329903,42.735665,1440.311],[-0.329865,42.735623,1439.926],[-0.329837,42.735583,1439.528],[-0.329815,42.735536,1439.134],[-0.329762,42.735506,1438.755],[-0.329709,42.735473,1438.01],[-0.329677,42.735428,1436.509],[-0.329655,42.735371,1431.144],[-0.329727,42.735353,1431.196],[-0.329764,42.735315,1431.122],[-0.329812,42.735278,1431.145],[-0.329854,42.735238,1432.557],[-0.329887,42.7352,1433.383],[-0.329929,42.735152,1433.53],[-0.329977,42.735122,1433.475],[-0.330014,42.735075,1433.437],[-0.330037,42.735025,1433.358],[-0.330035,42.734978,1433.452],[-0.330043,42.734933,1433.717],[-0.330048,42.734886,1433.809],[-0.330053,42.734838,1433.756],[-0.330071,42.734785,1433.528],[-0.330064,42.734737,1433.354],[-0.330051,42.734684,1431.967],[-0.330054,42.734627,1431.679],[-0.330054,42.734575,1431.335],[-0.330036,42.734518,1430.092],[-0.330036,42.73447,1429.317],[-0.330001,42.734425,1429.089],[-0.329968,42.734375,1428.532],[-0.32994,42.734335,1428.492],[-0.329892,42.734292,1427.911],[-0.329865,42.734239,1427.409],[-0.329875,42.734194,1427.014],[-0.329845,42.734147,1425.956],[-0.329838,42.734094,1423.732],[-0.32986,42.734046,1423.675],[-0.329857,42.733976,1422.617],[-0.329917,42.733878,1421.553],[-0.329944,42.733823,1421.67],[-0.329769,42.733183,1416.375],[-0.329256,42.732735,1412.627],[-0.329189,42.73271,1412.494],[-0.329129,42.732697,1412.057],[-0.329076,42.732665,1411.522],[-0.329038,42.732627,1410.809],[-0.328975,42.732599,1406.74],[-0.328822,42.732549,1402.372],[-0.328774,42.732516,1400.118],[-0.328591,42.732429,1394.791],[-0.328533,42.732401,1394.273],[-0.328445,42.732359,1394.289],[-0.328403,42.732317,1394.466],[-0.328356,42.732277,1395.321],[-0.328319,42.732232,1397.093],[-0.328271,42.732192,1398.473],[-0.328209,42.732157,1398.785],[-0.328184,42.732114,1399.413],[-0.328152,42.732069,1399.609],[-0.328097,42.732049,1399.448],[-0.328095,42.732004,1398.54],[-0.328063,42.731957,1398.466],[-0.328025,42.731914,1398.289],[-0.327977,42.731877,1396.791],[-0.327939,42.73183,1394.517],[-0.327889,42.73179,1391.394],[-0.327852,42.731753,1388.919],[-0.327799,42.731705,1388.141],[-0.327744,42.731672,1387.979],[-0.327701,42.731637,1387.905],[-0.327653,42.731599,1389.725],[-0.327593,42.731567,1390.709],[-0.327548,42.731535,1391.018],[-0.327488,42.73151,1391.13],[-0.327448,42.731467,1391.226],[-0.327408,42.731429,1391.289],[-0.327378,42.731389,1391.221],[-0.327358,42.731336,1391.027],[-0.32734,42.731288,1390.974],[-0.327322,42.731243,1390.989],[-0.32731,42.731195,1391.171],[-0.327305,42.731148,1390.993],[-0.32729,42.7311,1390.865],[-0.327265,42.731053,1389.821],[-0.327258,42.731,1389.509],[-0.327255,42.73094,1389.28],[-0.327252,42.730893,1389.042],[-0.327242,42.730848,1388.318],[-0.32724,42.730803,1387.581],[-0.327247,42.730743,1386.963],[-0.327235,42.73069,1386.719],[-0.327223,42.730645,1385.736],[-0.327171,42.730605,1385.031],[-0.327109,42.730583,1385.073],[-0.327081,42.730623,1384.942],[-0.327111,42.730666,1384.822],[-0.327129,42.730714,1384.714],[-0.327131,42.730762,1384.309],[-0.327131,42.730807,1383.985],[-0.327134,42.730864,1382.987],[-0.327126,42.730916,1380.793],[-0.327114,42.730963,1379.886],[-0.327116,42.731015,1378.268],[-0.327114,42.731063,1377.634],[-0.327122,42.731116,1377.671],[-0.327109,42.731168,1377.646],[-0.327092,42.731216,1378.388],[-0.327104,42.731279,1378.264],[-0.327101,42.731332,1378.206],[-0.327091,42.731377,1377.416],[-0.327093,42.731434,1377.109],[-0.32707,42.731491,1377.037],[-0.327038,42.731531,1376.789],[-0.327003,42.731573,1375.735],[-0.326985,42.731625,1375.658],[-0.32696,42.731668,1375.26],[-0.32698,42.731716,1375.056],[-0.327008,42.731761,1374.743],[-0.327013,42.731813,1374.568],[-0.327026,42.731863,1374.41],[-0.327051,42.731935,1373.153],[-0.327064,42.731993,1372.604],[-0.327054,42.73204,1373.714],[-0.327057,42.73209,1372.609],[-0.327057,42.732138,1372.636],[-0.32706,42.732188,1374.118],[-0.32707,42.732235,1373.584],[-0.32706,42.732283,1371.397],[-0.327072,42.73233,1369.979],[-0.327077,42.732378,1368.655],[-0.327084,42.732431,1367.482],[-0.327111,42.732476,1367.577],[-0.327136,42.732521,1367.549],[-0.327188,42.732558,1367.611],[-0.327235,42.73259,1367.621],[-0.327285,42.732623,1367.603],[-0.327333,42.732655,1367.409],[-0.327365,42.732703,1367.172],[-0.327423,42.732741,1364.584],[-0.327465,42.732776,1362.16],[-0.327502,42.732828,1362.193],[-0.327564,42.732876,1362.175],[-0.327607,42.732923,1363.111],[-0.327597,42.732978,1365.878],[-0.327625,42.733021,1367.033],[-0.327685,42.733046,1367.855],[-0.327733,42.733078,1368.164],[-0.327788,42.733118,1368.406],[-0.327825,42.733156,1368.316],[-0.327843,42.733211,1368.109],[-0.327798,42.733246,1367.587],[-0.327735,42.733244,1367.289],[-0.327692,42.733207,1365.415],[-0.327644,42.733169,1364.738],[-0.327591,42.733134,1363.37],[-0.327536,42.733107,1361.656],[-0.327493,42.733072,1359.593],[-0.32744,42.733049,1358.888],[-0.32739,42.733019,1358.18],[-0.327328,42.732997,1357.792],[-0.327255,42.732982,1357.273],[-0.327202,42.732954,1352.72],[-0.327139,42.732932,1350.709],[-0.327076,42.732909,1347.88],[-0.327018,42.732884,1346.412],[-0.326961,42.732862,1345.978],[-0.326899,42.732864,1345.431],[-0.326837,42.732842,1343.853],[-0.326772,42.732819,1343.949],[-0.326734,42.732781,1343.936],[-0.326706,42.732736,1344.781],[-0.326678,42.732691,1345.073],[-0.326653,42.732648,1346.371],[-0.32662,42.732596,1347.341],[-0.326577,42.732551,1347.615],[-0.326542,42.732504,1347.509],[-0.326494,42.732467,1347.268],[-0.326434,42.732435,1346.03],[-0.326362,42.73242,1343.756],[-0.326304,42.73239,1341.689],[-0.326247,42.732363,1341.241],[-0.326184,42.732331,1340.927],[-0.326152,42.732288,1340.664],[-0.326112,42.732253,1340.669],[-0.326087,42.73221,1340.221],[-0.32607,42.732162,1340.176],[-0.326035,42.732115,1339.79],[-0.326,42.732077,1339.319],[-0.325968,42.732035,1338.809],[-0.32592,42.731998,1338.818],[-0.325878,42.731965,1339.05],[-0.325823,42.731937,1339.066],[-0.32579,42.731897,1339.019],[-0.325743,42.731867,1338.941],[-0.325726,42.73182,1338.677],[-0.325684,42.73175,1338.014],[-0.325692,42.731702,1337.849],[-0.32566,42.73166,1337.791],[-0.325643,42.731608,1337.511],[-0.325651,42.731551,1337.221],[-0.325659,42.731501,1336.703],[-0.325647,42.731444,1336.709],[-0.325639,42.731397,1336.612],[-0.325616,42.73135,1336.234],[-0.325569,42.731315,1335.76],[-0.325506,42.731297,1335.173],[-0.325439,42.731285,1334.915],[-0.325369,42.731298,1334.791],[-0.325294,42.7313,1334.798],[-0.325221,42.731307,1333.993],[-0.325171,42.731339,1333.815],[-0.325114,42.731367,1333.623],[-0.325066,42.731404,1333.483],[-0.325014,42.731439,1333.411],[-0.324971,42.731482,1332.509],[-0.324923,42.731512,1332.243],[-0.324863,42.731529,1331.595],[-0.324806,42.731547,1331.141],[-0.324768,42.731584,1330.584],[-0.324718,42.731626,1328.656],[-0.324676,42.731664,1328.442],[-0.324638,42.731701,1328.469],[-0.324583,42.731738,1328.474],[-0.324525,42.731765,1328.486],[-0.324473,42.731793,1329.554],[-0.324421,42.731823,1331.356],[-0.324363,42.731848,1331.411],[-0.3243,42.73188,1331.509],[-0.324252,42.73192,1331.796],[-0.324185,42.73192,1331.498],[-0.324115,42.731933,1331.344],[-0.324052,42.731958,1331.187],[-0.323995,42.731985,1330.669],[-0.323918,42.732003,1328.175],[-0.323853,42.732028,1326.042],[-0.323806,42.732065,1324.547],[-0.323746,42.732118,1321.179],[-0.323699,42.732148,1321.185],[-0.323641,42.732173,1321.189],[-0.323593,42.73222,1321.117],[-0.323546,42.732268,1321.109],[-0.323519,42.73231,1324.859],[-0.323486,42.732365,1324.871],[-0.323454,42.732413,1324.657],[-0.323409,42.732446,1323.21],[-0.323384,42.732496,1321.992],[-0.323346,42.732538,1320.638],[-0.323329,42.732585,1318.775],[-0.323294,42.73263,1318.36],[-0.323271,42.732672,1318.182],[-0.323256,42.732717,1318.054],[-0.323241,42.732762,1317.856],[-0.323193,42.732812,1315.911],[-0.323175,42.732869,1314.309],[-0.323143,42.732912,1313.456],[-0.323103,42.732965,1313.178],[-0.32308,42.73301,1312.914],[-0.323057,42.733053,1312.997],[-0.323034,42.733098,1312.229],[-0.322996,42.733143,1312.015],[-0.322971,42.733185,1312.022],[-0.322938,42.733232,1312.027],[-0.322896,42.73327,1312.039],[-0.322854,42.733315,1311.278],[-0.322821,42.733362,1310.033],[-0.322774,42.733394,1308.826],[-0.322726,42.733436,1307.709],[-0.322696,42.733478,1307.678],[-0.322649,42.733521,1307.45],[-0.322606,42.733554,1306.826],[-0.322556,42.733587,1305.639],[-0.322516,42.733624,1305.041],[-0.322476,42.733659,1303.657],[-0.322434,42.733701,1302.634],[-0.322357,42.733709,1302.449],[-0.32228,42.733722,1302.431],[-0.322218,42.73372,1302.539],[-0.322156,42.733715,1302.401],[-0.322081,42.733712,1302.321],[-0.322019,42.733707,1302.309],[-0.321952,42.73371,1300.124],[-0.321889,42.733728,1300.096],[-0.321821,42.733741,1299.922],[-0.321756,42.733754,1299.885],[-0.321681,42.733766,1299.827],[-0.321608,42.733748,1299.823],[-0.321533,42.733743,1299.86],[-0.32146,42.733736,1299.465],[-0.321393,42.733728,1298.837],[-0.321328,42.733698,1297.868],[-0.32127,42.73365,1297.442],[-0.32122,42.733608,1296.526],[-0.321188,42.733565,1295.609],[-0.321146,42.733523,1295.317],[-0.321103,42.73348,1295.149],[-0.32104,42.733448,1295.215],[-0.320992,42.733418,1295.238],[-0.320925,42.733443,1295.03],[-0.320903,42.733493,1294.896],[-0.320883,42.733543,1294.163],[-0.320876,42.733593,1291.668],[-0.320896,42.733646,1291.36],[-0.320924,42.733699,1291.222],[-0.320959,42.733742,1291.262],[-0.321004,42.733774,1291.208],[-0.321032,42.733814,1287.809],[-0.321085,42.733849,1287.853],[-0.321132,42.733882,1287.875],[-0.321192,42.733907,1287.851],[-0.321244,42.733939,1287.814],[-0.321304,42.733967,1288.776],[-0.321374,42.733975,1289.032],[-0.321436,42.733987,1288.829],[-0.321521,42.734065,1288.674],[-0.321573,42.734097,1288.686],[-0.321625,42.734125,1288.793],[-0.321662,42.734162,1290.965],[-0.321687,42.73421,1298.121],[-0.321705,42.734255,1299.609],[-0.321735,42.734297,1299.62],[-0.321767,42.734342,1300.212],[-0.321814,42.734387,1297.858],[-0.321849,42.734435,1295.081],[-0.321871,42.734483,1292.743],[-0.321878,42.734528,1291.389],[-0.321896,42.734575,1291.216],[-0.321948,42.734617,1290.611],[-0.321891,42.734642,1289.693],[-0.321831,42.73467,1289.374],[-0.321778,42.734705,1288.456],[-0.321733,42.734748,1287.821],[-0.32169,42.734781,1287.209],[-0.32164,42.734809,1285.338],[-0.321597,42.734849,1284.04],[-0.32154,42.734892,1282.856],[-0.321503,42.734935,1281.659],[-0.321461,42.734972,1280.731],[-0.321423,42.735009,1280.087],[-0.321386,42.735056,1279.084],[-0.321346,42.735096,1278.699],[-0.321294,42.735129,1278.441],[-0.321241,42.735159,1278.296],[-0.321181,42.735179,1277.031],[-0.321116,42.735177,1275.424],[-0.321043,42.735174,1273.009],[-0.320983,42.735154,1271.87],[-0.320935,42.735126,1270.642],[-0.32088,42.735086,1268.878],[-0.32084,42.735049,1268.031],[-0.320795,42.735016,1267.253],[-0.320768,42.734974,1266.829],[-0.320738,42.734934,1265.386],[-0.320688,42.734901,1265.191],[-0.320648,42.734866,1264.753],[-0.320598,42.734824,1263.883],[-0.320545,42.734792,1263.825],[-0.32048,42.734757,1263.917],[-0.32042,42.73473,1264.109],[-0.320367,42.734703,1264.529],[-0.320307,42.734675,1264.631],[-0.320247,42.734655,1264.957],[-0.32019,42.734637,1265.08],[-0.320128,42.734639,1264.622],[-0.320055,42.734632,1264.248],[-0.319997,42.734607,1264.245],[-0.319925,42.73463,1264.16],[-0.319855,42.734648,1263.492],[-0.319798,42.734681,1261.413],[-0.319736,42.734694,1261.943],[-0.319668,42.734697,1261.907],[-0.319598,42.73469,1263.209],[-0.319535,42.734695,1263.262],[-0.319465,42.734677,1263.254],[-0.31941,42.73464,1262.34],[-0.319362,42.73461,1260.043],[-0.319342,42.734567,1259.285],[-0.319304,42.734519,1257.491],[-0.319276,42.734479,1257.048],[-0.319248,42.734436,1255.463],[-0.31923,42.734391,1254.945],[-0.319213,42.734348,1254.755],[-0.319206,42.734303,1254.407],[-0.319194,42.734253,1251.417],[-0.319171,42.734211,1249.109],[-0.319148,42.734156,1246.746],[-0.319105,42.734113,1245.418],[-0.319067,42.734065,1245.394],[-0.31902,42.734028,1245.237],[-0.318955,42.734016,1245.189],[-0.318897,42.733989,1246.055],[-0.31888,42.734034,1246.732],[-0.318873,42.734084,1247.137],[-0.318891,42.734134,1247.139],[-0.318908,42.734181,1247.111],[-0.318903,42.734226,1247.121],[-0.31888,42.734279,1245.703],[-0.31887,42.734326,1245.609],[-0.318852,42.734378,1245.512],[-0.318825,42.734428,1245.314],[-0.318788,42.73447,1245.31],[-0.318731,42.7345,1245.313],[-0.318699,42.734545,1244.755],[-0.318659,42.734583,1242.411],[-0.318616,42.734623,1240.758],[-0.318581,42.734665,1239.973],[-0.318536,42.734705,1238.065],[-0.318496,42.734747,1237.182],[-0.318461,42.734785,1236.343],[-0.318446,42.734832,1236.217],[-0.318389,42.734865,1236.209],[-0.318347,42.734898,1236.239],[-0.318287,42.734933,1235.981],[-0.318219,42.73494,1235.947],[-0.318177,42.734905,1235.78],[-0.318154,42.734855,1235.642],[-0.318151,42.734808,1235.498],[-0.318151,42.734761,1235.265],[-0.318153,42.734711,1234.59],[-0.318145,42.734653,1232.252],[-0.318145,42.734605,1229.977],[-0.31813,42.734553,1229.361],[-0.318113,42.734503,1229.227],[-0.318096,42.734451,1229.209],[-0.318079,42.734408,1229.148],[-0.318017,42.734365,1229.07],[-0.317969,42.734332,1228.566],[-0.317906,42.734324,1227.559],[-0.317849,42.734342,1227.091],[-0.317792,42.734372,1226.717],[-0.31775,42.734405,1225.014],[-0.317712,42.734452,1224.629],[-0.317682,42.734495,1224.191],[-0.317649,42.734545,1223.356],[-0.317622,42.734587,1222.959],[-0.31759,42.734632,1221.414],[-0.317533,42.734652,1220.909],[-0.317496,42.734699,1220.716],[-0.317473,42.734747,1219.438],[-0.317446,42.734789,1218.544],[-0.317403,42.734822,1217.627],[-0.317371,42.734874,1217.239],[-0.317339,42.734919,1215.875],[-0.317307,42.734962,1213.362],[-0.317272,42.735009,1212.437],[-0.317227,42.735052,1211.289],[-0.317195,42.735094,1210.581],[-0.31719,42.735142,1210.561],[-0.317168,42.735195,1210.517],[-0.317166,42.73524,1210.709],[-0.317189,42.735293,1212.369],[-0.317216,42.735343,1212.591],[-0.317213,42.735393,1212.577],[-0.317238,42.735438,1211.77],[-0.317243,42.735495,1209.742],[-0.317236,42.735547,1209.258],[-0.317209,42.73559,1208.755],[-0.317176,42.73564,1208.35],[-0.317128,42.735678,1207.662],[-0.317065,42.735705,1207.358],[-0.317,42.73573,1206.552],[-0.31693,42.735748,1204.417],[-0.316865,42.735751,1203.809],[-0.316798,42.735748,1203.916],[-0.316721,42.735746,1203.968],[-0.316643,42.735751,1204.174],[-0.31658,42.735748,1204.377],[-0.31652,42.735761,1204.269],[-0.316467,42.735788,1204.085],[-0.316424,42.735823,1203.252],[-0.316416,42.735873,1201.947],[-0.316404,42.735925,1201.069],[-0.316401,42.735973,1200.836],[-0.316406,42.736023,1200.917],[-0.316426,42.736068,1201.018],[-0.316454,42.736111,1201.009],[-0.316484,42.736151,1200.984],[-0.316511,42.736199,1200.846],[-0.316539,42.736244,1199.842],[-0.316571,42.736287,1199.235],[-0.316621,42.736332,1198.917],[-0.316673,42.736365,1198.943],[-0.31672,42.7364,1199.69],[-0.316762,42.73645,1199.885],[-0.316797,42.73649,1200.097],[-0.316809,42.736537,1200.248],[-0.316831,42.736584,1201.761],[-0.316826,42.736629,1202.317],[-0.316816,42.736679,1202.409],[-0.316788,42.736734,1202.455],[-0.316758,42.736784,1202.427],[-0.316726,42.736832,1201.743],[-0.316676,42.736862,1200.936],[-0.316613,42.73687,1199.488],[-0.31656,42.736897,1197.394],[-0.316515,42.736929,1194.541],[-0.316455,42.736956,1193.956],[-0.316422,42.737011,1193.718],[-0.316392,42.737059,1193.083],[-0.31632,42.737077,1190.725],[-0.316258,42.73704,1189.217],[-0.316226,42.736993,1189.209],[-0.316198,42.73695,1189.269],[-0.316141,42.736917,1190.211],[-0.316088,42.736889,1190.247]]}}]}