{"type":"FeatureCollection","features":[{"type":"Feature","properties":{"ruta_id":"143455930","nombre":"INDAMENDI desde ELKANO ruta CIRCULAR","blog_url":"https://www.rutasporelmonte.com/indamendi-subida-desde-elkano/"},"geometry":{"type":"LineString","coordinates":[[-2.202618,43.265383,305.056],[-2.202523,43.2654,305.059],[-2.20255,43.265345,308.114],[-2.202645,43.26536,300.809],[-2.202588,43.265342,285.786],[-2.202591,43.265297,272.889],[-2.202609,43.265342,272.828],[-2.202652,43.265375,269.159],[-2.20261,43.265342,270.64],[-2.202553,43.26536,273.77],[-2.202488,43.265333,273.764],[-2.202441,43.265295,273.788],[-2.202468,43.265252,272.255],[-2.202526,43.26522,272.249],[-2.202589,43.265217,272.302],[-2.202651,43.2652,272.422],[-2.202716,43.265188,273.209],[-2.202758,43.265221,274.515],[-2.20282,43.265231,275.858],[-2.202883,43.265209,275.927],[-2.202941,43.265189,276.228],[-2.203003,43.265184,276.769],[-2.203073,43.265181,276.719],[-2.203143,43.265179,277.573],[-2.203208,43.265174,278.447],[-2.203271,43.265182,279.084],[-2.203343,43.265182,279.094],[-2.203408,43.265189,279.157],[-2.203466,43.265216,279.022],[-2.203529,43.265218,278.909],[-2.203601,43.265205,278.81],[-2.203676,43.26521,278.893],[-2.203739,43.265203,278.922],[-2.203809,43.265206,278.923],[-2.203874,43.265216,278.984],[-2.203936,43.265221,278.944],[-2.203999,43.265224,279.048],[-2.204086,43.265229,279.482],[-2.204169,43.265232,279.439],[-2.204234,43.26522,279.577],[-2.204297,43.265218,279.761],[-2.204367,43.265226,279.527],[-2.204422,43.265258,279.409],[-2.204375,43.265226,279.388],[-2.204452,43.265231,278.571],[-2.204532,43.265223,279.57],[-2.204607,43.265243,280.891],[-2.204675,43.265258,282.472],[-2.204747,43.26527,285.892],[-2.204822,43.265283,285.626],[-2.204892,43.265293,285.67],[-2.204964,43.265288,285.277],[-2.205007,43.265325,284.938],[-2.20507,43.265347,283.27],[-2.205128,43.265367,281.717],[-2.205195,43.26537,281.709],[-2.20528,43.265363,281.944],[-2.205338,43.265348,282.287],[-2.205406,43.265335,281.976],[-2.205479,43.265323,282.317],[-2.205537,43.265306,282.478],[-2.205594,43.265274,282.958],[-2.205654,43.265257,282.512],[-2.205716,43.265239,282.926],[-2.205778,43.265226,281.943],[-2.205846,43.265208,281.059],[-2.205924,43.265206,281.103],[-2.205989,43.265193,281.523],[-2.206047,43.265168,284.509],[-2.206089,43.265126,284.596],[-2.206136,43.265081,284.579],[-2.206106,43.265019,285.468],[-2.206054,43.264937,285.549],[-2.206054,43.264889,285.22],[-2.206037,43.264844,285.27],[-2.206039,43.264784,285.034],[-2.206057,43.264732,286.378],[-2.20607,43.264682,287.245],[-2.20611,43.264622,288.244],[-2.206145,43.264577,288.905],[-2.206185,43.264539,290.015],[-2.206233,43.264509,289.809],[-2.206291,43.264469,290.085],[-2.206348,43.264441,290.098],[-2.20636,43.264396,290.197],[-2.206395,43.264344,290.258],[-2.20641,43.264277,290.229],[-2.206423,43.264224,290.839],[-2.206431,43.264167,291.673],[-2.206448,43.264119,293.267],[-2.20648,43.264079,295.794],[-2.206498,43.264027,296.527],[-2.206533,43.263989,296.668],[-2.206588,43.263954,296.614],[-2.206626,43.263912,294.909],[-2.206661,43.263872,293.853],[-2.206706,43.263837,293.226],[-2.206774,43.263795,293.075],[-2.206824,43.263765,292.966],[-2.206889,43.263747,292.877],[-2.206949,43.263734,293.027],[-2.207009,43.263712,293.831],[-2.207072,43.263694,293.855],[-2.207137,43.263681,293.912],[-2.207195,43.263666,294.036],[-2.207262,43.263649,294.417],[-2.207327,43.263634,295.818],[-2.207385,43.263587,296.309],[-2.207428,43.26354,296.694],[-2.207473,43.263497,297.257],[-2.207513,43.263449,297.816],[-2.207538,43.263402,297.917],[-2.20759,43.263365,298.068],[-2.207653,43.263335,298.998],[-2.207736,43.263312,300.812],[-2.207793,43.263275,301.776],[-2.207835,43.263242,302.633],[-2.207912,43.263215,301.219],[-2.207977,43.263182,301.209],[-2.208052,43.263179,301.219],[-2.20811,43.263154,301.209],[-2.208167,43.263114,301.242],[-2.20823,43.263096,299.215],[-2.208295,43.263081,300.874],[-2.208355,43.263043,301.135],[-2.20841,43.263011,301.446],[-2.208463,43.262986,301.626],[-2.208525,43.262978,301.94],[-2.208588,43.262953,303.384],[-2.208648,43.262926,303.491],[-2.208705,43.262904,303.443],[-2.208765,43.262891,303.064],[-2.208838,43.262863,300.01],[-2.2089,43.262833,300.009],[-2.20896,43.262813,300.015],[-2.209023,43.26279,300.178],[-2.209075,43.262758,301.897],[-2.209132,43.262728,302.668],[-2.209189,43.262708,303.439],[-2.209254,43.262698,304.349],[-2.209349,43.262715,303.153],[-2.209402,43.26269,302.527],[-2.209469,43.26267,300.334],[-2.209529,43.262643,300.158],[-2.209579,43.26261,300.152],[-2.209609,43.262558,298.017],[-2.209631,43.262513,299.309],[-2.209639,43.262468,299.856],[-2.209664,43.262421,299.999],[-2.209679,43.262373,300.648],[-2.209671,43.262326,301.149],[-2.209663,43.262281,301.33],[-2.209611,43.262244,302.31],[-2.209563,43.262204,302.744],[-2.20951,43.262179,302.858],[-2.209463,43.262139,302.835],[-2.209408,43.262099,302.865],[-2.209343,43.262067,303.068],[-2.2093,43.262034,303.314],[-2.20927,43.261981,304.809],[-2.209233,43.261943,306.297],[-2.209206,43.261898,306.97],[-2.209159,43.26185,308.029],[-2.209109,43.261812,309.04],[-2.209051,43.261779,311.861],[-2.208994,43.261752,312.631],[-2.208944,43.26172,312.065],[-2.208894,43.261692,310.819],[-2.208822,43.26166,310.686],[-2.20876,43.261642,309.832],[-2.208697,43.261615,309.492],[-2.208634,43.261598,307.711],[-2.208574,43.26157,306.709],[-2.208527,43.261522,306.734],[-2.208495,43.261472,306.897],[-2.208488,43.261419,307.276],[-2.208495,43.261361,307.287],[-2.208508,43.261309,307.338],[-2.20851,43.261251,306.998],[-2.208522,43.261193,305.522],[-2.208524,43.261135,304.636],[-2.208534,43.26109,304.093],[-2.208567,43.261045,300.053],[-2.208589,43.260997,299.004],[-2.208621,43.260937,297.614],[-2.208636,43.26089,297.009],[-2.208649,43.260835,297.276],[-2.208639,43.260788,297.219],[-2.208676,43.260748,297.238],[-2.208683,43.260701,297.049],[-2.208713,43.260659,296.77],[-2.208755,43.260609,296.44],[-2.20879,43.260564,296.464],[-2.208823,43.260517,296.698],[-2.208845,43.260467,296.855],[-2.208868,43.260417,297.735],[-2.208921,43.260387,298.686],[-2.208966,43.260352,298.814],[-2.208986,43.260309,299.209],[-2.209011,43.260266,299.754],[-2.209044,43.260221,300.357],[-2.209097,43.260193,301.226],[-2.209137,43.260146,302.167],[-2.2092,43.260118,302.188],[-2.209288,43.260076,301.968],[-2.209306,43.260023,300.262],[-2.209301,43.259971,300.396],[-2.209094,43.259783,309.743],[-2.209037,43.259748,313.174],[-2.208994,43.259705,314.856],[-2.208956,43.259665,316.121],[-2.208894,43.259633,316.909],[-2.208822,43.259635,317.418],[-2.208762,43.259622,317.471],[-2.2086,43.259554,317.27],[-2.208542,43.259537,317.261],[-2.208475,43.259517,317.292],[-2.208417,43.259492,317.122],[-2.208349,43.259475,315.166],[-2.208302,43.259442,312.81],[-2.208244,43.259405,312.347],[-2.208207,43.259362,312.267],[-2.208169,43.259325,312.281],[-2.208151,43.259275,312.219],[-2.208108,43.259237,312.309],[-2.208066,43.259192,312.967],[-2.208023,43.259159,313.32],[-2.208005,43.259116,313.859],[-2.207965,43.259078,315.48],[-2.20791,43.259055,315.641],[-2.207762,43.25909,313.791],[-2.207757,43.259002,314.975],[-2.207737,43.258949,315.079],[-2.207497,43.259021,318.876],[-2.20743,43.259011,318.649],[-2.207367,43.259031,318.402],[-2.20731,43.259008,317.522],[-2.207238,43.258996,314.709],[-2.207175,43.258971,314.425],[-2.207148,43.258928,314.138],[-2.20712,43.25888,314.297],[-2.20649,43.258282,315.448],[-2.20617,43.258162,313.489],[-2.206112,43.258092,313.829],[-2.20578,43.257947,315.613],[-2.205728,43.257985,313.887],[-2.205725,43.257835,309.274],[-2.205672,43.257805,309.447],[-2.205579,43.257803,314.329],[-2.205639,43.257833,317.221],[-2.205439,43.257698,317.909],[-2.205424,43.257645,319.265],[-2.205429,43.257563,321.488],[-2.205369,43.257548,322.047],[-2.205376,43.2575,322.638],[-2.205388,43.257445,322.989],[-2.205436,43.257413,323.739],[-2.205459,43.257361,327.083],[-2.205496,43.257306,327.877],[-2.205511,43.257261,327.894],[-2.205498,43.257216,327.812],[-2.205475,43.257174,327.932],[-2.205427,43.257142,335.505],[-2.205392,43.257095,335.709],[-2.20538,43.257042,335.742],[-2.205335,43.257,336.825],[-2.205277,43.25698,337.784],[-2.205244,43.256938,339.455],[-2.205176,43.256915,342.286],[-2.205123,43.256892,345.146],[-2.205051,43.256885,345.72],[-2.204988,43.25689,346.624],[-2.204951,43.256852,347.721],[-2.204881,43.256865,350.716],[-2.204838,43.2569,350.776],[-2.204771,43.25689,350.713],[-2.204711,43.256907,348.309],[-2.204646,43.25691,347.572],[-2.204584,43.256937,345.895],[-2.204516,43.256944,345.044],[-2.204444,43.256949,345.045],[-2.204391,43.256972,345.016],[-2.204323,43.25697,346.086],[-2.204258,43.256997,347.25],[-2.204193,43.257015,344.434],[-2.204141,43.257043,343.561],[-2.204084,43.257081,343.464],[-2.204024,43.257109,343.406],[-2.203961,43.257121,343.216],[-2.203898,43.257129,346.509],[-2.203801,43.257101,350.117],[-2.203733,43.257111,350.16],[-2.20367,43.257128,350.199],[-2.203607,43.257145,348.54],[-2.203545,43.257135,349.161],[-2.203477,43.257123,349.651],[-2.203407,43.257133,349.995],[-2.203344,43.257156,350.259],[-2.203282,43.257163,350.486],[-2.20321,43.257158,350.877],[-2.203148,43.257138,351.561],[-2.20309,43.257106,352.427],[-2.203025,43.257103,352.709],[-2.202957,43.257068,354.868],[-2.20288,43.257053,356.411],[-2.202817,43.257063,356.46],[-2.202747,43.257043,356.431],[-2.202677,43.25702,356.552],[-2.202604,43.257018,355.612],[-2.202542,43.256993,355.236],[-2.202494,43.25696,355.63],[-2.202429,43.256952,356.647],[-2.202367,43.256934,359.666],[-2.202302,43.256931,359.929],[-2.202235,43.256921,359.921],[-2.202165,43.256914,359.909],[-2.202133,43.256874,359.947],[-2.202068,43.256872,363.79],[-2.20201,43.256855,363.749],[-2.201935,43.256853,363.73],[-2.201867,43.256855,364.241],[-2.201809,43.25683,366.141],[-2.201732,43.256833,367.165],[-2.20167,43.256826,367.679],[-2.2016,43.256816,367.846],[-2.201545,43.256779,368.091],[-2.201495,43.256752,369.081],[-2.201433,43.256725,369.919],[-2.201373,43.256737,371.709],[-2.201321,43.256709,371.89],[-2.201256,43.256709,371.843],[-2.201189,43.256704,371.082],[-2.201127,43.256709,370.853],[-2.201064,43.256712,370.674],[-2.200997,43.256702,369.534],[-2.200942,43.25668,369.468],[-2.200874,43.256672,369.482],[-2.200816,43.256655,369.429],[-2.200754,43.256588,372.838],[-2.200789,43.256653,373.47],[-2.200722,43.256633,375.817],[-2.200627,43.256635,375.809],[-2.200529,43.256632,375.854],[-2.200451,43.256622,375.877],[-2.200363,43.256612,370.646],[-2.200281,43.256602,370.737],[-2.200216,43.256597,370.898],[-2.200143,43.256599,372.138],[-2.200075,43.256601,372.172],[-2.200005,43.256596,372.226],[-2.199942,43.256589,372.343],[-2.199872,43.256581,376.769],[-2.199809,43.256561,376.804],[-2.199746,43.256544,376.924],[-2.199666,43.256544,377.009],[-2.199604,43.256532,377.047],[-2.199539,43.25652,376.92],[-2.199476,43.256515,377.349],[-2.199416,43.256497,377.87],[-2.199344,43.2565,378.861],[-2.199281,43.256493,380.031],[-2.199221,43.25648,381.645],[-2.199161,43.256492,382.039],[-2.199083,43.256479,382.256],[-2.199028,43.256457,382.651],[-2.19897,43.256437,383.001],[-2.19892,43.25639,384.511],[-2.198868,43.25636,384.609],[-2.19883,43.256318,384.866],[-2.198785,43.256271,385.099],[-2.198777,43.256224,384.948],[-2.198744,43.256177,385.099],[-2.198699,43.256137,385.16],[-2.198652,43.256107,385.41],[-2.198612,43.256062,385.724],[-2.198565,43.256012,385.728],[-2.198503,43.25598,385.415],[-2.198446,43.255955,385.422],[-2.198413,43.25591,385.562],[-2.19838,43.255867,385.708],[-2.198352,43.25582,386.209],[-2.19831,43.255768,386.513],[-2.19828,43.255721,387.976],[-2.198252,43.255681,388.315],[-2.198229,43.255629,388.456],[-2.198199,43.255589,388.457],[-2.198157,43.255537,388.397],[-2.198117,43.255489,387.561],[-2.198062,43.255457,386.535],[-2.19803,43.255417,386.572],[-2.197997,43.255374,386.578],[-2.197952,43.255334,387.433],[-2.197889,43.255314,389.026],[-2.197847,43.255277,389.009],[-2.19781,43.255229,389.028],[-2.197762,43.255196,389.021],[-2.197719,43.255161,386.98],[-2.197677,43.255111,387.021],[-2.197634,43.255059,387.082],[-2.197597,43.255014,387.952],[-2.197574,43.254964,388.386],[-2.197549,43.254909,388.35],[-2.197514,43.254866,388.227],[-2.197489,43.254818,387.176],[-2.197471,43.254765,386.69],[-2.197449,43.254722,386.419],[-2.197414,43.254677,386.109],[-2.197402,43.254617,386.128],[-2.197387,43.254567,386.011],[-2.19737,43.254524,385.62],[-2.19731,43.254491,382.841],[-2.197255,43.254463,382.772],[-2.197185,43.25446,382.352],[-2.19714,43.2545,381.346],[-2.19714,43.254442,380.29],[-2.197123,43.254387,379.997],[-2.197083,43.254352,379.685],[-2.197051,43.254307,379.789],[-2.197023,43.254259,381.017],[-2.196981,43.254224,381.909],[-2.196934,43.254192,382.319],[-2.196886,43.254155,382.712],[-2.196829,43.254122,384.021],[-2.196814,43.254077,384.492],[-2.196799,43.254025,384.453],[-2.196762,43.253973,384.593],[-2.196717,43.253925,383.687],[-2.196667,43.253882,383.481],[-2.196634,43.253832,383.488],[-2.196599,43.253782,383.445],[-2.196556,43.253747,383.647],[-2.196526,43.253707,385.611],[-2.196484,43.253662,386.709],[-2.196452,43.253622,386.825],[-2.196392,43.253592,386.858],[-2.196349,43.253552,386.847],[-2.196316,43.253507,386.898],[-2.196298,43.253457,386.979],[-2.196271,43.253414,386.929],[-2.196338,43.253352,386.933],[-2.196266,43.253319,386.837],[-2.196229,43.253274,386.744],[-2.196212,43.253224,386.728],[-2.196177,43.253179,385.989],[-2.196192,43.253124,385.517],[-2.196205,43.253076,385.309],[-2.19619,43.253031,385.123],[-2.196185,43.252986,384.396],[-2.196195,43.252929,384.035],[-2.196185,43.252881,383.846],[-2.196187,43.252834,383.357],[-2.19611,43.252806,382.927],[-2.196165,43.252778,382.871],[-2.19622,43.252755,383.445],[-2.196275,43.252727,384.592],[-2.196317,43.252664,385.958],[-2.196385,43.252649,387.152],[-2.196428,43.252606,386.817],[-2.196486,43.252584,387.109],[-2.196538,43.252546,387.116],[-2.196576,43.252508,386.189],[-2.196608,43.252456,386.118],[-2.196653,43.252416,386.229],[-2.196695,43.252373,386.23],[-2.196745,43.252338,386.19],[-2.196795,43.252296,385.444],[-2.196825,43.252256,385.118],[-2.196883,43.252221,385.175],[-2.196936,43.252186,385.186],[-2.196998,43.252154,385.66],[-2.197048,43.252126,386.026],[-2.197105,43.252104,385.909],[-2.197153,43.252067,386.039],[-2.197215,43.252037,385.952],[-2.19727,43.252014,385.871],[-2.197318,43.251982,385.762],[-2.197393,43.251972,385.733],[-2.19747,43.251974,384.943],[-2.19755,43.251967,384.947],[-2.197615,43.25195,385.011],[-2.197683,43.251948,385.578],[-2.197745,43.251933,386.015],[-2.197815,43.251925,386.165],[-2.197887,43.251905,386.111],[-2.197947,43.251893,385.709],[-2.198012,43.25187,384.732],[-2.198065,43.251822,383.365],[-2.19812,43.251784,381.684],[-2.198182,43.251752,374.715],[-2.198229,43.251722,374.776],[-2.198269,43.251687,374.786],[-2.198309,43.251647,374.77],[-2.198377,43.251619,374.764],[-2.198414,43.251579,376.751],[-2.198451,43.251542,376.819],[-2.198491,43.251507,377.509],[-2.198528,43.251462,377.519],[-2.198578,43.25143,377.509],[-2.198638,43.251408,377.562],[-2.198708,43.251395,377.135],[-2.198771,43.25139,376.384],[-2.198836,43.251355,376.165],[-2.198894,43.251327,375.746],[-2.198944,43.251287,375.526],[-2.199006,43.251262,375.36],[-2.199069,43.251239,374.464],[-2.199136,43.251224,374.131],[-2.199203,43.251207,373.279],[-2.199261,43.251192,373.105],[-2.199333,43.251174,372.925],[-2.199396,43.251149,372.909],[-2.199458,43.251134,370.778],[-2.199525,43.251119,368.421],[-2.199588,43.251097,368.07],[-2.199653,43.251084,367.871],[-2.199711,43.251064,367.692],[-2.199774,43.251051,367.262],[-2.199844,43.251036,366.586],[-2.199929,43.251031,366.58],[-2.199992,43.251028,366.487],[-2.200057,43.251011,366.521],[-2.200132,43.251006,366.441],[-2.2002,43.251003,366.505],[-2.20028,43.251003,366.409],[-2.20033,43.250976,365.353],[-2.200403,43.250958,364.996],[-2.200466,43.250945,363.455],[-2.200538,43.250915,363.156],[-2.200601,43.250905,363.057],[-2.200666,43.250908,361.237],[-2.200746,43.250898,360.691],[-2.200826,43.250886,359.825],[-2.200896,43.250864,359.042],[-2.200958,43.250852,358.436],[-2.201025,43.250862,357.317],[-2.201093,43.250844,356.618],[-2.201153,43.250831,355.909],[-2.20122,43.250831,356.114],[-2.201293,43.250813,356.017],[-2.20136,43.25081,356.156],[-2.201428,43.250803,356.017],[-2.201491,43.25081,355.578],[-2.201554,43.250815,354.918],[-2.201626,43.250833,354.962],[-2.201694,43.250836,354.936],[-2.201761,43.250824,354.023],[-2.201828,43.250829,354.398],[-2.201896,43.250824,353.415],[-2.201963,43.250822,353.126],[-2.202025,43.250812,353.309],[-2.202102,43.250815,353.38],[-2.202174,43.250808,353.043],[-2.202242,43.250808,353.042],[-2.202314,43.250805,352.883],[-2.202377,43.250818,352.034],[-2.20244,43.250831,351.424],[-2.202507,43.250846,350.568],[-2.202574,43.250858,348.912],[-2.202641,43.250855,348.799],[-2.202711,43.250872,347.729],[-2.202774,43.250887,346.5],[-2.202842,43.250889,345.42],[-2.202909,43.250891,344.909],[-2.202976,43.250903,344.653],[-2.203041,43.250905,344.456],[-2.203096,43.250933,344.285],[-2.203164,43.250948,343.856],[-2.203237,43.250946,342.377],[-2.203304,43.250958,341.997],[-2.203374,43.250976,341.211],[-2.203449,43.250983,341.345],[-2.203507,43.251001,341.342],[-2.203582,43.251009,342.284],[-2.203654,43.251029,342.707],[-2.203722,43.251032,342.717],[-2.203784,43.251044,342.809],[-2.203854,43.251054,342.529],[-2.203926,43.251049,342.062],[-2.203981,43.251082,341.551],[-2.204051,43.251094,340.572],[-2.204114,43.251106,338.833],[-2.204176,43.251136,337.983],[-2.204241,43.251151,336.867],[-2.204303,43.251154,336.631],[-2.204378,43.251147,336.178],[-2.204445,43.251159,335.776],[-2.20451,43.251169,335.59],[-2.204572,43.251172,335.419],[-2.20464,43.251194,335.309],[-2.204727,43.251216,334.018],[-2.204827,43.251243,333.961],[-2.204884,43.251261,333.72],[-2.204947,43.251251,333.691],[-2.205014,43.251261,333.932],[-2.205091,43.251273,334.492],[-2.205144,43.251296,334.476],[-2.205211,43.251306,334.41],[-2.205283,43.251321,334.237],[-2.205348,43.251349,334.433],[-2.20541,43.251354,333.223],[-2.205477,43.251364,332.415],[-2.205542,43.251377,332.209],[-2.205614,43.251385,332.064],[-2.205684,43.251392,331.837],[-2.205751,43.25138,331.846],[-2.205816,43.251385,331.817],[-2.205881,43.251392,331.898],[-2.205948,43.251384,334.188],[-2.206006,43.251361,334.662],[-2.206091,43.251401,334.716],[-2.206133,43.251451,334.583],[-2.206161,43.251506,334.112],[-2.206186,43.251549,333.532],[-2.206229,43.251589,332.405],[-2.206277,43.251629,331.809],[-2.206294,43.251672,332.012],[-2.206349,43.251697,332.555],[-2.206377,43.251742,332.794],[-2.206387,43.251792,334.965],[-2.206407,43.251842,334.916],[-2.206454,43.251874,335.376],[-2.206474,43.251929,335.65],[-2.206501,43.251979,336.314],[-2.206509,43.252024,337.471],[-2.206526,43.252076,338.287],[-2.206541,43.252123,338.542],[-2.206569,43.252166,338.526],[-2.206592,43.252214,338.409],[-2.206607,43.252272,337.719],[-2.206634,43.252324,336.912],[-2.206682,43.252364,334.171],[-2.206715,43.252407,332.652],[-2.206752,43.252447,332.633],[-2.206795,43.252492,333.653],[-2.206853,43.25251,334.887],[-2.20687,43.252557,335.281],[-2.206867,43.25261,337.288],[-2.206887,43.25266,343.352],[-2.206935,43.252717,349.553],[-2.206973,43.25276,350.108],[-2.206988,43.252812,351.309],[-2.207028,43.252857,351.576],[-2.207063,43.252897,351.639],[-2.207083,43.25294,351.728],[-2.207101,43.252988,351.869],[-2.207098,43.253043,352.27],[-2.207096,43.253093,352.48],[-2.207101,43.25315,352.554],[-2.207118,43.253213,352.968],[-2.20712,43.253263,352.165],[-2.207122,43.253311,350.934],[-2.207147,43.253361,348.355],[-2.20713,43.253304,348.31],[-2.20712,43.253351,348.309],[-2.207138,43.253394,348.324],[-2.20716,43.253437,348.357],[-2.207158,43.253492,349.076],[-2.207136,43.253549,351.157],[-2.207148,43.253599,351.128],[-2.207163,43.253644,351.968],[-2.207153,43.253696,352.142],[-2.20719,43.253738,352.546],[-2.207198,43.253783,352.773],[-2.207186,43.25383,352.726],[-2.207189,43.253878,353.047],[-2.207219,43.253918,354.011],[-2.207224,43.253965,360.109],[-2.207226,43.254017,362.353],[-2.207258,43.254064,363.786],[-2.20726,43.254109,366.645],[-2.207292,43.254172,366.916],[-2.207307,43.254222,367.667],[-2.207319,43.254272,368.527],[-2.207326,43.254324,369.571],[-2.207321,43.254369,372.135],[-2.207329,43.254414,373.322],[-2.207326,43.254466,374.249],[-2.207351,43.254514,376.102],[-2.207376,43.254557,376.122],[-2.207388,43.254605,376.109],[-2.20739,43.254662,376.245],[-2.207423,43.2547,375.568],[-2.207378,43.254738,375.497],[-2.207321,43.254766,376.538],[-2.207249,43.254759,374.499],[-2.207181,43.254757,374.439],[-2.207118,43.25477,376.533],[-2.207095,43.254815,377.367],[-2.207092,43.254867,377.314],[-2.207097,43.254917,377.368],[-2.207112,43.25497,377.342],[-2.207119,43.255017,377.726],[-2.207152,43.25506,377.409],[-2.207179,43.255103,376.837],[-2.207206,43.255145,376.61],[-2.207238,43.255185,376.579],[-2.207271,43.25523,376.27],[-2.207336,43.25524,376.351],[-2.207396,43.255252,376.971],[-2.207468,43.255265,378.895],[-2.20753,43.255278,379.899],[-2.207592,43.255293,380.236],[-2.207645,43.255321,380.249],[-2.207702,43.255348,380.702],[-2.207755,43.255381,380.522],[-2.207815,43.255394,380.709],[-2.20788,43.255409,381.685],[-2.20795,43.255414,384.568],[-2.208012,43.255411,386.257],[-2.208074,43.255421,386.628],[-2.208121,43.255454,387.019],[-2.208176,43.255479,387.369],[-2.208236,43.255501,388.663],[-2.208283,43.255533,390.947],[-2.20834,43.255563,391.494],[-2.208338,43.255621,394.465],[-2.208405,43.255631,395.068],[-2.208492,43.255663,395.514],[-2.20852,43.255706,395.909],[-2.208577,43.255686,403.257],[-2.208635,43.255704,403.25],[-2.20867,43.255744,403.299],[-2.2087,43.255784,403.24],[-2.208768,43.255791,403.971],[-2.208825,43.255813,405.671],[-2.208875,43.255841,405.435],[-2.208918,43.255879,405.829],[-2.20897,43.255909,407.216],[-2.209032,43.255936,408.545],[-2.209085,43.255963,409.147],[-2.209147,43.255981,413.511],[-2.209214,43.255993,413.509],[-2.209266,43.256035,413.565],[-2.209308,43.256075,413.568],[-2.209373,43.256102,415.517],[-2.209406,43.256145,415.598],[-2.209454,43.256175,414.859],[-2.209501,43.256207,412.359],[-2.209561,43.256235,412.073],[-2.209609,43.256268,411.737],[-2.209662,43.256303,411.714],[-2.209727,43.256326,411.549],[-2.209772,43.256359,411.002],[-2.209809,43.256399,410.722],[-2.209857,43.256436,410.809],[-2.2099,43.256471,412.895],[-2.20997,43.256474,413.188],[-2.21002,43.256504,413.167],[-2.210058,43.256542,413.158],[-2.210095,43.256579,413.199],[-2.210162,43.256582,408.369],[-2.210219,43.256617,411.533],[-2.210271,43.25665,413.127],[-2.210326,43.256675,413.854],[-2.210388,43.256697,414.319],[-2.210453,43.256719,414.509],[-2.210505,43.256754,418.819],[-2.210558,43.256777,418.809],[-2.210625,43.256782,418.812],[-2.210678,43.256805,418.895],[-2.210731,43.256832,418.884],[-2.210798,43.256857,426.045],[-2.210856,43.25688,427.396],[-2.210921,43.256893,433.536],[-2.210983,43.256906,433.55],[-2.21105,43.256921,433.764],[-2.211098,43.256956,433.781],[-2.211155,43.256981,433.724],[-2.211233,43.257009,441.904],[-2.211298,43.257017,441.914],[-2.211366,43.257032,441.909],[-2.211428,43.257045,441.943],[-2.211471,43.257083,441.916],[-2.211521,43.257116,441.915],[-2.211583,43.257141,441.366],[-2.211643,43.257174,441.167],[-2.211695,43.257202,439.697],[-2.211745,43.257244,439.751],[-2.211805,43.257262,439.825],[-2.211862,43.257285,440.362],[-2.21193,43.257338,441.117],[-2.21199,43.257353,441.187],[-2.212057,43.257368,441.115],[-2.21213,43.257378,441.109],[-2.212198,43.257381,440.562],[-2.212263,43.257406,435.445],[-2.212338,43.257406,434.854],[-2.212393,43.257429,432.585],[-2.212455,43.257449,432.576],[-2.212517,43.257459,432.556],[-2.212565,43.257487,432.53],[-2.212627,43.257502,432.314],[-2.212665,43.257539,431.481],[-2.212745,43.257584,431.176],[-2.212802,43.257604,430.49],[-2.212865,43.257619,430.219],[-2.212922,43.257642,430.809],[-2.212982,43.257674,430.348],[-2.213045,43.257701,431.371],[-2.21311,43.257719,432.33],[-2.213177,43.257726,433.051],[-2.21324,43.257746,434.162],[-2.213305,43.257768,434.472],[-2.213377,43.257786,434.656],[-2.213444,43.257808,434.69],[-2.213506,43.257826,434.767],[-2.213566,43.257849,434.782],[-2.213631,43.257879,434.643],[-2.213686,43.257916,434.617],[-2.213734,43.257951,433.609],[-2.213779,43.257984,433.489],[-2.213831,43.258021,433.342],[-2.213859,43.258069,433.081],[-2.213934,43.258066,431.732],[-2.213996,43.258074,430.353],[-2.214071,43.258081,430.023],[-2.214141,43.258091,430.047],[-2.214204,43.258098,432.261],[-2.214271,43.25811,433.998],[-2.214328,43.25814,435.576],[-2.214385,43.258162,435.59],[-2.214433,43.258192,435.519],[-2.214505,43.258222,435.609],[-2.214562,43.25824,435.768],[-2.214615,43.258263,438.231],[-2.214685,43.25827,439.53],[-2.214753,43.258283,441.391],[-2.214813,43.258313,443.332],[-2.214886,43.25833,444.892],[-2.214939,43.25836,445.436],[-2.214982,43.258395,445.99],[-2.215047,43.258413,447.397],[-2.215104,43.258433,449.759],[-2.215157,43.258461,451.003],[-2.215214,43.258483,452.823],[-2.215284,43.25849,455.209],[-2.215346,43.258517,457.686],[-2.215406,43.258529,459.069],[-2.215463,43.258554,460.068],[-2.215481,43.258607,461.859],[-2.215528,43.258649,461.85],[-2.215581,43.258677,461.88],[-2.215624,43.25871,461.874],[-2.215681,43.258745,468.198],[-2.215693,43.258797,468.115],[-2.215696,43.258855,468.164],[-2.215683,43.258902,468.106],[-2.215648,43.25897,468.116],[-2.21561,43.259007,464.809],[-2.215627,43.25905,463.127],[-2.21556,43.259073,463.53],[-2.215608,43.259041,460.369],[-2.21556,43.259076,459.84],[-2.215528,43.259128,459.831],[-2.215518,43.259173,459.821],[-2.215516,43.259225,460.295],[-2.215523,43.259283,460.349],[-2.215536,43.259355,460.586],[-2.215544,43.259423,460.343],[-2.215554,43.259478,460.364],[-2.215577,43.259538,460.31],[-2.215607,43.259581,460.709],[-2.215637,43.259636,461.295],[-2.215665,43.259693,461.448],[-2.215687,43.259745,461.467],[-2.215697,43.259803,461.548],[-2.215705,43.259855,461.779],[-2.215728,43.259908,463.069],[-2.215761,43.25996,463.143],[-2.215784,43.260003,463.237],[-2.215806,43.260048,463.384],[-2.215864,43.26008,465.363],[-2.215836,43.26014,465.344],[-2.215823,43.26019,465.318],[-2.21583,43.260243,465.309],[-2.21586,43.260201,467.377],[-2.215825,43.260249,468.03],[-2.21587,43.260212,464.679],[-2.215807,43.260237,464.32],[-2.21571,43.260292,467.661],[-2.215667,43.260327,467.711],[-2.215619,43.260362,467.625],[-2.215559,43.26038,467.229],[-2.215489,43.260382,465.636],[-2.215431,43.26041,462.019],[-2.215373,43.260437,458.509],[-2.21532,43.260467,456.819],[-2.215308,43.260515,455.109],[-2.215246,43.260555,453.252],[-2.215193,43.260593,453.135],[-2.215145,43.260628,453.184],[-2.215077,43.26065,453.035],[-2.215025,43.260675,452.476],[-2.214978,43.260707,453.186],[-2.214936,43.260754,450.52],[-2.214873,43.260759,447.654],[-2.214823,43.260801,445.351],[-2.21478,43.260839,444.525],[-2.214728,43.260874,444.526],[-2.21468,43.260902,444.508],[-2.214623,43.260944,442.909],[-2.214576,43.260989,442.493],[-2.214519,43.261016,441.116],[-2.214477,43.261054,438.935],[-2.214415,43.261082,437.756],[-2.214342,43.261112,434.327],[-2.21428,43.26114,434.197],[-2.214255,43.261183,427.121],[-2.214207,43.261211,427.185],[-2.214172,43.261251,427.182],[-2.214137,43.261291,427.147],[-2.21409,43.261323,427.129],[-2.214035,43.26135,427.121],[-2.213998,43.261388,426.909],[-2.213956,43.261423,424.645],[-2.213914,43.261461,420.558],[-2.213871,43.261496,418.737],[-2.213826,43.261528,416.748],[-2.213799,43.261575,415.589],[-2.213747,43.2616,414.029],[-2.213714,43.261642,413.343],[-2.213664,43.261674,410.317],[-2.213631,43.261714,408.884],[-2.213581,43.261742,407.141],[-2.213574,43.261787,404.181],[-2.213539,43.261827,401.009],[-2.213491,43.261857,398.909],[-2.213449,43.261905,396.295],[-2.213421,43.261947,395.258],[-2.213383,43.261994,393.917],[-2.213341,43.262036,393.188],[-2.213323,43.262079,391.539],[-2.213313,43.262127,388.389],[-2.213293,43.262172,380.573],[-2.213256,43.26222,379.247],[-2.213224,43.262262,379.674],[-2.213181,43.262297,382.987],[-2.213134,43.262329,380.642],[-2.213097,43.262372,379.226],[-2.213067,43.262415,375.109],[-2.213029,43.262458,374.619],[-2.212974,43.262491,372.832],[-2.212929,43.262526,370.961],[-2.212882,43.262573,368.572],[-2.21284,43.262611,366.993],[-2.212792,43.262641,365.473],[-2.212759,43.262683,362.317],[-2.212721,43.262728,361.011],[-2.212671,43.262755,361.098],[-2.212636,43.262798,360.541],[-2.212599,43.262843,360.081],[-2.212554,43.262878,360.109],[-2.212502,43.262918,359.609],[-2.212452,43.262951,357.775],[-2.212404,43.262988,355.368],[-2.212349,43.263013,353.557],[-2.212284,43.263025,351.858],[-2.212211,43.26303,350.729],[-2.212143,43.26305,350.239],[-2.21208,43.263028,349.913],[-2.212022,43.263058,349.827],[-2.211979,43.263091,349.894],[-2.211932,43.263126,346.829],[-2.211902,43.263166,346.8],[-2.211865,43.263203,346.52],[-2.211827,43.263243,346.309],[-2.211794,43.263281,346.073],[-2.211752,43.263316,346.266],[-2.2117,43.263356,342.215],[-2.211652,43.263399,341.896],[-2.211607,43.263432,340.587],[-2.211567,43.263477,339.267],[-2.211515,43.263512,338.091],[-2.211452,43.263517,336.775],[-2.2114,43.263544,334.972],[-2.211343,43.263572,333.978],[-2.211283,43.263599,333.833],[-2.211246,43.263641,333.526],[-2.211213,43.263681,333.409],[-2.211158,43.263718,333.488],[-2.21111,43.263748,333.091],[-2.211065,43.26379,332.27],[-2.211025,43.26383,332.191],[-2.210988,43.26388,330.122],[-2.210965,43.26393,329.452],[-2.210945,43.263978,329.386],[-2.210913,43.264018,329.33],[-2.210858,43.264053,329.327],[-2.21081,43.264086,330.939],[-2.210758,43.264114,331.601],[-2.210711,43.264147,331.721],[-2.210648,43.264177,331.809],[-2.210586,43.264199,331.814],[-2.210534,43.264244,331.867],[-2.210484,43.264271,330.666],[-2.210437,43.264308,329.097],[-2.210375,43.264321,327.618],[-2.210328,43.264363,326.818],[-2.210266,43.264398,326.572],[-2.210214,43.264435,326.236],[-2.210161,43.264463,325.743],[-2.210133,43.264513,325.513],[-2.210116,43.26457,325.443],[-2.210096,43.264617,325.107],[-2.210083,43.264667,324.509],[-2.210065,43.264717,322.722],[-2.210028,43.264759,322.255],[-2.209986,43.264801,321.524],[-2.209941,43.264836,320.465],[-2.209916,43.264878,320.196],[-2.209859,43.264916,319.746],[-2.209802,43.264946,319.82],[-2.209749,43.264976,319.824],[-2.209697,43.265008,319.941],[-2.209637,43.26502,320.469],[-2.20958,43.265048,320.404],[-2.209523,43.265066,320.424],[-2.209476,43.265106,318.609],[-2.209426,43.265146,317.377],[-2.209378,43.265178,315.71],[-2.209325,43.265201,314.699],[-2.209257,43.265224,314.37],[-2.209197,43.265254,314.291],[-2.209159,43.265301,313.411],[-2.209099,43.265316,313.045],[-2.209041,43.265348,312.879],[-2.208988,43.265383,312.426],[-2.208923,43.265406,310.326],[-2.208873,43.265436,310.047],[-2.208815,43.265458,309.811],[-2.208745,43.265478,309.509],[-2.208687,43.26551,309.173],[-2.208664,43.265552,307.776],[-2.208612,43.26559,307.175],[-2.20855,43.265617,306.176],[-2.208495,43.265642,306.087],[-2.208432,43.265639,305.867],[-2.208369,43.265644,305.231],[-2.208304,43.265642,305.095],[-2.208246,43.26562,305.022],[-2.208199,43.26558,305.099],[-2.208156,43.265547,304.907],[-2.208109,43.265509,305.027],[-2.208052,43.265472,304.309],[-2.207997,43.26544,304.36],[-2.207949,43.265407,304.343],[-2.207897,43.265377,304.012],[-2.207832,43.265364,302.613],[-2.207772,43.265347,299.794],[-2.2077,43.265325,297.194],[-2.207638,43.265335,296.338],[-2.207578,43.26532,295.192],[-2.207505,43.265312,293.539],[-2.207433,43.2653,293.438],[-2.207358,43.26529,293.47],[-2.207295,43.265283,293.417],[-2.207223,43.265293,293.509],[-2.207151,43.265281,295.434],[-2.207078,43.265278,295.547],[-2.207011,43.265266,295.586],[-2.206948,43.265259,295.577],[-2.206888,43.265239,295.218],[-2.206808,43.265231,294.088],[-2.206741,43.265219,292.942],[-2.206669,43.265232,292.076],[-2.206601,43.265224,290.513],[-2.206529,43.265214,289.661],[-2.206462,43.265207,289.521],[-2.206392,43.265197,289.313],[-2.206335,43.265179,288.009],[-2.206273,43.265169,286.877],[-2.206205,43.265166,285.71],[-2.206143,43.265169,284.489],[-2.206076,43.265176,284.31],[-2.206014,43.265193,284.321],[-2.205942,43.265203,284.361],[-2.20588,43.265221,284.485],[-2.205808,43.265233,284.849],[-2.20573,43.265236,282.796],[-2.205667,43.265256,281.956],[-2.205607,43.265276,281.059],[-2.205547,43.265288,280.914],[-2.205479,43.265315,280.809],[-2.205416,43.265338,280.436],[-2.205363,43.265363,280.059],[-2.205301,43.265383,280.158],[-2.205234,43.265396,280.069],[-2.205161,43.265401,282.13],[-2.205088,43.265388,282.52],[-2.20502,43.265371,282.864],[-2.204945,43.265351,282.958],[-2.204875,43.265323,282.635],[-2.204803,43.265318,282.694],[-2.204733,43.265293,282.957],[-2.204676,43.265271,283.022],[-2.204611,43.265268,283.109],[-2.204543,43.265265,283.38],[-2.204471,43.265247,283.543],[-2.204418,43.26522,283.972],[-2.204355,43.265212,283.963],[-2.204283,43.265209,283.964],[-2.20422,43.265217,283.814],[-2.20414,43.265214,282.628],[-2.204075,43.265212,281.252],[-2.204002,43.2652,278.779],[-2.203925,43.265197,277.534],[-2.203853,43.265189,275.855],[-2.203786,43.265184,275.51],[-2.203709,43.265189,275.509],[-2.203644,43.265192,275.524],[-2.203576,43.2652,275.627],[-2.203514,43.265207,276.076],[-2.203444,43.265204,276.147],[-2.203377,43.265199,277.248],[-2.20331,43.265197,278.868],[-2.203247,43.265184,279.672],[-2.20318,43.265176,280.026],[-2.203107,43.265169,280.063],[-2.203037,43.265187,280.065],[-2.202962,43.265192,278.768],[-2.202885,43.265199,277.214],[-2.202822,43.265202,277.109],[-2.202757,43.26521,276.787],[-2.202692,43.265217,276.06],[-2.202619,43.265227,275.769],[-2.202551,43.265232,275.45],[-2.202478,43.265234,274.221],[-2.20245,43.265286,272.551],[-2.202478,43.265329,271.115],[-2.202538,43.265352,270.919]]}}]}