{"type":"FeatureCollection","features":[{"type":"Feature","properties":{"ruta_id":"144088947","nombre":"KAKUETA (1583 m) desde ISABA","blog_url":"https://www.rutasporelmonte.com/monte-kakueta-desde-isaba/"},"geometry":{"type":"LineString","coordinates":[[-0.922232,42.86237,810.395],[-0.922297,42.862363,810.349],[-0.922352,42.862325,808.923],[-0.922375,42.862265,807.909],[-0.922405,42.862213,807.09],[-0.922412,42.86216,806.473],[-0.92245,42.86211,805.933],[-0.922468,42.862055,804.079],[-0.922476,42.862,803.867],[-0.922499,42.861955,803.887],[-0.922557,42.86194,803.988],[-0.922597,42.861903,804.073],[-0.92264,42.861861,805.436],[-0.922607,42.861811,806.848],[-0.922595,42.861764,806.861],[-0.922598,42.861707,807.217],[-0.922576,42.861649,807.209],[-0.922559,42.861602,807.095],[-0.922552,42.861555,808.018],[-0.922572,42.8615,809.558],[-0.92259,42.861455,811.384],[-0.922607,42.8614,814.282],[-0.922585,42.861343,818.262],[-0.922565,42.86129,820.943],[-0.922552,42.861238,822.748],[-0.922559,42.861191,825.531],[-0.922537,42.861138,827.618],[-0.922517,42.861093,829.498],[-0.922492,42.86105,831.617],[-0.922475,42.860997,833.009],[-0.922475,42.860937,833.392],[-0.922537,42.860922,833.855],[-0.92259,42.860897,834.425],[-0.922657,42.860882,834.461],[-0.922764,42.860832,833.569],[-0.922836,42.86083,833.499],[-0.922911,42.860833,833.38],[-0.922984,42.860815,832.085],[-0.923012,42.860762,820.398],[-0.923009,42.860704,817.731],[-0.922984,42.860644,812.661],[-0.922969,42.860597,807.107],[-0.923047,42.860595,805.409],[-0.923135,42.86059,803.374],[-0.923208,42.860583,802.997],[-0.923268,42.860573,801.027],[-0.923336,42.86055,799.413],[-0.923404,42.860555,799.251],[-0.923474,42.860543,798.921],[-0.923519,42.860506,798.742],[-0.923554,42.860468,798.497],[-0.923614,42.860445,795.96],[-0.923674,42.860433,795.241],[-0.923734,42.860418,795.181],[-0.923791,42.860391,794.909],[-0.923853,42.860383,794.909],[-0.92392,42.860386,795.015],[-0.923987,42.860378,795.288],[-0.924057,42.86036,795.368],[-0.924114,42.860332,796.774],[-0.924177,42.860312,798.052],[-0.924244,42.860304,799.872],[-0.924309,42.860309,801.123],[-0.924359,42.860339,801.348],[-0.924402,42.860391,801.391],[-0.924442,42.860431,801.322],[-0.924505,42.860466,800.762],[-0.924572,42.860496,800.608],[-0.924612,42.860431,800.609],[-0.924654,42.860383,801.663],[-0.924714,42.860355,801.726],[-0.924774,42.860313,801.716],[-0.924832,42.860291,800.752],[-0.924892,42.860281,800.03],[-0.924967,42.860269,798.61],[-0.92503,42.860272,797.851],[-0.925097,42.860297,797.316],[-0.925157,42.860327,796.749],[-0.925184,42.860284,796.676],[-0.925232,42.860239,795.59],[-0.9253,42.860219,794.219],[-0.925365,42.860202,792.509],[-0.925415,42.860175,790.588],[-0.925487,42.86016,788.831],[-0.925562,42.860148,787.581],[-0.925592,42.860108,787.567],[-0.92565,42.860093,787.515],[-0.925712,42.86008,787.415],[-0.925765,42.860048,787.336],[-0.925817,42.86002,787.311],[-0.925879,42.859983,786.334],[-0.925934,42.85996,784.575],[-0.926007,42.859967,782.828],[-0.926075,42.859974,782.12],[-0.926133,42.859941,782.209],[-0.926205,42.859919,782.218],[-0.926262,42.859891,782.581],[-0.926327,42.859871,782.921],[-0.926382,42.859838,783.197],[-0.926454,42.859825,783.125],[-0.926534,42.859805,783.065],[-0.926602,42.859777,782.476],[-0.926652,42.859745,778.041],[-0.92669,42.859705,772.944],[-0.926745,42.859672,768.188],[-0.926822,42.859654,766.124],[-0.926882,42.859602,765.926],[-0.926924,42.859567,766.709],[-0.926967,42.859525,767.589],[-0.92702,42.8595,768.992],[-0.927067,42.859455,771.642],[-0.927099,42.85941,774.168],[-0.927144,42.859375,775.456],[-0.927202,42.85934,777.816],[-0.92724,42.859292,779.737],[-0.927268,42.859249,779.872],[-0.927323,42.859214,779.885],[-0.927373,42.859174,778.421],[-0.927413,42.859129,777.241],[-0.92746,42.859091,775.605],[-0.92752,42.859071,774.409],[-0.92757,42.859028,773.393],[-0.927503,42.859011,772.896],[-0.927518,42.859059,772.946],[-0.927581,42.859077,775.182],[-0.927614,42.859119,776.27],[-0.927639,42.859166,777.37],[-0.927672,42.859204,778.041],[-0.927654,42.859256,777.236],[-0.927679,42.859301,777.129],[-0.927709,42.859379,777.153],[-0.927759,42.859457,777.104],[-0.927789,42.859505,779.014],[-0.927802,42.85956,779.109],[-0.927834,42.8596,779.156],[-0.927881,42.859643,778.259],[-0.927918,42.859696,776.379],[-0.927928,42.859746,774.565],[-0.927921,42.859808,772.173],[-0.927909,42.859853,771.243],[-0.927887,42.859905,771.274],[-0.927889,42.85996,771.249],[-0.927906,42.860015,771.522],[-0.927939,42.86006,771.886],[-0.927956,42.860112,772.36],[-0.927944,42.860159,772.326],[-0.927907,42.860214,772.509],[-0.927909,42.860259,772.619],[-0.927914,42.860307,772.582],[-0.927899,42.860355,772.422],[-0.927909,42.86059,779.068],[-0.927911,42.860643,781.396],[-0.927924,42.860711,777.266],[-0.927937,42.860776,774.557],[-0.927929,42.860913,774.372],[-0.927907,42.86097,774.545],[-0.927897,42.86102,774.689],[-0.927914,42.861078,775.106],[-0.927956,42.861125,775.626],[-0.927989,42.861177,775.609],[-0.928041,42.861224,774.899],[-0.928091,42.861251,774.532],[-0.928151,42.861269,774.582],[-0.928231,42.861277,774.748],[-0.928299,42.861265,774.976],[-0.928362,42.861265,777.356],[-0.928439,42.861278,789.227],[-0.928502,42.861258,798.822],[-0.928429,42.861201,800.865],[-0.928496,42.861248,801.779],[-0.928504,42.861298,800.705],[-0.928487,42.861345,800.425],[-0.928482,42.861402,792.609],[-0.92845,42.861444,788.528],[-0.928435,42.861489,787.681],[-0.928423,42.861542,787.691],[-0.928453,42.861582,787.927],[-0.928505,42.861615,788.255],[-0.928567,42.861627,789.155],[-0.928624,42.861647,791.036],[-0.928681,42.861669,794.211],[-0.928731,42.861697,797.524],[-0.928783,42.861729,802.987],[-0.928835,42.861764,809.842],[-0.92888,42.861801,812.826],[-0.92893,42.861833,817.309],[-0.928935,42.861886,820.199],[-0.928975,42.861923,822.552],[-0.929035,42.861968,824.242],[-0.928897,42.862366,830.028],[-0.928844,42.862419,827.886],[-0.928809,42.862469,823.886],[-0.928786,42.862519,819.277],[-0.928754,42.862577,816.782],[-0.928707,42.862609,813.715],[-0.928682,42.862657,813.418],[-0.928659,42.862699,812.598],[-0.928659,42.862747,810.917],[-0.928654,42.862804,808.609],[-0.928612,42.862857,805.592],[-0.928565,42.862887,805.655],[-0.92852,42.862929,807.125],[-0.928502,42.862986,807.491],[-0.928484,42.863031,808.899],[-0.928462,42.863089,811.519],[-0.928429,42.863137,814.24],[-0.928369,42.863164,817.125],[-0.928322,42.863196,819.558],[-0.928287,42.863248,822.094],[-0.928275,42.863296,824.857],[-0.928267,42.863344,827.522],[-0.928259,42.863392,828.709],[-0.928207,42.863439,828.77],[-0.928182,42.863491,829.053],[-0.92815,42.863538,828.743],[-0.92814,42.863585,826.849],[-0.92812,42.863632,823.887],[-0.928115,42.863679,818.957],[-0.928117,42.863734,815.998],[-0.928137,42.863781,812.453],[-0.928139,42.863829,809.596],[-0.928171,42.863877,806.735],[-0.928193,42.863925,806.886],[-0.928211,42.863977,809.914],[-0.928229,42.864025,812.109],[-0.928227,42.864072,813.434],[-0.928199,42.86412,814.067],[-0.928179,42.86417,814.437],[-0.928171,42.864215,815.663],[-0.928218,42.864252,821.221],[-0.92819,42.864212,827.841],[-0.928227,42.864249,835.022],[-0.928264,42.864202,835.077],[-0.928299,42.86424,835.04],[-0.928346,42.86427,835.098],[-0.928401,42.864302,833.715],[-0.928449,42.86438,832.026],[-0.928536,42.864492,824.709],[-0.928511,42.864444,819.47],[-0.928484,42.864396,818.153],[-0.928552,42.864436,818.023],[-0.928494,42.864529,822.739],[-0.928491,42.864484,820.787],[-0.928518,42.864434,820.977],[-0.92859,42.864432,820.458],[-0.928658,42.864447,820.913],[-0.928733,42.864455,827.236],[-0.928786,42.86448,827.279],[-0.928833,42.86452,827.205],[-0.928973,42.864562,828.225],[-0.929048,42.864585,828.209],[-0.929116,42.86458,828.268],[-0.929191,42.864572,827.031],[-0.929254,42.864562,827.231],[-0.929329,42.86454,828.227],[-0.929377,42.86451,832.295],[-0.929445,42.86456,838.055],[-0.929495,42.86459,847.186],[-0.929523,42.864633,848.551],[-0.929548,42.864676,852.644],[-0.929548,42.864723,856.239],[-0.929601,42.86475,857.101],[-0.929603,42.864818,859.821],[-0.92961,42.86487,860.909],[-0.929625,42.865112,867.654],[-0.929538,42.865267,866.577],[-0.929525,42.865325,865.957],[-0.929543,42.865372,864.743],[-0.92956,42.865447,864.561],[-0.929543,42.865502,864.551],[-0.929503,42.86555,865.942],[-0.929473,42.865592,867.567],[-0.929471,42.865637,869.11],[-0.929451,42.865684,870.528],[-0.929438,42.865729,871.389],[-0.929446,42.865781,872.417],[-0.929416,42.865821,874.109],[-0.929398,42.865868,876.093],[-0.929406,42.865993,879.696],[-0.929376,42.866058,881.396],[-0.929359,42.866191,884.592],[-0.929396,42.866234,887.07],[-0.929418,42.866339,889.39],[-0.929473,42.866487,894.141],[-0.929721,42.866757,900.966],[-0.929774,42.866724,900.539],[-0.929541,42.866627,895.566],[-0.929664,42.866647,901.829],[-0.929774,42.866662,901.821],[-0.929881,42.866594,901.809],[-0.929986,42.866509,908.797],[-0.930104,42.866607,911.67],[-0.930197,42.866704,912.33],[-0.930229,42.866747,912.856],[-0.930337,42.866794,917.514],[-0.930445,42.866882,919.484],[-0.930493,42.866919,919.465],[-0.930641,42.867006,923.84],[-0.930666,42.867136,924.133],[-0.930678,42.867181,924.828],[-0.930696,42.867236,925.089],[-0.930718,42.867286,925.017],[-0.930713,42.867353,927.509],[-0.930638,42.867465,927.373],[-0.930555,42.867537,927.276],[-0.93045,42.867645,926.846],[-0.930392,42.86772,926.742],[-0.930292,42.86783,926.41],[-0.930177,42.867955,926.43],[-0.930094,42.868072,928.151],[-0.930062,42.868189,929.366],[-0.930089,42.868302,931.789],[-0.930107,42.868362,935.526],[-0.930185,42.868305,941.347],[-0.930318,42.868242,941.711],[-0.930455,42.868264,942.909],[-0.930643,42.868162,946.973],[-0.930761,42.868117,949.546],[-0.930891,42.868144,953.786],[-0.930966,42.868176,954.352],[-0.931018,42.868203,954.55],[-0.931181,42.868268,960.33],[-0.931288,42.868295,960.321],[-0.931261,42.868175,965.546],[-0.931404,42.86816,965.559],[-0.931569,42.868145,965.585],[-0.931712,42.868152,987.989],[-0.931839,42.868145,994.617],[-0.931952,42.868193,994.709],[-0.932059,42.868273,994.899],[-0.932187,42.868211,994.732],[-0.93232,42.868143,998.272],[-0.93248,42.868105,1003.148],[-0.932625,42.868092,1006.926],[-0.93277,42.86809,1009.546],[-0.932885,42.868077,1014.067],[-0.933078,42.868055,1014.062],[-0.933206,42.868047,1015.455],[-0.933369,42.86805,1027.934],[-0.933404,42.867998,1031.055],[-0.933542,42.868021,1036.21],[-0.933654,42.868039,1036.209],[-0.933776,42.868099,1036.244],[-0.933956,42.868032,1039.927],[-0.934079,42.868077,1039.947],[-0.934189,42.868014,1043.313],[-0.934251,42.868002,1043.351],[-0.934314,42.868014,1045.761],[-0.934419,42.868052,1050.142],[-0.934431,42.868119,1054.067],[-0.934568,42.868114,1056.53],[-0.934706,42.868067,1056.524],[-0.934828,42.86799,1056.504],[-0.934971,42.867968,1063.314],[-0.935068,42.867873,1068.209],[-0.935143,42.867805,1073.873],[-0.935128,42.86774,1074.276],[-0.935146,42.867612,1079.786],[-0.935226,42.867612,1080.192],[-0.935354,42.867635,1080.11],[-0.935419,42.867653,1085.65],[-0.935591,42.867681,1086.021],[-0.935654,42.867679,1087.276],[-0.935734,42.867657,1087.669],[-0.935787,42.867609,1091.229],[-0.935884,42.867562,1096.8],[-0.936054,42.867507,1096.42],[-0.936177,42.867527,1096.409],[-0.93633,42.867529,1100.033],[-0.93643,42.867436,1101.386],[-0.936467,42.867386,1101.376],[-0.936469,42.867324,1102.752],[-0.936502,42.867187,1119.43],[-0.936557,42.86706,1124.45],[-0.936669,42.866943,1132.571],[-0.936739,42.866778,1140.316],[-0.936782,42.86666,1142.099],[-0.936744,42.866535,1145.191],[-0.936854,42.866492,1152.281],[-0.937004,42.866562,1152.619],[-0.937166,42.866542,1158.609],[-0.937233,42.866529,1161.88],[-0.937295,42.866537,1161.863],[-0.937445,42.86659,1163.823],[-0.93753,42.866683,1164.119],[-0.937635,42.86677,1165.727],[-0.937768,42.866833,1169.067],[-0.937883,42.86682,1171.078],[-0.938031,42.866855,1171.053],[-0.938188,42.866902,1170.546],[-0.93835,42.866934,1170.531],[-0.938482,42.867011,1170.561],[-0.938544,42.867111,1167.807],[-0.938579,42.867221,1167.809],[-0.938677,42.867294,1176.834],[-0.938759,42.867397,1176.887],[-0.938912,42.867449,1176.847],[-0.939029,42.867514,1184.313],[-0.939189,42.867497,1190.571],[-0.939276,42.86746,1196.741],[-0.939378,42.867503,1204.452],[-0.939431,42.867476,1204.467],[-0.939543,42.867486,1204.48],[-0.939688,42.867519,1204.462],[-0.939861,42.867516,1206.883],[-0.940013,42.867511,1206.811],[-0.94011,42.867503,1206.809],[-0.940237,42.867496,1209.577],[-0.940302,42.867508,1215.35],[-0.940402,42.867471,1214.81],[-0.94056,42.867474,1221.156],[-0.940673,42.867536,1221.144],[-0.940863,42.867543,1221.114],[-0.94101,42.86758,1226.965],[-0.941133,42.86762,1228.37],[-0.941236,42.867662,1229.923],[-0.941394,42.867702,1231.777],[-0.941472,42.867707,1231.961],[-0.941649,42.867724,1232.327],[-0.941791,42.867762,1234.009],[-0.941839,42.867724,1234.038],[-0.941971,42.867747,1236.621],[-0.942174,42.86775,1241.181],[-0.942311,42.867755,1245.247],[-0.942481,42.867735,1245.275],[-0.942684,42.867753,1246.135],[-0.942742,42.867791,1246.346],[-0.942949,42.867843,1243.951],[-0.943129,42.867858,1241.094],[-0.943291,42.867845,1239.639],[-0.943364,42.867862,1237.401],[-0.943419,42.867884,1236.921],[-0.943569,42.867876,1237.109],[-0.943747,42.867874,1237.494],[-0.943909,42.867874,1237.467],[-0.944024,42.867931,1238.747],[-0.944159,42.867918,1241.053],[-0.944229,42.867913,1242.281],[-0.944282,42.867886,1242.221],[-0.94434,42.867858,1242.262],[-0.944437,42.867836,1242.127],[-0.9445,42.867798,1242.22],[-0.94456,42.867763,1242.329],[-0.944702,42.86776,1247.3],[-0.944749,42.86773,1249.02],[-0.944809,42.86774,1249.009],[-0.944829,42.867653,1249.083],[-0.944764,42.867665,1257.866],[-0.944699,42.867677,1258.076],[-0.944762,42.867685,1258.072],[-0.944822,42.867697,1262.89],[-0.944727,42.867762,1263.34],[-0.944705,42.867712,1263.361],[-0.944637,42.867615,1263.326],[-0.944635,42.867498,1260.079],[-0.944637,42.867435,1260.056],[-0.944584,42.867277,1265.959],[-0.944546,42.867154,1267.514],[-0.944541,42.867047,1269.509],[-0.944544,42.86699,1270.046],[-0.944536,42.866932,1270.539],[-0.944524,42.866804,1269.789],[-0.944526,42.866694,1268.635],[-0.944566,42.866592,1267.863],[-0.944588,42.86654,1267.823],[-0.94462,42.866463,1266.984],[-0.944668,42.866378,1266.999],[-0.94476,42.866266,1266.972],[-0.944793,42.866214,1270.695],[-0.944855,42.866107,1271.849],[-0.944893,42.86606,1273.123],[-0.945011,42.865932,1273.809],[-0.945094,42.865849,1274.15],[-0.945151,42.865736,1274.613],[-0.945203,42.865599,1274.623],[-0.945213,42.865451,1274.689],[-0.945243,42.865333,1278.217],[-0.945266,42.865255,1278.237],[-0.945308,42.865107,1280.978],[-0.945236,42.86503,1282.073],[-0.945151,42.864903,1282.876],[-0.945109,42.864853,1284.538],[-0.945021,42.86479,1284.67],[-0.944899,42.864683,1284.817],[-0.944797,42.864598,1284.809],[-0.944694,42.864533,1287.564],[-0.944689,42.864486,1287.897],[-0.944701,42.864434,1287.757],[-0.944694,42.864297,1281.613],[-0.944679,42.864234,1276.291],[-0.944689,42.864147,1276.231],[-0.944806,42.864155,1274.262],[-0.944869,42.864148,1274.217],[-0.945001,42.864205,1274.22],[-0.945091,42.864258,1270.433],[-0.945254,42.86434,1267.423],[-0.945397,42.86439,1266.215],[-0.945444,42.86443,1265.509],[-0.945616,42.864533,1266.994],[-0.945683,42.864555,1266.997],[-0.94583,42.864623,1266.997],[-0.94598,42.864686,1266.533],[-0.946045,42.864706,1266.431],[-0.946188,42.864764,1266.471],[-0.94634,42.864801,1270.942],[-0.94648,42.864809,1272.467],[-0.946642,42.864846,1274.79],[-0.9468,42.864874,1278.847],[-0.947013,42.864869,1284.129],[-0.947178,42.864866,1284.321],[-0.947276,42.864868,1284.209],[-0.947441,42.864841,1288.555],[-0.947606,42.864848,1290.458],[-0.947788,42.864838,1294.768],[-0.947978,42.864821,1299.584],[-0.948186,42.864846,1302.712],[-0.948386,42.864881,1307.092],[-0.948549,42.864871,1308.493],[-0.948656,42.864891,1311.758],[-0.948819,42.864899,1316.111],[-0.948969,42.864907,1317.947],[-0.949137,42.864915,1319.329],[-0.949284,42.864955,1320.221],[-0.949449,42.864958,1322.109],[-0.949591,42.864986,1323.945],[-0.949773,42.864993,1325.358],[-0.949963,42.865013,1327.218],[-0.950121,42.865038,1325.764],[-0.950278,42.865035,1321.512],[-0.950425,42.865055,1318.122],[-0.950562,42.865022,1318.183],[-0.950742,42.864994,1318.148],[-0.950895,42.864954,1320.971],[-0.951062,42.864937,1324.267],[-0.951204,42.864899,1327.681],[-0.951381,42.864851,1332.319],[-0.951538,42.864763,1338.209],[-0.951593,42.864721,1341.817],[-0.951645,42.864696,1344.53],[-0.951652,42.864781,1348.26],[-0.951635,42.864899,1348.226],[-0.95167,42.865026,1348.264],[-0.951732,42.865061,1353.524],[-0.951832,42.865164,1355.755],[-0.951884,42.865206,1356.13],[-0.951992,42.865189,1356.113],[-0.952059,42.865171,1356.148],[-0.952122,42.865149,1356.161],[-0.952185,42.865142,1364.917],[-0.952322,42.865114,1362.609],[-0.952387,42.865097,1362.175],[-0.952452,42.865079,1362.138],[-0.95251,42.865051,1362.128],[-0.952577,42.865028,1364.784],[-0.952642,42.865008,1365.592],[-0.952694,42.864975,1365.512],[-0.952751,42.864952,1366.233],[-0.952814,42.864934,1366.058],[-0.952879,42.864921,1366.091],[-0.952949,42.864898,1365.543],[-0.953007,42.864876,1364.864],[-0.953057,42.864849,1364.11],[-0.953117,42.864826,1364.109],[-0.953207,42.864781,1364.185],[-0.953279,42.864696,1364.168],[-0.953397,42.864583,1358.098],[-0.953444,42.864553,1358.014],[-0.953496,42.864518,1358.042],[-0.953534,42.864481,1358.042],[-0.953596,42.864451,1360.773],[-0.953673,42.864408,1361.368],[-0.95373,42.864378,1364.031],[-0.9538,42.86435,1364.672],[-0.953863,42.864328,1364.613],[-0.953916,42.864305,1364.614],[-0.953971,42.864273,1363.809],[-0.954043,42.86427,1361.998],[-0.954105,42.864245,1360.491],[-0.95417,42.864243,1360.191],[-0.954237,42.864233,1359.847],[-0.954304,42.864218,1359.035],[-0.954421,42.864171,1356.465],[-0.954531,42.864164,1356.266],[-0.954604,42.864147,1356.291],[-0.954672,42.86416,1357.054],[-0.95474,42.864162,1357.445],[-0.954805,42.864175,1357.447],[-0.954877,42.86418,1356.111],[-0.954944,42.864198,1356.109],[-0.954874,42.86419,1356.135],[-0.954936,42.86421,1356.138],[-0.955028,42.864217,1355.618],[-0.955086,42.864234,1355.614],[-0.955144,42.864252,1355.422],[-0.955211,42.86426,1355.112],[-0.955301,42.864278,1355.033],[-0.955353,42.864305,1355.078],[-0.955398,42.86434,1355.191],[-0.955461,42.86434,1355.172],[-0.955541,42.864323,1355.613],[-0.955664,42.864333,1355.914],[-0.955717,42.864368,1356.309],[-0.955772,42.864398,1356.418],[-0.955834,42.864406,1356.411],[-0.955899,42.864423,1356.461],[-0.955986,42.864466,1355.887],[-0.956049,42.864479,1355.735],[-0.956129,42.864504,1355.785],[-0.956226,42.864526,1355.756],[-0.956308,42.864561,1356.481],[-0.956371,42.864581,1356.494],[-0.956438,42.864584,1356.769],[-0.956501,42.864584,1356.804],[-0.956593,42.864622,1357.124],[-0.956753,42.864672,1357.809],[-0.95683,42.864687,1359.187],[-0.957007,42.864732,1359.25],[-0.95707,42.864745,1360.32],[-0.957137,42.864758,1360.336],[-0.9572,42.86477,1360.344],[-0.957282,42.864783,1360.764],[-0.957454,42.864823,1360.355],[-0.957552,42.864921,1359.73],[-0.957667,42.864953,1354.613],[-0.957745,42.864953,1354.321],[-0.95781,42.864968,1352.941],[-0.957863,42.864996,1352.405],[-0.957931,42.865011,1352.809],[-0.957999,42.865023,1352.673],[-0.958076,42.865013,1352.636],[-0.958139,42.865046,1353.086],[-0.958176,42.865088,1353.282],[-0.958224,42.865116,1353.37],[-0.958306,42.865126,1353.46],[-0.958364,42.865149,1353.671],[-0.958526,42.865184,1354.696],[-0.958614,42.865207,1355.999],[-0.958721,42.86524,1356.174],[-0.958779,42.865268,1355.256],[-0.958951,42.865335,1356.421],[-0.959038,42.865352,1356.509],[-0.959136,42.865375,1356.598],[-0.959246,42.865378,1357.241],[-0.959318,42.86537,1356.461],[-0.95943,42.865352,1356.177],[-0.95965,42.865409,1352.245],[-0.959722,42.865422,1352.215],[-0.959784,42.865435,1351.866],[-0.959862,42.865453,1351.991],[-0.959929,42.865473,1351.044],[-0.960001,42.865478,1351.021],[-0.960163,42.86551,1351.241],[-0.960253,42.865522,1351.305],[-0.960326,42.86553,1351.609],[-0.960384,42.865565,1351.833],[-0.960487,42.865615,1352.436],[-0.960549,42.865637,1352.476],[-0.960612,42.865659,1352.492],[-0.960674,42.865687,1352.44],[-0.960766,42.865717,1352.49],[-0.960829,42.86573,1352.751],[-0.960904,42.865748,1350.916],[-0.960969,42.86577,1349.529],[-0.961036,42.865795,1347.757],[-0.961106,42.865807,1345.9],[-0.961173,42.865825,1345.12],[-0.961231,42.86585,1343.409],[-0.961273,42.86589,1342.496],[-0.961336,42.865917,1340.669],[-0.961398,42.865932,1340.789],[-0.96146,42.865937,1340.665],[-0.961527,42.865952,1340.843],[-0.961595,42.865969,1342.153],[-0.961648,42.865994,1343.924],[-0.96171,42.865997,1344.879],[-0.961783,42.866019,1344.942],[-0.961851,42.866034,1345.262],[-0.961919,42.866052,1345.583],[-0.961972,42.866079,1345.311],[-0.96205,42.866092,1345.309],[-0.962117,42.86611,1345.367],[-0.962182,42.866128,1345.34],[-0.962274,42.866146,1345.61],[-0.962329,42.866169,1345.696],[-0.962391,42.866192,1345.614],[-0.962464,42.86621,1345.674],[-0.962546,42.866225,1345.665],[-0.962624,42.866257,1343.45],[-0.962686,42.866274,1342.823],[-0.962741,42.866294,1342.795],[-0.962861,42.866311,1343.249],[-0.962929,42.866334,1344.523],[-0.963007,42.866346,1346.009],[-0.963065,42.866366,1346.69],[-0.963123,42.866389,1347.293],[-0.963198,42.866411,1349.053],[-0.963293,42.866446,1349.689],[-0.963348,42.866468,1350.427],[-0.963431,42.866475,1352.227],[-0.963579,42.866515,1354.558],[-0.963656,42.866528,1356.043],[-0.963714,42.866548,1356.876],[-0.963782,42.86656,1358.058],[-0.963849,42.866588,1358.352],[-0.963999,42.866628,1358.417],[-0.964116,42.866513,1361.009],[-0.964193,42.866483,1361.676],[-0.964253,42.866463,1361.619],[-0.964321,42.866453,1361.689],[-0.964399,42.866458,1361.635],[-0.964472,42.866461,1359.723],[-0.964529,42.866436,1359.723],[-0.964654,42.866408,1359.754],[-0.964726,42.866381,1359.859],[-0.964806,42.866348,1359.652],[-0.964923,42.866305,1358.176],[-0.965048,42.866277,1358.19],[-0.965115,42.866269,1359.419],[-0.965177,42.866271,1359.809],[-0.96524,42.866258,1360.218],[-0.965305,42.866265,1360.631],[-0.965368,42.866267,1360.771],[-0.96544,42.866284,1360.777],[-0.965505,42.866279,1360.445],[-0.965598,42.866266,1359.385],[-0.96567,42.866261,1359.076],[-0.965743,42.866268,1357.851],[-0.965823,42.866255,1357.364],[-0.965911,42.866237,1356.969],[-0.966109,42.866175,1356.704],[-0.966179,42.866157,1356.724],[-0.966342,42.866147,1356.709],[-0.966399,42.866125,1359.897],[-0.966446,42.866085,1359.75],[-0.966511,42.866028,1359.91],[-0.966583,42.865976,1360.976],[-0.966633,42.865938,1360.994],[-0.966661,42.865896,1361.374],[-0.966649,42.865984,1362.465],[-0.966597,42.866031,1362.41],[-0.966485,42.866041,1362.473],[-0.966398,42.866041,1365.553],[-0.966208,42.865998,1364.904],[-0.966148,42.86598,1363.614],[-0.966148,42.865928,1363.609],[-0.966125,42.865881,1361.456],[-0.966112,42.865743,1361.089],[-0.966094,42.86569,1361.089],[-0.966087,42.865628,1361.035],[-0.966075,42.865581,1360.623],[-0.966067,42.865534,1359.853],[-0.96605,42.865482,1359.944],[-0.966073,42.86544,1360.669],[-0.96612,42.865352,1360.082],[-0.966142,42.865305,1360.842],[-0.966165,42.865258,1360.222],[-0.966182,42.865213,1360.014],[-0.9662,42.86517,1360.009],[-0.966218,42.865117,1359.355],[-0.966228,42.865067,1359.228],[-0.966228,42.865019,1359.078],[-0.966208,42.864972,1358.864],[-0.966188,42.864915,1358.452],[-0.96615,42.86487,1358.412],[-0.966115,42.864815,1359.173],[-0.966093,42.864767,1359.778],[-0.966043,42.864724,1360.521],[-0.966093,42.864779,1362.964],[-0.966245,42.864697,1363.406],[-0.96626,42.864639,1363.416],[-0.96625,42.864514,1363.409],[-0.966215,42.864377,1364.227],[-0.966182,42.864329,1364.66],[-0.966149,42.864269,1364.69],[-0.966166,42.864211,1371.926],[-0.966131,42.864096,1373.774],[-0.966123,42.864024,1375.964],[-0.966083,42.863922,1381.095],[-0.96607,42.863812,1381.74],[-0.966095,42.863765,1384.153],[-0.966157,42.863663,1384.825],[-0.966192,42.86357,1385.026],[-0.96621,42.863478,1388.608],[-0.966247,42.863365,1388.609],[-0.966315,42.863377,1397.513],[-0.966373,42.863282,1397.536],[-0.966426,42.863164,1399.616],[-0.966551,42.863102,1409.342],[-0.966658,42.863019,1409.31],[-0.966755,42.862937,1409.33],[-0.966842,42.862845,1414.841],[-0.966944,42.862758,1418.796],[-0.967064,42.862695,1425.079],[-0.967129,42.862607,1425.062],[-0.967182,42.8625,1425.083],[-0.967262,42.862408,1432.911],[-0.967297,42.862306,1441.909],[-0.967287,42.862234,1441.977],[-0.967345,42.862134,1441.98],[-0.967398,42.861987,1454.29],[-0.967456,42.861885,1456.046],[-0.967471,42.861777,1458.954],[-0.967524,42.861685,1466.594],[-0.967589,42.86159,1466.575],[-0.967562,42.861435,1471.55],[-0.967544,42.861352,1474.923],[-0.967564,42.861299,1475.067],[-0.967612,42.861229,1479.081],[-0.967654,42.861086,1481.319],[-0.967722,42.860973,1483.009],[-0.967674,42.86092,1485.967],[-0.967716,42.860855,1494.78],[-0.967773,42.86078,1494.72],[-0.967845,42.860735,1494.736],[-0.967937,42.860647,1499.594],[-0.968024,42.86058,1501.334],[-0.968066,42.860517,1504.495],[-0.968146,42.860415,1504.52],[-0.968193,42.860357,1506.653],[-0.96831,42.860227,1506.647],[-0.96836,42.860165,1509.629],[-0.968412,42.86013,1509.621],[-0.96855,42.86004,1517.309],[-0.968683,42.859975,1517.355],[-0.968776,42.859888,1522.198],[-0.968844,42.85985,1524.088],[-0.968962,42.859773,1525.594],[-0.969094,42.859708,1525.852],[-0.969209,42.859685,1529.162],[-0.969269,42.85966,1529.653],[-0.969457,42.859622,1529.638],[-0.969632,42.859579,1538.681],[-0.969669,42.859537,1541.874],[-0.969769,42.859444,1542.756],[-0.969914,42.859376,1542.721],[-0.970009,42.859334,1546.609],[-0.970066,42.859307,1549.948],[-0.970131,42.859274,1549.971],[-0.970278,42.859211,1551.791],[-0.970435,42.859196,1563.257],[-0.970593,42.859161,1563.235],[-0.970738,42.859138,1563.235],[-0.97088,42.859076,1564.436],[-0.970947,42.859038,1565.771],[-0.971059,42.858996,1565.774],[-0.971131,42.858961,1570.261],[-0.971228,42.858934,1571.021],[-0.971305,42.858906,1574.213],[-0.971367,42.858889,1576.909],[-0.971432,42.858869,1578.027],[-0.971534,42.858824,1579.43],[-0.971609,42.858806,1580.33],[-0.971677,42.858784,1580.696],[-0.971735,42.858762,1581.394],[-0.97181,42.858747,1583.424],[-0.971743,42.858757,1586.315],[-0.971691,42.858787,1586.39],[-0.971636,42.858812,1586.313],[-0.971574,42.858842,1588.275],[-0.971512,42.858855,1589.728],[-0.971435,42.858872,1589.72],[-0.971365,42.858899,1589.709],[-0.971302,42.858907,1589.798],[-0.971244,42.858932,1589.721],[-0.971154,42.858955,1588.631],[-0.970979,42.859005,1584.467],[-0.970911,42.859022,1583.495],[-0.970851,42.859045,1581.755],[-0.970774,42.859065,1581.776],[-0.970726,42.859093,1581.741],[-0.970663,42.859103,1581.794],[-0.970603,42.859116,1581.765],[-0.970553,42.859144,1579.568],[-0.970493,42.859161,1579.314],[-0.97043,42.859173,1578.409],[-0.970375,42.859205,1577.177],[-0.970325,42.859237,1575.72],[-0.970202,42.859297,1571.55],[-0.970132,42.859319,1570.436],[-0.970055,42.859341,1570.444],[-0.969997,42.859369,1570.434],[-0.969935,42.859402,1564.625],[-0.969893,42.85944,1563.21],[-0.969826,42.859473,1561.083],[-0.969766,42.8595,1558.766],[-0.969723,42.859548,1556.029],[-0.96967,42.8596,1553.821],[-0.969607,42.85964,1552.009],[-0.969545,42.859668,1550.067],[-0.969525,42.859721,1548.63],[-0.969483,42.859759,1547.06],[-0.969423,42.859791,1545.526],[-0.969358,42.859829,1544.174],[-0.96932,42.859871,1541.784],[-0.969295,42.859926,1540.245],[-0.969227,42.859966,1536.93],[-0.96919,42.860016,1535.853],[-0.96917,42.860074,1534.082],[-0.96915,42.860124,1532.743],[-0.969118,42.860176,1532.117],[-0.96908,42.860229,1529.809],[-0.969045,42.860279,1527.529],[-0.968998,42.860342,1525.732],[-0.968958,42.86038,1523.382],[-0.968936,42.860428,1521.438],[-0.968918,42.860488,1518.556],[-0.968888,42.86053,1517.586],[-0.968825,42.860548,1516.737],[-0.968765,42.860558,1515.122],[-0.968693,42.860575,1513.225],[-0.968625,42.860603,1510.713],[-0.968547,42.86063,1509.243],[-0.96849,42.860663,1507.307],[-0.968428,42.860685,1506.609],[-0.968376,42.86071,1505.782],[-0.968321,42.86074,1505.425],[-0.968253,42.86077,1504.655],[-0.968185,42.860787,1502.351],[-0.968113,42.860804,1499.789],[-0.96805,42.860819,1499.269],[-0.967965,42.860861,1498.19],[-0.967918,42.860894,1497.175],[-0.967866,42.860939,1495.718],[-0.967818,42.860969,1495.221],[-0.96779,42.861014,1494.541],[-0.967767,42.861062,1491.805],[-0.967754,42.86111,1490.309],[-0.967749,42.86116,1489.583],[-0.967724,42.861213,1487.956],[-0.967701,42.861261,1487.126],[-0.967689,42.861308,1485.122],[-0.967691,42.861368,1482.41],[-0.967676,42.861415,1480.05],[-0.967639,42.861455,1477.521],[-0.967606,42.861497,1475.316],[-0.967568,42.861545,1474.159],[-0.967523,42.861578,1472.694],[-0.967515,42.861636,1471.657],[-0.9675,42.861688,1470.922],[-0.96749,42.86174,1470.009],[-0.967463,42.861787,1468.92],[-0.967441,42.861845,1466.583],[-0.967399,42.861883,1465.643],[-0.967352,42.86192,1464.789],[-0.967314,42.861972,1463.887],[-0.967299,42.862022,1462.677],[-0.967284,42.862069,1461.148],[-0.967261,42.862159,1458.573],[-0.967233,42.862202,1456.386],[-0.967241,42.862257,1453.978],[-0.967268,42.862305,1452.733],[-0.967258,42.862395,1448.926],[-0.967268,42.862453,1447.309],[-0.967233,42.862498,1445.728],[-0.967171,42.862505,1444.331],[-0.967103,42.86251,1442.951],[-0.967048,42.862542,1441.937],[-0.966985,42.86257,1440.655],[-0.966947,42.862622,1439.665],[-0.966919,42.862672,1438.576],[-0.966901,42.862719,1438.051],[-0.966908,42.862781,1436.794],[-0.966828,42.862888,1431.319],[-0.966748,42.863006,1430.509],[-0.966698,42.863073,1428.419],[-0.966676,42.863123,1425.109],[-0.966659,42.863178,1420.722],[-0.966667,42.863291,1414.245],[-0.966615,42.863334,1412.485],[-0.966553,42.863349,1412.491],[-0.966531,42.863396,1412.479],[-0.966504,42.863444,1408.039],[-0.966459,42.863509,1406.02],[-0.966414,42.863542,1402.895],[-0.966362,42.86357,1400.258],[-0.966379,42.863613,1397.677],[-0.966391,42.863663,1396.861],[-0.966396,42.863718,1396.027],[-0.966369,42.86385,1392.709],[-0.966316,42.8639,1392.578],[-0.966234,42.864015,1387.551],[-0.966281,42.864132,1383.821],[-0.966239,42.86419,1380.987],[-0.966139,42.864273,1376.965],[-0.966101,42.864318,1376.095],[-0.966118,42.864366,1376.046],[-0.966098,42.864413,1375.251],[-0.966093,42.864463,1375.064],[-0.966093,42.864551,1369.682],[-0.96612,42.864601,1367.543],[-0.966068,42.864626,1364.117],[-0.966023,42.864668,1362.809],[-0.966056,42.86471,1362.019],[-0.966089,42.864757,1360.012],[-0.966119,42.8648,1359.652],[-0.966162,42.864858,1358.698],[-0.966197,42.864913,1358.026],[-0.966224,42.86496,1357.816],[-0.966239,42.865017,1356.757],[-0.966251,42.86507,1356.732],[-0.966258,42.86512,1356.855],[-0.96625,42.865168,1357.886],[-0.966227,42.865223,1358.06],[-0.966197,42.865283,1358.426],[-0.966169,42.86535,1358.609],[-0.966149,42.865395,1358.669],[-0.966132,42.865442,1359.222],[-0.96615,42.865497,1359.222],[-0.966132,42.865545,1359.068],[-0.96612,42.8656,1356.976],[-0.966112,42.865653,1355.346],[-0.966134,42.865738,1354.717],[-0.966141,42.86579,1354.642],[-0.966136,42.865845,1354.615],[-0.966118,42.8659,1354.721],[-0.966123,42.865958,1354.941],[-0.966128,42.866006,1356.205],[-0.966143,42.866051,1356.509],[-0.966133,42.866101,1356.713],[-0.966101,42.866154,1358.556],[-0.966113,42.866107,1361.026],[-0.966076,42.866152,1361.062],[-0.966023,42.866189,1360.89],[-0.965961,42.866216,1360.83],[-0.965884,42.866231,1360.431],[-0.965814,42.866251,1359.446],[-0.965751,42.866256,1359.489],[-0.965688,42.866256,1359.426],[-0.965625,42.866258,1359.647],[-0.965563,42.866256,1359.811],[-0.965493,42.866269,1360.009],[-0.965415,42.866256,1360.373],[-0.965353,42.866249,1360.326],[-0.96528,42.866247,1359.326],[-0.965217,42.866245,1359.272],[-0.965122,42.866277,1359.23],[-0.96505,42.8663,1359.36],[-0.96498,42.866318,1359.731],[-0.964915,42.86633,1361.266],[-0.964845,42.866345,1361.879],[-0.964782,42.86636,1361.889],[-0.964722,42.866388,1361.806],[-0.96465,42.866408,1361.726],[-0.964587,42.866418,1361.609],[-0.964517,42.86644,1361.349],[-0.964442,42.866437,1361.032],[-0.964367,42.866449,1360.362],[-0.9643,42.866454,1358.948],[-0.964223,42.866471,1358.866],[-0.964163,42.866484,1358.816],[-0.964098,42.866491,1358.937],[-0.96403,42.866501,1359.542],[-0.963953,42.866499,1361.165],[-0.963858,42.866484,1361.245],[-0.963783,42.866477,1361.247],[-0.963715,42.866467,1360.911],[-0.963655,42.866442,1360.009],[-0.963503,42.866434,1358.665],[-0.96344,42.866421,1356.958],[-0.96338,42.866411,1356.838],[-0.963317,42.866404,1356.834],[-0.96323,42.866392,1355.682],[-0.963158,42.86638,1354.212],[-0.963095,42.866363,1353.613],[-0.963025,42.866346,1352.638],[-0.962945,42.866334,1351.271],[-0.962872,42.866311,1351.067],[-0.962799,42.866291,1350.681],[-0.962731,42.866276,1350.419],[-0.962664,42.866258,1349.709],[-0.962596,42.866248,1348.367],[-0.962518,42.866235,1346.87],[-0.962448,42.866215,1345.92],[-0.962376,42.866188,1344.796],[-0.962308,42.866165,1343.814],[-0.962248,42.866153,1343.144],[-0.962188,42.866131,1341.845],[-0.962131,42.866111,1340.85],[-0.962058,42.866093,1339.343],[-0.96199,42.866068,1338.039],[-0.961908,42.866056,1338.101],[-0.961843,42.866036,1338.121],[-0.961738,42.866016,1338.109],[-0.961668,42.866003,1338.394],[-0.961596,42.866005,1340.667],[-0.961526,42.865973,1340.697],[-0.961463,42.865955,1340.623],[-0.961408,42.86593,1340.611],[-0.961341,42.865923,1341.331],[-0.961274,42.865905,1341.382],[-0.961207,42.865888,1341.187],[-0.961147,42.865875,1341.12],[-0.961095,42.86583,1341.381],[-0.96102,42.865785,1341.661],[-0.960953,42.86576,1341.617],[-0.960868,42.865737,1339.609],[-0.960811,42.865719,1339.119],[-0.960743,42.865701,1339.122],[-0.960675,42.865676,1339.122],[-0.960592,42.865651,1339.588],[-0.9605,42.865616,1340.326],[-0.960413,42.865584,1341.266],[-0.960335,42.865541,1341.227],[-0.960283,42.865513,1341.382],[-0.960221,42.865501,1341.435],[-0.960153,42.865489,1341.736],[-0.960086,42.865471,1341.817],[-0.960024,42.865463,1341.918],[-0.959957,42.865445,1342.009],[-0.959884,42.865427,1341.954],[-0.959817,42.865415,1341.857],[-0.95965,42.865425,1341.837],[-0.95948,42.865418,1341.883],[-0.959293,42.865406,1341.811],[-0.959208,42.865384,1340.491],[-0.959145,42.865374,1340.452],[-0.958987,42.865341,1340.527],[-0.958925,42.865304,1341.26],[-0.958865,42.865269,1341.281],[-0.958765,42.865237,1342.261],[-0.958607,42.865187,1342.217],[-0.958447,42.86513,1342.209],[-0.958252,42.865065,1337.829],[-0.958187,42.865037,1337.142],[-0.958125,42.864995,1337.132],[-0.958067,42.864972,1335.788],[-0.957987,42.86495,1334.986],[-0.95779,42.864907,1336.556],[-0.957627,42.864849,1336.587],[-0.957477,42.864802,1336.692],[-0.957394,42.864785,1337.245],[-0.957319,42.86477,1337.239],[-0.957109,42.864728,1337.201],[-0.956931,42.864713,1337.121],[-0.956769,42.864653,1337.109],[-0.956616,42.864616,1339.374],[-0.956504,42.864544,1340.017],[-0.956374,42.864497,1341.737],[-0.956289,42.864482,1342.823],[-0.956201,42.864467,1343.281],[-0.956104,42.86445,1344.481],[-0.955946,42.864418,1349.032],[-0.955884,42.86441,1350.347],[-0.955707,42.86439,1350.36],[-0.955522,42.864342,1351.282],[-0.955442,42.864312,1351.943],[-0.955377,42.864295,1351.917],[-0.955304,42.864265,1352.709],[-0.955231,42.86425,1352.689],[-0.955144,42.864235,1352.432],[-0.955069,42.864217,1352.022],[-0.954997,42.8642,1352.088],[-0.954927,42.864183,1352.056],[-0.954834,42.864165,1352.156],[-0.954762,42.864145,1352.267],[-0.954687,42.864142,1352.252],[-0.95461,42.864135,1353.075],[-0.954542,42.864127,1353.386],[-0.954477,42.864139,1353.66],[-0.954419,42.864157,1353.726],[-0.954367,42.864189,1355.209],[-0.954304,42.864219,1355.339],[-0.954107,42.864254,1355.522],[-0.954047,42.864272,1355.942],[-0.95398,42.86429,1355.978],[-0.953905,42.864297,1355.986],[-0.95385,42.864322,1358.046],[-0.953792,42.864345,1358.217],[-0.953737,42.864385,1359.072],[-0.953692,42.864417,1359.475],[-0.953615,42.864452,1359.387],[-0.95356,42.864494,1359.242],[-0.953508,42.864531,1359.126],[-0.953438,42.864558,1359.009],[-0.95339,42.864588,1358.989],[-0.953317,42.864643,1358.952],[-0.953269,42.864701,1358.472],[-0.953219,42.864744,1357.548],[-0.953172,42.864779,1357.226],[-0.953105,42.864827,1356.866],[-0.953043,42.86486,1356.477],[-0.952978,42.864877,1356.432],[-0.952908,42.864915,1356.575],[-0.952851,42.864942,1356.846],[-0.952783,42.864959,1356.988],[-0.952715,42.864979,1357.116],[-0.952667,42.865012,1359.709],[-0.952604,42.865042,1361.575],[-0.952532,42.865055,1362.178],[-0.952459,42.865082,1362.278],[-0.952377,42.86512,1362.934],[-0.952279,42.865143,1362.972],[-0.952206,42.865146,1362.922],[-0.952136,42.865168,1362.123],[-0.952076,42.865183,1362.018],[-0.951974,42.8652,1362.061],[-0.951884,42.865217,1362.268],[-0.951819,42.8652,1362.442],[-0.951701,42.86512,1363.326],[-0.951678,42.865008,1364.709],[-0.951713,42.864893,1364.717],[-0.951785,42.864786,1364.44],[-0.951658,42.864758,1360.09],[-0.951645,42.864808,1359.966],[-0.951485,42.86486,1359.024],[-0.951403,42.864873,1358.584],[-0.951326,42.864883,1358.225],[-0.951248,42.86491,1358.23],[-0.95117,42.86494,1359.823],[-0.951095,42.864953,1360.217],[-0.951015,42.864965,1360.787],[-0.950958,42.864983,1360.815],[-0.950898,42.864998,1361.309],[-0.950835,42.864995,1361.742],[-0.950763,42.864992,1362.175],[-0.950673,42.864982,1363.075],[-0.9506,42.864982,1363.791],[-0.950532,42.864975,1365.249],[-0.950445,42.86496,1366.179],[-0.950388,42.864935,1366.72],[-0.950311,42.864898,1366.845],[-0.950248,42.864871,1366.838],[-0.950186,42.864854,1366.997],[-0.950116,42.864852,1366.923],[-0.950044,42.864844,1366.825],[-0.949977,42.864834,1366.809],[-0.94984,42.864807,1366.66],[-0.949775,42.86482,1366.243],[-0.949662,42.864838,1365.763],[-0.949585,42.864846,1365.679],[-0.94952,42.864858,1365.357],[-0.949457,42.864858,1365.337],[-0.949389,42.86487,1363.678],[-0.949324,42.86487,1360.383],[-0.949179,42.864857,1355.096],[-0.949101,42.864832,1353.477],[-0.949018,42.864859,1353.261],[-0.948953,42.864876,1353.227],[-0.948863,42.864861,1348.909],[-0.94879,42.864834,1346.178],[-0.948725,42.864809,1344.351],[-0.948655,42.864792,1343.081],[-0.94858,42.86479,1340.467],[-0.948503,42.864785,1339.355],[-0.948435,42.864777,1338.765],[-0.948363,42.864784,1338.296],[-0.94828,42.864774,1336.791],[-0.948163,42.864781,1334.754],[-0.948066,42.864799,1332.596],[-0.947951,42.864804,1328.631],[-0.947881,42.864806,1322.624],[-0.947801,42.864826,1316.609],[-0.947724,42.864828,1313.69],[-0.947526,42.864795,1307.183],[-0.947443,42.8648,1306.983],[-0.94738,42.864805,1306.929],[-0.947298,42.864822,1306.997],[-0.947213,42.864835,1305.997],[-0.947146,42.864838,1305.798],[-0.947066,42.864838,1305.653],[-0.946994,42.864845,1303.976],[-0.946926,42.86485,1302.725],[-0.946856,42.864847,1302.126],[-0.946771,42.86484,1301.208],[-0.946709,42.864827,1300.709],[-0.946636,42.86482,1300.133],[-0.946559,42.86482,1299.786],[-0.946479,42.864827,1298.636],[-0.946402,42.864832,1297.952],[-0.946329,42.864845,1297.76],[-0.946251,42.864798,1296.41],[-0.946193,42.864755,1295.781],[-0.946133,42.864717,1294.316],[-0.946058,42.864677,1292.329],[-0.945986,42.864649,1289.191],[-0.945918,42.864622,1287.081],[-0.945856,42.864602,1286.319],[-0.945798,42.864587,1284.809],[-0.94573,42.864574,1282.73],[-0.945658,42.864536,1279.863],[-0.945603,42.864501,1278.273],[-0.945465,42.864444,1274.549],[-0.94533,42.864374,1274.347],[-0.945233,42.864339,1272.887],[-0.94513,42.864302,1269.798],[-0.945012,42.864267,1264.193],[-0.944904,42.864227,1264.326],[-0.944841,42.864199,1264.343],[-0.944789,42.864136,1265.764],[-0.944692,42.864063,1265.71],[-0.944632,42.864043,1265.709],[-0.944484,42.863983,1265.785],[-0.944349,42.863931,1259.528],[-0.944197,42.863879,1259.588],[-0.944012,42.863811,1259.524],[-0.94391,42.863773,1264.552],[-0.943843,42.863745,1264.522],[-0.943781,42.863727,1262.743],[-0.943683,42.863652,1259.188],[-0.943626,42.863605,1259.141],[-0.943571,42.863583,1259.133],[-0.943506,42.863563,1259.123],[-0.943451,42.863533,1255.915],[-0.943393,42.863501,1255.209],[-0.94334,42.863474,1254.264],[-0.94327,42.863441,1252.557],[-0.943198,42.863408,1251.177],[-0.943163,42.863365,1249.643],[-0.943111,42.86332,1248.341],[-0.943056,42.863287,1247.251],[-0.942994,42.863249,1246.632],[-0.942946,42.863197,1245.327],[-0.942899,42.86316,1243.55],[-0.942844,42.863137,1242.228],[-0.942787,42.863119,1241.389],[-0.942737,42.863084,1239.917],[-0.942684,42.863049,1238.709],[-0.942616,42.863012,1237.473],[-0.942539,42.862984,1236.166],[-0.942462,42.862931,1234.326],[-0.942394,42.862883,1232.262],[-0.942364,42.862821,1229.84],[-0.942341,42.862778,1229.38],[-0.942296,42.862738,1227.081],[-0.942248,42.8627,1224.476],[-0.942175,42.862645,1222.879],[-0.942113,42.862598,1221.685],[-0.942046,42.862551,1220.489],[-0.941974,42.862523,1219.517],[-0.941876,42.862488,1217.609],[-0.941819,42.862453,1216.499],[-0.941784,42.862405,1216.172],[-0.941789,42.862353,1215.452],[-0.941696,42.862233,1209.938],[-0.941618,42.862173,1208.756],[-0.941583,42.862126,1204.826],[-0.941553,42.862083,1202.747],[-0.941528,42.862031,1202.752],[-0.941508,42.861973,1198.675],[-0.941498,42.861928,1197.646],[-0.941495,42.861873,1196.688],[-0.941518,42.861831,1194.916],[-0.941503,42.861781,1193.909],[-0.941476,42.861718,1192.585],[-0.941441,42.861663,1191.298],[-0.941401,42.8616,1189.928],[-0.941361,42.861555,1186.414],[-0.941358,42.861502,1184.942],[-0.941341,42.861457,1184.762],[-0.941316,42.8614,1183.623],[-0.941299,42.861348,1183.088],[-0.941294,42.861296,1182.891],[-0.941274,42.861244,1182.189],[-0.941241,42.861204,1181.906],[-0.941233,42.861156,1181.526],[-0.941225,42.861101,1180.909],[-0.941218,42.861054,1180.489],[-0.941205,42.861009,1179.732],[-0.941163,42.860962,1179.072],[-0.941113,42.860925,1178.568],[-0.941058,42.860903,1178.156],[-0.94099,42.860886,1177.996],[-0.94092,42.860879,1177.197],[-0.940853,42.860881,1173.722],[-0.940746,42.860866,1173.765],[-0.940664,42.860856,1173.781],[-0.940601,42.860848,1173.761],[-0.940534,42.860845,1173.717],[-0.940439,42.860835,1169.209],[-0.940386,42.860812,1168.499],[-0.940326,42.86079,1168.282],[-0.940258,42.86078,1168.062],[-0.940186,42.860763,1167.868],[-0.940076,42.860745,1167.556],[-0.940016,42.860727,1166.916],[-0.939956,42.860712,1166.797],[-0.939876,42.860707,1166.482],[-0.939816,42.860697,1165.995],[-0.939754,42.860692,1165.543],[-0.939691,42.860675,1165.064],[-0.939534,42.860675,1163.81],[-0.939389,42.860623,1163.309],[-0.939309,42.86061,1161.795],[-0.939244,42.860613,1161.438],[-0.939171,42.860613,1161.138],[-0.939096,42.860615,1159.564],[-0.938909,42.860603,1157.842],[-0.938836,42.860595,1155.922],[-0.938664,42.860543,1155.233],[-0.938579,42.860523,1154.168],[-0.938522,42.8605,1154.151],[-0.938437,42.860473,1154.136],[-0.938374,42.860441,1147.317],[-0.938296,42.860424,1146.818],[-0.938221,42.860411,1146.409],[-0.938158,42.860389,1145.864],[-0.938098,42.860362,1144.137],[-0.938038,42.860332,1142.327],[-0.937975,42.86031,1141.543],[-0.93792,42.860283,1140.781],[-0.937847,42.860266,1138.811],[-0.937779,42.860243,1136.742],[-0.937727,42.860215,1135.177],[-0.937667,42.86018,1134.23],[-0.937597,42.860183,1133.642],[-0.937544,42.86021,1133.122],[-0.937481,42.860142,1130.014],[-0.937503,42.860032,1130.009],[-0.937531,42.859945,1130.045],[-0.937541,42.859878,1128.698],[-0.937613,42.859793,1121.158],[-0.937551,42.859746,1120.674],[-0.937491,42.859723,1120.522],[-0.937408,42.859721,1120.542],[-0.937333,42.859739,1114.793],[-0.937273,42.859772,1114.148],[-0.937208,42.859795,1112.911],[-0.93714,42.859823,1111.134],[-0.937098,42.859778,1108.955],[-0.937086,42.859721,1106.81],[-0.937029,42.859641,1102.409],[-0.936961,42.859663,1101.144],[-0.936898,42.859671,1100.577],[-0.936825,42.859681,1100.527],[-0.936757,42.859714,1097.613],[-0.936682,42.859709,1096.021],[-0.936675,42.859664,1094.511],[-0.936688,42.859599,1093.422],[-0.936636,42.859561,1090.727],[-0.936566,42.859539,1087.11],[-0.936558,42.859474,1085.584],[-0.936533,42.859417,1083.707],[-0.936465,42.859392,1082.617],[-0.936398,42.859359,1079.609],[-0.936313,42.859276,1076.449],[-0.93626,42.859238,1074.082],[-0.936202,42.859215,1073.092],[-0.93607,42.85909,1069.858],[-0.936005,42.859047,1069.186],[-0.935938,42.859012,1069.126],[-0.93588,42.858982,1069.187],[-0.935777,42.858957,1061.232],[-0.935577,42.85895,1058.755],[-0.93551,42.858908,1057.978],[-0.935368,42.858806,1055.633],[-0.9353,42.858773,1055.626],[-0.935233,42.858728,1055.609],[-0.935198,42.858676,1055.698],[-0.935131,42.858578,1050.661],[-0.935131,42.858515,1048.221],[-0.935131,42.858465,1047.837],[-0.935119,42.858408,1047.775],[-0.935132,42.85827,1047.345],[-0.935144,42.858208,1043.526],[-0.935151,42.858163,1043.041],[-0.935143,42.858116,1042.934],[-0.935086,42.858078,1042.467],[-0.935074,42.858021,1042.281],[-0.935027,42.857959,1041.719],[-0.935024,42.857914,1041.309],[-0.934992,42.857857,1040.187],[-0.934932,42.857844,1036.15],[-0.93485,42.857952,1036.14],[-0.93473,42.858032,1036.156],[-0.934675,42.858102,1032.844],[-0.934613,42.85815,1033.744],[-0.93453,42.858227,1033.535],[-0.934513,42.858299,1032.91],[-0.934403,42.858351,1032.943],[-0.934326,42.858411,1032.736],[-0.934279,42.858451,1032.417],[-0.934242,42.858491,1030.518],[-0.934215,42.858551,1025.909],[-0.934178,42.858614,1024.974],[-0.93414,42.858672,1025.047],[-0.934115,42.858722,1024.887],[-0.934097,42.858769,1024.563],[-0.934095,42.858817,1024.591],[-0.93409,42.858884,1024.441],[-0.934022,42.858899,1024.192],[-0.933977,42.858849,1023.877],[-0.933879,42.858849,1021.14],[-0.933814,42.858876,1019.057],[-0.933712,42.858889,1017.1],[-0.933639,42.858901,1014.72],[-0.933579,42.859016,1007.409],[-0.933571,42.859076,1007.316],[-0.933519,42.859108,1007.369],[-0.933516,42.859166,1007.369],[-0.933513,42.859213,1002.335],[-0.933521,42.85927,1001.143],[-0.933508,42.859395,995.413],[-0.933528,42.859458,993.654],[-0.933545,42.859513,993.639],[-0.933588,42.85955,993.612],[-0.933636,42.85958,985.789],[-0.933684,42.85963,984.706],[-0.933706,42.859692,982.926],[-0.933718,42.859757,981.509],[-0.933753,42.859797,980.049],[-0.933775,42.85984,979.382],[-0.93378,42.859885,977.732],[-0.933697,42.859925,963.938],[-0.933635,42.859915,962.256],[-0.933543,42.85991,962.086],[-0.933448,42.859875,962.037],[-0.933376,42.859855,959.122],[-0.933239,42.859822,952.325],[-0.933171,42.859792,948.576],[-0.933104,42.859759,947.69],[-0.933051,42.859719,945.519],[-0.932926,42.859671,941.509],[-0.932859,42.859654,940.718],[-0.932676,42.859561,935.551],[-0.932611,42.859573,934.841],[-0.932508,42.859638,936.627],[-0.93243,42.8596,936.645],[-0.932398,42.859557,936.685],[-0.932336,42.85953,932.366],[-0.932253,42.859552,929.031],[-0.932153,42.859554,925.364],[-0.932078,42.859549,925.285],[-0.931986,42.859567,923.889],[-0.931919,42.859589,923.617],[-0.931847,42.859562,923.409],[-0.931785,42.859542,923.319],[-0.931708,42.859522,923.132],[-0.931641,42.859494,922.642],[-0.931581,42.859476,921.518],[-0.931449,42.859434,915.936],[-0.931396,42.859407,914.696],[-0.931266,42.85939,910.457],[-0.931191,42.859362,909.982],[-0.931076,42.859307,909.925],[-0.931016,42.859297,909.997],[-0.930914,42.859277,897.323],[-0.930849,42.859252,895.825],[-0.930774,42.859214,889.609],[-0.930721,42.859177,888.22],[-0.930681,42.85914,886.113],[-0.930633,42.8591,884.643],[-0.93061,42.859052,882.389],[-0.930572,42.859007,879.237],[-0.93051,42.85897,874.737],[-0.930383,42.858872,870.998],[-0.930278,42.858839,869.613],[-0.930136,42.858752,865.056],[-0.929996,42.858709,862.217],[-0.929831,42.858792,856.887],[-0.929799,42.858839,856.215],[-0.929817,42.858886,855.209],[-0.929807,42.858998,855.292],[-0.929744,42.85912,855.055],[-0.929674,42.859122,854.295],[-0.929609,42.8591,854.251],[-0.929589,42.859055,850.729],[-0.929534,42.859018,843.169],[-0.929369,42.858925,835.41],[-0.929352,42.859017,835.215],[-0.929265,42.858995,830.838],[-0.929207,42.859015,830.845],[-0.929225,42.85909,827.247],[-0.929148,42.859188,827.111],[-0.929051,42.859175,825.909],[-0.928953,42.85914,825.945],[-0.928838,42.85914,818.828],[-0.928728,42.859147,811.498],[-0.928655,42.859149,811.454],[-0.928562,42.859101,811.462],[-0.92846,42.859046,811.492],[-0.928415,42.859014,804.343],[-0.928373,42.858967,803.388],[-0.92832,42.85894,803.191],[-0.928268,42.858903,801.827],[-0.928185,42.858886,799.268],[-0.92811,42.858879,798.014],[-0.928043,42.858891,794.809],[-0.927993,42.858924,793.073],[-0.927961,42.858967,791.956],[-0.927913,42.859015,789.986],[-0.927871,42.85905,787.132],[-0.927851,42.859102,785.04],[-0.927823,42.85915,782.87],[-0.927778,42.859185,782.031],[-0.927776,42.85923,780.616],[-0.927728,42.859272,777.719],[-0.92768,42.859234,776.398],[-0.927645,42.859186,774.415],[-0.92761,42.859139,772.626],[-0.927613,42.859087,770.309],[-0.927523,42.859045,768.67],[-0.927478,42.859088,767.593],[-0.927418,42.859145,767.923],[-0.927386,42.85919,767.359],[-0.927344,42.859227,768.147],[-0.927309,42.859275,768.047],[-0.927196,42.85937,767.688],[-0.927146,42.85941,767.693],[-0.927101,42.85946,767.516],[-0.927056,42.859502,767.034],[-0.927003,42.859532,767.055],[-0.926965,42.85957,767.01],[-0.926917,42.859608,767.009],[-0.926862,42.859635,768.184],[-0.926795,42.859663,768.917],[-0.92674,42.859691,770.157],[-0.926685,42.859723,771.063],[-0.926632,42.859756,773.491],[-0.926554,42.859798,775.241],[-0.926491,42.859825,775.942],[-0.926421,42.859848,776.347],[-0.926366,42.859871,776.49],[-0.926258,42.859909,777.742],[-0.926181,42.859937,778.122],[-0.926099,42.859994,779.314],[-0.926022,42.860029,780.309],[-0.925975,42.860064,781.435],[-0.925937,42.860101,781.788],[-0.925815,42.860114,781.618],[-0.925752,42.860131,781.634],[-0.92568,42.860158,781.872],[-0.925585,42.86021,782.192],[-0.92551,42.860237,782.433],[-0.925447,42.860279,782.898],[-0.925379,42.860276,784.261],[-0.925306,42.860286,785.264],[-0.925231,42.860306,786.006],[-0.925191,42.860348,786.616],[-0.925114,42.860368,787.709],[-0.925054,42.860356,787.717],[-0.924982,42.860351,788.17],[-0.924914,42.860338,788.06],[-0.924844,42.860333,788.146],[-0.924784,42.860376,788.644],[-0.924687,42.860411,788.714],[-0.924609,42.860411,790.345],[-0.924546,42.860411,791.87],[-0.924459,42.860404,793.123],[-0.924394,42.860384,793.189],[-0.924331,42.860359,793.106],[-0.924281,42.860322,792.826],[-0.924153,42.860344,792.209],[-0.924085,42.860357,792.179],[-0.924003,42.860349,792.642],[-0.923941,42.860374,792.692],[-0.923884,42.860397,792.858],[-0.923826,42.86042,792.936],[-0.923773,42.860455,792.926],[-0.923706,42.860468,792.957],[-0.923639,42.860463,793.372],[-0.923487,42.860388,793.575],[-0.923622,42.860365,795.528],[-0.923685,42.860343,795.589],[-0.923662,42.860396,795.517],[-0.923587,42.860409,802.009],[-0.923507,42.860422,801.923],[-0.923454,42.860452,801.396],[-0.923414,42.860492,800.626],[-0.923377,42.860534,800.022],[-0.92329,42.860564,799.55],[-0.923137,42.860607,800.04],[-0.923119,42.86066,800.111],[-0.923104,42.860705,800.116],[-0.922997,42.860768,803.079],[-0.922879,42.860835,804.727],[-0.922827,42.860863,804.868],[-0.922757,42.860895,806.114],[-0.922659,42.86093,806.109],[-0.922597,42.860967,806.443],[-0.922534,42.861052,807.266],[-0.922541,42.8611,807.946],[-0.922639,42.861107,808.032],[-0.922629,42.861157,808.27],[-0.922597,42.861204,808.68],[-0.922579,42.861261,809.321],[-0.922564,42.861309,809.766],[-0.922574,42.861367,809.979],[-0.922572,42.861417,809.943],[-0.92257,42.861472,810.664],[-0.922597,42.861572,813.51],[-0.922639,42.86167,814.709],[-0.922666,42.861728,814.715],[-0.922641,42.861778,817.558],[-0.922601,42.861813,817.888],[-0.922573,42.861855,818.924],[-0.922556,42.861903,818.952],[-0.922496,42.862018,818.782],[-0.922371,42.862073,818.573],[-0.922316,42.862116,812.878],[-0.922308,42.862208,809.871],[-0.922236,42.862313,806.559]]}}]}