{"type":"FeatureCollection","features":[{"type":"Feature","properties":{"ruta_id":"149479699","nombre":"CASCADA de OSINBERDE","blog_url":"https://www.rutasporelmonte.com/cascada-de-osinberde/"},"geometry":{"type":"LineString","coordinates":[[-2.133782,43.006822,322.592],[-2.133852,43.006839,322.573],[-2.133947,43.006872,322.92],[-2.134027,43.00685,322.509],[-2.133959,43.00687,322.28],[-2.133872,43.006905,322.283],[-2.1339,43.006862,322.228],[-2.133952,43.006819,328.263],[-2.133885,43.006831,329.196],[-2.133865,43.006876,329.198],[-2.133932,43.006853,329.745],[-2.133945,43.006803,330.238],[-2.133883,43.006775,330.558],[-2.133815,43.006773,330.836],[-2.133747,43.006771,331.217],[-2.133682,43.006754,331.218],[-2.133622,43.006731,338.909],[-2.13356,43.006723,338.814],[-2.133487,43.006726,338.497],[-2.133194,43.006683,329.562],[-2.133122,43.00667,328.537],[-2.133055,43.006665,328.43],[-2.132968,43.006652,329.842],[-2.132878,43.00665,337.349],[-2.132786,43.00662,338.852],[-2.132701,43.006593,338.952],[-2.132613,43.006573,339.124],[-2.132535,43.006555,339.004],[-2.132465,43.00654,339.214],[-2.132388,43.006527,340.209],[-2.132313,43.006535,342.253],[-2.132238,43.006527,342.986],[-2.132176,43.00653,342.711],[-2.132116,43.00654,342.546],[-2.132024,43.006543,343.019],[-2.131801,43.006515,343.251],[-2.131751,43.006483,343.188],[-2.131693,43.006451,342.731],[-2.13167,43.006404,342.781],[-2.13164,43.006361,343.473],[-2.131583,43.006323,347.485],[-2.131523,43.006306,349.113],[-2.131461,43.006326,350.509],[-2.131396,43.006343,352.268],[-2.131331,43.006351,353.371],[-2.131268,43.006336,353.596],[-2.131198,43.006329,353.881],[-2.131198,43.006284,354.374],[-2.131183,43.006224,355.336],[-2.131148,43.006172,356.643],[-2.131161,43.00609,359.856],[-2.131201,43.006028,362.796],[-2.131226,43.00598,362.786],[-2.131259,43.005938,362.76],[-2.131302,43.005898,365.226],[-2.131334,43.00585,368.409],[-2.131322,43.005793,368.069],[-2.1313,43.005745,367.382],[-2.131243,43.005717,367.367],[-2.131186,43.005687,367.312],[-2.131124,43.00566,367.355],[-2.131072,43.005622,367.617],[-2.131014,43.005589,368.284],[-2.130962,43.005562,368.357],[-2.130902,43.005539,368.417],[-2.130835,43.005529,368.688],[-2.130765,43.005526,368.724],[-2.130705,43.005503,369.026],[-2.13064,43.005486,370.109],[-2.130582,43.005468,371.599],[-2.130522,43.005455,375.032],[-2.130474,43.005417,375.037],[-2.130412,43.005397,375.172],[-2.13034,43.005392,375.165],[-2.130277,43.005399,375.157],[-2.130207,43.005392,375.474],[-2.13014,43.005397,375.447],[-2.130067,43.00541,374.117],[-2.13,43.00543,373.061],[-2.129933,43.005443,372.821],[-2.129876,43.005466,372.613],[-2.129813,43.005483,372.109],[-2.129751,43.005486,371.267],[-2.129674,43.005493,371.61],[-2.129612,43.005516,372.885],[-2.129549,43.005539,373.36],[-2.129479,43.005531,373.613],[-2.129301,43.005519,374.585],[-2.129246,43.005489,374.762],[-2.129169,43.005492,374.945],[-2.129102,43.00548,375.285],[-2.129029,43.005467,375.353],[-2.128962,43.005444,375.304],[-2.128899,43.005446,375.514],[-2.128802,43.005449,375.509],[-2.128767,43.005406,377.736],[-2.128689,43.005419,378.679],[-2.128611,43.005407,379.244],[-2.128543,43.005414,378.229],[-2.128491,43.005389,377.662],[-2.128436,43.005359,370.634],[-2.128374,43.005354,370.631],[-2.128302,43.005354,370.834],[-2.128267,43.005306,368.714],[-2.128207,43.005266,368.043],[-2.12765,43.005096,365.564],[-2.127572,43.005111,365.41],[-2.12751,43.005123,365.509],[-2.127448,43.005138,367.455],[-2.127385,43.005148,373.338],[-2.12732,43.005146,374.553],[-2.127252,43.005139,376.428],[-2.127174,43.005147,377.461],[-2.127017,43.005185,379.293],[-2.12675,43.005172,379.35],[-2.126682,43.005179,380.073],[-2.12661,43.005189,381.983],[-2.126552,43.005147,382.672],[-2.126492,43.005132,383.213],[-2.126434,43.005117,383.514],[-2.126361,43.005094,383.909],[-2.126321,43.005057,385.438],[-2.126271,43.005027,385.631],[-2.126214,43.005002,385.966],[-2.126152,43.00498,386.721],[-2.126092,43.004963,389.634],[-2.126032,43.004951,389.926],[-2.12596,43.004943,389.863],[-2.125892,43.004936,388.276],[-2.125825,43.004918,388.526],[-2.125753,43.004903,387.458],[-2.125693,43.004883,387.452],[-2.125635,43.00486,387.417],[-2.125592,43.004813,387.409],[-2.125542,43.004776,386.736],[-2.125504,43.004739,385.589],[-2.125472,43.004697,384.224],[-2.125424,43.004655,383.069],[-2.125372,43.004622,382.512],[-2.12531,43.004589,382.494],[-2.125258,43.004562,381.621],[-2.125188,43.004549,378.364],[-2.125113,43.004534,376.254],[-2.125023,43.004509,375.887],[-2.12496,43.004477,375.842],[-2.1249,43.004447,375.826],[-2.124845,43.004419,375.009],[-2.124778,43.004392,375.199],[-2.124703,43.004374,375.152],[-2.124641,43.004356,375.157],[-2.124576,43.004343,375.062],[-2.124501,43.004348,375.495],[-2.124423,43.004358,375.247],[-2.12436,43.004355,374.144],[-2.124292,43.00435,373.447],[-2.124219,43.004362,371.717],[-2.124162,43.004382,371.198],[-2.124097,43.004382,371.015],[-2.124032,43.004385,371.026],[-2.123962,43.004415,371.109],[-2.123899,43.004448,371.38],[-2.123849,43.004481,371.723],[-2.123786,43.004514,373.428],[-2.123761,43.004556,374.663],[-2.123703,43.004576,375.596],[-2.123661,43.004533,375.538],[-2.123603,43.00451,375.935],[-2.123628,43.004462,376.298],[-2.123646,43.00441,383.388],[-2.123639,43.004355,385.144],[-2.123674,43.004312,387.505],[-2.123707,43.004272,387.615],[-2.123727,43.004229,388.309],[-2.123849,43.004002,387.085],[-2.123941,43.003964,385.838],[-2.124009,43.003941,385.913],[-2.124081,43.003943,386.088],[-2.124149,43.003943,385.641],[-2.124217,43.003931,385.413],[-2.124279,43.003891,383.29],[-2.124337,43.003856,379.213],[-2.124374,43.003814,376.443],[-2.124406,43.003767,373.671],[-2.124454,43.003729,372.541],[-2.124494,43.003692,371.015],[-2.124554,43.00366,367.309],[-2.124609,43.00363,366.558],[-2.124661,43.00358,366.311],[-2.124693,43.003538,366.666],[-2.124668,43.003471,370.721],[-2.124726,43.003456,370.754],[-2.124798,43.003409,374.746],[-2.124713,43.003426,358.533],[-2.124993,43.003299,356.636],[-2.125055,43.003284,356.656],[-2.125078,43.003239,356.759],[-2.125101,43.003196,356.703],[-2.125168,43.003179,357.623],[-2.125208,43.003134,360.509],[-2.12523,43.003084,364.016],[-2.12524,43.003039,364.699],[-2.125262,43.002994,365.114],[-2.125329,43.002979,365.549],[-2.125401,43.002987,367.462],[-2.125456,43.002959,369.074],[-2.125484,43.002911,371.231],[-2.125531,43.002869,372.654],[-2.125559,43.002827,373.514],[-2.125599,43.002784,373.251],[-2.125629,43.002739,371.701],[-2.125614,43.002689,371.811],[-2.125682,43.002677,371.709],[-2.125754,43.002689,371.286],[-2.125787,43.002629,366.349],[-2.125825,43.002577,366.344],[-2.125893,43.002559,366.349],[-2.125906,43.002514,366.312],[-2.125928,43.002469,366.314],[-2.125946,43.002414,365.731],[-2.126013,43.002387,364.084],[-2.126073,43.002372,363.264],[-2.126125,43.002335,362.735],[-2.12616,43.002293,362.586],[-2.12622,43.002261,362.614],[-2.126227,43.002216,362.609],[-2.126267,43.002171,363.214],[-2.126305,43.002126,366.297],[-2.126355,43.002098,368.362],[-2.126405,43.002065,370.177],[-2.126468,43.00205,371.42],[-2.126478,43.001995,371.472],[-2.126506,43.001955,371.019],[-2.126521,43.001905,368.122],[-2.126511,43.001857,366.382],[-2.126478,43.001815,365.466],[-2.126445,43.001765,367.729],[-2.126378,43.001775,367.721],[-2.12643,43.001738,367.209],[-2.126415,43.001818,369.647],[-2.126413,43.001871,368.19],[-2.126455,43.001919,368.125],[-2.126458,43.001969,368.09],[-2.126455,43.002022,366.873],[-2.126427,43.002064,366.765],[-2.126367,43.002101,366.622],[-2.126317,43.002143,366.685],[-2.126265,43.00217,366.655],[-2.1262,43.00222,366.586],[-2.126158,43.002258,366.06],[-2.126111,43.002295,365.926],[-2.126061,43.002328,365.809],[-2.126016,43.002363,365.979],[-2.125986,43.002403,366.292],[-2.125941,43.002448,367.317],[-2.125911,43.00249,367.462],[-2.125858,43.002525,367.425],[-2.12581,43.002553,367.427],[-2.12576,43.002588,367.344],[-2.12574,43.002633,367.357],[-2.12572,43.00268,367.397],[-2.125677,43.00272,367.751],[-2.125649,43.002767,369.801],[-2.125634,43.002822,370.711],[-2.125606,43.002875,372.309],[-2.125551,43.002907,373.576],[-2.125486,43.002954,374.179],[-2.125419,43.002982,374.214],[-2.125364,43.003029,374.149],[-2.125317,43.003062,374.172],[-2.125267,43.003102,372.844],[-2.12521,43.003122,370.011],[-2.125207,43.003167,370.194],[-2.12515,43.003189,370.364],[-2.125075,43.003207,371.371],[-2.125022,43.003237,371.741],[-2.124975,43.003272,371.815],[-2.124938,43.003315,371.809],[-2.124913,43.00336,371.858],[-2.124871,43.00341,371.381],[-2.124808,43.00341,370.226],[-2.124751,43.003437,370.011],[-2.124731,43.003484,369.514],[-2.124694,43.003532,369.286],[-2.124656,43.003572,369.033],[-2.124544,43.003642,361.476],[-2.124482,43.00369,358.436],[-2.124415,43.003733,353.783],[-2.124353,43.00376,348.325],[-2.124323,43.003805,346.817],[-2.12427,43.003828,344.109],[-2.124202,43.003838,340.819],[-2.124145,43.003863,339.222],[-2.124107,43.003913,337.587],[-2.124045,43.003931,336.642],[-2.123978,43.003949,336.495],[-2.123921,43.003976,336.427],[-2.123863,43.004006,337.164],[-2.12382,43.004044,338.687],[-2.123777,43.004086,340.877],[-2.123732,43.004216,346.383],[-2.123692,43.004281,349.525],[-2.123655,43.004354,353.317],[-2.123575,43.004412,356.109],[-2.123532,43.004455,357.859],[-2.123524,43.0045,359.822],[-2.123566,43.004533,360.517],[-2.123619,43.004561,360.652],[-2.123679,43.004573,362.145],[-2.123754,43.00455,363.887],[-2.123824,43.004517,365.724],[-2.124064,43.004405,369.197],[-2.124131,43.00439,369.177],[-2.124236,43.004382,369.534],[-2.124408,43.004377,370.155],[-2.124483,43.004379,370.41],[-2.124546,43.004386,370.609],[-2.124604,43.004366,370.634],[-2.124671,43.004398,370.987],[-2.124768,43.004408,373.462],[-2.124815,43.004438,375.487],[-2.124865,43.004476,376.91],[-2.124918,43.004499,377.582],[-2.124976,43.004516,377.969],[-2.125144,43.004548,378.172],[-2.125237,43.004558,377.672],[-2.125325,43.004625,375.869],[-2.125397,43.004682,374.704],[-2.125444,43.004732,374.324],[-2.125477,43.004772,374.309],[-2.12551,43.004812,374.117],[-2.12556,43.004854,375.78],[-2.125625,43.004884,377.485],[-2.125688,43.004902,377.45],[-2.125753,43.004912,377.433],[-2.125793,43.00495,375.935],[-2.12587,43.004947,375.032],[-2.125932,43.004927,374.735],[-2.126022,43.00492,374.375],[-2.126077,43.004948,374.369],[-2.126144,43.00497,374.004],[-2.126194,43.005005,373.624],[-2.126256,43.005028,373.909],[-2.126311,43.005068,374.067],[-2.126346,43.005111,374.22],[-2.126406,43.005138,375.125],[-2.126474,43.005151,375.61],[-2.126537,43.005173,375.873],[-2.126609,43.005183,376.195],[-2.126817,43.005195,376.132],[-2.126884,43.00521,374.995],[-2.126962,43.005205,374.555],[-2.127022,43.00519,374.477],[-2.127095,43.005185,374.461],[-2.127163,43.005178,374.427],[-2.12724,43.005168,374.409],[-2.127305,43.005153,374.548],[-2.127405,43.005153,374.691],[-2.127468,43.005151,375.056],[-2.127536,43.005126,375.231],[-2.127701,43.005109,375.214],[-2.127801,43.005129,374.536],[-2.127871,43.005131,374.373],[-2.127928,43.005158,373.536],[-2.12799,43.005178,372.316],[-2.128075,43.005228,371.478],[-2.128147,43.005275,370.833],[-2.128202,43.005312,369.626],[-2.128254,43.005342,369.409],[-2.128377,43.005372,369.368],[-2.128445,43.005405,369.111],[-2.128505,43.005427,369.276],[-2.128912,43.005447,368.411],[-2.12897,43.005469,368.054],[-2.129018,43.005497,367.976],[-2.129073,43.005519,367.793],[-2.129161,43.005569,367.876],[-2.129228,43.005581,368.186],[-2.129295,43.005576,368.678],[-2.129387,43.005579,369.933],[-2.129474,43.005574,371.326],[-2.129567,43.005571,371.509],[-2.129639,43.005546,371.738],[-2.129714,43.005524,372.441],[-2.129777,43.005506,372.976],[-2.129849,43.005491,373.241],[-2.129929,43.005459,373.284],[-2.129996,43.005439,373.286],[-2.130061,43.005422,373.283],[-2.130108,43.00538,376.176],[-2.130176,43.00539,376.016],[-2.130264,43.005403,376.051],[-2.130327,43.00541,376.001],[-2.130389,43.005422,375.111],[-2.130452,43.00543,373.109],[-2.130525,43.005437,371.766],[-2.130587,43.00546,371.489],[-2.130649,43.005483,370.644],[-2.130706,43.005523,369.359],[-2.130763,43.005558,368.392],[-2.130813,43.005585,367.164],[-2.130881,43.005603,366.281],[-2.130939,43.005628,365.444],[-2.130976,43.005666,363.524],[-2.131048,43.005709,363.343],[-2.131125,43.005734,362.564],[-2.131188,43.005756,362.11],[-2.131245,43.005781,360.109],[-2.131288,43.005814,358.175],[-2.131301,43.005871,357.968],[-2.131273,43.005916,357.673],[-2.131245,43.005964,354.358],[-2.131132,43.006024,350.751],[-2.131114,43.006074,350.423],[-2.131102,43.006122,350.38],[-2.131112,43.006175,350.233],[-2.131094,43.006218,350.363],[-2.131151,43.006266,350.429],[-2.131176,43.006314,350.3],[-2.131269,43.006312,350.12],[-2.131342,43.006324,349.909],[-2.131405,43.006326,349.283],[-2.13147,43.006306,348.896],[-2.131533,43.006313,348.651],[-2.131591,43.006341,348.686],[-2.131624,43.006411,349.289],[-2.131627,43.006456,349.141],[-2.13163,43.006501,349.018],[-2.131675,43.006533,347.761],[-2.131737,43.00656,346.931],[-2.131797,43.00655,346.483],[-2.131867,43.006525,346.425],[-2.131934,43.006543,346.417],[-2.132002,43.006546,346.209],[-2.13208,43.006538,346.279],[-2.132148,43.006528,346.252],[-2.132211,43.006538,346.097],[-2.132284,43.00653,345.742],[-2.132371,43.006542,345.685],[-2.132434,43.00654,345.557],[-2.132492,43.006557,345.494],[-2.132559,43.006569,345.197],[-2.132624,43.006594,344.617],[-2.132692,43.006631,344.572],[-2.132767,43.006641,343.513],[-2.132832,43.006641,342.414],[-2.132892,43.006651,341.309],[-2.132954,43.006656,340.478],[-2.133019,43.006679,340.131],[-2.133087,43.006662,340.046],[-2.133177,43.006675,338.971],[-2.13325,43.006673,337.234],[-2.133328,43.00668,335.996],[-2.133398,43.006702,335.793],[-2.133443,43.006735,335.526],[-2.133511,43.00675,334.776],[-2.133583,43.006753,332.346],[-2.133656,43.006776,330.188],[-2.133729,43.006786,329.416],[-2.133799,43.006804,325.709],[-2.133859,43.006837,322.935],[-2.133929,43.006832,322.298]]}}]}