{"type":"FeatureCollection","features":[{"type":"Feature","properties":{"ruta_id":"154070535","nombre":"CASCADA del CUBO desde CASAS de IRATI","blog_url":"https://www.rutasporelmonte.com/cascada-del-cubo-ruta-de-otono-en-la-selva-de-irati/"},"geometry":{"type":"LineString","coordinates":[[-1.106486,42.989047,851.123],[-1.106207,42.989596,853.383],[-1.10595,42.989862,853.411],[-1.105671,42.990207,854.009],[-1.105285,42.990615,855.213],[-1.104426,42.991556,858.817],[-1.103911,42.99209,865.096],[-1.103504,42.992231,859.652],[-1.103032,42.992544,867.099],[-1.102667,42.992733,870.872],[-1.102452,42.992874,872.627],[-1.102259,42.993118,874.715],[-1.102431,42.993361,874.987],[-1.102924,42.993628,875.896],[-1.103547,42.994036,873.231],[-1.103836,42.994357,872.224],[-1.103922,42.994914,868.109],[-1.103772,42.995361,865.66],[-1.103686,42.995878,862.484],[-1.103611,42.996176,861.933],[-1.103225,42.996482,860.919],[-1.10301,42.996772,861.436],[-1.102924,42.997133,864.359],[-1.102924,42.997619,867.244],[-1.102924,42.997917,867.882],[-1.102731,42.99798,866.624],[-1.102484,42.998168,864.871],[-1.102356,42.998435,863.141],[-1.102206,42.998725,859.715],[-1.102152,42.999015,863.009],[-1.102152,42.998935,862.118],[-1.102184,42.998801,860.572],[-1.102238,42.998645,859.921],[-1.102334,42.998472,862.697],[-1.102506,42.998135,865.034],[-1.102753,42.99797,866.747],[-1.102592,42.9983,870.082],[-1.102495,42.998652,872.32],[-1.102484,42.999029,878.622],[-1.102345,42.999358,880.132],[-1.102152,42.999554,881.092],[-1.101948,42.999656,882.011],[-1.101798,42.999711,884.309],[-1.101851,43.000017,885.144],[-1.101766,43.000307,884.228],[-1.101476,43.000597,878.847],[-1.10109,43.001036,883.053],[-1.100821,43.001209,879.38],[-1.100103,43.001467,877.153],[-1.099545,43.001522,877.988],[-1.099073,43.001514,878.466],[-1.098193,43.001742,881.188],[-1.097571,43.002087,885.767],[-1.097378,43.002157,882.681],[-1.097335,43.002534,884.219],[-1.097356,43.003067,886.109],[-1.09726,43.003067,885.987],[-1.097131,43.003067,889.041],[-1.097002,43.00291,888.12],[-1.096745,43.002667,889.356],[-1.096605,43.002628,890.433],[-1.095983,43.002675,893.056],[-1.095264,43.002816,896.451],[-1.094738,43.002887,900.359],[-1.094341,43.002824,900.661],[-1.094127,43.002777,901.568],[-1.093837,43.002495,902.942],[-1.093558,43.002144,903.026],[-1.093311,43.001878,901.309],[-1.093097,43.001776,901.337],[-1.092839,43.001745,903.931],[-1.092453,43.001713,902.59],[-1.091938,43.001831,904.286],[-1.091316,43.001901,904.553],[-1.090951,43.001941,906.236],[-1.090232,43.002074,899.481],[-1.09005,43.002262,901.879],[-1.089792,43.002921,901.711],[-1.089599,43.003148,902.662],[-1.088837,43.003422,899.683],[-1.088569,43.003391,898.611],[-1.088269,43.003219,893.309],[-1.08799,43.003062,890.777],[-1.087754,43.002921,887.731],[-1.087346,43.002858,886.64],[-1.086906,43.002929,887.376],[-1.086745,43.002976,887.523],[-1.086498,43.002842,885.126],[-1.086735,43.002985,887.671],[-1.086155,43.003228,887.669],[-1.085597,43.003612,885.641],[-1.085372,43.00387,886.246],[-1.085211,43.004302,892.088],[-1.085125,43.00489,895.316],[-1.085254,43.005619,897.809],[-1.085522,43.00605,903.435],[-1.085812,43.00627,907.369],[-1.086295,43.006403,917.658],[-1.086466,43.006842,910.544],[-1.086391,43.007165,906.961],[-1.086198,43.007361,902.374],[-1.086091,43.007612,902.559],[-1.085801,43.007675,898.577],[-1.085511,43.0078,896.719],[-1.085286,43.007957,895.469],[-1.084975,43.008294,895.904],[-1.084782,43.009494,912.424],[-1.084718,43.009956,925.409],[-1.084728,43.01075,954.987],[-1.084653,43.011134,956.971],[-1.084996,43.01144,961.59],[-1.085147,43.011722,952.156],[-1.085275,43.011973,950.383],[-1.085469,43.012185,948.816],[-1.085984,43.012781,949.511],[-1.086177,43.013133,952.489],[-1.085823,43.013355,946.651],[-1.085501,43.013621,946.664],[-1.084932,43.013911,947.906],[-1.084235,43.014092,944.416],[-1.083859,43.014162,945.309],[-1.083688,43.014225,943.147],[-1.08358,43.014288,941.451],[-1.083226,43.014281,938.09],[-1.083001,43.014359,934.936],[-1.082851,43.014391,932.693],[-1.082786,43.014344,932.226],[-1.082915,43.014171,935.491],[-1.083323,43.014085,932.829],[-1.08372,43.013944,925.751],[-1.084267,43.013717,918.267],[-1.084739,43.013427,911.581],[-1.084846,43.013317,908.519],[-1.084739,43.013089,906.809],[-1.08476,43.012972,907.827],[-1.084803,43.012893,908.181],[-1.084803,43.012721,908.42],[-1.084696,43.012596,908.116],[-1.084567,43.012486,910.823],[-1.084363,43.01236,913.076],[-1.083891,43.01207,917.781],[-1.083505,43.011992,921.699],[-1.083205,43.011974,926.291],[-1.083065,43.011857,927.853],[-1.082958,43.011669,933.704],[-1.082894,43.011496,931.614],[-1.082743,43.011332,934.409],[-1.082647,43.011198,936.466],[-1.08255,43.011073,938.31],[-1.082658,43.010885,936.949],[-1.082679,43.010728,938.565],[-1.082647,43.010587,942.952],[-1.082593,43.01025,944.945],[-1.082593,43.010007,947.28],[-1.082625,43.009756,951.018],[-1.082861,43.009481,950.87],[-1.082958,43.009348,949.497],[-1.082979,43.009176,949.223],[-1.082969,43.008815,945.425],[-1.082894,43.008454,944.209],[-1.082947,43.008204,941.76],[-1.082947,43.008,940.054],[-1.08284,43.007866,939.583],[-1.082754,43.007757,939.319],[-1.082743,43.007616,938.746],[-1.082829,43.007553,936.629],[-1.082926,43.007498,934.994],[-1.083022,43.00738,933.542],[-1.083119,43.007255,932.214],[-1.083151,43.007224,932.081],[-1.083387,43.007271,928.861],[-1.083612,43.007349,924.717],[-1.083806,43.007325,920.809],[-1.084203,43.007184,913.559],[-1.084589,43.006988,907.353],[-1.084739,43.006879,904.132],[-1.084846,43.006769,900.998],[-1.084846,43.006534,897.045],[-1.084707,43.006275,893.628],[-1.084353,43.005734,897.713],[-1.084224,43.005099,895.161],[-1.084288,43.00455,894.563],[-1.084353,43.004291,896.873],[-1.084471,43.004033,898.885],[-1.084524,43.003946,898.613],[-1.084578,43.003829,899.409],[-1.08475,43.003586,900.778],[-1.084964,43.003382,900.352],[-1.0852,43.003225,897.651],[-1.085383,43.003084,895.757],[-1.085619,43.002911,893.264],[-1.085694,43.002841,892.917],[-1.085844,43.002723,890.022],[-1.085898,43.002684,888.76],[-1.085973,43.002653,887.412],[-1.085908,43.002559,887.121],[-1.085908,43.002464,886.641],[-1.085908,43.002363,887.005],[-1.085951,43.002245,888.309],[-1.086005,43.002221,889.773],[-1.085973,43.002135,891.717],[-1.085973,43.00201,895.516],[-1.086005,43.001986,897.442],[-1.086061,43.002032,897.829],[-1.086123,43.00206,898.792],[-1.086161,43.002095,898.017],[-1.086236,43.002093,899.675],[-1.08633,43.002077,902.167],[-1.086348,43.002074,902.529],[-1.086313,43.002015,904.0],[-1.086297,43.001962,905.72],[-1.086262,43.001883,908.309],[-1.086246,43.001821,910.513],[-1.086246,43.001811,910.977],[-1.086316,43.001811,912.386],[-1.086351,43.001811,913.082],[-1.086389,43.001813,913.719],[-1.086415,43.001813,913.972],[-1.086448,43.001813,914.127],[-1.08648,43.001811,914.485],[-1.086498,43.001803,914.987],[-1.086525,43.001797,915.435],[-1.086552,43.001772,916.686],[-1.086563,43.001764,917.014],[-1.086622,43.001766,917.409],[-1.08667,43.001766,917.794],[-1.086764,43.001766,918.058],[-1.08685,43.00176,918.697],[-1.086933,43.001756,919.183],[-1.086981,43.001752,919.63],[-1.087046,43.001758,919.623],[-1.087115,43.001758,919.978],[-1.087185,43.001742,921.036],[-1.08725,43.00175,921.038],[-1.087298,43.00175,921.346],[-1.087464,43.001803,919.988],[-1.087518,43.001813,919.816],[-1.087577,43.001823,919.709],[-1.087638,43.001842,919.335],[-1.087689,43.001852,919.269],[-1.087751,43.001872,918.918],[-1.087815,43.001891,918.374],[-1.087856,43.001897,918.071],[-1.087917,43.001893,918.134],[-1.087955,43.001893,918.149],[-1.088035,43.001901,917.727],[-1.088105,43.001897,917.619],[-1.088202,43.001893,917.136],[-1.088261,43.001885,917.017],[-1.088309,43.001872,917.318],[-1.088379,43.001864,917.009],[-1.088443,43.001846,917.124],[-1.088499,43.001831,917.168],[-1.088556,43.001803,917.737],[-1.088599,43.001785,918.073],[-1.08865,43.001762,917.94],[-1.088714,43.001731,917.623],[-1.088776,43.001699,917.448],[-1.088816,43.001672,917.686],[-1.088851,43.001648,917.928],[-1.088931,43.001589,918.067],[-1.088998,43.001536,917.881],[-1.089052,43.001493,917.919],[-1.089095,43.001466,917.509],[-1.089175,43.001405,917.897],[-1.089216,43.001376,918.141],[-1.089285,43.001339,917.31],[-1.089344,43.001299,916.886],[-1.089395,43.001274,916.013],[-1.089436,43.001246,915.436],[-1.089476,43.001223,914.891],[-1.089535,43.001188,914.179],[-1.089588,43.00116,913.611],[-1.089621,43.001148,913.273],[-1.089661,43.001127,912.985],[-1.089682,43.001109,913.213],[-1.089712,43.001099,913.309],[-1.089776,43.001062,914.848],[-1.089867,43.001023,915.322],[-1.089937,43.000997,915.261],[-1.090015,43.000954,915.797],[-1.090077,43.000909,916.244],[-1.090114,43.000878,916.787],[-1.090162,43.000833,917.462],[-1.090211,43.000772,917.28],[-1.090227,43.000737,917.782],[-1.090248,43.000729,917.064],[-1.090323,43.000711,916.306],[-1.090388,43.000686,917.416],[-1.090436,43.000705,916.509],[-1.090613,43.000733,914.917],[-1.090892,43.000733,915.281],[-1.09094,43.000754,914.03],[-1.090997,43.000745,914.676],[-1.091109,43.000729,915.883],[-1.091208,43.000721,916.656],[-1.091318,43.000715,917.461],[-1.091439,43.000711,918.069],[-1.091533,43.000698,919.051],[-1.091678,43.000713,918.517],[-1.091831,43.000737,916.887],[-1.092056,43.00075,915.815],[-1.092263,43.000776,914.009],[-1.092472,43.000786,911.912],[-1.092574,43.000782,911.696],[-1.092751,43.000794,910.295],[-1.092933,43.000794,910.291],[-1.093038,43.000797,910.168],[-1.093158,43.000805,910.821],[-1.093287,43.000835,910.396],[-1.09348,43.00089,908.564],[-1.09362,43.000945,906.266],[-1.093762,43.001001,904.696],[-1.09392,43.001066,903.831],[-1.094014,43.001113,902.524],[-1.094121,43.001168,902.809],[-1.094199,43.001213,902.66],[-1.094293,43.00126,902.714],[-1.094454,43.001309,904.783],[-1.094593,43.001372,906.069],[-1.09469,43.001401,907.486],[-1.094754,43.001429,907.379],[-1.094819,43.001446,907.374],[-1.09488,43.00147,906.922],[-1.094939,43.001493,906.524],[-1.095004,43.001511,906.455],[-1.095071,43.001538,905.507],[-1.095135,43.001556,904.917],[-1.095202,43.00157,904.709],[-1.095248,43.001584,904.256],[-1.095299,43.001591,904.17],[-1.095334,43.001593,903.969],[-1.095377,43.001593,903.955],[-1.095417,43.001595,903.782],[-1.095497,43.001597,903.625],[-1.095551,43.001601,903.35],[-1.095639,43.001601,902.978],[-1.095682,43.001601,902.75],[-1.095741,43.001599,902.635],[-1.095838,43.001597,902.286],[-1.095892,43.001593,902.214],[-1.095956,43.001591,902.009],[-1.096004,43.001585,902.084],[-1.096087,43.001585,901.668],[-1.096114,43.001579,901.837],[-1.096146,43.001567,902.073],[-1.096262,43.001548,902.07],[-1.096356,43.001542,901.523],[-1.096417,43.001524,901.938],[-1.096533,43.001495,902.156],[-1.096632,43.001481,901.768],[-1.096691,43.001464,901.874],[-1.096782,43.001454,900.756],[-1.096857,43.001452,899.521],[-1.096927,43.001436,899.109],[-1.097002,43.001428,897.998],[-1.097072,43.001413,897.022],[-1.097147,43.001413,895.461],[-1.097201,43.001401,894.847],[-1.097276,43.001393,893.664],[-1.097359,43.001381,892.417],[-1.097469,43.001354,891.162],[-1.097536,43.00134,890.28],[-1.097587,43.00133,889.532],[-1.097694,43.001307,888.369],[-1.097785,43.001277,887.704],[-1.097871,43.001252,887.124],[-1.097933,43.001228,886.909],[-1.098005,43.001207,886.547],[-1.098062,43.001197,885.811],[-1.098086,43.001185,885.87],[-1.098142,43.00117,885.286],[-1.09822,43.001158,883.923],[-1.098265,43.001142,883.416],[-1.098346,43.001113,882.791],[-1.098389,43.001105,882.789],[-1.098448,43.001087,883.741],[-1.098517,43.001077,883.663],[-1.09855,43.001064,884.544],[-1.098568,43.001056,885.118],[-1.098633,43.00104,886.009],[-1.098665,43.001032,886.577],[-1.098695,43.001024,887.161],[-1.098732,43.001017,887.52],[-1.098796,43.001015,887.146],[-1.098818,43.001009,887.563],[-1.098872,43.001001,887.996],[-1.098952,43.000993,887.991],[-1.099011,43.000979,888.959],[-1.099051,43.000968,889.771],[-1.099118,43.000962,889.779],[-1.099161,43.000948,890.905],[-1.09922,43.000926,892.125],[-1.099279,43.000912,892.209],[-1.099336,43.000898,892.298],[-1.099368,43.000877,893.452],[-1.099411,43.000832,896.121],[-1.099454,43.000798,895.547],[-1.099486,43.000767,895.454],[-1.099521,43.000734,895.237],[-1.09955,43.000712,895.032],[-1.099566,43.000685,895.18],[-1.099588,43.000634,895.712],[-1.099604,43.000577,896.519],[-1.099623,43.000542,896.609],[-1.099636,43.000491,896.619],[-1.099636,43.000489,896.709],[-1.099636,43.000463,896.882],[-1.099641,43.000436,896.946],[-1.099641,43.00042,897.035],[-1.099641,43.000383,897.391],[-1.099641,43.000355,897.598],[-1.099641,43.000312,897.861],[-1.099644,43.000275,898.016],[-1.099649,43.000234,898.254],[-1.099649,43.000191,898.596],[-1.099649,43.000144,898.873],[-1.099649,43.000097,899.185],[-1.099649,43.000048,899.513],[-1.099649,43.000008,899.809],[-1.099647,42.999952,899.898],[-1.099641,42.999885,899.892],[-1.099641,42.999838,899.641],[-1.099639,42.999793,899.687],[-1.09962,42.999767,900.014],[-1.09958,42.999726,901.137],[-1.099521,42.999675,902.172],[-1.099448,42.999622,903.11],[-1.099424,42.999581,903.182],[-1.099378,42.999544,903.947],[-1.099346,42.999501,904.229],[-1.099336,42.999471,904.021],[-1.099333,42.999426,904.009],[-1.099338,42.999375,905.055],[-1.099365,42.99936,904.779],[-1.0994,42.999317,905.148],[-1.099488,42.999285,904.724],[-1.099623,42.999242,904.991],[-1.099708,42.999187,906.354],[-1.099733,42.999168,906.869],[-1.099773,42.999144,907.267],[-1.0998,42.999132,907.369],[-1.099824,42.999117,907.542],[-1.099842,42.999101,907.822],[-1.099867,42.999087,907.914],[-1.099885,42.999071,908.209],[-1.099915,42.999056,908.265],[-1.099971,42.999024,908.239],[-1.100003,42.998995,908.558],[-1.100038,42.99897,908.234],[-1.100095,42.998932,907.891],[-1.10014,42.998897,907.734],[-1.10021,42.99885,907.599],[-1.100264,42.998807,907.677],[-1.100264,42.998807,907.629],[-1.100333,42.998784,907.125],[-1.100363,42.998749,908.026],[-1.100398,42.998725,908.508],[-1.100419,42.998702,909.209],[-1.100459,42.998682,909.643],[-1.100548,42.998659,909.517],[-1.10061,42.998641,910.056],[-1.100655,42.998619,910.842],[-1.10069,42.998617,910.719],[-1.100746,42.998592,911.192],[-1.100824,42.998572,911.187],[-1.100886,42.998564,910.965],[-1.100918,42.998553,911.087],[-1.100958,42.998537,911.285],[-1.100999,42.998517,911.489],[-1.101044,42.998502,911.417],[-1.101084,42.998453,912.109],[-1.101111,42.998419,912.579],[-1.101119,42.998378,912.993],[-1.101127,42.998365,912.882],[-1.101141,42.998331,912.778],[-1.10113,42.998296,912.385],[-1.101098,42.998253,912.168],[-1.101066,42.998219,911.593],[-1.101033,42.998184,910.811],[-1.10099,42.998143,909.943],[-1.101007,42.998114,909.025],[-1.101007,42.998098,908.626],[-1.101015,42.998082,908.108],[-1.10102,42.998061,907.509],[-1.101033,42.998049,906.963],[-1.10109,42.998047,906.717],[-1.101138,42.998039,905.676],[-1.101151,42.998035,905.132],[-1.10117,42.998027,904.489],[-1.10117,42.998008,903.682],[-1.10117,42.997974,902.297],[-1.101197,42.997963,901.375],[-1.101221,42.997953,900.687],[-1.101243,42.997939,899.886],[-1.101264,42.997923,899.06],[-1.101272,42.99791,898.626],[-1.101261,42.997882,897.809],[-1.101253,42.997863,897.259],[-1.101232,42.997831,896.313],[-1.101237,42.997818,895.882],[-1.101259,42.997788,894.968],[-1.101264,42.997759,893.785],[-1.101283,42.997733,892.858],[-1.101296,42.997714,892.193],[-1.101312,42.9977,891.871],[-1.10135,42.99769,891.963],[-1.101379,42.997671,891.863],[-1.101398,42.997661,891.244],[-1.101398,42.997643,890.818],[-1.101398,42.997631,890.409],[-1.101398,42.997612,889.947],[-1.101409,42.997594,889.021],[-1.101468,42.997575,886.73],[-1.101497,42.997553,885.456],[-1.101519,42.997531,884.693],[-1.101535,42.997498,883.886],[-1.101551,42.997451,882.181],[-1.101551,42.997433,881.689],[-1.101551,42.99741,880.911],[-1.101551,42.997392,880.482],[-1.101578,42.997389,880.243],[-1.101626,42.997383,879.917],[-1.101629,42.997377,879.809],[-1.101653,42.99735,879.439],[-1.101653,42.997321,879.033],[-1.101664,42.997303,878.832],[-1.101656,42.997289,878.618],[-1.101615,42.997311,878.685],[-1.101615,42.997303,878.498],[-1.101594,42.997246,877.063],[-1.101581,42.997213,875.861],[-1.101589,42.997195,875.473],[-1.101621,42.997181,875.594],[-1.101658,42.99715,874.857],[-1.101685,42.997124,873.422],[-1.101685,42.997099,872.309],[-1.101699,42.997075,871.16],[-1.101725,42.997058,870.064],[-1.101768,42.997052,869.243],[-1.101835,42.997048,868.139],[-1.1019,42.997042,867.066],[-1.101943,42.997052,866.699],[-1.101988,42.997077,866.094],[-1.102018,42.99713,865.952],[-1.10202,42.997091,865.484],[-1.102087,42.997099,864.023],[-1.102109,42.997091,863.583],[-1.102155,42.997068,862.411],[-1.102168,42.997056,862.109],[-1.102195,42.997044,861.563],[-1.102243,42.99704,860.697],[-1.102273,42.997036,860.056],[-1.102297,42.997028,859.582],[-1.102315,42.997003,859.119],[-1.102337,42.996977,858.642],[-1.102372,42.996919,858.647],[-1.102417,42.99686,859.585],[-1.102482,42.996762,860.867],[-1.102525,42.996713,861.215],[-1.102602,42.996625,861.265],[-1.102643,42.996578,861.011],[-1.102696,42.996509,860.709],[-1.102737,42.996454,860.392],[-1.102761,42.996421,860.186],[-1.102812,42.996342,860.225],[-1.102855,42.996285,860.241],[-1.102884,42.996252,860.038],[-1.102884,42.996207,860.571],[-1.102884,42.996166,860.946],[-1.1029,42.996136,860.894],[-1.1029,42.996123,860.996],[-1.1029,42.996119,861.066],[-1.102916,42.996089,860.729],[-1.102916,42.99605,861.021],[-1.10293,42.996007,860.809],[-1.102938,42.995958,860.827],[-1.102943,42.995923,860.921],[-1.102951,42.995893,860.88],[-1.102951,42.995854,861.026],[-1.102959,42.995819,861.123],[-1.102965,42.995791,861.316],[-1.10297,42.995772,861.561],[-1.102983,42.995744,861.569],[-1.103002,42.995713,861.321],[-1.103018,42.995695,861.085],[-1.103056,42.995652,860.389],[-1.103093,42.995601,860.317],[-1.103123,42.995572,860.109],[-1.103142,42.995529,860.319],[-1.103176,42.995482,860.123],[-1.103193,42.995454,860.032],[-1.103206,42.995417,860.128],[-1.103225,42.995388,859.765],[-1.103244,42.995348,859.438],[-1.103262,42.995311,859.013],[-1.103268,42.99526,859.361],[-1.1033,42.995207,858.533],[-1.103311,42.995154,858.895],[-1.103337,42.995084,858.749],[-1.103337,42.995027,859.523],[-1.103337,42.99498,859.809],[-1.103343,42.994941,859.45],[-1.103348,42.994882,858.944],[-1.103348,42.994788,858.233],[-1.103348,42.994741,857.939],[-1.103308,42.994656,857.616],[-1.103257,42.994562,857.149],[-1.103217,42.994501,856.894],[-1.103107,42.994402,857.432],[-1.103067,42.994339,857.054],[-1.102986,42.99427,857.233],[-1.102879,42.994178,856.923],[-1.102758,42.994078,857.415],[-1.102723,42.994017,857.009],[-1.10268,42.994017,857.524],[-1.102605,42.993951,856.648],[-1.102495,42.993898,855.447],[-1.102436,42.99386,856.493],[-1.102377,42.993841,857.29],[-1.102313,42.993796,857.353],[-1.10224,42.993764,856.958],[-1.102211,42.993749,856.656],[-1.102136,42.993725,856.678],[-1.102042,42.993704,856.934],[-1.101927,42.993676,857.155],[-1.101792,42.993639,857.51],[-1.101674,42.993609,857.909],[-1.101505,42.993568,858.794],[-1.101417,42.993545,858.998],[-1.101369,42.993521,858.817],[-1.101302,42.993485,859.153],[-1.101229,42.993427,858.65],[-1.101194,42.993383,857.663],[-1.101151,42.99335,857.198],[-1.101114,42.993309,856.586],[-1.101076,42.993231,856.528],[-1.101041,42.993201,857.557],[-1.101039,42.993154,857.0],[-1.101023,42.993109,857.32],[-1.10102,42.993058,856.909],[-1.101017,42.993027,857.736],[-1.10102,42.992964,858.93],[-1.101036,42.992927,858.719],[-1.101111,42.992844,855.155],[-1.101151,42.992776,855.672],[-1.101184,42.992746,857.135],[-1.101253,42.992701,858.39],[-1.101342,42.992644,858.888],[-1.101438,42.992589,858.76],[-1.101497,42.99257,858.481],[-1.101589,42.992539,857.361],[-1.101658,42.992507,856.217],[-1.10175,42.99247,856.609],[-1.101814,42.992437,857.559],[-1.101857,42.992421,857.633],[-1.101927,42.992382,858.322],[-1.101967,42.992358,858.878],[-1.102026,42.992342,858.535],[-1.102079,42.992309,858.678],[-1.102125,42.99229,858.223],[-1.102176,42.992266,857.571],[-1.102224,42.992252,856.473],[-1.102265,42.992227,856.219],[-1.102326,42.992203,855.909],[-1.102374,42.992182,855.819],[-1.102399,42.99216,856.209],[-1.102509,42.992048,857.542],[-1.102594,42.99196,858.616],[-1.102645,42.991899,859.745],[-1.10271,42.99185,860.121],[-1.102809,42.991788,860.168],[-1.102873,42.991729,861.121],[-1.102965,42.99167,861.556],[-1.103007,42.991619,862.514],[-1.10312,42.991556,862.286],[-1.103174,42.991503,862.794],[-1.103219,42.991478,862.457],[-1.103262,42.991462,861.822],[-1.103308,42.991399,862.409],[-1.103378,42.991323,863.12],[-1.103466,42.991211,864.364],[-1.103506,42.99117,864.483],[-1.103563,42.991115,864.349],[-1.10363,42.991052,864.626],[-1.1037,42.990982,865.379],[-1.103777,42.990907,865.714],[-1.103852,42.990833,866.162],[-1.103893,42.990784,867.044],[-1.103946,42.990731,867.638],[-1.103992,42.990686,868.07],[-1.104088,42.990629,867.417],[-1.104196,42.990564,866.709],[-1.104324,42.990482,866.594],[-1.104442,42.990398,867.078],[-1.104536,42.990335,867.297],[-1.10463,42.990256,867.743],[-1.104705,42.9902,867.12],[-1.104778,42.990139,866.113],[-1.10485,42.990049,866.298],[-1.104909,42.989992,865.856],[-1.104952,42.989941,865.338],[-1.104971,42.989917,865.156],[-1.105008,42.989857,865.359],[-1.105051,42.989813,864.714],[-1.105092,42.989774,864.109],[-1.105172,42.989708,862.586],[-1.105204,42.989657,862.64],[-1.105247,42.989611,862.369],[-1.105274,42.989568,862.675],[-1.105306,42.989539,862.242],[-1.10533,42.989511,862.155],[-1.105371,42.989476,861.52],[-1.105416,42.989441,860.648],[-1.105464,42.989411,859.37],[-1.105489,42.989372,859.284],[-1.105523,42.989335,858.907],[-1.105572,42.989276,858.717],[-1.105617,42.989233,858.109],[-1.105652,42.989188,857.889],[-1.105684,42.989155,857.123],[-1.105741,42.989098,855.672],[-1.105789,42.989039,854.888],[-1.105826,42.988957,855.075],[-1.105835,42.988888,855.918],[-1.105853,42.988782,854.053],[-1.105821,42.98871,853.771],[-1.105751,42.988584,853.273],[-1.105687,42.988531,853.263],[-1.105679,42.988498,852.644],[-1.105778,42.988508,851.318],[-1.105961,42.988517,849.709],[-1.106148,42.988559,848.627],[-1.106438,42.988735,848.541],[-1.106591,42.98879,849.74],[-1.106604,42.98889,850.886],[-1.106505,42.989039,851.233]]}}]}