{"type":"FeatureCollection","features":[{"type":"Feature","properties":{"ruta_id":"155920143","nombre":"MENDATAGAINA y MIRADOR DE ITXASPE desde ITXASPE","blog_url":"https://www.rutasporelmonte.com/mendatagaina-desde-itxaspe-ruta-circular/"},"geometry":{"type":"LineString","coordinates":[[-2.329607,43.293858,154.045],[-2.329675,43.293885,155.147],[-2.329745,43.293928,155.511],[-2.32981,43.29395,158.509],[-2.329875,43.293962,160.415],[-2.329817,43.293982,162.099],[-2.3298,43.294032,162.169],[-2.329798,43.294084,161.933],[-2.329791,43.294141,161.996],[-2.329786,43.294186,161.514],[-2.329784,43.294238,160.485],[-2.329797,43.294295,159.198],[-2.32982,43.294342,159.037],[-2.329845,43.294392,158.483],[-2.329872,43.294434,158.025],[-2.329919,43.294484,157.817],[-2.329979,43.294524,157.209],[-2.330019,43.294567,156.879],[-2.330082,43.294599,156.113],[-2.330135,43.294626,155.793],[-2.330185,43.294659,154.967],[-2.330237,43.294689,154.73],[-2.330279,43.294722,154.768],[-2.330316,43.294764,154.729],[-2.330351,43.294806,154.732],[-2.330379,43.294856,150.361],[-2.330399,43.294911,150.171],[-2.330409,43.294958,149.241],[-2.330432,43.295005,146.815],[-2.33045,43.295065,146.409],[-2.33048,43.295107,146.048],[-2.33049,43.295155,145.512],[-2.330517,43.295212,144.952],[-2.330545,43.295265,143.556],[-2.33058,43.295308,141.889],[-2.33061,43.295348,140.997],[-2.330648,43.295398,139.278],[-2.330681,43.295441,137.961],[-2.330709,43.295493,137.47],[-2.330732,43.295538,136.433],[-2.330764,43.295578,136.123],[-2.330811,43.295631,135.415],[-2.330856,43.295663,134.509],[-2.330886,43.295715,134.574],[-2.330946,43.295738,134.588],[-2.330964,43.295793,134.438],[-2.331014,43.295825,134.422],[-2.331036,43.295868,132.745],[-2.331053,43.295923,131.993],[-2.331111,43.295951,131.944],[-2.331188,43.295956,132.177],[-2.331245,43.295988,132.446],[-2.33129,43.296031,132.495],[-2.331347,43.296068,132.449],[-2.331397,43.296098,131.823],[-2.331422,43.29615,130.309],[-2.331455,43.29619,129.98],[-2.331483,43.296245,129.564],[-2.331495,43.296302,127.934],[-2.331512,43.29636,126.858],[-2.33154,43.29641,125.451],[-2.331577,43.29646,123.739],[-2.33159,43.296512,122.58],[-2.33165,43.296574,122.753],[-2.33166,43.296624,122.542],[-2.331698,43.296674,122.516],[-2.33173,43.296717,121.676],[-2.331793,43.296739,120.213],[-2.331846,43.296766,119.309],[-2.331906,43.296796,117.972],[-2.331958,43.296833,117.956],[-2.332018,43.29685,117.786],[-2.332053,43.29689,117.73],[-2.33208,43.296932,117.643],[-2.332102,43.29698,117.461],[-2.332099,43.297028,117.092],[-2.332072,43.297078,116.565],[-2.332042,43.297133,114.124],[-2.332022,43.297183,112.639],[-2.331997,43.297228,108.401],[-2.33195,43.297281,106.321],[-2.331947,43.297326,106.009],[-2.331947,43.297376,105.584],[-2.33194,43.297423,105.018],[-2.331965,43.297473,104.688],[-2.332025,43.297503,102.582],[-2.332077,43.29753,100.615],[-2.332135,43.297553,99.293],[-2.332197,43.297586,96.174],[-2.332249,43.297619,95.497],[-2.332294,43.297657,94.346],[-2.332347,43.297695,93.992],[-2.332394,43.297735,92.073],[-2.332367,43.297693,88.02],[-2.332429,43.297728,86.509],[-2.332451,43.297775,86.59],[-2.332463,43.29783,86.574],[-2.332453,43.297882,86.564],[-2.33245,43.29793,86.548],[-2.33241,43.297965,92.541],[-2.33245,43.298038,92.999],[-2.332475,43.29808,92.88],[-2.332478,43.298135,92.783],[-2.332453,43.298192,91.382],[-2.332406,43.298235,89.462],[-2.332356,43.298277,87.983],[-2.332306,43.298317,87.011],[-2.332246,43.29833,86.609],[-2.332181,43.298337,83.697],[-2.332118,43.298314,81.711],[-2.332051,43.298329,80.991],[-2.332044,43.298277,79.795],[-2.331984,43.298294,79.738],[-2.331987,43.298247,79.736],[-2.331954,43.298202,79.717],[-2.331926,43.298155,79.78],[-2.331871,43.298127,77.569],[-2.331813,43.298095,75.661],[-2.331746,43.298068,73.221],[-2.331674,43.298043,71.313],[-2.331609,43.298048,70.609],[-2.331572,43.298096,70.317],[-2.331534,43.298138,69.641],[-2.331496,43.298176,69.311],[-2.331471,43.298219,69.035],[-2.331413,43.298241,68.838],[-2.33137,43.298289,67.126],[-2.331317,43.298329,63.787],[-2.33135,43.298284,54.14],[-2.331312,43.298327,52.829],[-2.331242,43.29831,52.855],[-2.331184,43.298327,51.407],[-2.331117,43.298344,51.417],[-2.331055,43.298334,51.709],[-2.330997,43.298304,52.256],[-2.330927,43.298296,52.41],[-2.33088,43.298266,52.82],[-2.330835,43.298233,52.444],[-2.33078,43.298206,51.797],[-2.330717,43.298181,51.445],[-2.330679,43.298139,51.236],[-2.330651,43.298189,44.349],[-2.330639,43.298249,44.038],[-2.330607,43.298291,43.717],[-2.330617,43.298344,43.587],[-2.330607,43.298389,42.815],[-2.33054,43.298389,37.809],[-2.330528,43.298334,34.022],[-2.33056,43.298289,32.466],[-2.330593,43.298246,32.466],[-2.330608,43.298188,32.46],[-2.330621,43.298136,32.443],[-2.330664,43.298091,35.191],[-2.330676,43.298044,35.392],[-2.330629,43.298006,36.475],[-2.330587,43.297971,37.164],[-2.330529,43.297949,37.754],[-2.330452,43.297921,37.656],[-2.33038,43.297904,37.711],[-2.330318,43.297896,37.809],[-2.330253,43.297871,37.176],[-2.330188,43.297853,35.56],[-2.330146,43.297806,34.64],[-2.330083,43.297784,33.134],[-2.330018,43.297779,32.447],[-2.329948,43.297747,31.015],[-2.329886,43.297715,29.896],[-2.329829,43.297678,29.869],[-2.329784,43.297643,29.948],[-2.329722,43.297631,31.219],[-2.329679,43.297598,34.209],[-2.329627,43.297566,36.319],[-2.329589,43.297521,37.409],[-2.329534,43.297483,38.162],[-2.329467,43.297473,40.316],[-2.329419,43.297438,41.026],[-2.329371,43.29739,41.23],[-2.329331,43.297343,41.363],[-2.329264,43.297331,40.991],[-2.329197,43.297306,40.722],[-2.329139,43.297263,40.675],[-2.329099,43.297223,40.544],[-2.329057,43.297181,40.474],[-2.329025,43.297141,40.556],[-2.328987,43.297104,37.821],[-2.328925,43.297066,37.609],[-2.328873,43.297031,37.988],[-2.328825,43.296998,37.912],[-2.328787,43.296961,38.092],[-2.328734,43.296924,38.456],[-2.328687,43.296894,38.539],[-2.32866,43.296847,38.667],[-2.328607,43.296814,38.718],[-2.328549,43.296789,38.741],[-2.328494,43.296754,38.56],[-2.328444,43.296716,38.496],[-2.328389,43.296681,38.231],[-2.328349,43.296646,37.824],[-2.328301,43.296608,37.609],[-2.328256,43.296568,37.41],[-2.328204,43.296536,37.194],[-2.328147,43.296508,36.814],[-2.328102,43.296473,36.878],[-2.328054,43.296445,36.891],[-2.328001,43.29641,36.819],[-2.327954,43.296372,37.01],[-2.327904,43.296339,37.453],[-2.327867,43.296302,38.562],[-2.3278,43.296284,38.883],[-2.327742,43.296259,38.925],[-2.327685,43.296227,39.017],[-2.327635,43.296192,39.309],[-2.32759,43.296157,39.429],[-2.327547,43.296124,39.513],[-2.327487,43.296097,38.733],[-2.32742,43.296072,38.477],[-2.327358,43.296057,38.45],[-2.327306,43.296022,38.438],[-2.327241,43.296002,39.169],[-2.327174,43.295997,39.582],[-2.327114,43.29598,39.821],[-2.327042,43.29597,40.889],[-2.326982,43.29595,42.406],[-2.326905,43.295938,42.926],[-2.326832,43.295928,42.909],[-2.326765,43.29592,42.999],[-2.326717,43.295888,42.363],[-2.326655,43.295876,41.943],[-2.326583,43.295856,41.687],[-2.326518,43.295849,41.61],[-2.326443,43.295851,41.618],[-2.32638,43.295851,42.549],[-2.326307,43.295839,43.182],[-2.326224,43.295837,43.661],[-2.326162,43.29584,44.192],[-2.3261,43.295837,44.173],[-2.326027,43.295832,44.12],[-2.325952,43.295822,44.109],[-2.325879,43.29581,43.68],[-2.325807,43.295803,43.634],[-2.325739,43.295806,43.334],[-2.325669,43.295791,43.198],[-2.325596,43.295784,43.131],[-2.325534,43.295789,43.179],[-2.325469,43.295789,43.14],[-2.325401,43.295779,43.223],[-2.325331,43.295769,43.692],[-2.325266,43.295772,44.957],[-2.325204,43.295779,46.6],[-2.325142,43.295766,55.82],[-2.324692,43.295634,54.109],[-2.324617,43.295626,51.566],[-2.324549,43.295638,48.02],[-2.324479,43.295643,46.07],[-2.324409,43.295621,45.154],[-2.324331,43.295614,45.177],[-2.324248,43.295604,45.085],[-2.324185,43.295599,44.656],[-2.324105,43.295597,42.459],[-2.324033,43.295574,42.458],[-2.323966,43.295556,42.495],[-2.323901,43.295561,42.449],[-2.323834,43.295548,42.423],[-2.323764,43.295531,44.409],[-2.323696,43.295518,45.19],[-2.323628,43.295503,45.944],[-2.323553,43.295493,46.044],[-2.323501,43.295465,46.358],[-2.323439,43.29547,45.041],[-2.323386,43.295432,45.689],[-2.323316,43.295427,45.66],[-2.323254,43.295424,45.663],[-2.323174,43.295404,48.522],[-2.323114,43.295386,51.175],[-2.323042,43.295356,51.228],[-2.322974,43.295338,49.22],[-2.322886,43.295311,48.909],[-2.322808,43.295273,47.818],[-2.32273,43.295241,46.822],[-2.322655,43.295226,46.832],[-2.322592,43.295216,46.366],[-2.322524,43.295196,46.359],[-2.322446,43.295184,46.177],[-2.322383,43.295179,46.288],[-2.322321,43.295174,49.581],[-2.322323,43.295117,49.89],[-2.322345,43.295072,50.011],[-2.32241,43.295052,51.421],[-2.322473,43.295035,52.303],[-2.322538,43.295025,52.009],[-2.322611,43.295042,52.982],[-2.322686,43.295074,57.296],[-2.322716,43.295034,57.476],[-2.322726,43.294989,57.61],[-2.322759,43.294947,57.853],[-2.322807,43.294909,58.691],[-2.322859,43.294879,59.472],[-2.322887,43.294827,60.225],[-2.322899,43.294774,61.954],[-2.322937,43.294732,63.596],[-2.322969,43.294675,63.731],[-2.323019,43.294643,63.924],[-2.323079,43.294631,64.409],[-2.323139,43.294609,67.86],[-2.323204,43.294586,71.284],[-2.323274,43.294588,74.914],[-2.323339,43.294583,76.418],[-2.323399,43.294556,83.351],[-2.323452,43.294518,85.989],[-2.323512,43.29448,85.99],[-2.323579,43.29445,83.283],[-2.323664,43.29446,72.952],[-2.323629,43.294415,72.868],[-2.323606,43.29437,73.942],[-2.323569,43.294408,77.926],[-2.323521,43.294438,78.709],[-2.323503,43.294483,79.697],[-2.323575,43.29446,83.951],[-2.323645,43.294435,84.591],[-2.323698,43.294392,84.555],[-2.323626,43.294379,82.038],[-2.323596,43.294337,81.936],[-2.323543,43.294314,81.547],[-2.323481,43.294296,81.49],[-2.323434,43.294264,80.829],[-2.323382,43.294232,80.711],[-2.323319,43.29421,80.821],[-2.323247,43.294203,80.903],[-2.323197,43.294175,81.109],[-2.323134,43.294158,81.662],[-2.323076,43.294138,82.346],[-2.323019,43.294108,83.976],[-2.322946,43.294096,85.56],[-2.322873,43.294078,86.373],[-2.322801,43.294091,86.771],[-2.322743,43.294073,86.562],[-2.32268,43.294075,86.745],[-2.322627,43.294045,86.594],[-2.322564,43.294032,86.449],[-2.322497,43.29404,86.302],[-2.322429,43.29403,86.422],[-2.322367,43.294013,86.509],[-2.322372,43.293941,90.555],[-2.322327,43.293899,90.999],[-2.322304,43.293852,90.529],[-2.322296,43.293802,89.823],[-2.322283,43.293755,89.466],[-2.322246,43.293797,89.324],[-2.322173,43.293802,89.825],[-2.322098,43.293787,94.358],[-2.322036,43.293767,96.667],[-2.321973,43.293767,98.547],[-2.321911,43.293772,98.529],[-2.321836,43.293765,98.021],[-2.321769,43.293762,97.509],[-2.321707,43.29374,97.415],[-2.32164,43.293743,97.579],[-2.321575,43.293745,98.019],[-2.321517,43.29376,99.583],[-2.321449,43.293767,100.656],[-2.321401,43.293739,102.294],[-2.321333,43.293736,103.385],[-2.321265,43.293741,103.598],[-2.321208,43.293723,103.787],[-2.32115,43.29374,105.085],[-2.3211,43.293772,107.889],[-2.321083,43.293825,110.517],[-2.321078,43.29387,110.709],[-2.321065,43.293915,110.799],[-2.321038,43.293958,110.773],[-2.320998,43.293998,112.213],[-2.320981,43.294043,114.617],[-2.320981,43.294088,115.22],[-2.320961,43.29414,115.488],[-2.320941,43.294183,115.549],[-2.320949,43.294228,115.972],[-2.320952,43.294278,117.171],[-2.320962,43.29433,117.325],[-2.32097,43.29438,117.426],[-2.320982,43.294425,117.508],[-2.321002,43.294468,117.909],[-2.32103,43.294508,118.363],[-2.321052,43.294555,118.277],[-2.321042,43.294605,118.127],[-2.321047,43.29466,116.561],[-2.321035,43.294705,115.344],[-2.321023,43.294752,115.082],[-2.321005,43.2948,114.143],[-2.320965,43.29484,113.746],[-2.320923,43.294878,112.565],[-2.32088,43.294916,111.897],[-2.320878,43.294961,110.323],[-2.320865,43.295006,110.025],[-2.320848,43.295049,110.709],[-2.320798,43.295079,112.25],[-2.320758,43.295121,112.344],[-2.320698,43.295151,112.674],[-2.320653,43.295188,113.398],[-2.320605,43.29522,113.041],[-2.320543,43.295242,121.139],[-2.320501,43.295275,121.12],[-2.320463,43.295312,121.123],[-2.320408,43.295344,121.752],[-2.320353,43.295381,121.772],[-2.320305,43.295418,121.213],[-2.320255,43.295448,122.814],[-2.320208,43.295485,123.309],[-2.320173,43.295525,124.118],[-2.320133,43.29556,124.562],[-2.320095,43.295608,125.942],[-2.320065,43.295656,126.926],[-2.32004,43.295701,127.059],[-2.320012,43.295746,126.917],[-2.319982,43.295796,127.028],[-2.31995,43.295841,126.231],[-2.319932,43.295888,125.75],[-2.319932,43.295941,125.556],[-2.319922,43.295989,125.559],[-2.319922,43.296039,125.514],[-2.319932,43.296084,126.309],[-2.319957,43.296134,128.696],[-2.319995,43.296172,129.59],[-2.320047,43.296202,133.46],[-2.320004,43.296235,130.174],[-2.320061,43.296212,130.137],[-2.320009,43.296237,131.165],[-2.320054,43.296205,132.016],[-2.320002,43.296177,136.459],[-2.319972,43.296127,136.498],[-2.31994,43.296082,136.441],[-2.319952,43.296032,133.681],[-2.319934,43.295987,133.409],[-2.319931,43.295939,133.409],[-2.319936,43.295887,132.835],[-2.319951,43.29584,132.529],[-2.319984,43.295795,132.239],[-2.320029,43.295742,128.883],[-2.320049,43.295694,128.296],[-2.320074,43.295649,127.494],[-2.320107,43.295606,126.975],[-2.320132,43.295556,126.738],[-2.32017,43.295513,126.077],[-2.320217,43.295483,126.061],[-2.320254,43.295436,126.021],[-2.320306,43.295404,126.013],[-2.320364,43.295374,126.009],[-2.320421,43.295352,126.087],[-2.320473,43.295315,126.581],[-2.320528,43.295275,124.491],[-2.320575,43.295238,122.665],[-2.320607,43.295196,121.718],[-2.320667,43.295171,121.476],[-2.320715,43.295141,121.267],[-2.32077,43.295113,119.62],[-2.3208,43.295071,118.069],[-2.320825,43.295029,117.188],[-2.320887,43.294964,116.124],[-2.32089,43.294914,115.626],[-2.32091,43.294859,115.409],[-2.320947,43.294817,115.359],[-2.320994,43.294777,113.163],[-2.321042,43.294745,112.753],[-2.321057,43.2947,112.687],[-2.32107,43.294655,112.46],[-2.321053,43.294612,112.338],[-2.321061,43.294565,112.039],[-2.321051,43.294512,112.072],[-2.321031,43.294469,112.341],[-2.320998,43.294427,112.543],[-2.32097,43.294385,114.364],[-2.320942,43.294343,114.71],[-2.320927,43.294293,115.709],[-2.320929,43.294248,117.365],[-2.320914,43.294196,117.439],[-2.320929,43.294143,117.519],[-2.320936,43.29409,117.613],[-2.320948,43.294042,117.736],[-2.320971,43.293997,117.844],[-2.320999,43.29395,117.815],[-2.321027,43.293905,117.898],[-2.321045,43.293855,117.687],[-2.321067,43.293812,116.577],[-2.321075,43.293767,113.661],[-2.321103,43.293715,111.927],[-2.321136,43.293672,110.809],[-2.321196,43.293627,111.318],[-2.321244,43.293589,111.162],[-2.321291,43.293544,111.882],[-2.321336,43.293512,112.286],[-2.321388,43.29348,112.259],[-2.321411,43.293433,113.927],[-2.321433,43.29339,114.828],[-2.321475,43.293348,116.511],[-2.321525,43.293315,116.69],[-2.321588,43.293295,117.096],[-2.321651,43.293278,122.631],[-2.321713,43.293261,124.024],[-2.321776,43.293248,124.409],[-2.321838,43.293236,124.71],[-2.32191,43.293219,125.134],[-2.321967,43.293187,125.184],[-2.321982,43.293142,125.438],[-2.321975,43.29309,126.631],[-2.321952,43.293048,127.899],[-2.321934,43.293005,128.14],[-2.321909,43.292963,129.013],[-2.321889,43.292918,129.582],[-2.321869,43.29287,130.151],[-2.321851,43.292823,135.001],[-2.321819,43.292775,135.511],[-2.321797,43.292732,135.509],[-2.321769,43.292682,135.576],[-2.321746,43.292639,139.39],[-2.321749,43.292586,141.91],[-2.321732,43.292541,142.644],[-2.32174,43.292491,142.927],[-2.321765,43.292443,143.045],[-2.321822,43.292415,143.786],[-2.321872,43.292382,144.499],[-2.321934,43.292355,144.638],[-2.322009,43.292348,145.071],[-2.322069,43.292318,146.341],[-2.322131,43.29231,148.415],[-2.322191,43.292283,149.009],[-2.322253,43.29226,149.358],[-2.322315,43.292238,150.772],[-2.32237,43.292213,152.662],[-2.322425,43.292186,154.116],[-2.322473,43.292153,154.119],[-2.322541,43.292131,154.357],[-2.322596,43.292094,154.118],[-2.322638,43.292054,153.971],[-2.322675,43.292017,153.92],[-2.322723,43.291987,154.173],[-2.322766,43.291952,153.785],[-2.322831,43.291925,154.213],[-2.322881,43.291887,155.209],[-2.322951,43.291869,157.778],[-2.323026,43.291864,159.162],[-2.323099,43.291864,159.272],[-2.323162,43.291852,159.516],[-2.323229,43.291842,159.699],[-2.323297,43.291824,160.397],[-2.323367,43.291822,162.668],[-2.323425,43.291797,164.921],[-2.323483,43.291782,165.94],[-2.32354,43.291747,166.253],[-2.32361,43.29172,166.604],[-2.323657,43.291685,165.714],[-2.323672,43.29164,162.409],[-2.32374,43.291633,164.366],[-2.323782,43.291598,166.85],[-2.323819,43.291558,168.37],[-2.323861,43.291518,168.314],[-2.323924,43.29149,168.317],[-2.323986,43.291477,168.675],[-2.324059,43.291472,168.886],[-2.324121,43.291469,169.119],[-2.324189,43.291477,169.618],[-2.324266,43.291482,173.654],[-2.324338,43.291495,175.556],[-2.324408,43.291503,177.811],[-2.32448,43.291515,179.209],[-2.324552,43.291527,179.496],[-2.324625,43.29153,179.93],[-2.324688,43.291542,180.19],[-2.32477,43.291552,180.924],[-2.324822,43.291522,180.997],[-2.32487,43.291482,180.955],[-2.324887,43.291424,180.996],[-2.32489,43.291376,180.959],[-2.324932,43.291331,181.398],[-2.324965,43.291284,182.277],[-2.324995,43.291236,182.461],[-2.32502,43.291189,182.427],[-2.325055,43.291142,181.309],[-2.325098,43.291099,180.198],[-2.325138,43.291064,180.172],[-2.32518,43.291019,180.182],[-2.325202,43.290971,180.366],[-2.32526,43.290931,180.529],[-2.3253,43.290893,180.587],[-2.325333,43.29085,180.578],[-2.325361,43.290798,180.471],[-2.325394,43.290756,180.47],[-2.325439,43.290716,180.698],[-2.325461,43.290668,180.815],[-2.325516,43.290633,182.626],[-2.325554,43.290596,183.209],[-2.325599,43.290551,184.84],[-2.325627,43.290511,185.224],[-2.325665,43.290471,185.924],[-2.325702,43.290424,186.148],[-2.32574,43.290386,186.411],[-2.325757,43.290328,186.589],[-2.32581,43.290291,187.17],[-2.325845,43.290246,187.133],[-2.325883,43.290201,187.092],[-2.325936,43.290159,187.195],[-2.325979,43.290119,187.149],[-2.326019,43.290079,187.223],[-2.326059,43.290032,187.609],[-2.326092,43.28999,189.25],[-2.326132,43.28995,189.644],[-2.326149,43.2899,189.524],[-2.326176,43.28985,189.718],[-2.326213,43.289798,189.651],[-2.326236,43.289756,189.629],[-2.326259,43.289711,189.72],[-2.326302,43.289668,190.653],[-2.326322,43.28962,191.072],[-2.326367,43.289568,191.234],[-2.326405,43.289526,191.555],[-2.326442,43.289486,191.61],[-2.32647,43.289446,191.809],[-2.326493,43.289399,192.084],[-2.326523,43.289342,192.028],[-2.326561,43.289287,191.958],[-2.326578,43.28923,191.622],[-2.326625,43.28919,190.685],[-2.326658,43.289133,189.383],[-2.326686,43.28908,189.114],[-2.326723,43.289035,189.227],[-2.32676,43.28899,190.056],[-2.32679,43.28894,191.156],[-2.326818,43.288893,191.159],[-2.326846,43.288833,191.114],[-2.326878,43.288785,191.109],[-2.326915,43.28874,190.896],[-2.326937,43.288693,190.49],[-2.326962,43.288643,190.27],[-2.327,43.288605,190.034],[-2.327017,43.288555,189.097],[-2.327065,43.288512,186.945],[-2.327125,43.28849,186.886],[-2.327205,43.288505,186.769],[-2.327302,43.288538,186.998],[-2.32739,43.288556,186.931],[-2.327475,43.288561,188.061],[-2.327543,43.288568,187.207],[-2.32762,43.288551,186.009],[-2.327698,43.288564,185.324],[-2.327751,43.288589,184.428],[-2.327794,43.288629,183.758],[-2.327797,43.288682,183.062],[-2.32783,43.28873,181.735],[-2.32784,43.288787,181.143],[-2.327833,43.288834,181.054],[-2.327811,43.288882,180.967],[-2.327796,43.28893,180.676],[-2.327773,43.288973,180.488],[-2.327766,43.28903,178.624],[-2.327758,43.289082,178.326],[-2.327738,43.289125,178.109],[-2.327723,43.289177,178.029],[-2.327703,43.289222,178.043],[-2.327685,43.28927,177.983],[-2.327663,43.289318,176.767],[-2.327663,43.28937,176.13],[-2.327671,43.289418,175.388],[-2.327686,43.289471,174.619],[-2.327701,43.289521,174.612],[-2.327758,43.289556,174.251],[-2.327806,43.289593,174.248],[-2.327858,43.289635,174.261],[-2.3279,43.289668,173.917],[-2.327937,43.289708,173.409],[-2.327987,43.289738,172.565],[-2.32803,43.289771,172.139],[-2.328083,43.289799,171.799],[-2.328138,43.289841,171.523],[-2.328191,43.289871,171.246],[-2.328241,43.289901,170.574],[-2.328293,43.289939,169.555],[-2.328343,43.289972,169.178],[-2.328391,43.290012,167.787],[-2.328446,43.290049,167.178],[-2.328498,43.290081,166.533],[-2.328533,43.290124,166.426],[-2.328563,43.290169,166.109],[-2.328576,43.290219,165.798],[-2.328593,43.290262,164.752],[-2.32862,43.290315,164.252],[-2.328653,43.29036,163.526],[-2.328681,43.290403,163.319],[-2.328711,43.29046,162.967],[-2.328731,43.290503,162.988],[-2.328749,43.290555,163.331],[-2.328771,43.290598,163.77],[-2.328778,43.290646,165.341],[-2.328818,43.290686,166.081],[-2.328825,43.290731,166.109],[-2.328843,43.290791,166.309],[-2.328861,43.290843,166.625],[-2.328884,43.29089,166.649],[-2.328904,43.290937,167.239],[-2.328927,43.290987,167.473],[-2.328954,43.291035,167.596],[-2.328972,43.291087,167.574],[-2.328995,43.291139,168.715],[-2.32902,43.291186,169.438],[-2.32904,43.291239,169.977],[-2.329077,43.291276,170.059],[-2.32911,43.291316,170.003],[-2.329123,43.291363,170.023],[-2.32914,43.291408,169.709],[-2.329177,43.291461,169.756],[-2.329194,43.291508,169.78],[-2.329214,43.291558,169.89],[-2.329234,43.291615,169.844],[-2.329264,43.29167,169.827],[-2.329292,43.291717,169.045],[-2.329317,43.291774,168.936],[-2.329344,43.291819,168.579],[-2.329356,43.291867,168.458],[-2.329384,43.291922,168.421],[-2.329406,43.29197,168.441],[-2.329428,43.292022,168.405],[-2.329446,43.292072,168.409],[-2.329459,43.292122,168.263],[-2.329472,43.292167,168.167],[-2.329487,43.292217,167.897],[-2.329507,43.292269,167.281],[-2.329534,43.292317,167.064],[-2.329544,43.292362,166.922],[-2.329556,43.292407,166.833],[-2.329558,43.292454,166.826],[-2.32956,43.292502,166.735],[-2.329573,43.292552,166.768],[-2.32959,43.292604,166.742],[-2.329613,43.292649,166.626],[-2.329623,43.292704,166.509],[-2.329633,43.292751,166.587],[-2.329641,43.292798,166.371],[-2.329661,43.292851,165.711],[-2.329674,43.292899,165.775],[-2.329696,43.292942,165.778],[-2.329711,43.292995,165.476],[-2.329726,43.293047,165.427],[-2.329739,43.293094,165.23],[-2.329761,43.293144,164.999],[-2.329788,43.293201,163.899],[-2.329806,43.293258,162.707],[-2.329821,43.293308,162.727],[-2.329833,43.293363,162.709],[-2.329828,43.293413,163.48],[-2.329831,43.293458,163.814],[-2.329834,43.293508,163.894],[-2.329837,43.293565,163.898],[-2.329837,43.29362,163.231],[-2.329832,43.293673,162.689],[-2.329817,43.29372,162.55],[-2.329817,43.293777,162.283],[-2.329834,43.293829,161.522],[-2.329842,43.293877,160.913]]}}]}