{"type":"FeatureCollection","features":[{"type":"Feature","properties":{"ruta_id":"31546490","nombre":"Circular Eskas-Artikutza-Eskas","blog_url":"https://www.rutasporelmonte.com/circular-eskas-artikutza-eskas/"},"geometry":{"type":"LineString","coordinates":[[-1.803534,43.238811,643.8],[-1.803541,43.238783,643.4],[-1.803548,43.238752,643.3],[-1.803561,43.238718,643.2],[-1.803576,43.23869,643.1],[-1.803594,43.238654,643.0],[-1.803612,43.238619,642.9],[-1.80362,43.238586,642.7],[-1.803613,43.238553,642.6],[-1.803609,43.238523,642.5],[-1.803601,43.238487,642.4],[-1.803597,43.238461,642.3],[-1.803583,43.238426,642.1],[-1.803581,43.238397,642.0],[-1.803594,43.23835,641.8],[-1.803597,43.238318,641.6],[-1.803604,43.238288,641.5],[-1.803628,43.238265,641.3],[-1.803639,43.238231,641.2],[-1.803638,43.238198,641.0],[-1.803662,43.238176,640.9],[-1.803685,43.238149,640.7],[-1.803703,43.23812,640.5],[-1.803723,43.238077,640.3],[-1.80374,43.238039,640.1],[-1.803755,43.238003,639.9],[-1.803761,43.237973,639.8],[-1.803749,43.237935,639.6],[-1.80374,43.237906,639.5],[-1.803748,43.237878,639.3],[-1.803758,43.237848,639.2],[-1.803763,43.237821,639.1],[-1.803776,43.237795,638.9],[-1.80379,43.237766,638.8],[-1.803798,43.237737,638.6],[-1.803803,43.237701,638.5],[-1.803807,43.237672,638.3],[-1.803816,43.23764,638.2],[-1.803812,43.237593,638.0],[-1.803807,43.23756,637.8],[-1.803808,43.237531,637.7],[-1.803808,43.237499,637.5],[-1.803828,43.237473,637.4],[-1.803849,43.237436,637.2],[-1.803859,43.237397,637.0],[-1.803853,43.237357,636.7],[-1.803857,43.237322,636.5],[-1.803866,43.237273,636.3],[-1.803872,43.237246,636.1],[-1.80389,43.237223,636.0],[-1.803918,43.237203,635.8],[-1.803929,43.237175,635.6],[-1.80393,43.237137,635.4],[-1.803925,43.237101,635.2],[-1.803923,43.237068,635.0],[-1.803925,43.237039,634.8],[-1.803936,43.237008,634.6],[-1.803947,43.236977,634.4],[-1.803954,43.236948,634.2],[-1.803954,43.236917,634.0],[-1.803954,43.236888,633.8],[-1.803969,43.236855,633.6],[-1.803983,43.236818,633.4],[-1.803997,43.236786,633.1],[-1.804015,43.236759,632.9],[-1.804043,43.236734,632.7],[-1.80406,43.236703,632.5],[-1.804065,43.236669,632.3],[-1.804091,43.236631,632.0],[-1.804113,43.23659,631.7],[-1.804121,43.236555,631.4],[-1.804127,43.236522,631.2],[-1.80413,43.236491,631.0],[-1.804141,43.236464,630.8],[-1.804133,43.236428,630.6],[-1.804126,43.236394,630.3],[-1.804126,43.236359,630.1],[-1.804129,43.236327,629.9],[-1.804145,43.236296,629.7],[-1.804179,43.236276,629.5],[-1.804201,43.23625,629.3],[-1.804216,43.236217,629.0],[-1.804222,43.236184,628.8],[-1.804232,43.236151,628.6],[-1.804242,43.236113,628.4],[-1.804257,43.236076,628.2],[-1.804276,43.236039,627.9],[-1.804292,43.235999,627.7],[-1.804312,43.235971,627.5],[-1.804333,43.23594,627.3],[-1.804337,43.235905,627.1],[-1.804343,43.235875,627.0],[-1.804374,43.235852,626.8],[-1.804403,43.235832,626.6],[-1.804418,43.235804,626.4],[-1.80445,43.235774,626.2],[-1.804454,43.235737,626.0],[-1.804466,43.235709,625.9],[-1.804498,43.23568,625.6],[-1.80454,43.235644,623.2],[-1.80456,43.23562,622.6],[-1.804577,43.235587,621.7],[-1.804605,43.235554,620.8],[-1.80463,43.235531,620.1],[-1.804593,43.23553,619.6],[-1.804557,43.235526,619.2],[-1.804509,43.235536,618.5],[-1.804475,43.235499,617.8],[-1.804474,43.235471,617.4],[-1.804493,43.235422,616.8],[-1.804516,43.235376,616.2],[-1.804525,43.235332,615.7],[-1.804537,43.235297,615.2],[-1.804561,43.235274,614.8],[-1.804595,43.235247,614.3],[-1.804616,43.235223,614.0],[-1.804639,43.235197,613.6],[-1.80466,43.235158,613.2],[-1.804674,43.235119,612.6],[-1.804688,43.235091,612.2],[-1.804689,43.235063,611.8],[-1.804708,43.235033,611.5],[-1.804716,43.235002,611.0],[-1.804723,43.234969,610.4],[-1.804753,43.234945,610.0],[-1.80478,43.23492,609.6],[-1.804824,43.234887,609.5],[-1.804854,43.234867,609.3],[-1.804887,43.234851,609.2],[-1.804906,43.234827,609.0],[-1.804944,43.234797,608.8],[-1.804949,43.234767,608.6],[-1.804996,43.234752,608.3],[-1.805004,43.234723,608.0],[-1.805025,43.23469,607.6],[-1.805024,43.234642,607.3],[-1.805012,43.234604,607.0],[-1.805012,43.234568,606.8],[-1.804987,43.234545,606.7],[-1.804972,43.234517,606.5],[-1.804959,43.23449,606.1],[-1.804959,43.234451,605.7],[-1.804927,43.234433,605.3],[-1.804878,43.234424,605.1],[-1.804833,43.234435,605.0],[-1.804801,43.234466,604.7],[-1.804765,43.234488,604.5],[-1.80473,43.23447,604.3],[-1.804705,43.23444,604.0],[-1.804677,43.23442,603.8],[-1.804637,43.23441,603.7],[-1.804593,43.234394,603.5],[-1.804565,43.234366,603.2],[-1.804554,43.234338,603.1],[-1.804531,43.234314,603.1],[-1.80452,43.234269,602.9],[-1.804514,43.234237,602.9],[-1.804509,43.234209,602.8],[-1.804505,43.23417,602.7],[-1.804528,43.234145,602.7],[-1.804534,43.234113,602.6],[-1.804522,43.234081,602.5],[-1.804518,43.234053,602.5],[-1.804504,43.234016,602.4],[-1.8045,43.233983,602.4],[-1.804491,43.233957,602.4],[-1.804467,43.23393,602.3],[-1.804416,43.23389,602.3],[-1.804389,43.233868,602.2],[-1.804336,43.233859,602.1],[-1.804293,43.233873,602.0],[-1.804279,43.23391,601.8],[-1.804269,43.23394,601.5],[-1.804227,43.233941,601.2],[-1.804188,43.233944,600.9],[-1.80415,43.23394,600.6],[-1.804114,43.233905,600.2],[-1.804079,43.233872,599.7],[-1.804027,43.233843,599.1],[-1.803984,43.233828,598.6],[-1.80394,43.233812,598.0],[-1.803893,43.233784,597.4],[-1.803862,43.233749,596.9],[-1.80384,43.233719,596.4],[-1.803792,43.233721,596.0],[-1.803793,43.23368,595.6],[-1.803801,43.233651,595.4],[-1.803772,43.233629,595.1],[-1.803724,43.233619,594.7],[-1.803664,43.233623,594.3],[-1.803627,43.23361,594.1],[-1.803594,43.233587,594.0],[-1.803537,43.233558,593.9],[-1.803509,43.23353,593.8],[-1.803481,43.233511,593.7],[-1.803462,43.233483,593.6],[-1.803445,43.233455,593.5],[-1.803415,43.233431,593.4],[-1.803385,43.23341,593.4],[-1.803365,43.233382,593.3],[-1.803357,43.233355,593.2],[-1.80331,43.233342,593.1],[-1.803258,43.233355,592.9],[-1.803214,43.233379,592.8],[-1.803165,43.233389,592.5],[-1.803129,43.233368,592.0],[-1.803073,43.233334,591.3],[-1.80304,43.233312,590.9],[-1.803001,43.233295,590.4],[-1.802961,43.233277,590.0],[-1.802937,43.233249,589.7],[-1.802921,43.233219,589.5],[-1.802902,43.233195,589.4],[-1.802883,43.233169,589.3],[-1.802834,43.233154,589.2],[-1.802799,43.233131,589.0],[-1.802796,43.2331,588.9],[-1.802797,43.233073,588.8],[-1.802768,43.233046,588.7],[-1.80273,43.233036,588.6],[-1.802683,43.233046,588.4],[-1.80264,43.233018,588.1],[-1.802603,43.232987,587.7],[-1.802564,43.232955,587.5],[-1.802543,43.232916,587.3],[-1.802557,43.232881,587.2],[-1.802531,43.232849,587.1],[-1.802499,43.232827,587.0],[-1.802451,43.232815,586.9],[-1.802426,43.232838,586.9],[-1.802392,43.232823,586.8],[-1.802347,43.232811,586.7],[-1.802306,43.232798,586.6],[-1.802265,43.232773,586.4],[-1.802231,43.232761,586.2],[-1.802202,43.232779,585.9],[-1.802158,43.232773,585.7],[-1.802123,43.232751,585.4],[-1.802087,43.232724,585.2],[-1.802068,43.2327,585.1],[-1.802032,43.232676,584.9],[-1.801989,43.232673,584.8],[-1.80194,43.23268,584.7],[-1.801902,43.232664,584.6],[-1.801869,43.232645,584.5],[-1.801792,43.232635,584.4],[-1.801749,43.232619,584.2],[-1.801697,43.2326,584.0],[-1.80166,43.232593,583.8],[-1.801618,43.232598,583.4],[-1.801576,43.23259,583.0],[-1.80153,43.232564,582.7],[-1.801501,43.232544,582.5],[-1.801455,43.232528,582.2],[-1.801412,43.232514,581.8],[-1.801374,43.2325,581.0],[-1.801311,43.232489,579.8],[-1.801261,43.23247,578.8],[-1.801215,43.232447,578.5],[-1.801192,43.232413,578.2],[-1.801164,43.232391,577.9],[-1.801125,43.232376,577.6],[-1.801085,43.232361,577.3],[-1.80105,43.232341,577.1],[-1.801001,43.232334,576.8],[-1.800968,43.232315,576.5],[-1.800942,43.232287,576.2],[-1.800923,43.232259,575.9],[-1.80089,43.232237,575.7],[-1.800852,43.232217,575.2],[-1.800816,43.232199,574.3],[-1.800773,43.232188,573.3],[-1.800753,43.232164,572.7],[-1.800716,43.232141,572.1],[-1.800678,43.23212,571.6],[-1.800614,43.232126,570.3],[-1.800575,43.232135,569.8],[-1.800533,43.232125,569.1],[-1.800496,43.232096,568.3],[-1.800454,43.232094,568.0],[-1.800416,43.232094,567.8],[-1.800374,43.232095,567.3],[-1.800335,43.232076,566.8],[-1.800296,43.232088,566.3],[-1.800255,43.232096,565.9],[-1.80021,43.23209,565.6],[-1.800185,43.232066,565.4],[-1.80019,43.232035,564.8],[-1.800185,43.232001,564.2],[-1.800172,43.231974,563.6],[-1.800127,43.231982,563.1],[-1.800069,43.23199,562.3],[-1.800023,43.231998,561.7],[-1.799981,43.232008,561.3],[-1.799942,43.232015,561.0],[-1.799914,43.232035,560.6],[-1.799879,43.232053,560.2],[-1.799837,43.232063,559.9],[-1.799791,43.232058,559.6],[-1.799729,43.232077,559.2],[-1.799678,43.232091,558.9],[-1.799626,43.232095,558.7],[-1.799584,43.232111,558.4],[-1.799544,43.23213,558.0],[-1.799495,43.232139,557.5],[-1.799455,43.232135,557.1],[-1.799415,43.232139,556.8],[-1.799372,43.232145,556.5],[-1.799331,43.232143,556.2],[-1.799278,43.232156,555.6],[-1.799228,43.232146,555.0],[-1.799182,43.23216,554.8],[-1.799161,43.232182,554.6],[-1.799105,43.232205,554.4],[-1.799052,43.232214,554.0],[-1.799001,43.232231,553.7],[-1.798951,43.232251,553.6],[-1.798902,43.232265,553.4],[-1.798853,43.232289,553.3],[-1.798823,43.232312,553.2],[-1.798817,43.232354,553.0],[-1.798783,43.232371,552.9],[-1.798749,43.232385,552.8],[-1.798717,43.232403,552.7],[-1.798681,43.232426,552.6],[-1.798634,43.232401,552.4],[-1.798581,43.232391,552.3],[-1.798541,43.232392,552.2],[-1.79851,43.232411,552.1],[-1.798458,43.232441,551.9],[-1.79841,43.23245,551.7],[-1.79837,43.232453,550.8],[-1.798324,43.232496,548.9],[-1.798309,43.232525,548.6],[-1.798283,43.232572,548.1],[-1.79825,43.232603,547.7],[-1.798214,43.232617,547.5],[-1.798206,43.232648,547.2],[-1.798189,43.232689,546.8],[-1.798169,43.232717,546.5],[-1.798132,43.232743,546.2],[-1.79809,43.23276,545.8],[-1.797955,43.232894,544.3],[-1.797905,43.232875,543.9],[-1.797895,43.232848,543.7],[-1.79785,43.232846,543.4],[-1.797816,43.232856,543.1],[-1.797774,43.232858,542.8],[-1.79772,43.232859,542.5],[-1.797675,43.23288,542.1],[-1.79762,43.232893,541.7],[-1.797588,43.232912,541.5],[-1.797545,43.232925,541.2],[-1.797501,43.232938,540.8],[-1.797449,43.232943,540.5],[-1.79741,43.232942,540.2],[-1.79737,43.232926,538.6],[-1.797333,43.232917,537.6],[-1.797293,43.232898,536.8],[-1.797255,43.232896,536.0],[-1.797217,43.232894,535.4],[-1.797173,43.232885,535.0],[-1.797122,43.232875,534.7],[-1.797088,43.232854,534.4],[-1.797045,43.232855,534.1],[-1.797002,43.232875,533.1],[-1.796964,43.232887,532.6],[-1.796925,43.232865,532.0],[-1.796869,43.232843,530.5],[-1.796807,43.232845,529.4],[-1.796768,43.232852,529.1],[-1.796732,43.232871,528.7],[-1.796694,43.232857,528.4],[-1.796641,43.232858,528.0],[-1.796592,43.232881,527.5],[-1.796576,43.232908,527.2],[-1.796531,43.232911,526.9],[-1.796493,43.232902,526.6],[-1.796457,43.232908,525.7],[-1.796418,43.232898,524.2],[-1.796367,43.232889,523.4],[-1.79633,43.232896,522.6],[-1.796291,43.2329,521.7],[-1.79625,43.232881,520.7],[-1.7962,43.232863,519.4],[-1.796159,43.232838,518.1],[-1.796126,43.232819,517.1],[-1.796106,43.232793,516.0],[-1.796093,43.232745,514.8],[-1.796074,43.232713,514.3],[-1.796062,43.232676,513.2],[-1.796037,43.23265,512.3],[-1.796033,43.232618,511.3],[-1.795999,43.232632,509.8],[-1.795948,43.232632,508.8],[-1.795895,43.232624,508.1],[-1.795857,43.23262,507.6],[-1.795827,43.232651,507.0],[-1.795791,43.232686,506.2],[-1.795745,43.23269,505.6],[-1.795702,43.232705,505.0],[-1.795655,43.232695,503.3],[-1.79562,43.23267,501.9],[-1.795587,43.232652,501.4],[-1.795531,43.232665,500.7],[-1.795486,43.232668,500.1],[-1.795445,43.232669,499.1],[-1.795383,43.232668,497.9],[-1.795342,43.232638,497.1],[-1.79531,43.232621,496.4],[-1.795268,43.232634,495.7],[-1.795232,43.232661,495.3],[-1.795187,43.232647,494.9],[-1.795147,43.232657,494.5],[-1.795152,43.232628,493.9],[-1.795161,43.232595,493.4],[-1.795135,43.232574,493.1],[-1.7951,43.232555,492.8],[-1.795053,43.232545,492.1],[-1.795016,43.232538,491.6],[-1.794977,43.232524,490.9],[-1.794959,43.232496,490.1],[-1.794941,43.232464,489.4],[-1.79489,43.232451,488.8],[-1.794843,43.23245,488.4],[-1.794795,43.232451,487.8],[-1.794756,43.232432,487.1],[-1.79471,43.232419,486.6],[-1.794693,43.232445,486.2],[-1.794651,43.232436,485.7],[-1.79461,43.232435,485.2],[-1.794558,43.232426,484.9],[-1.79451,43.23241,484.8],[-1.79447,43.232384,484.6],[-1.79443,43.232358,484.5],[-1.794397,43.232327,484.4],[-1.794383,43.232296,484.4],[-1.794379,43.232267,484.3],[-1.794362,43.232242,484.3],[-1.794332,43.232222,484.2],[-1.794314,43.232198,484.2],[-1.794283,43.232179,484.1],[-1.794259,43.232147,484.1],[-1.794243,43.232116,484.1],[-1.794229,43.232087,484.1],[-1.794209,43.232058,484.0],[-1.794198,43.232021,484.0],[-1.794166,43.232,484.0],[-1.794143,43.231974,484.0],[-1.794123,43.231944,484.0],[-1.794107,43.231917,484.0],[-1.794105,43.231866,484.1],[-1.794082,43.231837,484.2],[-1.794048,43.23182,484.3],[-1.794026,43.231798,484.5],[-1.793997,43.231766,484.7],[-1.793967,43.231738,484.9],[-1.793937,43.231714,485.2],[-1.793908,43.231683,485.5],[-1.793873,43.231664,485.9],[-1.793843,43.231642,486.2],[-1.793791,43.231645,486.6],[-1.793753,43.231657,487.0],[-1.793702,43.231655,487.4],[-1.793667,43.231639,487.7],[-1.793672,43.231608,487.9],[-1.793677,43.231572,488.0],[-1.793658,43.231531,488.2],[-1.79364,43.231492,488.3],[-1.793633,43.231464,488.2],[-1.79359,43.231452,488.1],[-1.793589,43.231416,487.9],[-1.793545,43.231396,487.7],[-1.79352,43.231362,487.5],[-1.79349,43.231326,487.4],[-1.793457,43.231299,487.3],[-1.793426,43.231275,487.2],[-1.793388,43.231269,487.1],[-1.793371,43.231228,487.0],[-1.793362,43.231182,487.0],[-1.793345,43.23115,486.9],[-1.79329,43.231111,486.9],[-1.79327,43.231084,486.9],[-1.79325,43.231035,486.8],[-1.793257,43.231007,486.8],[-1.793226,43.230979,486.8],[-1.793211,43.230953,486.8],[-1.793171,43.230918,486.8],[-1.793129,43.230908,486.8],[-1.793088,43.230894,486.8],[-1.793047,43.230876,486.8],[-1.793017,43.230844,486.7],[-1.792976,43.230839,486.7],[-1.792937,43.230842,486.7],[-1.79289,43.230817,486.6],[-1.792862,43.230789,486.6],[-1.792835,43.230771,486.5],[-1.79279,43.230784,486.4],[-1.792734,43.230794,485.9],[-1.792682,43.230788,485.3],[-1.79264,43.230775,484.8],[-1.792602,43.230775,484.5],[-1.792564,43.230775,484.1],[-1.792537,43.230754,483.5],[-1.792504,43.230739,482.8],[-1.792457,43.230737,482.3],[-1.792409,43.230734,481.6],[-1.792359,43.230734,480.8],[-1.792315,43.230738,480.4],[-1.792272,43.230735,480.1],[-1.792215,43.23072,479.3],[-1.792178,43.230733,478.7],[-1.792135,43.230743,478.3],[-1.792096,43.230732,477.9],[-1.792071,43.230758,477.2],[-1.79204,43.230743,476.7],[-1.791997,43.230727,476.3],[-1.791954,43.230728,476.0],[-1.791892,43.230752,475.2],[-1.791838,43.23077,474.4],[-1.7918,43.230771,474.0],[-1.791754,43.230748,473.4],[-1.79171,43.230723,473.0],[-1.791682,43.230741,472.9],[-1.791638,43.230744,472.7],[-1.791595,43.230744,472.5],[-1.791556,43.23074,472.3],[-1.791514,43.230734,472.1],[-1.791468,43.23072,471.4],[-1.791427,43.230689,470.8],[-1.791407,43.230666,470.4],[-1.791375,43.230642,470.2],[-1.791328,43.230624,470.0],[-1.791266,43.230615,469.8],[-1.791229,43.23061,469.7],[-1.791173,43.230606,469.6],[-1.791135,43.230577,469.6],[-1.791088,43.23055,469.6],[-1.791055,43.230526,469.5],[-1.79104,43.230494,469.4],[-1.791017,43.230471,469.4],[-1.790986,43.230437,469.2],[-1.79095,43.230452,469.0],[-1.79092,43.230433,468.9],[-1.790892,43.230407,468.6],[-1.790869,43.230369,468.2],[-1.790844,43.230337,468.0],[-1.790829,43.230296,467.8],[-1.790822,43.230253,467.7],[-1.790808,43.230222,467.6],[-1.790799,43.230191,467.6],[-1.79079,43.230156,467.7],[-1.790755,43.230144,467.8],[-1.790715,43.230152,468.0],[-1.790695,43.230128,468.0],[-1.790673,43.2301,468.1],[-1.790638,43.230078,468.2],[-1.790615,43.230052,468.2],[-1.790591,43.23003,468.3],[-1.790578,43.230003,468.4],[-1.790544,43.229976,468.4],[-1.790512,43.229943,468.5],[-1.790475,43.229924,468.6],[-1.790423,43.229919,468.6],[-1.790381,43.229921,468.7],[-1.790335,43.229921,468.8],[-1.790281,43.229902,468.8],[-1.790243,43.229866,468.9],[-1.790202,43.229856,468.9],[-1.790151,43.229865,469.0],[-1.790112,43.229874,469.1],[-1.790072,43.229872,469.1],[-1.790032,43.229856,469.2],[-1.789989,43.229845,469.2],[-1.789928,43.229856,469.3],[-1.78988,43.229853,469.3],[-1.789856,43.229831,469.4],[-1.789813,43.229823,469.4],[-1.789776,43.22982,469.5],[-1.789747,43.229801,469.5],[-1.789701,43.229793,469.6],[-1.789681,43.22977,469.8],[-1.789652,43.22974,470.0],[-1.789605,43.229753,470.2],[-1.789568,43.229741,470.4],[-1.78953,43.229727,470.6],[-1.789483,43.2297,470.8],[-1.789456,43.229677,471.0],[-1.789438,43.229645,471.2],[-1.789411,43.229624,471.3],[-1.789394,43.2296,471.3],[-1.789349,43.229588,471.4],[-1.789308,43.229563,471.5],[-1.789266,43.229551,471.5],[-1.789225,43.229531,471.6],[-1.789188,43.22952,471.6],[-1.789149,43.229499,471.5],[-1.789099,43.229467,471.5],[-1.789067,43.22945,471.5],[-1.789028,43.22944,471.5],[-1.788986,43.229442,471.5],[-1.788948,43.229435,471.4],[-1.788895,43.229417,471.4],[-1.78885,43.229391,471.3],[-1.788814,43.229369,471.3],[-1.788776,43.229345,471.1],[-1.788741,43.229325,470.9],[-1.7887,43.229325,470.7],[-1.78866,43.229323,470.5],[-1.788635,43.229285,470.1],[-1.788611,43.229257,469.9],[-1.788591,43.229232,469.7],[-1.788541,43.229211,469.5],[-1.788498,43.229197,469.1],[-1.788465,43.229179,468.7],[-1.788421,43.229173,468.3],[-1.788383,43.229171,467.9],[-1.788336,43.229144,467.1],[-1.788309,43.229118,466.6],[-1.788297,43.229086,466.1],[-1.788297,43.22905,465.5],[-1.788299,43.22902,465.0],[-1.78827,43.228986,464.5],[-1.788234,43.228962,464.4],[-1.7882,43.228936,464.2],[-1.788161,43.228917,464.1],[-1.788142,43.228883,463.9],[-1.788114,43.228864,463.8],[-1.788079,43.228835,463.7],[-1.788044,43.22881,463.6],[-1.788002,43.228807,463.6],[-1.787965,43.2288,463.6],[-1.787936,43.228778,463.7],[-1.787896,43.228763,463.7],[-1.787856,43.228745,463.9],[-1.787825,43.228727,464.1],[-1.787775,43.228737,464.4],[-1.787733,43.228735,464.7],[-1.7877,43.228748,464.9],[-1.787669,43.228767,465.0],[-1.787614,43.228745,465.3],[-1.787574,43.228719,465.5],[-1.787535,43.228717,465.7],[-1.787483,43.228716,466.1],[-1.78744,43.228708,466.4],[-1.787407,43.228689,466.7],[-1.787364,43.22867,467.1],[-1.787324,43.228645,467.5],[-1.787285,43.228639,467.9],[-1.787242,43.22863,468.2],[-1.787194,43.228612,468.7],[-1.787154,43.228592,469.1],[-1.78712,43.228577,469.4],[-1.78706,43.228575,469.9],[-1.787005,43.228562,470.5],[-1.786984,43.228585,470.9],[-1.786942,43.228571,471.3],[-1.786895,43.228564,471.8],[-1.78685,43.22854,472.4],[-1.786823,43.228514,472.9],[-1.786796,43.228483,473.5],[-1.78675,43.228481,474.1],[-1.786689,43.228485,474.9],[-1.786638,43.228465,475.6],[-1.786611,43.228441,476.1],[-1.786567,43.228431,476.6],[-1.786526,43.22843,477.0],[-1.786491,43.228419,477.4],[-1.786446,43.228424,477.8],[-1.786402,43.228427,478.2],[-1.786364,43.228428,478.5],[-1.78635,43.228402,478.8],[-1.786309,43.228384,479.3],[-1.786292,43.228354,479.6],[-1.786246,43.228338,480.0],[-1.786211,43.228324,480.3],[-1.786184,43.228302,480.7],[-1.786154,43.228279,481.2],[-1.786155,43.22825,481.6],[-1.786162,43.228216,482.1],[-1.786147,43.228246,482.6],[-1.786124,43.228268,483.0],[-1.786083,43.228264,483.6],[-1.786075,43.228293,484.2],[-1.786081,43.228262,484.7],[-1.786061,43.228215,485.3],[-1.786043,43.228187,485.6],[-1.786049,43.228153,486.0],[-1.786071,43.228122,486.2],[-1.786118,43.228098,486.5],[-1.786115,43.22806,486.8],[-1.786161,43.22805,487.0],[-1.786203,43.228043,487.1],[-1.786236,43.22802,487.2],[-1.786264,43.228,487.3],[-1.786305,43.227979,487.5],[-1.78634,43.227958,487.5],[-1.786371,43.227932,487.6],[-1.786386,43.227893,487.7],[-1.786388,43.227854,487.8],[-1.786392,43.227827,487.9],[-1.786419,43.227793,488.0],[-1.786416,43.227763,488.1],[-1.786437,43.227734,488.2],[-1.786451,43.227706,488.3],[-1.78646,43.22767,488.5],[-1.786473,43.22764,488.6],[-1.786488,43.227606,488.8],[-1.786525,43.227568,489.0],[-1.786553,43.227545,489.4],[-1.786571,43.227518,489.9],[-1.786609,43.227527,490.4],[-1.786635,43.2275,491.2],[-1.786667,43.227475,492.2],[-1.786685,43.22745,492.8],[-1.786709,43.227419,493.6],[-1.786725,43.227382,494.5],[-1.786728,43.227342,495.2],[-1.786743,43.227307,495.9],[-1.786776,43.22727,496.7],[-1.786802,43.22725,497.2],[-1.786819,43.227222,497.6],[-1.786806,43.227168,498.5],[-1.786803,43.22714,498.9],[-1.786802,43.227101,499.4],[-1.786807,43.22707,499.8],[-1.786823,43.227045,500.1],[-1.786844,43.227,500.7],[-1.786862,43.226974,501.0],[-1.786887,43.226945,501.4],[-1.786937,43.226929,501.8],[-1.786949,43.226891,502.1],[-1.786962,43.226861,502.4],[-1.786995,43.226833,502.7],[-1.78702,43.226811,502.9],[-1.786998,43.226787,503.1],[-1.787022,43.226758,503.3],[-1.78705,43.226733,503.5],[-1.787071,43.226709,503.7],[-1.787101,43.226689,503.9],[-1.787153,43.226681,504.2],[-1.787209,43.226662,504.4],[-1.78725,43.226624,504.7],[-1.787267,43.226591,504.9],[-1.787265,43.226558,505.0],[-1.78729,43.226538,505.1],[-1.78733,43.226519,505.2],[-1.787356,43.226497,505.3],[-1.7874,43.226473,505.5],[-1.787437,43.226458,505.6],[-1.787467,43.226442,505.8],[-1.787526,43.226435,506.0],[-1.787583,43.226445,506.2],[-1.787633,43.226436,506.4],[-1.787671,43.226413,506.6],[-1.787731,43.226398,506.8],[-1.78778,43.226402,506.8],[-1.787822,43.226403,506.9],[-1.787861,43.226397,507.0],[-1.787911,43.226396,507.0],[-1.787958,43.22637,507.1],[-1.788004,43.226361,507.1],[-1.788053,43.226357,507.1],[-1.788097,43.226335,507.2],[-1.788133,43.226315,507.2],[-1.788169,43.226302,507.2],[-1.788209,43.226277,507.1],[-1.788253,43.226267,507.1],[-1.788297,43.226257,507.1],[-1.788335,43.226242,507.0],[-1.788364,43.226224,507.0],[-1.78839,43.2262,507.0],[-1.788424,43.226175,506.9],[-1.788471,43.226139,506.9],[-1.78851,43.226116,506.8],[-1.788538,43.226096,506.6],[-1.788565,43.226075,506.4],[-1.788591,43.226054,506.2],[-1.788608,43.226029,506.0],[-1.788623,43.226003,505.8],[-1.788634,43.22597,505.6],[-1.788638,43.225936,505.4],[-1.788628,43.2259,505.2],[-1.788612,43.225867,505.1],[-1.78861,43.225834,504.9],[-1.788591,43.225807,504.6],[-1.788551,43.225782,504.2],[-1.788524,43.225761,503.9],[-1.788507,43.225729,503.7],[-1.788503,43.225686,503.5],[-1.788474,43.225639,503.4],[-1.788452,43.225613,503.3],[-1.788429,43.225586,503.3],[-1.788412,43.225549,503.2],[-1.788395,43.225511,503.1],[-1.788382,43.225485,503.1],[-1.788401,43.225458,503.0],[-1.788402,43.225422,503.0],[-1.7884,43.225391,503.0],[-1.788408,43.225361,503.0],[-1.788415,43.225325,503.0],[-1.788431,43.225295,503.0],[-1.788451,43.225258,503.0],[-1.788469,43.225218,502.9],[-1.788486,43.225189,502.9],[-1.78851,43.225147,502.8],[-1.788526,43.225117,502.8],[-1.788528,43.22509,502.7],[-1.788534,43.225053,502.7],[-1.788557,43.225017,502.6],[-1.788572,43.224984,502.5],[-1.788601,43.224954,502.4],[-1.788627,43.224931,502.2],[-1.788657,43.224914,501.9],[-1.788695,43.22489,501.5],[-1.788726,43.224867,501.2],[-1.788761,43.224849,500.9],[-1.788793,43.224834,500.6],[-1.78882,43.22481,500.3],[-1.788836,43.224779,499.9],[-1.788855,43.224748,499.7],[-1.788894,43.224727,499.4],[-1.788922,43.224696,499.3],[-1.788954,43.224668,499.2],[-1.788982,43.224641,499.1],[-1.789005,43.224611,499.1],[-1.789047,43.224583,499.0],[-1.789082,43.224565,499.0],[-1.789113,43.224542,498.9],[-1.789135,43.224512,498.9],[-1.789158,43.224482,498.8],[-1.789182,43.224459,498.8],[-1.789214,43.224444,498.8],[-1.789221,43.224412,498.7],[-1.789231,43.22438,498.7],[-1.789254,43.224352,498.7],[-1.789277,43.224328,498.7],[-1.7893,43.224295,498.7],[-1.789325,43.224265,498.7],[-1.789351,43.224228,498.7],[-1.789372,43.224197,498.7],[-1.789385,43.224168,498.7],[-1.789417,43.224136,498.7],[-1.789444,43.224108,498.7],[-1.789465,43.224077,498.7],[-1.789482,43.224047,498.7],[-1.789507,43.224018,498.7],[-1.789517,43.223983,498.7],[-1.789528,43.223951,498.7],[-1.789539,43.223914,498.7],[-1.789548,43.223881,498.7],[-1.789564,43.223846,498.7],[-1.789602,43.223822,498.7],[-1.789633,43.223801,498.7],[-1.789657,43.223777,498.8],[-1.789674,43.223742,498.8],[-1.789689,43.223707,498.8],[-1.789702,43.223674,498.8],[-1.789727,43.223638,498.8],[-1.78975,43.223613,498.8],[-1.789783,43.223593,498.8],[-1.789805,43.223571,498.9],[-1.78983,43.22355,498.9],[-1.789845,43.223513,498.9],[-1.78987,43.223483,498.9],[-1.789894,43.223462,499.0],[-1.789928,43.223437,499.0],[-1.789959,43.223408,499.1],[-1.789978,43.223376,499.1],[-1.789979,43.223342,499.2],[-1.790025,43.223321,499.3],[-1.790078,43.22329,499.5],[-1.790107,43.22327,499.7],[-1.790135,43.223242,500.0],[-1.790182,43.223224,500.3],[-1.790208,43.223198,500.4],[-1.790229,43.223175,500.5],[-1.790262,43.223156,500.7],[-1.790292,43.223139,500.8],[-1.790325,43.223121,500.9],[-1.79036,43.223103,501.0],[-1.790396,43.223081,501.1],[-1.790434,43.223051,501.3],[-1.790482,43.223046,501.4],[-1.790528,43.223043,501.6],[-1.790583,43.223025,501.9],[-1.79061,43.222998,502.1],[-1.79064,43.22297,502.2],[-1.79069,43.222964,502.2],[-1.790743,43.222957,502.2],[-1.790787,43.222941,502.1],[-1.790847,43.222925,502.0],[-1.790901,43.222915,501.9],[-1.79094,43.222899,501.7],[-1.790975,43.222883,501.5],[-1.791017,43.222862,501.2],[-1.791055,43.222844,500.9],[-1.791098,43.222839,500.5],[-1.791134,43.222828,500.2],[-1.791172,43.222827,499.9],[-1.791211,43.222808,499.5],[-1.791251,43.222802,499.1],[-1.791289,43.222802,498.8],[-1.791335,43.222795,498.3],[-1.791377,43.222783,497.8],[-1.791414,43.222762,497.4],[-1.791443,43.222731,496.9],[-1.791476,43.222704,496.4],[-1.791523,43.222691,495.9],[-1.791569,43.222679,495.5],[-1.791611,43.222675,495.3],[-1.791651,43.222669,495.0],[-1.791698,43.222654,494.6],[-1.791751,43.222641,494.1],[-1.791808,43.222623,493.6],[-1.791851,43.222605,493.2],[-1.791895,43.222593,492.8],[-1.791934,43.222578,492.4],[-1.791971,43.222566,492.0],[-1.792013,43.222561,491.6],[-1.79205,43.222556,491.3],[-1.792092,43.222544,490.8],[-1.79213,43.222531,490.2],[-1.792164,43.222511,489.6],[-1.792199,43.222492,489.0],[-1.792247,43.222471,488.3],[-1.792283,43.222465,487.8],[-1.792323,43.222448,487.1],[-1.792363,43.222428,486.4],[-1.7924,43.222405,485.6],[-1.792436,43.222389,484.9],[-1.792475,43.22236,484.1],[-1.79251,43.222379,483.4],[-1.792547,43.222371,482.8],[-1.792576,43.222352,482.2],[-1.79261,43.222341,481.5],[-1.792651,43.222336,480.7],[-1.792687,43.222321,480.1],[-1.792727,43.222302,479.6],[-1.792752,43.222281,479.3],[-1.792793,43.222264,478.8],[-1.792838,43.222231,478.1],[-1.792844,43.222199,477.6],[-1.79285,43.222167,477.1],[-1.792867,43.22214,476.5],[-1.792868,43.222106,475.9],[-1.792859,43.222071,475.5],[-1.792824,43.22205,475.2],[-1.792791,43.222035,474.9],[-1.792747,43.222028,474.4],[-1.792711,43.222012,473.9],[-1.792689,43.22199,473.4],[-1.792655,43.221969,472.8],[-1.792624,43.22195,472.2],[-1.79261,43.221919,471.5],[-1.79259,43.221881,470.8],[-1.792564,43.221846,470.0],[-1.792537,43.221823,469.2],[-1.79249,43.221806,468.2],[-1.792452,43.221796,467.3],[-1.792409,43.221796,466.6],[-1.792362,43.221797,465.9],[-1.79233,43.221778,465.5],[-1.792298,43.221749,465.1],[-1.792267,43.221732,464.4],[-1.792228,43.221743,463.6],[-1.792178,43.221737,463.0],[-1.792141,43.221716,462.0],[-1.792112,43.221695,461.3],[-1.792079,43.221677,460.5],[-1.792043,43.221658,459.7],[-1.791986,43.22165,458.6],[-1.791948,43.221622,458.1],[-1.791924,43.221592,457.8],[-1.791869,43.221594,457.1],[-1.791831,43.221598,456.7],[-1.791786,43.221596,456.1],[-1.791747,43.221576,455.4],[-1.791709,43.221566,454.8],[-1.79167,43.221563,454.2],[-1.791623,43.221562,453.7],[-1.791584,43.221541,453.1],[-1.791561,43.221518,452.6],[-1.791521,43.221499,452.0],[-1.791487,43.221479,451.4],[-1.791449,43.221466,450.7],[-1.791413,43.221452,450.1],[-1.791383,43.221431,449.4],[-1.791346,43.22142,448.7],[-1.791301,43.221414,448.0],[-1.791259,43.221422,447.3],[-1.791224,43.221413,446.8],[-1.791173,43.221393,445.8],[-1.791135,43.22138,445.0],[-1.791102,43.221362,444.3],[-1.791076,43.221335,443.4],[-1.791058,43.221305,442.7],[-1.791025,43.221276,442.1],[-1.790985,43.22126,441.6],[-1.790949,43.22123,441.2],[-1.790933,43.221203,440.5],[-1.790907,43.221176,439.8],[-1.790874,43.22115,439.0],[-1.790842,43.221131,438.4],[-1.79081,43.221099,437.6],[-1.790782,43.221071,436.9],[-1.790735,43.221035,435.9],[-1.790711,43.220996,435.0],[-1.790701,43.220949,433.9],[-1.790708,43.220907,433.2],[-1.790729,43.220882,432.7],[-1.790744,43.220854,432.3],[-1.790747,43.220822,432.0],[-1.790733,43.220795,431.6],[-1.790736,43.220764,431.2],[-1.790745,43.220735,430.9],[-1.790769,43.220715,430.6],[-1.790794,43.220692,430.3],[-1.790761,43.220657,429.9],[-1.790741,43.220629,429.6],[-1.790755,43.220589,429.3],[-1.790762,43.220562,429.1],[-1.790764,43.22053,428.8],[-1.790781,43.220495,428.5],[-1.790787,43.220459,428.2],[-1.79078,43.22043,427.9],[-1.79077,43.220401,427.7],[-1.790773,43.220373,427.6],[-1.790776,43.220346,427.5],[-1.790774,43.220314,427.4],[-1.790774,43.220282,427.3],[-1.790784,43.22025,427.3],[-1.790789,43.220207,427.2],[-1.790778,43.220169,427.2],[-1.790771,43.220131,427.1],[-1.790779,43.220105,427.1],[-1.790793,43.220075,427.1],[-1.790804,43.220035,427.0],[-1.790812,43.219996,427.0],[-1.790816,43.219956,426.9],[-1.790831,43.21993,426.8],[-1.790839,43.219902,426.6],[-1.790845,43.219868,426.3],[-1.790846,43.219834,426.0],[-1.79087,43.21981,425.6],[-1.790901,43.219788,425.1],[-1.790909,43.219752,424.5],[-1.790907,43.21972,423.9],[-1.790899,43.219686,423.3],[-1.790913,43.219642,422.3],[-1.790925,43.219611,421.6],[-1.790939,43.219575,420.8],[-1.790974,43.219543,419.8],[-1.791006,43.219525,419.0],[-1.791046,43.219494,417.7],[-1.791067,43.219462,416.5],[-1.791092,43.219438,415.7],[-1.791142,43.21942,414.5],[-1.791175,43.219403,413.8],[-1.791195,43.219379,413.1],[-1.791202,43.219348,412.4],[-1.791227,43.219316,411.7],[-1.791237,43.219286,411.1],[-1.791249,43.219259,410.5],[-1.791275,43.219232,409.9],[-1.791296,43.219209,409.3],[-1.791328,43.219186,408.5],[-1.791356,43.219162,407.8],[-1.791378,43.219128,406.9],[-1.791398,43.2191,406.0],[-1.791447,43.219076,405.0],[-1.791485,43.219057,404.1],[-1.791507,43.219031,403.5],[-1.791548,43.219006,402.7],[-1.791572,43.218975,402.1],[-1.791592,43.218944,401.6],[-1.791602,43.218918,401.2],[-1.791612,43.21888,400.6],[-1.791635,43.218848,400.1],[-1.791661,43.218828,399.7],[-1.791693,43.21881,399.3],[-1.791705,43.21878,398.9],[-1.791729,43.218747,398.4],[-1.791736,43.218716,397.9],[-1.791734,43.218679,397.4],[-1.791751,43.218652,397.0],[-1.791757,43.218617,396.8],[-1.791768,43.218589,396.6],[-1.791796,43.218569,396.5],[-1.791824,43.218534,396.3],[-1.791853,43.218512,396.1],[-1.791886,43.218498,396.0],[-1.791919,43.21847,395.6],[-1.79193,43.218434,395.2],[-1.791934,43.218397,394.9],[-1.791943,43.218363,394.7],[-1.791962,43.218332,394.5],[-1.791973,43.218305,394.3],[-1.791987,43.218278,394.2],[-1.792017,43.218249,394.1],[-1.792049,43.218232,394.0],[-1.792083,43.218202,393.7],[-1.792107,43.218175,393.5],[-1.792139,43.218146,393.2],[-1.792158,43.218114,392.9],[-1.792202,43.218091,392.6],[-1.792244,43.218071,392.2],[-1.792281,43.218053,391.9],[-1.792315,43.218032,391.5],[-1.792341,43.218008,391.2],[-1.792365,43.21798,390.8],[-1.792398,43.217949,390.3],[-1.792405,43.217917,389.9],[-1.792434,43.217891,389.6],[-1.792461,43.217867,389.2],[-1.792513,43.217854,388.5],[-1.792553,43.217848,388.0],[-1.792589,43.217824,387.4],[-1.79263,43.217802,386.7],[-1.792648,43.217777,386.2],[-1.792661,43.217742,385.5],[-1.792687,43.217705,384.9],[-1.792712,43.217656,383.9],[-1.792736,43.217634,383.3],[-1.79275,43.217603,382.6],[-1.792731,43.217569,381.9],[-1.792713,43.217542,381.3],[-1.792682,43.217527,380.9],[-1.792644,43.217522,380.4],[-1.792651,43.217494,379.9],[-1.792653,43.217457,379.2],[-1.792652,43.217428,378.7],[-1.792631,43.217404,378.3],[-1.792621,43.217378,377.8],[-1.792568,43.217352,377.1],[-1.792533,43.21732,376.5],[-1.792511,43.217284,375.9],[-1.792498,43.217244,375.4],[-1.792445,43.217171,374.2],[-1.792388,43.217162,373.8],[-1.792401,43.217124,373.5],[-1.792384,43.217096,373.3],[-1.792383,43.217067,373.0],[-1.79237,43.217039,372.7],[-1.792371,43.217006,372.3],[-1.792357,43.216968,371.9],[-1.792329,43.216944,371.6],[-1.792304,43.216914,371.2],[-1.792293,43.21688,370.8],[-1.792292,43.216849,370.5],[-1.792293,43.216814,370.2],[-1.792282,43.216786,369.9],[-1.792277,43.216752,369.7],[-1.792271,43.216723,369.6],[-1.792253,43.216681,369.4],[-1.792239,43.216653,369.3],[-1.792224,43.216622,369.2],[-1.792188,43.216586,369.0],[-1.792155,43.216562,369.0],[-1.792132,43.216534,369.0],[-1.792115,43.216507,369.0],[-1.792118,43.216468,369.0],[-1.79212,43.216439,369.0],[-1.792133,43.216406,369.0],[-1.792125,43.21637,369.0],[-1.792121,43.21634,369.0],[-1.792093,43.21631,368.4],[-1.792067,43.216279,367.6],[-1.792057,43.216239,366.8],[-1.792022,43.216205,366.4],[-1.792009,43.216175,366.1],[-1.792023,43.216143,365.9],[-1.792041,43.216112,365.4],[-1.792053,43.216082,365.0],[-1.792056,43.216055,364.9],[-1.792061,43.216025,364.8],[-1.792075,43.215993,364.7],[-1.792084,43.215963,364.6],[-1.792111,43.215931,364.4],[-1.792125,43.215904,364.3],[-1.792166,43.215883,364.1],[-1.792179,43.215857,364.0],[-1.792179,43.215824,363.9],[-1.792194,43.215788,363.7],[-1.792201,43.215759,363.6],[-1.792223,43.215726,363.5],[-1.792251,43.215702,363.4],[-1.792278,43.215679,363.4],[-1.79232,43.21565,362.5],[-1.792295,43.215629,362.3],[-1.792325,43.215606,362.1],[-1.792348,43.215584,361.9],[-1.79236,43.215557,361.5],[-1.792382,43.215527,361.3],[-1.7924,43.215492,361.1],[-1.792401,43.215465,360.9],[-1.792411,43.215438,360.8],[-1.792412,43.215409,360.6],[-1.792436,43.215378,360.5],[-1.792458,43.21535,360.3],[-1.79248,43.21532,360.1],[-1.792487,43.215292,359.9],[-1.792505,43.215257,359.6],[-1.792512,43.215224,359.4],[-1.792525,43.21518,359.1],[-1.792548,43.215145,358.8],[-1.792552,43.215109,358.4],[-1.792578,43.21508,358.0],[-1.79259,43.215046,357.5],[-1.792606,43.215019,357.1],[-1.792632,43.214999,356.8],[-1.792645,43.214973,356.6],[-1.792663,43.214938,356.3],[-1.792693,43.214911,356.2],[-1.792716,43.214889,356.2],[-1.792746,43.214873,356.1],[-1.792784,43.214842,355.9],[-1.792819,43.214822,355.7],[-1.792846,43.214804,355.5],[-1.792883,43.214783,355.2],[-1.79291,43.214756,354.9],[-1.792922,43.214726,354.6],[-1.792932,43.2147,354.2],[-1.792957,43.214672,353.7],[-1.792999,43.214645,353.5],[-1.793038,43.214642,353.4],[-1.793071,43.21461,353.4],[-1.793098,43.214574,353.5],[-1.793137,43.214559,353.7],[-1.793181,43.214552,353.8],[-1.793227,43.214542,353.9],[-1.793277,43.214519,353.7],[-1.793316,43.214497,353.0],[-1.793353,43.214484,352.4],[-1.793381,43.214461,351.7],[-1.793407,43.214441,351.2],[-1.793433,43.214411,350.4],[-1.793454,43.214375,349.6],[-1.793488,43.214355,349.0],[-1.793525,43.214348,348.4],[-1.793559,43.214327,347.7],[-1.793591,43.2143,347.0],[-1.793618,43.214277,346.4],[-1.793649,43.214254,345.7],[-1.793693,43.21424,345.0],[-1.793732,43.214217,344.8],[-1.793768,43.214204,341.9],[-1.793803,43.214188,341.2],[-1.793849,43.214166,338.2],[-1.793889,43.214148,335.3],[-1.793919,43.214132,334.8],[-1.793961,43.21411,332.6],[-1.793996,43.214099,332.8],[-1.794004,43.214125,334.4],[-1.794048,43.214147,334.6],[-1.794017,43.214171,335.9],[-1.793982,43.214186,337.7],[-1.793945,43.214205,337.7],[-1.793919,43.214228,339.6],[-1.793888,43.214252,341.7],[-1.793854,43.214274,342.0],[-1.793822,43.214295,343.4],[-1.793792,43.214323,345.0],[-1.793764,43.21435,345.7],[-1.793726,43.214368,346.3],[-1.793696,43.214387,346.9],[-1.793669,43.214411,347.5],[-1.793636,43.214425,348.0],[-1.793595,43.214429,348.6],[-1.793573,43.214452,349.2],[-1.793545,43.214472,349.7],[-1.793514,43.21449,350.3],[-1.793491,43.214513,350.8],[-1.79346,43.214529,351.4],[-1.793424,43.214549,352.0],[-1.793398,43.214576,352.7],[-1.793364,43.214587,353.2],[-1.793316,43.214613,353.9],[-1.793287,43.214645,353.8],[-1.793239,43.21465,353.7],[-1.793204,43.214676,353.5],[-1.793172,43.2147,353.4],[-1.793145,43.214722,353.4],[-1.793101,43.214737,353.5],[-1.793048,43.214759,354.0],[-1.79301,43.214777,354.6],[-1.792974,43.214805,355.0],[-1.792942,43.214846,355.4],[-1.792907,43.214862,355.7],[-1.792872,43.214883,355.9],[-1.792847,43.214916,356.2],[-1.79282,43.214936,356.2],[-1.792788,43.214954,356.3],[-1.792751,43.214984,356.5],[-1.792714,43.214998,356.8],[-1.792705,43.215033,357.3],[-1.792687,43.215062,357.8],[-1.792669,43.215093,358.3],[-1.792656,43.215132,358.8],[-1.792638,43.21516,359.1],[-1.792619,43.215189,359.3],[-1.792601,43.215214,359.6],[-1.792565,43.21524,359.8],[-1.792531,43.215263,360.1],[-1.792545,43.215291,360.3],[-1.792526,43.215314,360.5],[-1.792498,43.21534,360.7],[-1.792482,43.215384,360.9],[-1.792467,43.215417,361.1],[-1.792449,43.215442,361.3],[-1.792428,43.215479,361.7],[-1.792455,43.215509,362.1],[-1.792462,43.21554,362.3],[-1.792477,43.215571,362.6],[-1.792492,43.215597,363.0],[-1.792519,43.215616,363.0],[-1.792562,43.215613,362.7],[-1.792582,43.215639,362.5],[-1.792622,43.215654,362.4],[-1.792665,43.215672,362.2],[-1.792702,43.215681,362.1],[-1.792735,43.215664,361.9],[-1.792773,43.215649,361.8],[-1.792809,43.21564,361.7],[-1.792857,43.215633,361.6],[-1.792896,43.215619,361.5],[-1.792925,43.215596,361.4],[-1.792953,43.215578,361.4],[-1.792994,43.215573,361.3],[-1.793033,43.215584,361.2],[-1.793081,43.215596,361.0],[-1.793128,43.215597,360.9],[-1.793169,43.215602,360.7],[-1.793205,43.215618,360.5],[-1.793245,43.215634,360.3],[-1.793281,43.215645,360.2],[-1.793326,43.215661,360.1],[-1.79336,43.215672,360.0],[-1.793398,43.21568,359.8],[-1.79346,43.215684,359.7],[-1.793492,43.215699,359.5],[-1.793541,43.215701,359.3],[-1.793581,43.215703,359.2],[-1.793638,43.215709,358.9],[-1.793683,43.215713,358.3],[-1.793728,43.215716,357.6],[-1.793766,43.215723,357.1],[-1.793804,43.215727,356.8],[-1.793845,43.215741,356.4],[-1.793889,43.215754,356.0],[-1.793945,43.215763,355.6],[-1.793995,43.215771,355.1],[-1.794043,43.215776,354.8],[-1.794081,43.215787,354.5],[-1.794118,43.215804,354.1],[-1.794155,43.21582,353.2],[-1.794202,43.215828,352.4],[-1.794242,43.215825,352.0],[-1.794291,43.215814,351.5],[-1.794335,43.215804,351.1],[-1.794382,43.215805,350.6],[-1.79442,43.215798,350.3],[-1.794458,43.21578,349.6],[-1.794485,43.215758,348.7],[-1.794514,43.215733,347.8],[-1.794536,43.215711,347.2],[-1.794564,43.215691,346.9],[-1.79458,43.215663,346.4],[-1.794606,43.21563,345.8],[-1.794623,43.215603,345.2],[-1.794646,43.215574,343.9],[-1.794697,43.21556,342.7],[-1.794728,43.215533,342.2],[-1.794751,43.215508,341.7],[-1.794771,43.215472,341.1],[-1.794794,43.215446,340.8],[-1.794827,43.215419,340.5],[-1.794864,43.215397,340.1],[-1.794898,43.215373,339.7],[-1.794927,43.215355,338.9],[-1.794962,43.215344,337.9],[-1.794981,43.21531,337.0],[-1.794999,43.215285,336.5],[-1.795028,43.215266,336.1],[-1.795068,43.215235,335.6],[-1.7951,43.21522,335.3],[-1.795133,43.215196,335.0],[-1.795136,43.215167,334.7],[-1.795159,43.215141,334.3],[-1.795176,43.215105,333.9],[-1.795209,43.215078,333.5],[-1.795233,43.215051,332.8],[-1.79524,43.215021,332.1],[-1.795257,43.214989,331.7],[-1.795282,43.214962,331.2],[-1.795306,43.214926,330.9],[-1.795324,43.214896,330.6],[-1.795333,43.214867,330.4],[-1.795351,43.214841,330.3],[-1.795357,43.214811,330.1],[-1.795374,43.214778,330.1],[-1.795383,43.214749,330.5],[-1.795412,43.214723,330.8],[-1.795451,43.214696,331.1],[-1.795494,43.214673,331.4],[-1.795526,43.214659,331.5],[-1.795564,43.21464,331.7],[-1.795608,43.214625,331.9],[-1.795648,43.214614,332.0],[-1.795682,43.214596,332.2],[-1.795717,43.214576,332.3],[-1.795748,43.214558,332.4],[-1.795792,43.214545,332.6],[-1.79584,43.21454,332.7],[-1.795886,43.214528,332.8],[-1.795935,43.214512,333.0],[-1.795969,43.2145,333.1],[-1.796002,43.214485,333.3],[-1.796015,43.214446,333.6],[-1.796025,43.214418,333.8],[-1.796044,43.21439,333.9],[-1.796067,43.214361,333.4],[-1.796076,43.214334,332.7],[-1.796062,43.214297,332.0],[-1.796043,43.214267,331.5],[-1.796014,43.214248,330.9],[-1.795989,43.214226,330.3],[-1.795961,43.214207,329.7],[-1.795925,43.214198,329.4],[-1.795884,43.214189,329.2],[-1.795845,43.214185,329.0],[-1.795804,43.214169,328.8],[-1.795773,43.214153,328.6],[-1.795727,43.214142,328.3],[-1.795682,43.214133,328.1],[-1.795647,43.214121,328.0],[-1.795605,43.214093,328.0],[-1.795578,43.214072,328.0],[-1.795532,43.214052,328.0],[-1.795492,43.21404,328.0],[-1.795472,43.214007,328.0],[-1.795461,43.213975,328.0],[-1.795484,43.213936,328.0],[-1.795497,43.213909,328.0],[-1.795525,43.213872,328.0],[-1.79555,43.213841,328.0],[-1.795586,43.213818,328.0],[-1.795628,43.2138,328.0],[-1.795651,43.213776,327.9],[-1.795652,43.213748,327.8],[-1.795643,43.213718,327.8],[-1.795656,43.21368,327.7],[-1.795683,43.213659,327.7],[-1.795713,43.21364,327.6],[-1.795727,43.213612,327.6],[-1.795741,43.213583,327.6],[-1.795746,43.213554,327.5],[-1.795757,43.213526,327.5],[-1.795772,43.213496,327.5],[-1.79577,43.213467,327.5],[-1.795796,43.213441,327.6],[-1.795845,43.213423,327.8],[-1.795906,43.213417,327.3],[-1.795943,43.213408,327.0],[-1.79599,43.213404,326.7],[-1.796028,43.213414,326.4],[-1.796081,43.213419,326.0],[-1.796128,43.213418,325.7],[-1.796174,43.21342,325.3],[-1.796188,43.213391,325.0],[-1.796158,43.21335,325.4],[-1.796152,43.213318,325.5],[-1.79615,43.213281,334.1],[-1.796143,43.213248,335.0],[-1.796173,43.213232,335.0],[-1.796193,43.213205,335.0],[-1.796233,43.213204,335.0],[-1.796273,43.213196,335.0],[-1.796276,43.213166,335.0],[-1.796286,43.213125,335.0],[-1.796304,43.213099,335.0],[-1.796335,43.213075,335.0],[-1.796386,43.213066,335.0],[-1.796428,43.213072,335.0],[-1.796471,43.213084,335.0],[-1.79652,43.2131,335.0],[-1.79657,43.213118,334.1],[-1.796613,43.213128,333.4],[-1.796651,43.21314,332.8],[-1.796688,43.213152,332.1],[-1.79673,43.213165,331.4],[-1.796765,43.213176,330.9],[-1.796807,43.21316,330.3],[-1.796845,43.213139,329.8],[-1.796888,43.213114,329.3],[-1.796932,43.213102,328.9],[-1.796969,43.213089,328.6],[-1.797018,43.213076,328.2],[-1.79706,43.213065,327.8],[-1.797119,43.213035,327.4],[-1.797151,43.21302,327.2],[-1.797195,43.21301,326.9],[-1.797229,43.212993,326.6],[-1.797252,43.212971,326.4],[-1.797287,43.212949,326.2],[-1.797339,43.21294,325.8],[-1.797377,43.212935,325.6],[-1.797415,43.212916,325.3],[-1.797453,43.212902,325.1],[-1.797495,43.212899,324.8],[-1.797548,43.212893,324.4],[-1.797602,43.212884,324.0],[-1.797642,43.212883,323.7],[-1.797692,43.212885,323.3],[-1.797735,43.21287,322.8],[-1.797779,43.21286,322.5],[-1.797822,43.212856,322.2],[-1.797878,43.212844,321.8],[-1.797926,43.212841,321.4],[-1.797971,43.21284,321.1],[-1.798015,43.212844,320.7],[-1.79806,43.212847,320.3],[-1.798083,43.212868,320.0],[-1.79815,43.212869,320.0],[-1.798195,43.212876,320.0],[-1.798211,43.212906,320.0],[-1.798245,43.212928,320.6],[-1.798275,43.212949,320.9],[-1.7983,43.212976,321.3],[-1.798299,43.213012,321.6],[-1.798288,43.213038,321.9],[-1.798336,43.213066,322.3],[-1.798367,43.21309,322.7],[-1.798398,43.213105,322.9],[-1.798442,43.213104,323.2],[-1.798467,43.213132,323.6],[-1.798451,43.213165,323.9],[-1.798435,43.213192,324.2],[-1.798405,43.213213,324.4],[-1.798404,43.213243,324.7],[-1.798442,43.213252,325.0],[-1.798476,43.213274,325.3],[-1.79851,43.213263,325.5],[-1.798511,43.2133,325.8],[-1.798535,43.21333,326.1],[-1.798559,43.213352,326.4],[-1.798601,43.213367,326.7],[-1.798615,43.213393,327.0],[-1.798642,43.213415,327.2],[-1.79868,43.213431,327.5],[-1.79868,43.213459,327.8],[-1.798703,43.213486,328.1],[-1.798692,43.213515,328.4],[-1.798726,43.21353,328.6],[-1.798747,43.213552,328.9],[-1.798747,43.213592,329.3],[-1.798752,43.213619,329.5],[-1.798787,43.213642,329.8],[-1.798829,43.21365,330.1],[-1.798853,43.213682,330.5],[-1.798871,43.213724,341.2],[-1.798888,43.213757,350.9],[-1.798913,43.213785,351.8],[-1.79894,43.213819,352.9],[-1.798967,43.213846,353.4],[-1.798989,43.213876,354.3],[-1.799026,43.21389,355.2],[-1.799072,43.213892,355.8],[-1.79911,43.213912,356.8],[-1.799115,43.213963,358.1],[-1.799124,43.213998,359.0],[-1.799148,43.214021,359.6],[-1.799173,43.214044,360.2],[-1.799198,43.214086,361.3],[-1.799223,43.214116,362.1],[-1.799253,43.214144,362.7],[-1.799283,43.214169,363.6],[-1.799319,43.214182,364.2],[-1.799361,43.214184,364.7],[-1.799393,43.214208,365.3],[-1.799387,43.214251,366.2],[-1.79941,43.214295,367.0],[-1.799451,43.214332,368.1],[-1.799496,43.214357,368.9],[-1.799534,43.214377,369.6],[-1.799594,43.214391,370.9],[-1.799635,43.214395,371.8],[-1.79968,43.214386,373.2],[-1.799708,43.21441,373.7],[-1.799719,43.214437,374.5],[-1.799717,43.214466,375.4],[-1.799736,43.214495,376.0],[-1.799747,43.21453,376.9],[-1.79977,43.214555,377.8],[-1.799795,43.214578,378.6],[-1.799829,43.214591,379.3],[-1.799846,43.214616,380.0],[-1.799865,43.214648,380.8],[-1.799891,43.214668,382.2],[-1.799901,43.214697,383.0],[-1.799915,43.21473,383.9],[-1.799925,43.214763,384.8],[-1.799928,43.214795,385.5],[-1.799967,43.214806,386.5],[-1.799975,43.214833,387.2],[-1.799984,43.214865,388.1],[-1.799998,43.214892,388.8],[-1.800003,43.214921,389.3],[-1.800006,43.214955,390.1],[-1.799995,43.214981,390.7],[-1.8,43.215015,391.4],[-1.799991,43.215047,391.9],[-1.799996,43.215075,392.6],[-1.800024,43.215093,393.4],[-1.800031,43.21512,393.8],[-1.800033,43.215167,394.8],[-1.800035,43.215195,395.5],[-1.800064,43.215226,396.0],[-1.800091,43.21525,396.7],[-1.800113,43.215277,397.6],[-1.800112,43.215315,398.2],[-1.800142,43.215339,399.2],[-1.800175,43.215367,400.0],[-1.800199,43.215395,400.5],[-1.80022,43.215418,401.1],[-1.800261,43.21545,401.9],[-1.800294,43.215465,402.4],[-1.800331,43.215484,402.8],[-1.800368,43.215503,403.3],[-1.800402,43.215525,403.8],[-1.800436,43.215548,404.4],[-1.800493,43.215564,405.3],[-1.800529,43.215595,406.1],[-1.800538,43.215623,406.7],[-1.800541,43.215657,407.2],[-1.800558,43.21569,407.8],[-1.800583,43.215713,408.4],[-1.80061,43.215737,409.0],[-1.800629,43.215762,409.4],[-1.800671,43.21578,410.1],[-1.800688,43.21581,410.8],[-1.800707,43.215833,411.3],[-1.800756,43.215861,411.8],[-1.800784,43.215885,412.2],[-1.800794,43.215923,412.9],[-1.800825,43.215952,413.5],[-1.800851,43.215977,413.8],[-1.800886,43.215989,414.0],[-1.800923,43.215997,414.4],[-1.800951,43.216015,414.9],[-1.800997,43.216039,415.6],[-1.801035,43.216067,415.9],[-1.801061,43.216092,416.1],[-1.801096,43.216112,416.3],[-1.801124,43.216131,416.5],[-1.801161,43.21617,417.1],[-1.801185,43.216191,417.5],[-1.801221,43.216203,417.8],[-1.801231,43.216233,418.0],[-1.801259,43.216264,418.1],[-1.801285,43.216288,418.2],[-1.801317,43.216318,418.4],[-1.801342,43.216343,418.4],[-1.801362,43.216377,418.6],[-1.801381,43.216402,418.7],[-1.801387,43.216441,419.1],[-1.801389,43.216472,419.4],[-1.801392,43.216509,419.8],[-1.801427,43.216524,420.0],[-1.801474,43.21654,420.3],[-1.801518,43.216531,420.4],[-1.801578,43.216513,420.7],[-1.80154,43.216519,420.8],[-1.801575,43.216505,421.0],[-1.801593,43.21647,421.4],[-1.801616,43.216444,421.8],[-1.801622,43.216411,422.3],[-1.801653,43.216383,422.8],[-1.80169,43.216392,423.1],[-1.801729,43.216382,423.7],[-1.801768,43.216386,424.1],[-1.801821,43.216386,424.6],[-1.801865,43.216374,425.1],[-1.801896,43.216357,425.4],[-1.80194,43.216347,426.0],[-1.801977,43.216343,426.5],[-1.802025,43.216351,427.1],[-1.802074,43.21634,427.9],[-1.802136,43.216334,429.0],[-1.802177,43.216333,429.4],[-1.802209,43.216314,429.8],[-1.802263,43.216325,430.6],[-1.802306,43.216331,431.1],[-1.802346,43.216312,431.6],[-1.802414,43.216316,432.4],[-1.802453,43.216317,433.0],[-1.802469,43.21635,433.7],[-1.802497,43.216377,434.4],[-1.802539,43.216394,435.5],[-1.802554,43.216425,436.3],[-1.802567,43.216451,437.0],[-1.802548,43.216478,438.0],[-1.802538,43.216504,438.9],[-1.802498,43.216502,439.9],[-1.80246,43.216509,440.6],[-1.802443,43.216536,441.1],[-1.802436,43.216564,441.9],[-1.802421,43.216589,442.6],[-1.802386,43.21662,443.5],[-1.802338,43.216637,444.4],[-1.802316,43.216662,445.0],[-1.802278,43.216684,445.5],[-1.802249,43.21671,445.7],[-1.80223,43.216736,446.0],[-1.802224,43.216766,446.2],[-1.802215,43.216795,446.9],[-1.802209,43.216833,447.6],[-1.802224,43.216859,448.0],[-1.80223,43.216892,448.6],[-1.802206,43.216923,449.4],[-1.802201,43.216951,449.9],[-1.802181,43.216978,450.5],[-1.802173,43.21701,451.3],[-1.802203,43.217041,452.1],[-1.802192,43.217078,452.8],[-1.802184,43.217111,453.6],[-1.802185,43.21714,454.4],[-1.80221,43.217167,455.0],[-1.802237,43.217203,455.8],[-1.802245,43.21723,456.3],[-1.802273,43.217249,456.7],[-1.802255,43.217279,457.5],[-1.802242,43.217309,458.2],[-1.802251,43.217357,459.3],[-1.802268,43.217387,460.0],[-1.802286,43.217418,460.8],[-1.802291,43.217446,461.0],[-1.802294,43.217478,461.4],[-1.802292,43.217507,461.7],[-1.802287,43.217539,462.2],[-1.802304,43.217568,462.6],[-1.802335,43.217592,463.2],[-1.802338,43.217622,463.5],[-1.802354,43.217651,463.8],[-1.802384,43.217675,464.4],[-1.802399,43.2177,465.0],[-1.802399,43.217732,465.6],[-1.802392,43.217772,466.1],[-1.802368,43.217812,467.0],[-1.802385,43.217839,467.6],[-1.802389,43.217867,468.0],[-1.8024,43.217894,468.3],[-1.802409,43.217934,469.0],[-1.802402,43.217963,469.6],[-1.802385,43.21799,470.0],[-1.802378,43.218019,470.3],[-1.802351,43.218043,470.8],[-1.802301,43.218049,471.4],[-1.802265,43.218061,471.8],[-1.802229,43.218085,472.2],[-1.802203,43.218104,472.4],[-1.80216,43.218106,472.7],[-1.802135,43.218139,473.1],[-1.802112,43.218163,473.5],[-1.802057,43.218165,474.0],[-1.802015,43.218162,474.4],[-1.801977,43.218154,474.6],[-1.80193,43.218143,475.0],[-1.801892,43.218134,475.2],[-1.801844,43.218107,475.9],[-1.801799,43.218102,476.5],[-1.801736,43.218105,477.2],[-1.80171,43.218074,478.0],[-1.801669,43.218075,478.7],[-1.801607,43.218061,479.5],[-1.801552,43.218055,480.5],[-1.801518,43.218073,481.1],[-1.801464,43.218059,481.8],[-1.801409,43.218057,482.7],[-1.801361,43.218055,483.5],[-1.801323,43.218053,483.8],[-1.80127,43.218046,484.3],[-1.801217,43.218033,485.1],[-1.801162,43.218015,486.1],[-1.801105,43.218012,487.0],[-1.801065,43.218012,487.6],[-1.801021,43.218009,488.1],[-1.800981,43.218,488.4],[-1.800937,43.217991,488.7],[-1.800902,43.217961,489.3],[-1.800863,43.217961,489.6],[-1.800823,43.217944,489.9],[-1.800818,43.217973,490.1],[-1.800805,43.218001,490.6],[-1.8008,43.218029,491.0],[-1.800807,43.218057,491.4],[-1.800811,43.218086,491.9],[-1.800812,43.218119,492.3],[-1.800808,43.218146,492.6],[-1.80084,43.218162,492.8],[-1.800858,43.218195,493.1],[-1.800883,43.218219,493.4],[-1.800908,43.218253,493.9],[-1.800917,43.218282,494.3],[-1.80094,43.21831,494.6],[-1.800947,43.218341,494.9],[-1.800939,43.218368,495.1],[-1.800942,43.218396,495.3],[-1.800967,43.218429,495.5],[-1.80099,43.218456,496.1],[-1.801018,43.21849,496.8],[-1.801046,43.218512,497.2],[-1.801072,43.218536,497.5],[-1.8011,43.218562,498.0],[-1.801133,43.218589,498.8],[-1.801167,43.218621,499.3],[-1.801201,43.218644,499.9],[-1.801234,43.218664,500.6],[-1.801273,43.218668,501.2],[-1.801316,43.218692,501.7],[-1.801343,43.218716,502.4],[-1.801375,43.218734,503.0],[-1.801413,43.218758,503.7],[-1.801455,43.218782,504.3],[-1.801478,43.218805,505.0],[-1.801519,43.218827,506.0],[-1.801551,43.218842,506.7],[-1.801586,43.218862,507.9],[-1.801633,43.21887,508.8],[-1.801677,43.218872,509.7],[-1.801723,43.218903,510.5],[-1.801769,43.218931,511.2],[-1.801796,43.21895,511.8],[-1.80183,43.218976,512.6],[-1.801845,43.219015,513.6],[-1.801826,43.21904,514.0],[-1.801782,43.219052,514.3],[-1.801758,43.219074,514.6],[-1.801723,43.219084,514.9],[-1.801686,43.2191,515.1],[-1.801651,43.219117,515.3],[-1.801614,43.219122,515.5],[-1.801586,43.219158,515.8],[-1.801573,43.219191,516.0],[-1.801572,43.21922,516.1],[-1.801547,43.219262,516.2],[-1.801532,43.219289,516.3],[-1.801505,43.219321,516.3],[-1.801477,43.219359,516.3],[-1.801492,43.219386,516.3],[-1.801515,43.219413,516.5],[-1.801532,43.219443,516.7],[-1.801551,43.219476,517.0],[-1.801578,43.219519,517.5],[-1.801597,43.219547,517.8],[-1.801596,43.219577,518.0],[-1.801605,43.219607,518.2],[-1.801595,43.219642,518.4],[-1.801599,43.219672,518.5],[-1.80161,43.219705,518.7],[-1.801596,43.219734,518.8],[-1.801581,43.219771,519.0],[-1.801584,43.219806,519.2],[-1.801592,43.219842,519.4],[-1.801571,43.21987,519.6],[-1.80158,43.219907,519.8],[-1.80159,43.219936,520.0],[-1.801617,43.219973,520.3],[-1.801624,43.220005,520.5],[-1.801603,43.220035,520.7],[-1.801571,43.220049,520.8],[-1.801532,43.220064,521.0],[-1.801478,43.220089,521.2],[-1.801437,43.220101,521.4],[-1.801395,43.22011,521.6],[-1.801357,43.22013,521.7],[-1.801319,43.220151,521.9],[-1.80127,43.220153,522.2],[-1.801228,43.220151,522.4],[-1.801184,43.220154,522.6],[-1.801148,43.220168,522.8],[-1.801112,43.220188,523.1],[-1.801083,43.220207,523.3],[-1.801038,43.220203,523.5],[-1.801002,43.220191,523.6],[-1.800964,43.220191,523.7],[-1.800915,43.220224,523.9],[-1.800893,43.220249,524.0],[-1.800852,43.220263,524.2],[-1.800806,43.220269,524.4],[-1.800758,43.220268,524.7],[-1.800717,43.220271,524.9],[-1.800679,43.22028,525.2],[-1.800635,43.220288,525.4],[-1.800586,43.220289,525.6],[-1.800531,43.220312,525.8],[-1.80049,43.220312,525.9],[-1.800445,43.220348,526.1],[-1.80041,43.220375,526.3],[-1.80039,43.220401,526.5],[-1.800368,43.220432,526.8],[-1.800358,43.22046,527.0],[-1.800349,43.22049,527.3],[-1.800316,43.220529,527.5],[-1.80027,43.220546,527.8],[-1.800241,43.220569,527.9],[-1.800228,43.220606,528.1],[-1.800245,43.220633,528.3],[-1.800258,43.220661,528.5],[-1.800282,43.220711,528.8],[-1.800298,43.220735,529.0],[-1.800312,43.220768,529.2],[-1.800334,43.220798,529.4],[-1.800361,43.220821,529.6],[-1.800392,43.220841,529.8],[-1.800423,43.220859,530.1],[-1.800458,43.220881,530.3],[-1.800501,43.220898,530.5],[-1.800542,43.220914,530.7],[-1.800565,43.220943,530.9],[-1.800585,43.220967,531.1],[-1.800619,43.220983,531.3],[-1.800656,43.221,531.7],[-1.800695,43.221027,532.2],[-1.800725,43.221048,532.5],[-1.800729,43.221079,532.7],[-1.800772,43.221115,533.1],[-1.8008,43.221138,533.2],[-1.800832,43.221156,533.4],[-1.800858,43.221184,533.6],[-1.800877,43.221211,533.9],[-1.800892,43.221239,534.1],[-1.800912,43.221264,534.3],[-1.800934,43.221293,534.5],[-1.800964,43.221323,534.7],[-1.801001,43.221343,534.8],[-1.801036,43.221361,535.0],[-1.801066,43.22138,535.1],[-1.80107,43.221413,535.2],[-1.801064,43.22144,535.3],[-1.801082,43.221477,535.5],[-1.801077,43.221511,535.6],[-1.801076,43.221551,535.7],[-1.801067,43.221595,535.9],[-1.801065,43.221628,536.0],[-1.801066,43.221662,536.0],[-1.801063,43.221702,536.2],[-1.80105,43.221738,536.3],[-1.801038,43.221767,536.4],[-1.801028,43.221793,536.5],[-1.801026,43.221821,536.7],[-1.801024,43.221857,536.9],[-1.801017,43.221887,537.0],[-1.801022,43.221916,537.3],[-1.80101,43.221946,537.5],[-1.801011,43.221984,537.7],[-1.801021,43.222021,538.0],[-1.801013,43.222054,538.2],[-1.801011,43.222085,538.4],[-1.801009,43.222125,538.5],[-1.801018,43.222155,538.7],[-1.801038,43.222189,538.8],[-1.801036,43.222229,538.9],[-1.801034,43.222264,539.1],[-1.801033,43.2223,539.2],[-1.801051,43.222328,539.3],[-1.801065,43.222358,539.5],[-1.801081,43.222389,539.7],[-1.80109,43.222418,539.8],[-1.801091,43.22245,540.0],[-1.801096,43.222477,540.2],[-1.8011,43.222516,540.4],[-1.801093,43.222555,540.5],[-1.801102,43.222583,540.6],[-1.80112,43.222612,540.7],[-1.801146,43.222637,540.7],[-1.801161,43.222662,540.7],[-1.801184,43.222699,540.8],[-1.801183,43.22273,540.8],[-1.801167,43.222765,540.8],[-1.801157,43.222798,540.9],[-1.801153,43.222825,541.0],[-1.801139,43.222854,541.1],[-1.801147,43.222882,541.3],[-1.801153,43.222909,541.5],[-1.801125,43.222942,541.8],[-1.801114,43.222972,542.1],[-1.801112,43.223,542.3],[-1.80112,43.223042,542.6],[-1.80115,43.223073,542.9],[-1.801183,43.223101,543.1],[-1.801208,43.223126,543.3],[-1.80122,43.223157,543.4],[-1.801241,43.223185,543.5],[-1.801259,43.223211,543.6],[-1.801235,43.223232,543.7],[-1.801254,43.223256,543.8],[-1.801271,43.223295,543.9],[-1.801299,43.22333,544.0],[-1.801319,43.223361,544.1],[-1.801319,43.223392,544.3],[-1.801292,43.223422,544.5],[-1.801283,43.223464,544.7],[-1.801276,43.223507,545.0],[-1.801263,43.223546,545.2],[-1.801246,43.223582,545.5],[-1.801199,43.223594,545.7],[-1.801166,43.223623,545.8],[-1.801143,43.223652,545.9],[-1.801124,43.223683,546.0],[-1.801132,43.223713,546.1],[-1.801137,43.223752,546.2],[-1.801126,43.223782,546.4],[-1.801101,43.223812,546.6],[-1.801072,43.22383,546.7],[-1.801023,43.223849,546.9],[-1.800974,43.223869,547.2],[-1.800955,43.223894,547.4],[-1.80093,43.223924,547.6],[-1.800896,43.223951,547.8],[-1.800848,43.223946,548.0],[-1.800876,43.223971,548.1],[-1.800846,43.223989,548.3],[-1.800804,43.224004,548.4],[-1.800764,43.224011,548.5],[-1.800727,43.224015,548.6],[-1.800689,43.224036,548.7],[-1.800639,43.224051,548.8],[-1.800601,43.224072,548.9],[-1.800564,43.224087,548.9],[-1.800526,43.224098,549.0],[-1.800495,43.224118,549.0],[-1.800468,43.224147,549.1],[-1.800437,43.224163,549.2],[-1.800394,43.22416,549.3],[-1.800364,43.224181,549.3],[-1.800345,43.224207,549.4],[-1.800308,43.224234,549.5],[-1.800269,43.224267,549.7],[-1.800231,43.224279,549.8],[-1.800205,43.224299,549.9],[-1.800171,43.224323,550.1],[-1.800134,43.224342,550.2],[-1.800104,43.224362,550.3],[-1.800077,43.224391,550.4],[-1.80005,43.224435,550.5],[-1.800036,43.224461,550.6],[-1.800014,43.224485,550.7],[-1.799993,43.224507,550.7],[-1.799974,43.224539,550.9],[-1.799964,43.224568,550.9],[-1.799957,43.224595,551.0],[-1.799945,43.224625,551.1],[-1.799918,43.224652,551.2],[-1.799909,43.224683,551.3],[-1.799918,43.224712,551.4],[-1.799924,43.224742,551.6],[-1.799916,43.224769,551.6],[-1.799922,43.224808,551.9],[-1.799887,43.224831,552.0],[-1.799869,43.224858,552.2],[-1.799845,43.224883,552.3],[-1.799774,43.224893,552.7],[-1.799729,43.224903,552.9],[-1.7997,43.224922,553.0],[-1.799659,43.224943,553.2],[-1.799638,43.224966,553.4],[-1.799615,43.22499,553.5],[-1.799594,43.225017,553.7],[-1.799554,43.225041,553.9],[-1.799534,43.225064,554.0],[-1.799509,43.225092,554.1],[-1.799477,43.225124,554.3],[-1.799452,43.225156,554.5],[-1.799452,43.225183,554.6],[-1.799436,43.225213,554.7],[-1.79941,43.225235,554.9],[-1.799381,43.225256,555.0],[-1.799347,43.225277,555.1],[-1.799315,43.225299,555.2],[-1.799299,43.225325,555.4],[-1.799269,43.22535,555.5],[-1.799276,43.22539,555.7],[-1.799277,43.225421,555.8],[-1.799262,43.225449,555.9],[-1.799231,43.225471,556.0],[-1.799201,43.225491,556.1],[-1.799162,43.225498,556.2],[-1.799117,43.225505,556.4],[-1.799077,43.225509,556.5],[-1.799026,43.22551,556.7],[-1.798963,43.225516,556.8],[-1.798916,43.225522,557.0],[-1.798866,43.225521,557.1],[-1.798824,43.225521,557.2],[-1.798786,43.225524,557.2],[-1.798751,43.225538,557.3],[-1.798715,43.225546,557.4],[-1.798662,43.225561,557.5],[-1.798625,43.225579,557.5],[-1.798586,43.225582,557.6],[-1.798539,43.225596,557.7],[-1.798501,43.225596,557.8],[-1.798453,43.22561,557.9],[-1.798414,43.225626,558.1],[-1.798368,43.225641,558.3],[-1.798316,43.225659,558.5],[-1.798273,43.225658,558.6],[-1.798234,43.225687,558.9],[-1.798204,43.225703,559.0],[-1.798169,43.225715,559.2],[-1.798157,43.225745,559.3],[-1.79812,43.225769,559.5],[-1.798095,43.225789,559.6],[-1.798051,43.225806,559.8],[-1.798023,43.225827,559.9],[-1.798014,43.225865,560.0],[-1.797991,43.225894,560.1],[-1.797977,43.225929,560.2],[-1.797963,43.225962,560.4],[-1.797964,43.226017,560.6],[-1.797947,43.226054,560.7],[-1.797908,43.226062,560.8],[-1.797892,43.226087,560.9],[-1.797857,43.226115,561.1],[-1.797825,43.226133,561.2],[-1.797808,43.22616,561.3],[-1.797791,43.226189,561.4],[-1.797769,43.226213,561.5],[-1.797729,43.22622,561.7],[-1.797686,43.226228,561.8],[-1.797644,43.226242,561.9],[-1.797616,43.226268,562.0],[-1.797586,43.226296,562.0],[-1.79755,43.226311,562.1],[-1.797513,43.226336,562.2],[-1.797473,43.226343,562.3],[-1.797437,43.226331,562.4],[-1.797399,43.226334,562.5],[-1.797356,43.226335,562.6],[-1.797308,43.226336,562.8],[-1.797267,43.22634,563.0],[-1.797211,43.226352,563.3],[-1.79717,43.226354,563.5],[-1.797101,43.226367,563.8],[-1.797055,43.226383,564.1],[-1.797019,43.226398,564.3],[-1.796978,43.226417,564.5],[-1.796933,43.22643,564.7],[-1.79689,43.226444,564.9],[-1.796851,43.226443,565.1],[-1.796809,43.226454,565.3],[-1.796753,43.226461,565.5],[-1.796712,43.226458,565.6],[-1.796671,43.226461,565.8],[-1.796623,43.226459,565.9],[-1.796582,43.226464,566.1],[-1.796527,43.226467,566.2],[-1.796475,43.226466,566.3],[-1.796435,43.226476,566.4],[-1.796381,43.226481,566.5],[-1.796338,43.226483,566.6],[-1.796292,43.226486,566.7],[-1.796233,43.226485,566.9],[-1.796192,43.22649,567.0],[-1.796141,43.226492,567.2],[-1.796102,43.226489,567.3],[-1.796061,43.226488,567.5],[-1.79602,43.226482,567.6],[-1.795976,43.226482,567.7],[-1.79594,43.22649,567.8],[-1.795885,43.226496,567.8],[-1.795834,43.226513,567.8],[-1.795788,43.226515,567.8],[-1.795745,43.226525,567.8],[-1.795705,43.226539,567.8],[-1.795655,43.226543,567.8],[-1.795611,43.226551,567.9],[-1.795573,43.226564,567.9],[-1.795534,43.22658,568.0],[-1.795492,43.226595,568.1],[-1.79544,43.22659,568.3],[-1.795397,43.226594,568.5],[-1.795363,43.22661,568.6],[-1.795326,43.226623,568.8],[-1.79527,43.226633,569.0],[-1.795231,43.226641,569.1],[-1.795185,43.22666,569.3],[-1.795144,43.22667,569.4],[-1.795117,43.226689,569.5],[-1.795077,43.226706,569.7],[-1.795042,43.226723,569.8],[-1.794999,43.226725,569.9],[-1.794958,43.226728,570.0],[-1.794922,43.22674,570.1],[-1.794878,43.226748,570.2],[-1.794836,43.226764,570.3],[-1.794794,43.226771,570.4],[-1.794748,43.226783,570.5],[-1.794716,43.226801,570.6],[-1.794673,43.226819,570.7],[-1.79464,43.22684,570.7],[-1.794604,43.226854,570.8],[-1.794571,43.226868,570.9],[-1.794527,43.226885,571.0],[-1.794488,43.226912,571.1],[-1.794451,43.22693,571.2],[-1.794391,43.226941,571.4],[-1.794349,43.226956,571.6],[-1.794309,43.226962,571.7],[-1.794277,43.226977,571.9],[-1.79423,43.226979,572.1],[-1.794206,43.227004,572.2],[-1.794183,43.227026,572.4],[-1.794154,43.227045,572.5],[-1.79411,43.22705,572.7],[-1.794074,43.227062,572.8],[-1.794021,43.227083,573.0],[-1.793978,43.227105,573.1],[-1.793944,43.227127,573.2],[-1.793911,43.227142,573.3],[-1.793861,43.227161,573.4],[-1.793802,43.227172,573.5],[-1.793759,43.227178,573.6],[-1.793723,43.227191,573.7],[-1.793669,43.227197,573.8],[-1.793625,43.227209,573.9],[-1.793586,43.227214,573.9],[-1.793545,43.22722,574.0],[-1.793498,43.227216,574.1],[-1.793447,43.227208,574.2],[-1.793409,43.227205,574.3],[-1.793365,43.2272,574.5],[-1.793328,43.227212,574.6],[-1.79329,43.227207,574.7],[-1.793253,43.227205,574.8],[-1.793213,43.227209,575.0],[-1.793175,43.227212,575.1],[-1.793128,43.227219,575.3],[-1.793088,43.227216,575.4],[-1.793038,43.22721,575.6],[-1.792985,43.227202,575.8],[-1.792987,43.227138,576.0],[-1.793011,43.227105,576.2],[-1.793005,43.227079,576.3],[-1.793019,43.227105,576.4],[-1.792983,43.227126,576.6],[-1.792961,43.227152,576.7],[-1.792953,43.227186,576.8],[-1.792907,43.227204,577.0],[-1.792871,43.227214,577.1],[-1.792852,43.227242,577.2],[-1.792828,43.227271,577.3],[-1.792807,43.227293,577.3],[-1.792788,43.227325,577.4],[-1.792766,43.227347,577.5],[-1.79274,43.227386,577.6],[-1.792725,43.227419,577.7],[-1.792716,43.22745,577.8],[-1.792703,43.22748,577.8],[-1.79268,43.227503,577.9],[-1.792653,43.227531,578.0],[-1.792621,43.227559,578.1],[-1.792625,43.227599,578.3],[-1.792624,43.227629,578.4],[-1.792618,43.227668,578.5],[-1.792609,43.22771,578.7],[-1.792588,43.22774,578.8],[-1.792574,43.227765,578.9],[-1.792574,43.227796,579.0],[-1.792602,43.227818,579.0],[-1.792613,43.227848,579.0],[-1.792626,43.227879,579.1],[-1.792663,43.227898,579.1],[-1.79269,43.227917,579.2],[-1.792724,43.227942,579.3],[-1.792754,43.227961,579.3],[-1.792778,43.227982,579.4],[-1.792819,43.227986,579.5],[-1.792858,43.227988,579.6],[-1.792896,43.228004,579.6],[-1.792938,43.228005,579.7],[-1.792981,43.228004,579.7],[-1.79303,43.228016,579.8],[-1.793073,43.228039,579.9],[-1.793118,43.228053,580.1],[-1.793173,43.228079,580.2],[-1.793201,43.228102,580.3],[-1.793228,43.22813,580.4],[-1.793264,43.228145,580.5],[-1.793305,43.228154,580.6],[-1.793333,43.228174,580.6],[-1.793361,43.228202,580.6],[-1.793393,43.228226,580.7],[-1.793419,43.228247,580.7],[-1.793455,43.228264,580.8],[-1.793495,43.228275,580.8],[-1.793537,43.22829,580.9],[-1.793584,43.228305,581.0],[-1.793626,43.228329,581.1],[-1.793667,43.22835,581.1],[-1.793703,43.228359,581.2],[-1.793748,43.228386,581.2],[-1.793772,43.228407,581.3],[-1.793815,43.228419,581.3],[-1.793847,43.228437,581.4],[-1.793882,43.228447,581.5],[-1.793921,43.22846,581.5],[-1.79395,43.228486,581.6],[-1.79401,43.228481,581.6],[-1.79406,43.228484,581.6],[-1.794093,43.228497,581.7],[-1.79412,43.228517,581.7],[-1.794162,43.228531,581.7],[-1.794211,43.228532,581.8],[-1.794249,43.228544,581.8],[-1.794281,43.228557,581.9],[-1.794322,43.228579,582.0],[-1.794342,43.228606,582.1],[-1.794358,43.228631,582.2],[-1.794404,43.228643,582.4],[-1.794448,43.228656,582.5],[-1.7945,43.228658,582.7],[-1.794538,43.228658,582.8],[-1.794587,43.228664,583.0],[-1.794631,43.228672,583.1],[-1.794677,43.228672,583.2],[-1.794721,43.228653,583.3],[-1.794748,43.228631,583.4],[-1.794787,43.22862,583.6],[-1.794825,43.228619,583.7],[-1.794872,43.228612,583.8],[-1.794917,43.228607,583.9],[-1.794958,43.228602,584.0],[-1.795003,43.228606,584.1],[-1.795061,43.228607,584.2],[-1.7951,43.228596,584.2],[-1.795132,43.228581,584.3],[-1.795173,43.228566,584.4],[-1.79521,43.228547,584.4],[-1.795251,43.228536,584.5],[-1.795292,43.228553,584.6],[-1.79534,43.228541,584.6],[-1.795378,43.228513,584.7],[-1.795429,43.228511,584.7],[-1.79548,43.228506,584.8],[-1.795523,43.228521,584.8],[-1.795566,43.228512,584.8],[-1.795618,43.228511,584.7],[-1.795674,43.228512,584.7],[-1.795722,43.228513,584.7],[-1.795759,43.228506,584.7],[-1.795809,43.228501,584.8],[-1.795846,43.228495,584.9],[-1.795891,43.228486,584.9],[-1.795935,43.228473,585.0],[-1.795978,43.228482,585.1],[-1.796011,43.228501,585.2],[-1.796049,43.22851,585.3],[-1.796089,43.228501,585.4],[-1.796133,43.228489,585.5],[-1.796171,43.228495,585.6],[-1.796212,43.228491,585.7],[-1.796246,43.228478,585.7],[-1.796276,43.228452,585.9],[-1.796314,43.228428,586.0],[-1.796366,43.22842,586.1],[-1.796414,43.2284,586.2],[-1.796439,43.22838,586.3],[-1.796475,43.228357,586.3],[-1.796517,43.228345,586.4],[-1.796572,43.228342,586.4],[-1.796623,43.228324,586.5],[-1.796677,43.228312,586.5],[-1.796716,43.228306,586.6],[-1.796775,43.228312,586.7],[-1.796814,43.228316,586.7],[-1.796847,43.228288,586.8],[-1.796881,43.228265,586.9],[-1.79693,43.22826,587.1],[-1.796958,43.228279,587.2],[-1.796999,43.22828,587.3],[-1.797055,43.228295,587.4],[-1.797093,43.228301,587.5],[-1.797132,43.228322,587.6],[-1.797175,43.228345,587.8],[-1.797224,43.22834,587.9],[-1.797262,43.228335,587.9],[-1.797322,43.228333,588.0],[-1.79737,43.228342,588.1],[-1.797405,43.228366,588.1],[-1.797442,43.228382,588.2],[-1.797484,43.228392,588.2],[-1.797531,43.228407,588.3],[-1.79758,43.228435,588.3],[-1.797619,43.22846,588.4],[-1.797667,43.228465,588.4],[-1.797708,43.228473,588.5],[-1.797739,43.228496,588.5],[-1.797759,43.228531,588.6],[-1.797762,43.228571,588.6],[-1.797779,43.228605,588.5],[-1.797787,43.22865,588.5],[-1.797803,43.22868,588.5],[-1.797817,43.228709,588.5],[-1.797811,43.228736,588.5],[-1.7978,43.228765,588.5],[-1.797838,43.228797,588.6],[-1.797875,43.228825,588.8],[-1.797912,43.228865,589.0],[-1.797951,43.228893,589.1],[-1.797976,43.228923,589.3],[-1.798006,43.228942,589.5],[-1.798048,43.228949,589.6],[-1.798077,43.228991,589.8],[-1.798106,43.229033,590.1],[-1.798144,43.229061,590.2],[-1.798184,43.229084,590.3],[-1.798217,43.229101,590.4],[-1.798251,43.229134,590.4],[-1.798272,43.229161,590.4],[-1.798322,43.229166,590.4],[-1.798356,43.22915,590.4],[-1.7984,43.229136,590.3],[-1.798441,43.22914,590.3],[-1.798477,43.229154,590.3],[-1.798518,43.229147,590.3],[-1.798552,43.229158,590.3],[-1.798596,43.229168,590.4],[-1.79864,43.229185,590.4],[-1.798676,43.229194,590.5],[-1.798712,43.229183,590.5],[-1.798761,43.229181,590.6],[-1.798801,43.229175,590.7],[-1.798837,43.229155,590.7],[-1.798851,43.229125,590.8],[-1.79888,43.229097,591.0],[-1.798917,43.22908,591.1],[-1.798952,43.229069,591.2],[-1.798985,43.229055,591.3],[-1.799008,43.229026,591.5],[-1.799057,43.229013,591.6],[-1.799098,43.228998,591.8],[-1.799141,43.228965,591.9],[-1.799182,43.228958,592.0],[-1.799225,43.228944,592.1],[-1.799254,43.228926,592.2],[-1.799288,43.228896,592.3],[-1.799308,43.228871,592.3],[-1.799331,43.228833,592.4],[-1.799345,43.228808,592.4],[-1.799373,43.228782,592.5],[-1.799408,43.228763,592.5],[-1.799459,43.228764,592.7],[-1.799493,43.228752,592.8],[-1.799529,43.228741,592.9],[-1.799567,43.228718,593.2],[-1.79956,43.228688,593.4],[-1.799594,43.228649,593.8],[-1.799614,43.228621,594.0],[-1.799642,43.228581,594.4],[-1.799647,43.228553,594.6],[-1.799666,43.228527,594.8],[-1.799683,43.228485,595.2],[-1.79972,43.228449,595.4],[-1.799776,43.228422,595.7],[-1.799812,43.228409,595.8],[-1.799847,43.228391,595.9],[-1.799891,43.228374,596.0],[-1.799936,43.228352,596.1],[-1.79997,43.22833,596.3],[-1.79999,43.228305,596.4],[-1.80001,43.228273,596.5],[-1.800031,43.228244,596.6],[-1.800061,43.228222,596.8],[-1.800097,43.228203,596.9],[-1.800139,43.228184,597.1],[-1.800176,43.228146,597.3],[-1.800208,43.228118,597.5],[-1.800245,43.228102,597.6],[-1.800274,43.228084,597.7],[-1.800317,43.228076,597.8],[-1.800353,43.228084,597.9],[-1.8004,43.228112,598.0],[-1.800425,43.228152,598.1],[-1.800464,43.228185,598.2],[-1.800496,43.228208,598.3],[-1.800527,43.228233,598.4],[-1.800551,43.228261,598.6],[-1.800581,43.228282,598.7],[-1.80063,43.228303,599.0],[-1.800671,43.228294,599.1],[-1.800714,43.22828,599.2],[-1.800755,43.228298,599.2],[-1.8008,43.228314,599.2],[-1.800856,43.228311,599.2],[-1.800897,43.228304,599.2],[-1.80094,43.228298,599.2],[-1.80098,43.228302,599.2],[-1.801027,43.228302,599.2],[-1.801062,43.228287,599.3],[-1.801107,43.228314,599.3],[-1.801167,43.228313,599.4],[-1.801209,43.228292,599.5],[-1.801253,43.228282,599.6],[-1.801299,43.228272,599.6],[-1.801337,43.228278,599.7],[-1.801404,43.228279,599.8],[-1.801449,43.228283,599.9],[-1.801486,43.228276,600.0],[-1.801505,43.228243,600.0],[-1.801562,43.228229,600.1],[-1.801599,43.228233,600.2],[-1.801643,43.228229,600.3],[-1.801675,43.228208,600.4],[-1.801715,43.22818,600.5],[-1.801751,43.228163,600.7],[-1.801792,43.228173,600.8],[-1.801838,43.228182,601.0],[-1.801881,43.228185,601.2],[-1.801925,43.228184,601.4],[-1.801951,43.228208,601.6],[-1.801974,43.228235,601.8],[-1.801996,43.228261,602.0],[-1.80203,43.228297,602.2],[-1.802048,43.228323,602.4],[-1.802062,43.228362,602.7],[-1.802072,43.228395,602.9],[-1.802071,43.228427,603.1],[-1.802059,43.228456,603.4],[-1.802044,43.228484,603.7],[-1.801997,43.228523,604.3],[-1.801979,43.228552,604.6],[-1.801983,43.228586,604.9],[-1.801995,43.228615,605.2],[-1.801984,43.228645,605.5],[-1.801976,43.228673,605.7],[-1.801964,43.228702,605.8],[-1.801969,43.228736,606.0],[-1.801979,43.228764,606.0],[-1.802025,43.228806,606.1],[-1.802064,43.228834,606.2],[-1.8021,43.228848,606.3],[-1.802136,43.228867,606.4],[-1.802174,43.228888,606.6],[-1.802196,43.228916,606.7],[-1.802215,43.228944,606.8],[-1.802249,43.228971,606.9],[-1.802294,43.228986,607.1],[-1.802332,43.228992,607.1],[-1.802372,43.229009,607.2],[-1.802408,43.229023,607.3],[-1.802458,43.229045,607.4],[-1.802496,43.229048,607.5],[-1.802537,43.229061,607.6],[-1.802562,43.229084,607.6],[-1.802587,43.229116,607.7],[-1.802628,43.229094,607.8],[-1.802686,43.229093,607.9],[-1.802722,43.229099,608.0],[-1.802782,43.229097,608.1],[-1.802834,43.229098,608.2],[-1.80287,43.229106,608.3],[-1.802924,43.22911,608.5],[-1.802976,43.229133,608.6],[-1.803001,43.229161,608.8],[-1.80303,43.229186,608.9],[-1.803073,43.229214,609.1],[-1.803109,43.229228,609.3],[-1.803144,43.229214,609.4],[-1.803187,43.22919,609.6],[-1.803244,43.229192,609.8],[-1.803309,43.229194,610.1],[-1.803356,43.229195,610.3],[-1.803403,43.229199,610.5],[-1.803437,43.229233,610.7],[-1.803458,43.229256,610.9],[-1.803494,43.229277,611.1],[-1.803536,43.229296,611.2],[-1.803576,43.229314,611.4],[-1.803606,43.229334,611.5],[-1.80364,43.229377,611.7],[-1.803657,43.229401,611.8],[-1.803679,43.229426,611.9],[-1.8037,43.229453,612.0],[-1.803728,43.229479,612.0],[-1.803764,43.229506,612.1],[-1.803751,43.229553,612.2],[-1.803736,43.229599,612.4],[-1.803718,43.229632,612.5],[-1.803693,43.229656,612.7],[-1.803668,43.229685,612.9],[-1.803635,43.229713,613.1],[-1.803604,43.229733,613.3],[-1.803575,43.22976,613.5],[-1.803532,43.229799,613.8],[-1.803499,43.229829,614.1],[-1.803465,43.229852,614.3],[-1.803424,43.229864,614.4],[-1.803402,43.229899,614.6],[-1.803365,43.22992,614.7],[-1.803334,43.229935,614.8],[-1.803288,43.229952,614.9],[-1.803256,43.229967,615.0],[-1.803228,43.229992,615.1],[-1.803203,43.230016,615.1],[-1.80317,43.230034,615.2],[-1.803139,43.230062,615.3],[-1.803114,43.230082,615.4],[-1.803092,43.23011,615.5],[-1.803093,43.230138,615.6],[-1.803103,43.230166,615.7],[-1.803081,43.230194,615.9],[-1.803036,43.230203,616.0],[-1.803005,43.230223,616.2],[-1.802979,43.230245,616.3],[-1.802937,43.230271,616.5],[-1.802909,43.230303,616.7],[-1.802879,43.230338,616.9],[-1.802848,43.230366,617.0],[-1.802817,43.230401,617.2],[-1.802796,43.230427,617.4],[-1.802789,43.230455,617.5],[-1.802749,43.230485,617.6],[-1.80272,43.230508,617.7],[-1.802708,43.230544,617.9],[-1.802701,43.230571,617.9],[-1.802678,43.230595,618.0],[-1.802647,43.230624,618.1],[-1.802624,43.230649,618.2],[-1.802605,43.230679,618.3],[-1.802593,43.230711,618.4],[-1.802583,43.230741,618.5],[-1.802572,43.23077,618.6],[-1.802594,43.230801,618.7],[-1.802629,43.230832,618.8],[-1.802649,43.230855,618.9],[-1.80268,43.230872,619.0],[-1.802692,43.230903,619.2],[-1.802704,43.230933,619.3],[-1.802744,43.230934,619.4],[-1.802771,43.230954,619.5],[-1.802798,43.23098,619.7],[-1.802827,43.231,619.8],[-1.802841,43.231027,619.9],[-1.802874,43.23105,620.1],[-1.802916,43.231055,620.2],[-1.802946,43.231076,620.4],[-1.802969,43.231107,620.5],[-1.802997,43.231142,620.7],[-1.803031,43.231167,620.8],[-1.803069,43.231186,620.9],[-1.803122,43.231188,621.0],[-1.803158,43.231196,621.0],[-1.80321,43.231203,621.1],[-1.803247,43.231221,621.2],[-1.803296,43.231218,621.3],[-1.803334,43.231205,621.4],[-1.803372,43.231208,621.5],[-1.803415,43.231208,621.7],[-1.803464,43.231187,621.8],[-1.803504,43.231168,622.0],[-1.803549,43.23115,622.1],[-1.803591,43.231136,622.3],[-1.803637,43.231142,622.4],[-1.803673,43.231133,622.6],[-1.803705,43.231148,622.7],[-1.803742,43.231133,622.9],[-1.803785,43.23114,623.0],[-1.803825,43.231149,623.2],[-1.803852,43.231173,623.3],[-1.803885,43.231205,623.5],[-1.8039,43.231234,623.6],[-1.80392,43.231268,623.7],[-1.803943,43.231304,623.8],[-1.803967,43.231336,624.0],[-1.803984,43.231363,624.1],[-1.803993,43.231393,624.3],[-1.804007,43.231429,624.4],[-1.804056,43.231453,624.6],[-1.804096,43.231477,624.8],[-1.804122,43.231503,624.9],[-1.804153,43.231536,625.0],[-1.804149,43.231564,625.1],[-1.804171,43.23159,625.1],[-1.804206,43.231616,625.3],[-1.80422,43.231646,625.3],[-1.804239,43.231684,625.5],[-1.804256,43.231712,625.6],[-1.804283,43.231732,625.7],[-1.804329,43.23176,625.9],[-1.80434,43.231791,626.0],[-1.80437,43.231824,626.2],[-1.804401,43.231848,626.2],[-1.804392,43.231879,626.3],[-1.804383,43.231906,626.4],[-1.804353,43.231937,626.5],[-1.804317,43.23196,626.5],[-1.804283,43.231981,626.6],[-1.804243,43.231991,626.7],[-1.80419,43.231997,626.7],[-1.804133,43.231987,626.7],[-1.804088,43.23199,626.7],[-1.804024,43.232001,626.6],[-1.80395,43.232012,626.6],[-1.803905,43.232019,626.7],[-1.803866,43.232028,626.7],[-1.803812,43.232051,626.9],[-1.803774,43.232059,627.0],[-1.803731,43.232036,627.1],[-1.803699,43.232021,627.1],[-1.803664,43.23201,627.2],[-1.803621,43.232031,627.3],[-1.803579,43.232039,627.4],[-1.803554,43.232013,627.5],[-1.803515,43.232023,627.6],[-1.803487,43.232048,627.8],[-1.803432,43.232049,627.9],[-1.803395,43.232039,628.0],[-1.803359,43.232025,628.2],[-1.803317,43.232026,628.3],[-1.803273,43.232041,628.4],[-1.803226,43.232044,628.5],[-1.803179,43.232051,628.6],[-1.803137,43.232067,628.7],[-1.803102,43.232081,628.8],[-1.80306,43.232088,628.9],[-1.803014,43.232112,629.0],[-1.802982,43.232132,629.1],[-1.802973,43.232162,629.2],[-1.802964,43.232195,629.3],[-1.802964,43.232226,629.4],[-1.80297,43.232264,629.4],[-1.802976,43.232292,629.5],[-1.802976,43.232321,629.5],[-1.803002,43.232348,629.5],[-1.803052,43.232376,629.6],[-1.803059,43.232403,629.6],[-1.803072,43.232433,629.6],[-1.803112,43.23246,629.7],[-1.803148,43.232486,629.8],[-1.803186,43.232503,629.9],[-1.803222,43.232521,630.0],[-1.803251,43.232545,630.0],[-1.803283,43.232564,630.1],[-1.803308,43.232594,630.3],[-1.803337,43.232624,630.4],[-1.803374,43.232642,630.5],[-1.803408,43.232657,630.7],[-1.803439,43.232674,630.8],[-1.803478,43.232681,630.9],[-1.803526,43.23269,631.0],[-1.803558,43.232703,631.1],[-1.803594,43.232726,631.2],[-1.803625,43.232752,631.2],[-1.803667,43.232766,631.3],[-1.803684,43.232795,631.3],[-1.803713,43.232812,631.3],[-1.80375,43.232826,631.3],[-1.803803,43.232836,631.3],[-1.803838,43.232858,631.3],[-1.803884,43.232865,631.4],[-1.803937,43.232938,631.5],[-1.80397,43.232954,631.6],[-1.804004,43.232984,631.7],[-1.804059,43.23301,631.8],[-1.804079,43.233035,631.9],[-1.804111,43.233054,631.9],[-1.80413,43.233087,632.0],[-1.804176,43.233074,632.2],[-1.804201,43.233102,632.3],[-1.804217,43.233136,632.4],[-1.804245,43.233173,632.6],[-1.804285,43.233204,632.8],[-1.804315,43.233231,633.0],[-1.804344,43.233249,633.1],[-1.804381,43.233275,633.2],[-1.804408,43.233304,633.2],[-1.804431,43.233335,633.3],[-1.804446,43.233365,633.4],[-1.80449,43.233359,633.4],[-1.804536,43.233374,633.5],[-1.804577,43.233385,633.6],[-1.804603,43.23341,633.7],[-1.804646,43.233437,633.8],[-1.804684,43.233459,633.9],[-1.804722,43.233474,634.1],[-1.804765,43.233485,634.2],[-1.804808,43.233508,634.3],[-1.804844,43.233527,634.4],[-1.804879,43.233553,634.6],[-1.804907,43.233573,634.7],[-1.804918,43.2336,634.8],[-1.80494,43.233624,634.9],[-1.804977,43.233638,635.0],[-1.805002,43.233658,635.1],[-1.805031,43.233682,635.1],[-1.805022,43.233711,635.2],[-1.805044,43.233742,635.3],[-1.80506,43.233768,635.3],[-1.805076,43.233793,635.4],[-1.805098,43.233825,635.5],[-1.805112,43.233852,635.5],[-1.805134,43.23388,635.6],[-1.805166,43.233909,635.7],[-1.805191,43.233936,635.8],[-1.805196,43.233964,635.8],[-1.8052,43.233996,635.9],[-1.805222,43.23402,636.0],[-1.805227,43.234054,636.1],[-1.805215,43.234087,636.1],[-1.805227,43.234114,636.2],[-1.805223,43.234148,636.2],[-1.805228,43.234182,636.3],[-1.805257,43.234209,636.4],[-1.805295,43.234229,636.5],[-1.805332,43.234252,636.6],[-1.805371,43.234277,636.7],[-1.805414,43.234304,636.8],[-1.80546,43.234333,637.0],[-1.805505,43.234368,637.2],[-1.805542,43.234392,637.3],[-1.805568,43.234412,637.4],[-1.805598,43.234442,637.6],[-1.805642,43.234462,637.7],[-1.805669,43.234484,637.8],[-1.805683,43.234517,638.0],[-1.80569,43.234545,638.1],[-1.805709,43.234581,638.4],[-1.805732,43.234608,638.6],[-1.805737,43.234645,638.8],[-1.805729,43.234681,639.0],[-1.805708,43.234712,639.1],[-1.805687,43.234736,639.2],[-1.805667,43.234768,639.3],[-1.805649,43.234796,639.4],[-1.805616,43.234814,639.4],[-1.805584,43.234835,639.5],[-1.805589,43.234866,639.6],[-1.805573,43.234897,639.8],[-1.805543,43.234915,639.9],[-1.805513,43.234939,640.1],[-1.805512,43.234974,640.3],[-1.805503,43.235007,640.6],[-1.805483,43.235032,640.8],[-1.805493,43.235065,641.0],[-1.805474,43.23509,641.0],[-1.805441,43.235117,641.0],[-1.805428,43.235151,641.0],[-1.805428,43.235181,641.0],[-1.805396,43.235194,641.0],[-1.805396,43.235232,641.0],[-1.805419,43.235256,641.0],[-1.805409,43.235284,641.0],[-1.805385,43.235307,641.0],[-1.805357,43.235329,641.0],[-1.805315,43.235359,641.0],[-1.805284,43.235384,641.0],[-1.805248,43.235406,641.0],[-1.8052,43.235428,640.3],[-1.805163,43.235443,638.7],[-1.805145,43.235467,637.8],[-1.805121,43.235493,636.8],[-1.805118,43.235531,635.4],[-1.805101,43.235555,634.3],[-1.805067,43.23558,632.8],[-1.80503,43.235601,631.7],[-1.804994,43.235615,630.7],[-1.804965,43.235633,629.6],[-1.804924,43.235659,628.1],[-1.804898,43.235678,627.1],[-1.804874,43.235708,626.0],[-1.804853,43.235734,625.0],[-1.804823,43.235767,625.0],[-1.804799,43.235792,625.0],[-1.804762,43.235819,625.1],[-1.804726,43.235847,625.1],[-1.804699,43.235866,625.1],[-1.804664,43.235885,625.1],[-1.804641,43.235912,625.2],[-1.804603,43.235942,625.2],[-1.804581,43.235974,625.2],[-1.804562,43.235998,625.2],[-1.80453,43.236022,625.2],[-1.804502,43.236043,625.2],[-1.804489,43.236071,625.2],[-1.804472,43.236097,625.2],[-1.804451,43.236125,625.2],[-1.804418,43.236161,626.8],[-1.804394,43.236188,628.3],[-1.804369,43.236212,628.5],[-1.804336,43.236242,628.8],[-1.804313,43.236264,628.9],[-1.804285,43.236295,629.2],[-1.804252,43.236312,629.4],[-1.804234,43.236338,629.6],[-1.80424,43.23637,629.8],[-1.804229,43.236401,630.0],[-1.804215,43.236427,630.2],[-1.804203,43.236458,630.4],[-1.804203,43.236487,630.6],[-1.804187,43.236514,630.8],[-1.80419,43.236559,631.1],[-1.804193,43.236594,631.3],[-1.804179,43.23662,631.5],[-1.804174,43.236667,631.9],[-1.804145,43.236695,632.1],[-1.804122,43.236721,632.3],[-1.804107,43.236747,632.5],[-1.804101,43.236777,632.7],[-1.804087,43.236814,633.0],[-1.804065,43.23685,633.2],[-1.804034,43.236894,633.6],[-1.804019,43.236919,633.7],[-1.804004,43.23695,634.0],[-1.80398,43.236987,634.2],[-1.803948,43.237018,634.5],[-1.803929,43.237043,634.6],[-1.803912,43.237079,634.9],[-1.80389,43.237106,635.1],[-1.803876,43.237133,635.3],[-1.803856,43.237172,635.5],[-1.803844,43.237205,635.7],[-1.803838,43.237234,635.9],[-1.803829,43.237265,636.1],[-1.803822,43.237299,636.3],[-1.803817,43.237335,636.5],[-1.803818,43.237364,636.6],[-1.803812,43.237395,636.8],[-1.803808,43.237428,637.0],[-1.803796,43.237457,637.2],[-1.803792,43.237487,637.3],[-1.803789,43.237516,637.5],[-1.803777,43.237542,637.6],[-1.803772,43.237572,637.7],[-1.803777,43.237606,637.9],[-1.803779,43.237639,638.1],[-1.803777,43.237673,638.2],[-1.803768,43.237712,638.4],[-1.803763,43.237746,638.6],[-1.803752,43.237782,638.8],[-1.803751,43.23781,638.9],[-1.803747,43.237846,639.1],[-1.803741,43.23788,639.2],[-1.803741,43.237911,639.4],[-1.803732,43.237941,639.5],[-1.80372,43.237971,639.7],[-1.803694,43.238003,639.8],[-1.803681,43.238033,640.0],[-1.803671,43.23806,640.1],[-1.803665,43.238099,640.3],[-1.803662,43.238133,640.5],[-1.803658,43.238165,640.7],[-1.803655,43.238196,640.8],[-1.803654,43.238225,641.0],[-1.803653,43.238261,641.1],[-1.803646,43.238292,641.3],[-1.803634,43.238325,641.5],[-1.80362,43.238358,641.7],[-1.80362,43.238386,641.8],[-1.803621,43.238423,641.9],[-1.803612,43.238459,642.1],[-1.803596,43.238497,642.3],[-1.803591,43.238536,642.4],[-1.80359,43.238569,642.5],[-1.803582,43.238604,642.7],[-1.803587,43.238632,642.8],[-1.803599,43.238664,642.9],[-1.803598,43.238695,643.0],[-1.80359,43.238728,643.1],[-1.803579,43.238759,643.2],[-1.80358,43.238789,643.3],[-1.803588,43.238815,643.4],[-1.803603,43.238851,643.5],[-1.803606,43.23889,643.7],[-1.803611,43.238927,643.8],[-1.80361,43.238956,643.9],[-1.803607,43.238985,644.0],[-1.803614,43.239022,644.2],[-1.803604,43.239054,644.3],[-1.803593,43.239087,644.5],[-1.803591,43.239118,644.7],[-1.803592,43.239149,644.8],[-1.803596,43.239179,645.0],[-1.803614,43.239206,645.1],[-1.803649,43.23922,645.3],[-1.803681,43.239243,645.4],[-1.803701,43.23927,645.5]]}}]}