{"type":"FeatureCollection","features":[{"type":"Feature","properties":{"ruta_id":"31673327","nombre":"Ruta circular: Erentzu-Inzola-Erentzu","blog_url":"https://www.rutasporelmonte.com/ruta-circular-erentzu-inzola-erentzu/"},"geometry":{"type":"LineString","coordinates":[[-1.680215,43.305582,334.2],[-1.680217,43.305614,334.2],[-1.680194,43.305653,334.2],[-1.680179,43.305683,334.2],[-1.680172,43.305719,334.1],[-1.68016,43.305759,334.1],[-1.680139,43.305782,334.1],[-1.680101,43.3058,334.9],[-1.680076,43.305831,335.2],[-1.680034,43.305858,335.4],[-1.680015,43.305883,335.6],[-1.67998,43.305904,335.9],[-1.679951,43.305921,336.1],[-1.679926,43.30595,336.4],[-1.679875,43.305977,336.7],[-1.67984,43.30599,337.0],[-1.679797,43.30599,337.3],[-1.67976,43.306003,337.6],[-1.679726,43.30602,337.9],[-1.679692,43.306042,338.3],[-1.679653,43.306071,338.7],[-1.679623,43.306093,339.0],[-1.679597,43.306118,339.2],[-1.679571,43.30614,339.5],[-1.679541,43.306173,340.1],[-1.679519,43.306197,340.1],[-1.679497,43.306245,340.3],[-1.67949,43.30628,340.4],[-1.679502,43.306312,340.4],[-1.679518,43.306338,340.5],[-1.679561,43.306357,340.6],[-1.6796,43.306379,340.7],[-1.679631,43.306396,340.7],[-1.679664,43.30642,340.8],[-1.679693,43.306441,340.9],[-1.679744,43.306458,341.0],[-1.679786,43.306468,341.0],[-1.679821,43.306485,341.1],[-1.679855,43.306496,341.1],[-1.679897,43.306511,341.2],[-1.679934,43.306514,341.2],[-1.679967,43.306527,341.3],[-1.680013,43.306537,341.3],[-1.680059,43.306549,341.3],[-1.680103,43.306546,341.4],[-1.680148,43.306554,341.4],[-1.680176,43.306587,341.5],[-1.680221,43.306606,341.5],[-1.680255,43.306628,341.5],[-1.680279,43.306655,341.6],[-1.680317,43.306688,341.6],[-1.680354,43.306723,341.6],[-1.680385,43.306763,341.7],[-1.6804,43.306789,341.7],[-1.680438,43.306809,341.7],[-1.680446,43.30684,341.7],[-1.680449,43.306874,341.7],[-1.680479,43.306901,341.8],[-1.680515,43.306911,341.8],[-1.680527,43.306939,341.8],[-1.680529,43.306977,341.9],[-1.680541,43.307014,341.9],[-1.680557,43.307052,341.9],[-1.680571,43.307083,341.9],[-1.680581,43.307124,342.0],[-1.680593,43.307155,342.0],[-1.680608,43.307193,342.0],[-1.68062,43.307234,342.1],[-1.680637,43.307259,342.1],[-1.680655,43.307293,342.1],[-1.68067,43.307319,342.1],[-1.680676,43.307354,342.9],[-1.680683,43.307387,343.2],[-1.680668,43.307413,343.5],[-1.680655,43.307442,343.9],[-1.680639,43.307476,344.3],[-1.680621,43.307509,344.7],[-1.680598,43.307537,345.1],[-1.680565,43.307557,345.5],[-1.680535,43.30758,345.9],[-1.680508,43.307599,346.2],[-1.68047,43.307615,346.6],[-1.680418,43.30763,347.1],[-1.680369,43.307642,347.5],[-1.680324,43.307654,347.9],[-1.680279,43.307669,348.3],[-1.68023,43.307687,348.7],[-1.680183,43.307703,349.1],[-1.680135,43.307699,349.4],[-1.680094,43.307695,349.7],[-1.680048,43.307695,350.0],[-1.680005,43.307697,350.3],[-1.679966,43.307697,350.5],[-1.679927,43.30771,350.8],[-1.67989,43.307728,351.0],[-1.67986,43.307744,351.2],[-1.679826,43.307756,351.4],[-1.679792,43.307768,351.6],[-1.679756,43.307783,351.8],[-1.679721,43.307796,352.0],[-1.679677,43.30779,352.3],[-1.679632,43.307796,352.5],[-1.679596,43.307806,352.8],[-1.679553,43.307806,353.1],[-1.679498,43.3078,353.5],[-1.679454,43.3078,353.9],[-1.679403,43.307802,354.3],[-1.679361,43.307799,354.6],[-1.679312,43.307791,355.0],[-1.679268,43.307793,355.4],[-1.679223,43.307798,355.8],[-1.679174,43.3078,356.2],[-1.679116,43.307801,356.6],[-1.67907,43.307813,357.0],[-1.679026,43.307826,357.4],[-1.678982,43.307828,357.7],[-1.678933,43.307838,358.0],[-1.678896,43.307854,358.3],[-1.678858,43.30787,358.6],[-1.678819,43.307877,358.9],[-1.67876,43.307874,359.4],[-1.678713,43.307888,359.7],[-1.678669,43.307897,360.1],[-1.67863,43.307905,360.4],[-1.678582,43.307901,360.7],[-1.678535,43.307921,361.1],[-1.678487,43.307929,361.5],[-1.678438,43.307933,361.8],[-1.678385,43.307932,362.2],[-1.678338,43.307936,362.5],[-1.678278,43.307944,363.0],[-1.678237,43.30795,363.3],[-1.678186,43.30795,363.7],[-1.678133,43.307957,364.1],[-1.678092,43.30796,364.4],[-1.678045,43.30797,364.8],[-1.677996,43.307972,365.2],[-1.677955,43.307977,365.5],[-1.677917,43.30799,365.9],[-1.677886,43.308009,366.2],[-1.677852,43.308031,366.5],[-1.677828,43.308057,366.8],[-1.67781,43.308089,367.4],[-1.677797,43.308116,367.8],[-1.677786,43.308148,368.3],[-1.677778,43.308175,368.7],[-1.677767,43.308209,369.3],[-1.677761,43.30825,370.0],[-1.677767,43.308281,370.5],[-1.677733,43.308312,371.1],[-1.677713,43.308345,371.6],[-1.67768,43.308372,372.1],[-1.677647,43.308395,372.6],[-1.677611,43.308404,373.0],[-1.677551,43.308421,373.6],[-1.6775,43.308435,374.2],[-1.67747,43.308455,374.7],[-1.677443,43.308475,375.2],[-1.677393,43.30849,375.7],[-1.677373,43.30852,376.1],[-1.677357,43.308562,376.8],[-1.677321,43.308581,377.3],[-1.677282,43.308603,377.7],[-1.677252,43.308624,378.1],[-1.677202,43.308626,378.7],[-1.677165,43.308639,379.2],[-1.677121,43.308648,379.5],[-1.67708,43.308659,379.9],[-1.677047,43.308676,380.2],[-1.677017,43.3087,380.6],[-1.676979,43.308721,380.9],[-1.676945,43.308735,381.2],[-1.676917,43.308759,381.5],[-1.67688,43.308791,381.9],[-1.676849,43.308816,382.3],[-1.676821,43.308844,382.6],[-1.676803,43.308878,382.9],[-1.676769,43.308913,383.3],[-1.676744,43.308935,383.6],[-1.676732,43.308965,383.9],[-1.676719,43.308992,384.2],[-1.6767,43.309019,384.5],[-1.676672,43.309088,385.2],[-1.676669,43.309122,385.5],[-1.676667,43.309154,385.8],[-1.67666,43.309189,386.1],[-1.676652,43.30922,386.4],[-1.676649,43.30925,386.8],[-1.67665,43.30928,387.1],[-1.676652,43.309315,387.4],[-1.67666,43.309343,387.7],[-1.676663,43.309375,388.0],[-1.676659,43.309402,388.3],[-1.676669,43.309433,388.5],[-1.676686,43.309458,388.8],[-1.676713,43.309497,389.2],[-1.676712,43.309541,389.7],[-1.676705,43.309577,390.1],[-1.676705,43.309608,390.6],[-1.676709,43.30964,390.9],[-1.676689,43.309667,391.1],[-1.676687,43.309697,391.4],[-1.676665,43.309733,391.8],[-1.676648,43.309758,392.2],[-1.676626,43.309792,392.6],[-1.676596,43.309819,393.0],[-1.676561,43.30985,393.4],[-1.676533,43.309887,393.7],[-1.676498,43.309928,394.1],[-1.676466,43.309964,394.4],[-1.676438,43.309992,394.7],[-1.676419,43.310022,395.0],[-1.676381,43.310036,395.2],[-1.676333,43.310049,395.5],[-1.676276,43.310064,395.8],[-1.676232,43.310092,396.1],[-1.676196,43.310105,396.2],[-1.676151,43.310127,396.5],[-1.676118,43.310156,396.7],[-1.676094,43.310179,396.9],[-1.676065,43.310205,397.1],[-1.676042,43.310227,397.3],[-1.676009,43.310245,397.5],[-1.675971,43.310239,397.7],[-1.675958,43.310266,397.9],[-1.675959,43.310301,398.2],[-1.675924,43.31032,398.4],[-1.675898,43.310348,398.6],[-1.675867,43.310381,398.8],[-1.675841,43.310409,399.1],[-1.675814,43.31043,399.3],[-1.675788,43.31046,399.7],[-1.675757,43.310493,400.0],[-1.675731,43.31052,399.7],[-1.675712,43.310544,399.5],[-1.675694,43.310568,399.4],[-1.675678,43.310596,399.2],[-1.67566,43.310629,399.1],[-1.675642,43.310656,398.9],[-1.675622,43.310679,398.7],[-1.675603,43.310716,398.5],[-1.675598,43.310744,398.4],[-1.675591,43.310777,398.2],[-1.675578,43.310807,398.0],[-1.675567,43.310843,397.8],[-1.675562,43.310884,397.5],[-1.675556,43.310924,397.3],[-1.675521,43.310958,397.1],[-1.675484,43.310961,396.9],[-1.675479,43.310989,396.8],[-1.675427,43.310985,396.5],[-1.675388,43.310981,396.4],[-1.675346,43.310977,396.2],[-1.675309,43.310966,396.1],[-1.675261,43.310944,395.9],[-1.675214,43.310937,395.8],[-1.675163,43.310927,395.6],[-1.675114,43.31091,395.5],[-1.675075,43.310905,395.4],[-1.675025,43.310904,395.3],[-1.674983,43.31089,395.2],[-1.674941,43.310871,395.2],[-1.67491,43.310849,395.1],[-1.674876,43.310829,395.1],[-1.674829,43.31081,395.0],[-1.674783,43.310798,394.9],[-1.674747,43.310777,394.9],[-1.674701,43.310745,394.8],[-1.67467,43.310722,394.8],[-1.674638,43.310701,394.8],[-1.674585,43.310708,394.7],[-1.67455,43.31072,394.7],[-1.674521,43.310749,394.7],[-1.674513,43.31078,394.7],[-1.674492,43.31081,394.7],[-1.674499,43.310853,394.7],[-1.674499,43.310895,394.7],[-1.674492,43.310923,394.7],[-1.674473,43.310956,394.7],[-1.674458,43.310992,394.7],[-1.67444,43.31103,394.7],[-1.674424,43.311062,394.8],[-1.6744,43.311093,394.8],[-1.674375,43.31113,393.9],[-1.674363,43.311161,393.7],[-1.674358,43.311189,393.7],[-1.674361,43.311225,393.1],[-1.674365,43.311253,392.6],[-1.674391,43.311295,392.7],[-1.674412,43.311318,392.0],[-1.674403,43.311354,391.3],[-1.674398,43.311384,390.4],[-1.674396,43.311412,389.6],[-1.674408,43.311443,388.9],[-1.674425,43.311475,388.2],[-1.67445,43.311518,387.5],[-1.674465,43.311551,387.0],[-1.674461,43.311585,386.6],[-1.674473,43.311626,385.9],[-1.674486,43.311661,385.4],[-1.674516,43.311698,384.8],[-1.67455,43.311713,384.8],[-1.674585,43.311721,384.4],[-1.674629,43.311727,384.4],[-1.674667,43.31173,384.5],[-1.67472,43.311723,384.9],[-1.674754,43.31171,386.0],[-1.674801,43.311699,386.6],[-1.674852,43.311694,387.2],[-1.674907,43.311683,389.2],[-1.674957,43.311679,389.6],[-1.674996,43.311671,390.1],[-1.675052,43.311662,390.5],[-1.675094,43.311666,391.0],[-1.675137,43.311663,391.4],[-1.675174,43.311653,392.9],[-1.675214,43.311653,393.5],[-1.67525,43.311664,393.3],[-1.675308,43.311657,394.7],[-1.675363,43.311637,395.1],[-1.675409,43.311618,396.0],[-1.675456,43.311609,396.3],[-1.675502,43.3116,396.8],[-1.675549,43.31159,397.2],[-1.675608,43.311587,397.4],[-1.675669,43.311578,397.7],[-1.67572,43.311567,398.2],[-1.675761,43.311561,398.6],[-1.675812,43.311577,398.9],[-1.675874,43.311606,399.2],[-1.675922,43.311635,399.0],[-1.675943,43.311658,398.9],[-1.675982,43.311684,398.8],[-1.676014,43.311711,398.7],[-1.676017,43.311749,398.5],[-1.676028,43.31179,398.2],[-1.676035,43.311816,398.1],[-1.676049,43.311842,397.9],[-1.67608,43.311876,397.7],[-1.676122,43.311919,397.3],[-1.676146,43.31194,397.2],[-1.676166,43.311972,396.9],[-1.676183,43.312008,396.7],[-1.676208,43.312042,396.4],[-1.67623,43.312068,396.2],[-1.676252,43.312097,395.8],[-1.676286,43.312125,395.4],[-1.676316,43.312161,394.7],[-1.676336,43.312195,394.2],[-1.676354,43.312241,393.6],[-1.676361,43.312275,393.2],[-1.676356,43.312312,392.8],[-1.676357,43.312345,392.4],[-1.676371,43.312375,392.1],[-1.676372,43.31242,391.5],[-1.676361,43.312448,391.1],[-1.676373,43.312474,390.6],[-1.676403,43.312497,390.1],[-1.676444,43.312517,389.5],[-1.676484,43.312538,388.8],[-1.6765,43.312564,388.4],[-1.676521,43.312587,387.3],[-1.676544,43.31261,387.0],[-1.676536,43.312641,386.7],[-1.676549,43.31267,386.4],[-1.676587,43.312691,386.7],[-1.676625,43.312711,387.8],[-1.676699,43.312719,389.0],[-1.676732,43.312682,389.3],[-1.676773,43.312673,389.2],[-1.676798,43.312649,388.9],[-1.676847,43.312656,388.2],[-1.676896,43.312675,386.8],[-1.676941,43.312688,385.5],[-1.676984,43.3127,384.4],[-1.677017,43.312713,383.5],[-1.677018,43.31275,382.4],[-1.677018,43.312778,381.2],[-1.677034,43.312812,379.6],[-1.677059,43.312847,378.0],[-1.677094,43.312864,377.0],[-1.677133,43.312876,376.0],[-1.677168,43.312885,375.4],[-1.677208,43.312893,374.8],[-1.677249,43.312912,374.2],[-1.677284,43.312929,373.7],[-1.677314,43.312946,372.7],[-1.677316,43.312976,371.9],[-1.677319,43.313007,371.0],[-1.677299,43.313045,370.3],[-1.677314,43.31308,369.2],[-1.677346,43.313097,368.2],[-1.67736,43.313131,367.3],[-1.677383,43.313157,366.6],[-1.677401,43.313181,366.5],[-1.67741,43.313213,365.9],[-1.677406,43.31324,365.2],[-1.677406,43.313274,364.5],[-1.677399,43.313351,362.0],[-1.677398,43.313378,361.2],[-1.677398,43.313417,360.4],[-1.677396,43.313456,359.5],[-1.67739,43.313492,358.6],[-1.677392,43.313523,357.6],[-1.67739,43.313563,355.4],[-1.677387,43.313604,354.0],[-1.677391,43.31364,353.1],[-1.677391,43.313667,351.9],[-1.6774,43.31371,350.8],[-1.677412,43.31374,349.7],[-1.677425,43.313767,348.7],[-1.677454,43.313786,348.0],[-1.677495,43.313803,348.3],[-1.67752,43.313826,347.6],[-1.677539,43.31385,346.7],[-1.677573,43.313887,346.0],[-1.677591,43.313912,345.1],[-1.677614,43.313939,344.5],[-1.677634,43.313966,344.4],[-1.677662,43.314001,343.1],[-1.677687,43.314034,342.4],[-1.677722,43.314066,342.0],[-1.677751,43.314085,342.1],[-1.677778,43.314107,341.6],[-1.677812,43.314141,341.5],[-1.677848,43.314161,341.5],[-1.677885,43.314169,341.4],[-1.677909,43.314196,341.2],[-1.677923,43.314229,341.1],[-1.677935,43.314255,341.0],[-1.677957,43.314286,340.8],[-1.677978,43.314311,340.7],[-1.678006,43.314339,340.5],[-1.678037,43.314367,340.3],[-1.678071,43.314393,340.2],[-1.678105,43.314417,339.9],[-1.678138,43.314443,339.7],[-1.67817,43.314469,339.5],[-1.67821,43.314496,339.2],[-1.678248,43.314523,339.0],[-1.67828,43.314544,338.8],[-1.678313,43.314561,338.5],[-1.678349,43.314579,338.3],[-1.678385,43.314614,338.0],[-1.678403,43.314659,337.6],[-1.678418,43.314685,337.0],[-1.678417,43.31472,336.7],[-1.678418,43.314752,336.4],[-1.678375,43.314755,336.1],[-1.678373,43.314785,335.8],[-1.678367,43.314816,335.5],[-1.678351,43.314842,335.2],[-1.678335,43.314866,334.9],[-1.678347,43.314907,334.4],[-1.678385,43.31495,333.8],[-1.678412,43.314974,333.4],[-1.678438,43.314995,333.0],[-1.678465,43.315023,332.5],[-1.678477,43.315053,332.1],[-1.678487,43.315081,331.6],[-1.678494,43.315122,331.0],[-1.678509,43.315148,330.5],[-1.678514,43.315196,329.7],[-1.678516,43.315227,329.2],[-1.678534,43.315257,328.6],[-1.678549,43.315291,328.0],[-1.678584,43.315315,327.4],[-1.678599,43.315349,326.9],[-1.678617,43.315374,326.5],[-1.678641,43.315409,325.9],[-1.67865,43.315453,325.3],[-1.678672,43.31548,325.0],[-1.678713,43.315495,324.6],[-1.678744,43.315519,324.2],[-1.678774,43.315537,323.9],[-1.678813,43.31555,323.6],[-1.678848,43.315572,323.3],[-1.6789,43.315601,322.8],[-1.678933,43.315623,322.5],[-1.678959,43.315659,322.2],[-1.678985,43.31569,321.8],[-1.679022,43.315718,321.4],[-1.679055,43.315741,321.1],[-1.679083,43.315773,320.7],[-1.6791,43.315804,320.3],[-1.679113,43.315832,320.0],[-1.67913,43.31586,319.7],[-1.679155,43.315896,319.3],[-1.679199,43.315934,318.8],[-1.679225,43.315954,318.5],[-1.67925,43.31598,318.2],[-1.679269,43.316004,317.9],[-1.679296,43.316024,317.5],[-1.679337,43.316057,317.0],[-1.679374,43.316065,316.7],[-1.679384,43.316097,316.3],[-1.679385,43.316129,316.0],[-1.679422,43.316162,315.5],[-1.679451,43.316189,315.1],[-1.679479,43.316161,314.7],[-1.679501,43.316132,314.3],[-1.67954,43.316125,314.0],[-1.67958,43.316147,313.5],[-1.679616,43.316157,313.2],[-1.67965,43.316179,312.9],[-1.67968,43.316194,312.6],[-1.679724,43.316212,312.2],[-1.679771,43.316228,311.7],[-1.679801,43.31625,311.3],[-1.679833,43.316277,310.9],[-1.679865,43.316305,310.5],[-1.679903,43.316336,310.0],[-1.679932,43.316359,309.7],[-1.679955,43.316381,309.3],[-1.67999,43.3164,309.0],[-1.68003,43.316417,308.6],[-1.680071,43.316414,308.2],[-1.680111,43.316421,307.9],[-1.680162,43.316436,307.5],[-1.680189,43.316467,307.2],[-1.680226,43.316486,306.9],[-1.68026,43.316506,306.6],[-1.680279,43.316539,306.2],[-1.680293,43.316566,305.9],[-1.680325,43.31659,305.6],[-1.680341,43.316629,305.2],[-1.680342,43.316668,304.7],[-1.680334,43.316704,304.3],[-1.680342,43.316737,303.8],[-1.680324,43.316767,303.4],[-1.680367,43.316805,302.6],[-1.680408,43.316836,301.8],[-1.680428,43.316862,301.2],[-1.680469,43.316897,300.3],[-1.6805,43.316937,299.5],[-1.680531,43.31698,298.7],[-1.680553,43.317007,298.2],[-1.680574,43.317039,297.6],[-1.6806,43.317066,297.1],[-1.680652,43.317071,296.6],[-1.680693,43.317076,296.2],[-1.680749,43.317094,295.7],[-1.680801,43.317115,295.3],[-1.680862,43.317135,294.8],[-1.680919,43.317157,294.4],[-1.680976,43.317174,294.1],[-1.681027,43.317189,293.8],[-1.68108,43.317207,293.4],[-1.681134,43.31722,293.1],[-1.681186,43.317229,292.8],[-1.681235,43.317237,292.4],[-1.681285,43.317238,292.1],[-1.681337,43.317245,291.7],[-1.681383,43.317253,291.4],[-1.681437,43.317255,291.0],[-1.681484,43.317261,290.6],[-1.681512,43.317287,290.3],[-1.681546,43.317299,290.0],[-1.68155,43.317326,289.7],[-1.68156,43.317358,289.3],[-1.681568,43.317389,289.0],[-1.68158,43.317417,288.6],[-1.68159,43.317444,288.2],[-1.681602,43.317474,287.9],[-1.68162,43.317509,287.5],[-1.681633,43.317541,287.2],[-1.681649,43.317571,286.9],[-1.681666,43.317599,286.6],[-1.681692,43.317629,286.3],[-1.681716,43.317655,286.0],[-1.681747,43.317686,285.8],[-1.681774,43.317713,285.5],[-1.681795,43.31775,285.3],[-1.681816,43.317776,285.1],[-1.681844,43.317794,285.0],[-1.681908,43.317817,284.7],[-1.681955,43.31784,284.4],[-1.681985,43.317858,284.3],[-1.682033,43.317891,283.9],[-1.682089,43.317923,283.5],[-1.682144,43.317948,283.1],[-1.682187,43.31797,282.7],[-1.682222,43.318005,282.3],[-1.682261,43.318025,282.0],[-1.682299,43.318043,281.6],[-1.682348,43.318054,281.2],[-1.682402,43.318079,280.7],[-1.682438,43.318124,280.2],[-1.68244,43.318158,279.9],[-1.682439,43.318193,279.6],[-1.682442,43.318229,279.2],[-1.682439,43.318265,278.9],[-1.682431,43.318305,278.6],[-1.682422,43.318341,278.4],[-1.682415,43.31838,278.1],[-1.682405,43.318417,277.8],[-1.682404,43.318455,277.5],[-1.682402,43.3185,277.1],[-1.682388,43.318528,276.8],[-1.682374,43.318556,276.4],[-1.682343,43.318593,275.9],[-1.682336,43.318623,275.6],[-1.682331,43.31865,275.3],[-1.682332,43.318685,274.9],[-1.682338,43.318711,274.6],[-1.682346,43.318741,274.2],[-1.682346,43.318769,273.8],[-1.682344,43.318805,273.3],[-1.682364,43.318829,272.9],[-1.682386,43.318857,272.5],[-1.68241,43.318888,272.0],[-1.682429,43.318915,271.6],[-1.682454,43.318941,271.2],[-1.682475,43.318969,270.8],[-1.682494,43.318993,270.5],[-1.68252,43.319022,270.1],[-1.682534,43.319052,269.7],[-1.682554,43.31908,269.4],[-1.682594,43.319119,268.8],[-1.68264,43.319151,268.3],[-1.68265,43.319191,267.8],[-1.682675,43.319222,267.4],[-1.682712,43.319256,266.7],[-1.682748,43.319284,266.1],[-1.682781,43.31932,265.4],[-1.682806,43.319358,264.6],[-1.682812,43.319392,264.0],[-1.682805,43.319422,263.4],[-1.682818,43.319456,262.8],[-1.68285,43.319482,262.3],[-1.682883,43.319509,261.8],[-1.682895,43.319561,261.1],[-1.68291,43.3196,260.6],[-1.682921,43.319633,260.1],[-1.68295,43.319656,259.7],[-1.68298,43.319676,259.4],[-1.683002,43.319703,259.0],[-1.683008,43.319734,258.7],[-1.683019,43.319784,258.3],[-1.683041,43.319819,257.9],[-1.683065,43.319869,257.5],[-1.683076,43.3199,257.2],[-1.683076,43.319872,256.9],[-1.683127,43.319882,256.6],[-1.683156,43.319907,256.4],[-1.683182,43.319941,256.3],[-1.683204,43.319967,256.2],[-1.683225,43.320008,256.0],[-1.683239,43.320053,255.9],[-1.683277,43.320094,255.7],[-1.683304,43.320114,255.6],[-1.683348,43.320135,255.5],[-1.683412,43.32015,255.3],[-1.683441,43.320168,255.2],[-1.683445,43.320206,255.0],[-1.683405,43.32022,254.8],[-1.683401,43.320247,254.7],[-1.683429,43.320283,254.4],[-1.683458,43.32032,254.2],[-1.683476,43.320347,254.0],[-1.683481,43.320384,253.8],[-1.683493,43.320421,253.6],[-1.683524,43.320452,253.3],[-1.683555,43.320473,253.0],[-1.68358,43.3205,252.8],[-1.683617,43.320529,252.5],[-1.683653,43.320558,252.2],[-1.683682,43.320583,251.8],[-1.683732,43.3206,251.4],[-1.683702,43.320623,251.1],[-1.683659,43.320611,250.8],[-1.68362,43.320614,250.6],[-1.683572,43.320622,251.1],[-1.683535,43.320633,251.4],[-1.683516,43.320657,251.6],[-1.683509,43.320684,251.7],[-1.683466,43.320691,251.9],[-1.683418,43.320684,252.1],[-1.683376,43.320678,252.3],[-1.683336,43.320684,252.5],[-1.683297,43.320666,252.3],[-1.68326,43.320656,252.0],[-1.683202,43.320647,251.7],[-1.683159,43.320646,251.5],[-1.683118,43.320663,251.2],[-1.683088,43.320684,251.0],[-1.683059,43.320711,250.7],[-1.683038,43.320738,250.4],[-1.682997,43.320758,250.1],[-1.682955,43.320763,249.8],[-1.682902,43.320755,249.4],[-1.682848,43.320755,248.9],[-1.682806,43.320754,248.5],[-1.682758,43.320744,248.0],[-1.682715,43.320744,247.5],[-1.682668,43.320742,246.9],[-1.682617,43.32075,246.3],[-1.682558,43.320752,245.5],[-1.682506,43.32074,244.7],[-1.682464,43.320722,243.8],[-1.68243,43.320705,243.0],[-1.682427,43.320733,242.3],[-1.682455,43.320753,241.3],[-1.682406,43.320755,239.7],[-1.682369,43.320744,238.8],[-1.682317,43.320737,237.7],[-1.682277,43.320736,237.0],[-1.682235,43.32074,236.2],[-1.682194,43.320748,235.3],[-1.682155,43.320742,234.6],[-1.682108,43.320759,233.5],[-1.682059,43.320768,232.3],[-1.682005,43.320763,231.1],[-1.681965,43.320772,230.1],[-1.681927,43.320783,229.3],[-1.681888,43.320788,228.5],[-1.681836,43.320782,227.6],[-1.681797,43.320779,226.8],[-1.681756,43.320792,226.1],[-1.681715,43.320793,225.4],[-1.681672,43.320779,224.6],[-1.681631,43.320763,224.2],[-1.681587,43.320753,223.7],[-1.681547,43.320744,223.3],[-1.681513,43.320762,223.0],[-1.68147,43.320753,222.6],[-1.681428,43.320741,222.2],[-1.68139,43.320733,221.9],[-1.681352,43.320715,221.6],[-1.68132,43.320681,221.2],[-1.681313,43.320654,221.0],[-1.681293,43.320628,220.7],[-1.681262,43.320608,220.5],[-1.681224,43.320594,220.2],[-1.681175,43.320565,219.7],[-1.681137,43.32054,219.4],[-1.681097,43.320533,219.1],[-1.681045,43.32053,218.7],[-1.681008,43.320531,218.4],[-1.680957,43.320535,218.0],[-1.680908,43.320543,217.6],[-1.680877,43.320562,217.3],[-1.680838,43.320552,216.9],[-1.68079,43.320551,216.4],[-1.680736,43.320538,215.8],[-1.680698,43.320516,215.3],[-1.680674,43.32049,214.8],[-1.680645,43.320469,214.4],[-1.680623,43.320436,213.7],[-1.68062,43.320407,213.2],[-1.680626,43.320379,212.8],[-1.680598,43.320357,212.3],[-1.68054,43.320333,211.4],[-1.680493,43.320309,210.9],[-1.680461,43.320296,210.6],[-1.680427,43.320282,210.2],[-1.680391,43.320267,209.8],[-1.680348,43.320244,209.1],[-1.680315,43.320222,208.6],[-1.680275,43.320199,208.0],[-1.680234,43.32018,207.4],[-1.680201,43.320161,207.0],[-1.680174,43.320142,206.6],[-1.680137,43.320124,206.2],[-1.680104,43.320111,205.9],[-1.680067,43.320091,205.5],[-1.680033,43.320068,205.3],[-1.679995,43.320053,205.2],[-1.67996,43.32003,205.0],[-1.679915,43.320029,204.9],[-1.679889,43.320048,204.8],[-1.679851,43.320058,204.8],[-1.679813,43.320056,204.7],[-1.679772,43.320056,204.6],[-1.679737,43.320066,204.5],[-1.6797,43.320096,204.3],[-1.679681,43.320132,204.1],[-1.679665,43.320163,203.9],[-1.679636,43.32018,203.8],[-1.679627,43.320153,203.7],[-1.679609,43.320184,203.6],[-1.679609,43.320212,203.5],[-1.679572,43.3202,203.3],[-1.679554,43.320174,203.2],[-1.679532,43.320148,203.0],[-1.679493,43.320121,202.7],[-1.679455,43.320107,202.5],[-1.679417,43.320108,202.2],[-1.679362,43.320103,201.8],[-1.67932,43.320098,201.4],[-1.679281,43.320091,201.1],[-1.679245,43.320082,200.7],[-1.679195,43.320076,200.2],[-1.679156,43.320061,199.7],[-1.679124,43.320032,199.2],[-1.679112,43.320002,198.9],[-1.679076,43.319977,198.5],[-1.679032,43.319961,198.1],[-1.678985,43.319948,197.7],[-1.678945,43.31995,197.4],[-1.678902,43.319951,197.1],[-1.678873,43.319975,196.9],[-1.678834,43.319986,196.7],[-1.678793,43.319999,196.6],[-1.678737,43.32,196.5],[-1.6787,43.319988,196.4],[-1.678661,43.319962,196.4],[-1.678631,43.31994,196.4],[-1.678591,43.319923,196.5],[-1.678551,43.319903,196.4],[-1.678508,43.319882,196.4],[-1.67847,43.319875,196.4],[-1.678427,43.319872,196.3],[-1.678391,43.319853,196.2],[-1.678358,43.31984,196.2],[-1.678337,43.319812,196.1],[-1.67833,43.319782,196.1],[-1.678314,43.319748,196.0],[-1.678287,43.31972,196.0],[-1.678244,43.319707,196.0],[-1.678212,43.319681,196.0],[-1.678182,43.319658,196.0],[-1.678149,43.319638,196.0],[-1.678103,43.319611,196.0],[-1.678068,43.31959,196.0],[-1.678025,43.319574,196.0],[-1.677994,43.319557,196.0],[-1.677949,43.319528,196.0],[-1.677925,43.319504,196.0],[-1.677893,43.319487,195.9],[-1.677845,43.319459,195.8],[-1.677818,43.319437,195.8],[-1.67779,43.319419,195.7],[-1.677753,43.319396,195.5],[-1.677712,43.319378,195.4],[-1.677666,43.319375,195.2],[-1.677631,43.31936,195.0],[-1.677608,43.319332,194.7],[-1.677572,43.319321,194.5],[-1.677533,43.319315,194.4],[-1.677521,43.319281,194.2],[-1.677531,43.319255,194.0],[-1.677497,43.319231,193.8],[-1.677461,43.319212,193.6],[-1.677419,43.319192,193.3],[-1.677388,43.319174,193.1],[-1.677359,43.319149,192.9],[-1.677321,43.319132,192.7],[-1.677292,43.319102,192.6],[-1.677263,43.319083,192.4],[-1.677218,43.319071,192.2],[-1.677175,43.319048,191.9],[-1.67712,43.319018,191.6],[-1.67709,43.318998,191.4],[-1.677084,43.31897,191.1],[-1.677074,43.318943,190.8],[-1.677035,43.318923,190.5],[-1.676997,43.318911,190.1],[-1.676957,43.318904,189.7],[-1.676963,43.318934,189.2],[-1.67691,43.318911,188.5],[-1.676865,43.318901,188.0],[-1.676827,43.318887,187.5],[-1.67678,43.318883,187.0],[-1.676729,43.318885,186.5],[-1.676677,43.318882,186.1],[-1.676605,43.318876,185.6],[-1.676566,43.318875,185.3],[-1.676529,43.318877,185.1],[-1.676492,43.318881,184.9],[-1.676448,43.318878,184.6],[-1.676405,43.318865,184.4],[-1.676373,43.318891,184.2],[-1.676333,43.318883,184.0],[-1.676289,43.318874,183.8],[-1.67624,43.318877,183.5],[-1.676199,43.318877,183.1],[-1.676156,43.318878,182.8],[-1.676119,43.318875,182.4],[-1.67608,43.318889,181.9],[-1.676058,43.318911,181.5],[-1.676029,43.318928,181.0],[-1.675983,43.318946,180.4],[-1.675943,43.31895,179.9],[-1.675886,43.318947,179.1],[-1.675837,43.31895,178.4],[-1.675789,43.318937,177.7],[-1.675752,43.318923,177.2],[-1.675714,43.318918,176.7],[-1.675686,43.318897,176.2],[-1.675625,43.3189,175.5],[-1.675591,43.318914,175.1],[-1.675554,43.318908,174.7],[-1.67551,43.3189,174.2],[-1.675471,43.318888,173.8],[-1.675429,43.318888,173.4],[-1.675378,43.31891,173.0],[-1.675338,43.318937,172.6],[-1.67529,43.318951,172.2],[-1.675251,43.31897,171.9],[-1.675214,43.318979,171.7],[-1.675167,43.318956,171.3],[-1.675121,43.318936,171.1],[-1.675068,43.318922,170.8],[-1.675016,43.318899,170.6],[-1.674979,43.318885,170.3],[-1.674939,43.318874,170.1],[-1.674889,43.318861,169.8],[-1.674846,43.318858,169.5],[-1.674795,43.318846,169.1],[-1.674753,43.318837,168.8],[-1.674709,43.318839,168.5],[-1.674672,43.318824,168.1],[-1.674637,43.31881,167.7],[-1.674597,43.318808,167.3],[-1.674554,43.31882,166.8],[-1.674521,43.318837,166.3],[-1.674481,43.31885,165.8],[-1.674437,43.318842,165.2],[-1.6744,43.318822,164.7],[-1.674352,43.318815,164.0],[-1.674314,43.318817,163.5],[-1.67426,43.318813,162.8],[-1.674222,43.318805,162.2],[-1.674185,43.318797,161.6],[-1.674142,43.318787,161.0],[-1.674101,43.318778,160.3],[-1.674061,43.318783,159.7],[-1.674019,43.318782,159.1],[-1.673965,43.318793,158.5],[-1.673931,43.318806,158.1],[-1.673887,43.318789,157.7],[-1.67385,43.318796,157.4],[-1.673799,43.318824,156.9],[-1.673791,43.318795,156.6],[-1.673751,43.318791,156.4],[-1.673711,43.318793,156.2],[-1.67367,43.318792,155.6],[-1.673625,43.318797,155.0],[-1.673596,43.318815,154.4],[-1.673564,43.318839,153.8],[-1.673524,43.31886,151.1],[-1.673468,43.318889,150.7],[-1.673445,43.318916,150.5],[-1.673468,43.318885,150.2],[-1.673422,43.318867,149.9],[-1.673376,43.318863,149.6],[-1.673338,43.318867,149.4],[-1.673283,43.318858,149.2],[-1.673283,43.318822,149.0],[-1.673253,43.318802,148.9],[-1.673219,43.318772,148.6],[-1.673187,43.318758,148.5],[-1.673147,43.318739,148.2],[-1.6731,43.318724,148.1],[-1.673056,43.318722,148.0],[-1.673027,43.318698,147.9],[-1.67299,43.318674,147.8],[-1.672937,43.318646,147.6],[-1.67291,43.318616,147.5],[-1.672891,43.31859,147.4],[-1.672874,43.31856,147.4],[-1.672857,43.318525,147.3],[-1.672832,43.318487,147.2],[-1.672821,43.318458,147.2],[-1.672803,43.318433,147.1],[-1.672781,43.318394,147.0],[-1.672756,43.318352,147.0],[-1.672717,43.318327,147.0],[-1.672678,43.318298,147.0],[-1.67265,43.318275,147.0],[-1.67262,43.31825,146.9],[-1.67258,43.318211,146.9],[-1.672548,43.318173,146.9],[-1.672516,43.318136,146.9],[-1.672498,43.318112,146.8],[-1.672471,43.318085,146.8],[-1.672412,43.318072,146.8],[-1.672363,43.318055,146.8],[-1.672322,43.318041,146.8],[-1.672288,43.318029,146.8],[-1.672254,43.318014,146.8],[-1.672219,43.318004,146.8],[-1.672177,43.317997,146.8],[-1.672137,43.317987,146.8],[-1.672095,43.317966,146.9],[-1.672046,43.317946,147.0],[-1.672002,43.317926,147.1],[-1.671976,43.317902,147.1],[-1.671941,43.31788,147.2],[-1.671921,43.317848,147.3],[-1.671907,43.317807,147.3],[-1.671912,43.317778,147.3],[-1.671878,43.317795,147.4],[-1.67184,43.317798,147.4],[-1.671807,43.317782,147.4],[-1.671782,43.317757,147.4],[-1.671735,43.317739,147.3],[-1.671715,43.31771,147.3],[-1.671699,43.317685,147.3],[-1.671662,43.317672,147.2],[-1.671624,43.317675,147.2],[-1.671591,43.317656,147.1],[-1.67156,43.317612,147.1],[-1.671521,43.317572,147.0],[-1.671495,43.317541,146.9],[-1.671483,43.317515,146.9],[-1.671453,43.317496,146.8],[-1.671402,43.317492,146.7],[-1.671387,43.317453,146.7],[-1.671379,43.317425,146.6],[-1.671348,43.317391,146.5],[-1.671334,43.317348,146.5],[-1.671314,43.317319,146.5],[-1.671282,43.317295,146.5],[-1.671234,43.317277,146.4],[-1.671197,43.31726,146.4],[-1.67116,43.317251,146.4],[-1.67111,43.31723,146.4],[-1.671075,43.317221,146.4],[-1.671043,43.317207,146.4],[-1.671024,43.317182,146.5],[-1.671003,43.317147,146.5],[-1.670959,43.317137,146.5],[-1.670914,43.317159,146.5],[-1.670874,43.317151,146.6],[-1.670836,43.317114,146.6],[-1.670813,43.317081,146.6],[-1.670784,43.317053,146.7],[-1.670754,43.317034,146.7],[-1.670733,43.317003,146.7],[-1.670707,43.316979,146.8],[-1.670675,43.316957,146.8],[-1.670654,43.31692,146.8],[-1.670617,43.31691,146.8],[-1.670577,43.316902,146.9],[-1.670549,43.316884,146.9],[-1.670514,43.316863,146.9],[-1.670471,43.31684,146.9],[-1.670435,43.316831,147.0],[-1.670386,43.316833,147.0],[-1.670339,43.316839,147.1],[-1.670301,43.316844,147.1],[-1.67027,43.316824,147.1],[-1.670255,43.316793,147.2],[-1.670215,43.316767,147.2],[-1.670182,43.31675,147.2],[-1.670137,43.316752,147.3],[-1.670107,43.316735,147.3],[-1.670075,43.316709,147.4],[-1.670049,43.316682,147.5],[-1.670014,43.316658,147.5],[-1.669983,43.316642,147.6],[-1.669951,43.316615,147.8],[-1.669908,43.316588,148.0],[-1.669868,43.316567,148.2],[-1.669832,43.316557,148.4],[-1.669797,43.316538,148.6],[-1.669777,43.316487,148.9],[-1.669768,43.316456,149.1],[-1.669727,43.316436,149.3],[-1.66969,43.316439,149.5],[-1.669629,43.316439,149.8],[-1.669595,43.316419,150.1],[-1.669577,43.316374,150.5],[-1.669551,43.316347,150.7],[-1.669511,43.316345,150.9],[-1.669463,43.316311,151.2],[-1.669435,43.316281,151.4],[-1.669398,43.316264,151.5],[-1.66936,43.316242,151.7],[-1.669326,43.316224,151.9],[-1.669296,43.31619,152.1],[-1.66927,43.316157,152.4],[-1.669239,43.316138,152.7],[-1.669208,43.3161,153.2],[-1.669173,43.316069,153.6],[-1.669132,43.316034,154.1],[-1.669111,43.316006,154.5],[-1.669074,43.316,154.8],[-1.669047,43.315968,155.2],[-1.669015,43.315955,155.5],[-1.668985,43.315939,155.7],[-1.66896,43.315915,156.0],[-1.668935,43.315892,156.3],[-1.668909,43.315857,156.7],[-1.668884,43.315829,157.0],[-1.668858,43.315804,157.3],[-1.668833,43.315784,157.5],[-1.668803,43.315743,158.0],[-1.668786,43.315711,158.3],[-1.668761,43.315683,158.6],[-1.668737,43.315659,158.7],[-1.668722,43.315629,158.9],[-1.668723,43.315596,159.1],[-1.668742,43.315562,159.2],[-1.668724,43.315526,159.4],[-1.668705,43.315497,159.5],[-1.668683,43.315475,159.6],[-1.668659,43.315451,159.6],[-1.668619,43.315425,159.7],[-1.668562,43.315411,159.8],[-1.668511,43.315388,159.8],[-1.668505,43.315417,159.8],[-1.668468,43.315395,159.7],[-1.668424,43.31537,159.5],[-1.668409,43.315336,159.3],[-1.668392,43.315311,159.2],[-1.668382,43.315282,158.9],[-1.668377,43.315234,158.6],[-1.668374,43.315196,158.4],[-1.668375,43.315161,158.2],[-1.668382,43.315129,157.9],[-1.668376,43.315096,157.6],[-1.668359,43.315067,157.5],[-1.668364,43.31504,157.3],[-1.668391,43.315011,157.1],[-1.668379,43.314979,157.0],[-1.668362,43.314948,156.8],[-1.66835,43.314921,156.7],[-1.668338,43.314883,156.6],[-1.668338,43.31485,156.4],[-1.66836,43.314827,156.2],[-1.668364,43.314792,156.7],[-1.668391,43.314773,157.0],[-1.668411,43.314745,157.2],[-1.668424,43.314713,157.4],[-1.668434,43.314685,157.6],[-1.668434,43.314657,157.8],[-1.668412,43.314634,158.0],[-1.668444,43.314609,158.3],[-1.668468,43.314578,158.5],[-1.668449,43.314538,158.8],[-1.668414,43.314521,159.0],[-1.668383,43.314541,159.1],[-1.668392,43.314509,159.3],[-1.668385,43.314478,159.5],[-1.668418,43.314459,159.6],[-1.668407,43.314424,159.9],[-1.668404,43.314396,160.0],[-1.668387,43.314361,160.1],[-1.668371,43.314336,160.2],[-1.668379,43.3143,160.3],[-1.668341,43.314304,160.4],[-1.668354,43.314278,160.4],[-1.668381,43.314255,160.5],[-1.668371,43.314226,160.6],[-1.668349,43.314182,160.7],[-1.668333,43.314155,160.9],[-1.668318,43.314127,161.1],[-1.668306,43.31409,161.4],[-1.668304,43.314036,161.8],[-1.668294,43.313994,162.1],[-1.668257,43.313972,162.3],[-1.668259,43.313942,162.5],[-1.668269,43.313913,162.8],[-1.668238,43.313893,163.1],[-1.668216,43.313868,163.4],[-1.668222,43.313835,163.7],[-1.668223,43.313802,164.0],[-1.668212,43.313769,164.6],[-1.668221,43.313726,165.5],[-1.668217,43.313692,166.0],[-1.668203,43.313662,166.5],[-1.668197,43.31363,167.0],[-1.668163,43.313594,167.6],[-1.668148,43.313556,168.5],[-1.668136,43.313521,168.4],[-1.668107,43.313502,168.3],[-1.668063,43.313494,168.2],[-1.668027,43.313483,168.2],[-1.667982,43.313472,168.4],[-1.667945,43.313455,168.5],[-1.667918,43.313435,168.6],[-1.667862,43.313414,168.8],[-1.66783,43.313384,169.0],[-1.667787,43.313391,169.1],[-1.667742,43.313397,169.3],[-1.667693,43.313375,169.4],[-1.667649,43.313377,169.5],[-1.667651,43.313346,169.7],[-1.667659,43.31332,169.8],[-1.667648,43.313285,169.9],[-1.667646,43.313257,170.0],[-1.667653,43.313226,170.1],[-1.667635,43.313193,170.2],[-1.667619,43.313166,170.2],[-1.667591,43.313185,170.3],[-1.667555,43.313154,170.3],[-1.667546,43.313124,170.3],[-1.667521,43.31309,170.3],[-1.667499,43.313068,170.3],[-1.667459,43.31304,170.3],[-1.667432,43.313013,170.3],[-1.667412,43.312967,170.3],[-1.667368,43.312934,170.2],[-1.667333,43.312922,170.2],[-1.667311,43.312898,170.2],[-1.667286,43.312876,170.2],[-1.667263,43.312842,170.1],[-1.667244,43.312805,170.1],[-1.667237,43.312775,170.0],[-1.667235,43.312732,170.0],[-1.667208,43.312707,169.9],[-1.667198,43.312664,169.9],[-1.667197,43.312632,169.9],[-1.667165,43.312584,169.8],[-1.667134,43.312551,169.8],[-1.667142,43.312512,169.8],[-1.667142,43.312479,169.7],[-1.667148,43.312447,169.7],[-1.667165,43.312407,169.7],[-1.667173,43.312377,169.6],[-1.667172,43.312339,169.6],[-1.667185,43.312303,169.6],[-1.667197,43.312277,169.7],[-1.66722,43.312254,169.7],[-1.667234,43.312223,169.9],[-1.667247,43.312178,170.0],[-1.667253,43.312151,170.1],[-1.667283,43.312124,170.2],[-1.667314,43.312092,170.3],[-1.667352,43.312075,170.4],[-1.667394,43.312046,170.6],[-1.667405,43.312018,170.7],[-1.667426,43.311989,170.8],[-1.66746,43.311963,170.9],[-1.667492,43.311921,171.0],[-1.667506,43.311887,171.1],[-1.667517,43.311859,171.2],[-1.667538,43.311818,171.3],[-1.667576,43.311796,171.4],[-1.667605,43.311773,171.4],[-1.667627,43.311734,171.5],[-1.667663,43.3117,171.6],[-1.667693,43.311677,171.7],[-1.667702,43.311642,171.8],[-1.667722,43.311618,171.8],[-1.66773,43.311575,171.8],[-1.667734,43.311546,171.8],[-1.667734,43.311503,171.8],[-1.667736,43.311468,171.8],[-1.667745,43.311433,171.8],[-1.667734,43.311406,171.8],[-1.667715,43.311376,171.8],[-1.667705,43.311343,171.8],[-1.667688,43.311317,171.9],[-1.667668,43.311291,171.9],[-1.66765,43.311266,171.9],[-1.667644,43.311237,172.0],[-1.667637,43.31121,172.0],[-1.667623,43.31118,172.1],[-1.6676,43.311156,172.2],[-1.667604,43.31112,172.4],[-1.667599,43.311076,172.6],[-1.667587,43.311048,172.8],[-1.667572,43.310996,173.0],[-1.667557,43.310948,173.4],[-1.667543,43.310901,173.7],[-1.66754,43.310869,174.0],[-1.667526,43.310837,174.3],[-1.667512,43.310809,174.6],[-1.667518,43.310773,175.0],[-1.667532,43.310747,175.3],[-1.667552,43.310718,175.6],[-1.667576,43.310682,176.1],[-1.667602,43.310642,176.7],[-1.667642,43.310634,177.1],[-1.667681,43.310626,177.5],[-1.667704,43.310604,177.9],[-1.667738,43.310572,178.3],[-1.667769,43.310556,178.7],[-1.667803,43.310528,179.1],[-1.66784,43.310507,179.4],[-1.667888,43.310485,179.8],[-1.66793,43.310491,180.1],[-1.667943,43.310462,180.4],[-1.667976,43.310425,180.9],[-1.668008,43.310391,181.3],[-1.668024,43.310358,181.6],[-1.668053,43.310333,181.9],[-1.668107,43.310332,182.1],[-1.668147,43.310326,182.3],[-1.668189,43.310319,182.5],[-1.66823,43.310308,182.8],[-1.668264,43.310286,183.0],[-1.668273,43.31025,183.3],[-1.668304,43.310232,183.5],[-1.668341,43.31022,183.7],[-1.668362,43.310187,183.9],[-1.668373,43.310151,184.1],[-1.668377,43.310124,184.2],[-1.668375,43.310092,184.3],[-1.668408,43.310058,184.4],[-1.668437,43.310037,184.5],[-1.668485,43.310026,184.6],[-1.668512,43.309998,184.6],[-1.66855,43.30997,184.6],[-1.668581,43.309939,184.6],[-1.668616,43.309925,184.6],[-1.668659,43.309924,184.7],[-1.668694,43.309913,184.7],[-1.668739,43.309916,184.7],[-1.66877,43.309897,184.7],[-1.668801,43.309876,184.8],[-1.668834,43.309861,184.9],[-1.668875,43.309855,185.0],[-1.668911,43.309839,185.1],[-1.668945,43.309826,185.3],[-1.668979,43.309811,185.5],[-1.668954,43.309771,185.8],[-1.668938,43.309742,186.0],[-1.668943,43.309715,186.3],[-1.668961,43.309672,186.8],[-1.668981,43.309636,187.3],[-1.668983,43.309607,187.6],[-1.668988,43.309576,188.0],[-1.668996,43.309541,188.5],[-1.668982,43.309515,188.8],[-1.668952,43.309497,189.2],[-1.668916,43.309478,189.5],[-1.668893,43.309454,189.8],[-1.668872,43.309425,190.1],[-1.668855,43.309395,190.4],[-1.668837,43.309362,190.8],[-1.668856,43.309316,191.3],[-1.668862,43.309283,191.6],[-1.668847,43.309257,191.8],[-1.668859,43.309227,192.1],[-1.668855,43.309193,192.3],[-1.668846,43.309162,192.6],[-1.668836,43.309131,192.9],[-1.668833,43.309101,193.1],[-1.668837,43.309068,193.3],[-1.668816,43.309042,193.4],[-1.668808,43.309015,193.5],[-1.668785,43.30898,193.7],[-1.668762,43.308956,193.8],[-1.66874,43.308911,193.9],[-1.668723,43.308882,193.9],[-1.6687,43.308847,194.0],[-1.668677,43.308802,193.9],[-1.668656,43.308768,193.7],[-1.668637,43.308744,193.6],[-1.668645,43.308675,193.3],[-1.66866,43.308642,193.2],[-1.668692,43.308607,193.1],[-1.668729,43.308611,193.0],[-1.668711,43.308585,192.9],[-1.668739,43.308565,192.7],[-1.66873,43.308531,192.6],[-1.668764,43.30852,192.5],[-1.668731,43.308533,192.3],[-1.668748,43.308498,191.9],[-1.66875,43.30847,191.7],[-1.668771,43.308442,191.5],[-1.668805,43.308413,191.2],[-1.668847,43.308395,191.0],[-1.668879,43.30837,190.8],[-1.668886,43.308333,190.6],[-1.668895,43.308293,190.4],[-1.668933,43.308262,190.3],[-1.668971,43.308234,190.3],[-1.668983,43.30819,190.3],[-1.668985,43.308152,190.4],[-1.669019,43.308128,190.4],[-1.66905,43.308109,190.5],[-1.669065,43.308083,190.6],[-1.669071,43.308054,190.7],[-1.669061,43.308023,190.8],[-1.669053,43.307997,190.9],[-1.669075,43.307967,191.0],[-1.669103,43.307934,191.2],[-1.669096,43.3079,191.4],[-1.669073,43.307861,191.6],[-1.669081,43.307826,191.7],[-1.669106,43.307788,191.9],[-1.669108,43.307752,192.0],[-1.669104,43.307719,192.2],[-1.669128,43.307685,192.4],[-1.66914,43.307653,192.5],[-1.669132,43.307626,192.6],[-1.669123,43.307595,192.8],[-1.669121,43.307563,193.0],[-1.669128,43.307525,193.2],[-1.669123,43.307482,193.5],[-1.669116,43.307447,193.7],[-1.669102,43.307419,193.8],[-1.669092,43.307393,193.9],[-1.669109,43.307356,194.2],[-1.669126,43.307327,194.4],[-1.669129,43.307296,194.7],[-1.66916,43.307266,195.0],[-1.669157,43.307238,195.2],[-1.669166,43.307208,195.4],[-1.669195,43.307186,195.6],[-1.669194,43.307154,195.8],[-1.669204,43.307112,196.0],[-1.66917,43.307094,196.2],[-1.669196,43.307064,196.5],[-1.6692,43.307033,196.7],[-1.669181,43.307007,196.9],[-1.669192,43.306973,197.1],[-1.669189,43.306931,197.3],[-1.669196,43.306889,197.5],[-1.669201,43.306861,197.7],[-1.669208,43.306823,197.9],[-1.66923,43.306801,198.0],[-1.66925,43.306771,198.2],[-1.669252,43.306742,198.3],[-1.669266,43.306695,198.4],[-1.669285,43.306655,198.6],[-1.669294,43.306627,198.7],[-1.669306,43.306597,198.8],[-1.669323,43.306572,198.9],[-1.669319,43.306535,199.0],[-1.669318,43.306504,199.2],[-1.66935,43.30645,199.4],[-1.669368,43.306416,199.7],[-1.669369,43.306374,199.9],[-1.669372,43.306342,200.1],[-1.66937,43.306313,200.3],[-1.669394,43.306282,200.6],[-1.669383,43.306251,200.8],[-1.669357,43.306219,201.0],[-1.66933,43.306195,201.2],[-1.669316,43.306169,201.4],[-1.669348,43.306148,201.7],[-1.669372,43.306121,201.9],[-1.669402,43.306103,202.1],[-1.669434,43.306075,202.3],[-1.669456,43.306034,202.5],[-1.669464,43.305994,202.6],[-1.669446,43.305959,202.7],[-1.669428,43.305923,202.7],[-1.669404,43.305897,202.7],[-1.669376,43.305867,202.6],[-1.669386,43.305839,202.5],[-1.669395,43.305813,202.4],[-1.669382,43.305787,202.3],[-1.669376,43.30575,202.2],[-1.669347,43.305707,202.0],[-1.669323,43.305683,201.9],[-1.66928,43.30567,201.7],[-1.669228,43.305656,201.5],[-1.669204,43.305628,201.4],[-1.669217,43.305591,201.3],[-1.669219,43.305555,201.2],[-1.66922,43.305528,201.2],[-1.669221,43.305484,201.1],[-1.669221,43.305456,201.1],[-1.669232,43.305424,201.1],[-1.669254,43.305395,201.1],[-1.669273,43.305369,201.1],[-1.66928,43.305329,201.1],[-1.669251,43.305297,201.2],[-1.66923,43.305273,201.3],[-1.669229,43.305243,201.5],[-1.669237,43.305216,201.6],[-1.669252,43.30517,201.9],[-1.669255,43.305134,202.2],[-1.669258,43.305098,202.4],[-1.669254,43.305059,202.7],[-1.66924,43.305029,203.0],[-1.669218,43.305052,203.2],[-1.669183,43.305026,203.5],[-1.669159,43.305004,203.7],[-1.669137,43.304981,203.9],[-1.669119,43.304934,204.4],[-1.669113,43.304892,204.7],[-1.669117,43.304847,205.1],[-1.669124,43.304819,205.4],[-1.669139,43.304782,205.7],[-1.669113,43.304762,205.9],[-1.669142,43.304722,206.3],[-1.669153,43.304691,206.4],[-1.669148,43.304656,206.7],[-1.669181,43.304632,206.9],[-1.669209,43.304608,207.2],[-1.669202,43.304582,207.3],[-1.669192,43.304549,207.6],[-1.669213,43.304521,207.8],[-1.669238,43.3045,208.0],[-1.669271,43.304486,208.3],[-1.669309,43.304481,208.4],[-1.669314,43.30445,208.7],[-1.669275,43.304435,208.9],[-1.669293,43.304466,209.1],[-1.669263,43.304486,209.3],[-1.669235,43.304463,209.6],[-1.669219,43.304427,209.9],[-1.669183,43.304381,210.3],[-1.669167,43.304351,210.5],[-1.669186,43.304326,210.6],[-1.669237,43.304294,210.9],[-1.669255,43.304266,211.0],[-1.669279,43.304241,211.1],[-1.669311,43.304226,211.2],[-1.669337,43.304202,211.3],[-1.669376,43.304196,211.5],[-1.669377,43.304157,211.7],[-1.669384,43.304109,212.0],[-1.669387,43.304065,212.3],[-1.669409,43.304033,212.5],[-1.669427,43.30399,212.8],[-1.669427,43.303958,213.0],[-1.669431,43.303915,213.3],[-1.669423,43.303887,213.5],[-1.669404,43.303858,213.7],[-1.669375,43.30382,214.0],[-1.669352,43.303791,214.2],[-1.669345,43.303764,214.4],[-1.669302,43.303765,214.6],[-1.669278,43.303738,214.8],[-1.669261,43.303711,215.0],[-1.669242,43.303667,215.2],[-1.669233,43.303619,215.6],[-1.66922,43.303578,215.9],[-1.669197,43.303542,216.2],[-1.669161,43.303514,216.4],[-1.669142,43.30349,216.6],[-1.669134,43.303452,216.9],[-1.669133,43.303414,217.2],[-1.66913,43.303381,217.5],[-1.669119,43.30341,217.8],[-1.669085,43.303388,218.1],[-1.669075,43.303343,218.5],[-1.669075,43.303303,218.8],[-1.669043,43.303273,219.1],[-1.669007,43.303249,219.3],[-1.668988,43.303223,219.5],[-1.668981,43.303195,219.7],[-1.668951,43.303177,219.9],[-1.668931,43.303152,220.0],[-1.668916,43.303098,220.2],[-1.668899,43.303047,220.4],[-1.668876,43.303008,220.6],[-1.66887,43.302982,220.6],[-1.668867,43.302949,220.7],[-1.668849,43.302911,220.9],[-1.668813,43.302888,221.0],[-1.668765,43.302885,221.1],[-1.668728,43.302874,221.2],[-1.668689,43.302872,221.4],[-1.668635,43.302878,221.6],[-1.668597,43.302878,221.8],[-1.668552,43.302869,222.1],[-1.668516,43.302855,222.4],[-1.668487,43.30283,222.8],[-1.668447,43.302782,223.6],[-1.668428,43.302749,224.1],[-1.66841,43.302719,224.5],[-1.6684,43.302689,224.9],[-1.668403,43.302659,225.3],[-1.668402,43.302613,226.0],[-1.668363,43.302593,226.6],[-1.668321,43.302589,227.2],[-1.668267,43.302584,227.9],[-1.668226,43.302582,228.4],[-1.668211,43.302556,229.0],[-1.66818,43.302529,229.7],[-1.668147,43.302509,230.4],[-1.668138,43.302468,231.3],[-1.668143,43.302439,231.9],[-1.668154,43.302408,232.6],[-1.668118,43.302386,233.3],[-1.668078,43.302361,233.9],[-1.668063,43.302323,234.6],[-1.668067,43.302288,235.1],[-1.66807,43.302251,235.5],[-1.668078,43.302204,236.1],[-1.668074,43.302166,236.5],[-1.668043,43.302146,236.8],[-1.668012,43.302119,237.1],[-1.667979,43.302087,237.5],[-1.66797,43.302058,237.6],[-1.667972,43.302017,237.9],[-1.667965,43.301986,238.1],[-1.66795,43.301958,238.4],[-1.667947,43.301905,238.8],[-1.667948,43.301856,239.3],[-1.667945,43.301827,239.5],[-1.667925,43.301803,239.7],[-1.667919,43.301764,240.0],[-1.667917,43.301735,240.2],[-1.667916,43.301707,240.4],[-1.66789,43.301685,240.5],[-1.667885,43.301657,240.6],[-1.667877,43.30163,240.8],[-1.667853,43.301607,240.9],[-1.66781,43.301576,241.1],[-1.667785,43.301527,241.4],[-1.667763,43.301503,241.5],[-1.667739,43.301465,241.7],[-1.66772,43.301433,241.9],[-1.667702,43.30139,242.1],[-1.667671,43.301353,242.3],[-1.667649,43.301318,242.4],[-1.66762,43.301285,242.5],[-1.667573,43.301259,242.6],[-1.667535,43.301253,242.7],[-1.667493,43.301266,242.8],[-1.667437,43.301267,242.9],[-1.667413,43.301231,243.0],[-1.667416,43.301195,243.0],[-1.667423,43.301159,243.1],[-1.667432,43.301126,243.2],[-1.667473,43.301116,243.4],[-1.66751,43.301109,243.5],[-1.667549,43.301108,243.7],[-1.667613,43.301117,244.0],[-1.667653,43.301139,244.2],[-1.667673,43.301169,244.4],[-1.667697,43.301201,244.7],[-1.667704,43.301247,244.9],[-1.667718,43.301276,245.1],[-1.667753,43.301314,245.3],[-1.667784,43.30133,245.5],[-1.667835,43.301349,245.7],[-1.667882,43.301344,245.9],[-1.667929,43.301318,246.0],[-1.667972,43.301302,246.2],[-1.668005,43.301323,246.3],[-1.668041,43.301344,246.5],[-1.668076,43.301362,246.6],[-1.668119,43.301371,246.8],[-1.668174,43.301379,247.0],[-1.668213,43.301382,247.2],[-1.668242,43.301413,247.4],[-1.668293,43.301436,247.6],[-1.668351,43.301422,247.8],[-1.668382,43.3014,248.0],[-1.668408,43.301378,248.2],[-1.668455,43.301373,248.4],[-1.668493,43.301398,248.5],[-1.668508,43.301438,248.7],[-1.668518,43.301466,248.8],[-1.668549,43.301483,249.0],[-1.668596,43.30151,249.2],[-1.668612,43.301535,249.3],[-1.668636,43.301556,249.4],[-1.668696,43.301573,249.6],[-1.668733,43.30159,249.7],[-1.668777,43.301587,249.9],[-1.668818,43.301585,250.0],[-1.668868,43.301549,250.3],[-1.668896,43.301532,250.4],[-1.668929,43.301511,250.6],[-1.668947,43.301486,250.7],[-1.668971,43.30146,250.9],[-1.669007,43.30142,251.0],[-1.669031,43.301394,251.2],[-1.669071,43.301383,251.3],[-1.66911,43.301355,251.4],[-1.669136,43.301331,251.5],[-1.669164,43.3013,251.7],[-1.669192,43.301279,251.9],[-1.669213,43.301255,252.0],[-1.66922,43.301212,252.2],[-1.66923,43.301176,252.4],[-1.669242,43.301148,252.6],[-1.669271,43.301108,252.8],[-1.669299,43.301072,253.0],[-1.669329,43.301046,253.1],[-1.669368,43.301041,253.3],[-1.6694,43.301023,253.4],[-1.669424,43.301001,253.5],[-1.669445,43.300965,253.6],[-1.669464,43.300938,253.8],[-1.669489,43.300894,254.1],[-1.669498,43.300862,254.3],[-1.669508,43.300832,254.5],[-1.669521,43.300804,254.7],[-1.669539,43.300775,255.1],[-1.669565,43.300743,255.6],[-1.66959,43.300711,256.0],[-1.669609,43.30068,256.4],[-1.669639,43.300664,256.6],[-1.669687,43.300656,257.0],[-1.66973,43.300643,257.3],[-1.669759,43.300621,257.6],[-1.669789,43.3006,257.8],[-1.669855,43.300572,258.1],[-1.66989,43.30056,258.2],[-1.669933,43.300559,258.3],[-1.66997,43.300574,258.4],[-1.669988,43.300605,258.5],[-1.669993,43.300637,258.6],[-1.670004,43.300667,258.8],[-1.670031,43.300719,259.0],[-1.670047,43.300746,259.1],[-1.670073,43.300786,259.4],[-1.670089,43.300819,259.6],[-1.6701,43.300847,259.9],[-1.670123,43.300874,260.1],[-1.670152,43.300902,260.4],[-1.67017,43.300936,260.7],[-1.670196,43.300966,260.9],[-1.670249,43.301,261.3],[-1.670287,43.301008,261.5],[-1.670324,43.30102,261.6],[-1.670361,43.301026,261.8],[-1.670416,43.301014,262.1],[-1.670457,43.301007,262.3],[-1.670502,43.301001,262.5],[-1.67054,43.301012,262.7],[-1.670582,43.301011,262.9],[-1.670626,43.30101,263.1],[-1.670666,43.301012,263.3],[-1.670705,43.301,263.4],[-1.670734,43.30102,263.6],[-1.670774,43.301042,263.8],[-1.670811,43.301045,263.9],[-1.670854,43.301043,264.0],[-1.670899,43.301034,264.1],[-1.670934,43.301012,264.3],[-1.670966,43.300985,264.5],[-1.671007,43.300963,264.7],[-1.671051,43.300952,264.8],[-1.671086,43.300962,264.9],[-1.671134,43.300966,265.1],[-1.671184,43.300967,265.2],[-1.671239,43.300966,265.4],[-1.671291,43.300961,265.6],[-1.671344,43.300963,265.8],[-1.671385,43.300971,266.0],[-1.671438,43.300965,266.2],[-1.671465,43.300943,266.4],[-1.671505,43.300917,266.6],[-1.671555,43.300908,266.9],[-1.671607,43.300902,267.2],[-1.671648,43.300896,267.4],[-1.671703,43.300899,267.7],[-1.671743,43.300909,268.0],[-1.671787,43.300901,268.2],[-1.671837,43.300887,268.5],[-1.67188,43.300869,268.8],[-1.671925,43.300853,269.1],[-1.671964,43.300835,269.4],[-1.672009,43.300843,269.7],[-1.672044,43.300832,269.9],[-1.672087,43.300835,270.1],[-1.672133,43.300828,270.3],[-1.672176,43.300813,270.5],[-1.672219,43.300805,270.7],[-1.672265,43.300799,271.0],[-1.672324,43.300798,271.3],[-1.672374,43.300791,271.6],[-1.672426,43.300768,272.0],[-1.672467,43.300757,272.2],[-1.672503,43.300745,272.5],[-1.672546,43.300719,272.9],[-1.672592,43.300705,273.3],[-1.672643,43.300692,273.6],[-1.67269,43.30068,273.9],[-1.672734,43.300662,274.1],[-1.672779,43.300647,274.4],[-1.672825,43.300619,274.6],[-1.672852,43.3006,274.8],[-1.672882,43.30058,275.0],[-1.672918,43.300548,275.1],[-1.672942,43.300511,275.2],[-1.672968,43.300482,275.3],[-1.673007,43.300462,275.3],[-1.673042,43.300437,275.4],[-1.673083,43.300417,275.4],[-1.673109,43.300397,275.4],[-1.67314,43.300369,275.4],[-1.673172,43.300351,275.4],[-1.673212,43.300336,275.4],[-1.673248,43.300331,275.4],[-1.673293,43.300316,275.4],[-1.673331,43.300308,275.4],[-1.67339,43.300289,275.4],[-1.673436,43.300267,275.4],[-1.673476,43.300253,275.4],[-1.673513,43.300242,275.4],[-1.673547,43.300224,275.4],[-1.673583,43.300201,275.4],[-1.673605,43.300169,275.4],[-1.673624,43.300137,275.4],[-1.673655,43.300106,275.4],[-1.673683,43.300077,275.4],[-1.673716,43.300055,275.4],[-1.673753,43.300026,275.4],[-1.673781,43.3,275.4],[-1.673811,43.299982,275.5],[-1.673854,43.299962,275.5],[-1.673891,43.299954,275.5],[-1.673937,43.299931,275.6],[-1.673964,43.299903,275.6],[-1.67398,43.299875,275.7],[-1.674,43.299845,275.8],[-1.674036,43.299813,275.9],[-1.674049,43.299782,276.0],[-1.674059,43.299752,276.1],[-1.67408,43.299725,276.3],[-1.674103,43.299684,276.4],[-1.674108,43.299652,276.6],[-1.674127,43.299627,276.9],[-1.674156,43.299585,277.2],[-1.674175,43.299554,277.5],[-1.674196,43.299527,277.8],[-1.674229,43.299502,278.2],[-1.674271,43.299485,278.6],[-1.674328,43.299492,279.0],[-1.67437,43.299481,279.4],[-1.674396,43.299449,279.8],[-1.674419,43.299419,280.2],[-1.674464,43.299396,280.6],[-1.674502,43.299379,281.0],[-1.674539,43.2994,281.3],[-1.674576,43.299409,281.5],[-1.67461,43.299392,281.7],[-1.674658,43.299377,281.9],[-1.674696,43.299359,282.0],[-1.674748,43.299352,282.2],[-1.674806,43.299351,282.3],[-1.674858,43.299361,282.7],[-1.674903,43.299371,283.2],[-1.67494,43.299379,283.6],[-1.674981,43.299394,284.1],[-1.675071,43.299403,285.1],[-1.675109,43.299404,285.4],[-1.675145,43.299396,285.7],[-1.675184,43.299401,285.9],[-1.67523,43.299414,286.3],[-1.675264,43.299432,286.6],[-1.675299,43.299443,286.9],[-1.675343,43.299457,287.3],[-1.67537,43.29948,287.6],[-1.675424,43.299495,287.9],[-1.675458,43.299522,288.0],[-1.675493,43.299544,288.1],[-1.675523,43.29956,288.2],[-1.675564,43.299557,288.3],[-1.67561,43.299554,288.5],[-1.675653,43.299564,288.6],[-1.675688,43.299579,288.7],[-1.675738,43.299604,288.9],[-1.675767,43.299631,289.0],[-1.67579,43.299659,289.1],[-1.675814,43.299682,289.2],[-1.675856,43.299699,289.4],[-1.675911,43.299712,289.7],[-1.675966,43.299719,290.0],[-1.676021,43.299729,290.3],[-1.676058,43.299734,290.5],[-1.676106,43.299744,290.7],[-1.676146,43.299754,291.0],[-1.676186,43.299773,291.3],[-1.676224,43.299795,291.7],[-1.676257,43.299818,292.0],[-1.676287,43.299841,292.4],[-1.676334,43.299861,292.8],[-1.676373,43.299884,293.2],[-1.676402,43.299908,293.5],[-1.676444,43.299932,293.9],[-1.676472,43.299955,294.2],[-1.676506,43.299968,294.5],[-1.67652,43.299995,294.8],[-1.676554,43.300015,295.1],[-1.676587,43.300033,295.3],[-1.676617,43.300059,295.6],[-1.676635,43.300083,295.9],[-1.676675,43.300106,296.2],[-1.676717,43.300126,296.5],[-1.676766,43.300143,296.8],[-1.676811,43.30015,297.1],[-1.676857,43.300166,297.5],[-1.676903,43.300172,297.9],[-1.676936,43.300188,298.2],[-1.676974,43.300212,298.6],[-1.677012,43.300227,298.8],[-1.67705,43.300245,299.0],[-1.677099,43.300264,299.3],[-1.677132,43.300276,299.5],[-1.677172,43.300288,299.8],[-1.67721,43.300298,300.0],[-1.677254,43.300309,300.3],[-1.677291,43.300337,300.6],[-1.677323,43.300366,300.9],[-1.67735,43.300387,301.3],[-1.677387,43.300395,301.6],[-1.677428,43.300397,302.0],[-1.677487,43.300394,302.5],[-1.67752,43.300378,302.8],[-1.677566,43.300378,303.2],[-1.677633,43.30037,303.7],[-1.677681,43.300358,304.0],[-1.677725,43.300353,304.3],[-1.677764,43.300376,304.6],[-1.67782,43.300389,305.0],[-1.677856,43.300401,305.2],[-1.677901,43.300409,305.5],[-1.67795,43.300407,305.9],[-1.67798,43.300386,306.2],[-1.678022,43.30037,306.6],[-1.678066,43.30037,307.0],[-1.678113,43.300372,307.4],[-1.678165,43.300372,307.8],[-1.678201,43.300382,308.1],[-1.678223,43.300408,308.4],[-1.678268,43.300422,308.8],[-1.678307,43.300423,309.0],[-1.678363,43.300428,309.2],[-1.678423,43.300423,309.4],[-1.678459,43.300404,309.5],[-1.678497,43.300394,309.6],[-1.67854,43.30039,309.8],[-1.678597,43.300384,310.0],[-1.678646,43.300368,310.1],[-1.678685,43.300364,310.3],[-1.678723,43.300356,310.4],[-1.67876,43.300349,310.5],[-1.678799,43.300332,310.6],[-1.678838,43.300318,310.7],[-1.678881,43.300309,310.8],[-1.678926,43.300305,310.9],[-1.678967,43.300302,311.0],[-1.679005,43.300303,311.1],[-1.679039,43.300329,311.2],[-1.679046,43.300362,311.2],[-1.679059,43.300402,311.3],[-1.679036,43.300428,311.4],[-1.67901,43.300452,311.4],[-1.678988,43.300484,311.5],[-1.678966,43.300518,311.6],[-1.678949,43.300574,311.7],[-1.67892,43.300593,311.8],[-1.678914,43.300631,311.9],[-1.678917,43.300671,312.2],[-1.67891,43.300698,312.4],[-1.678885,43.300734,312.7],[-1.678865,43.300758,313.0],[-1.678866,43.300796,313.4],[-1.678868,43.30083,313.8],[-1.678862,43.300874,314.3],[-1.678851,43.300921,314.8],[-1.67884,43.300954,315.5],[-1.678842,43.300993,316.3],[-1.678858,43.301039,317.2],[-1.678866,43.301069,317.7],[-1.678862,43.301097,318.0],[-1.678871,43.301134,318.2],[-1.678875,43.30117,318.5],[-1.678898,43.301205,318.7],[-1.678932,43.301232,319.0],[-1.678948,43.301262,319.1],[-1.678972,43.301287,319.3],[-1.678974,43.301316,319.3],[-1.678992,43.30134,319.4],[-1.679008,43.301372,319.4],[-1.679006,43.301403,319.5],[-1.679038,43.301428,319.5],[-1.679074,43.301441,319.6],[-1.679121,43.301454,319.6],[-1.679183,43.301461,319.7],[-1.679225,43.301451,319.7],[-1.679265,43.301439,319.7],[-1.679286,43.301473,319.8],[-1.679294,43.301502,319.8],[-1.679302,43.301536,319.8],[-1.679316,43.301567,319.8],[-1.679318,43.301608,319.8],[-1.679319,43.301651,319.8],[-1.679319,43.301682,319.8],[-1.679308,43.301731,319.8],[-1.679305,43.301761,319.8],[-1.679304,43.301789,319.8],[-1.679292,43.301829,319.8],[-1.679286,43.301868,319.8],[-1.679282,43.301906,319.8],[-1.679281,43.301936,319.8],[-1.679296,43.301962,319.8],[-1.679319,43.301989,319.8],[-1.679364,43.30199,319.9],[-1.679374,43.302019,320.0],[-1.679395,43.302052,320.0],[-1.679428,43.30207,320.1],[-1.679467,43.30209,320.3],[-1.6795,43.302112,320.4],[-1.679535,43.302141,320.5],[-1.679545,43.302174,320.6],[-1.679582,43.302199,320.7],[-1.679626,43.302216,320.8],[-1.679653,43.302239,320.9],[-1.679688,43.302249,321.0],[-1.679724,43.302277,321.1],[-1.679762,43.302298,321.2],[-1.679788,43.302318,321.3],[-1.679824,43.302346,321.4],[-1.67987,43.302381,321.5],[-1.679897,43.302414,321.6],[-1.679909,43.302441,321.7],[-1.679873,43.302471,321.9],[-1.679882,43.302504,322.0],[-1.67991,43.302525,322.1],[-1.679925,43.302555,322.2],[-1.679953,43.302595,322.3],[-1.679984,43.302639,322.4],[-1.67999,43.302668,322.5],[-1.680005,43.302703,322.6],[-1.680035,43.302732,322.7],[-1.680074,43.302757,322.8],[-1.680109,43.302779,322.7],[-1.680155,43.302789,322.7],[-1.680196,43.30279,322.7],[-1.680236,43.302799,322.6],[-1.680273,43.302825,322.6],[-1.680315,43.30283,322.5],[-1.680359,43.302827,322.4],[-1.680405,43.30282,322.3],[-1.680446,43.302815,322.2],[-1.680485,43.302811,322.1],[-1.680537,43.302801,321.9],[-1.68058,43.302793,321.7],[-1.680629,43.302782,321.5],[-1.680671,43.302773,321.3],[-1.680709,43.302771,321.1],[-1.680758,43.302775,320.9],[-1.680811,43.302785,320.6],[-1.680857,43.302795,320.3],[-1.680898,43.302805,320.1],[-1.680939,43.30282,319.9],[-1.680977,43.302832,319.7],[-1.681001,43.302858,319.6],[-1.681026,43.302882,319.4],[-1.681049,43.302904,319.3],[-1.681079,43.30293,319.2],[-1.681103,43.302953,319.0],[-1.681109,43.302985,319.2],[-1.681114,43.303016,319.5],[-1.681131,43.303057,319.7],[-1.681161,43.303098,320.0],[-1.681185,43.303138,320.1],[-1.681208,43.303173,320.3],[-1.68123,43.303218,320.4],[-1.681253,43.303261,320.5],[-1.681269,43.303286,320.6],[-1.681295,43.303328,320.7],[-1.681287,43.303374,320.7],[-1.681267,43.303421,320.8],[-1.681283,43.303448,320.8],[-1.681305,43.303478,320.9],[-1.681298,43.303505,320.9],[-1.681286,43.303535,321.0],[-1.681268,43.303567,321.1],[-1.68124,43.303591,321.2],[-1.681206,43.303626,321.3],[-1.681184,43.303667,321.5],[-1.681181,43.303709,321.7],[-1.681175,43.303747,321.8],[-1.681162,43.303781,322.0],[-1.681152,43.303819,322.2],[-1.681147,43.303866,322.5],[-1.681133,43.303901,322.7],[-1.681118,43.303927,322.9],[-1.681094,43.303957,323.1],[-1.681059,43.303982,323.3],[-1.681026,43.304007,323.5],[-1.680988,43.304038,323.8],[-1.680957,43.304067,324.0],[-1.680927,43.304098,324.2],[-1.680902,43.304124,324.4],[-1.680866,43.304143,324.5],[-1.680819,43.304167,324.8],[-1.680785,43.304195,324.9],[-1.680763,43.304221,325.0],[-1.680742,43.304244,325.1],[-1.680722,43.304273,325.2],[-1.680688,43.304289,325.3],[-1.680653,43.304309,325.5],[-1.680652,43.304348,325.6],[-1.680657,43.304388,325.8],[-1.680662,43.304432,326.0],[-1.680656,43.304465,326.2],[-1.680649,43.304497,326.3],[-1.680644,43.304527,326.4],[-1.680617,43.304551,326.6],[-1.680587,43.304566,326.6],[-1.680562,43.304588,326.7],[-1.68054,43.30461,326.8],[-1.680516,43.304641,326.9],[-1.680494,43.30468,327.0],[-1.680486,43.304707,327.1],[-1.680477,43.304749,327.2],[-1.680467,43.30479,327.4],[-1.680454,43.304821,327.5],[-1.680435,43.304856,327.7],[-1.680427,43.304895,327.9],[-1.68042,43.304927,328.1],[-1.680406,43.304958,328.3],[-1.680387,43.30499,328.5],[-1.680379,43.305017,328.7],[-1.680365,43.305046,328.9],[-1.680354,43.305082,329.4],[-1.680353,43.305137,330.0],[-1.680341,43.305177,330.4],[-1.680299,43.305203,330.9],[-1.680268,43.305237,331.3],[-1.68027,43.305275,331.7],[-1.680282,43.305314,332.1],[-1.680288,43.305344,332.4],[-1.680273,43.305381,332.8],[-1.680246,43.305401,333.1],[-1.680234,43.305429,333.4],[-1.680208,43.305455,333.8],[-1.680179,43.30548,334.4],[-1.680159,43.305504,334.2]]}}]}