{"type":"FeatureCollection","features":[{"type":"Feature","properties":{"ruta_id":"31818625","nombre":"⛰️ PICOS de PEÑAS de AYA desde ELURRETXE ruta circular","blog_url":"https://www.rutasporelmonte.com/picos-de-penas-de-aya-ruta-circular-desde-elurretxe/"},"geometry":{"type":"LineString","coordinates":[[-1.786456,43.29531,505.3],[-1.786504,43.295308,505.2],[-1.786514,43.295279,505.0],[-1.786548,43.295261,505.2],[-1.786555,43.295232,505.3],[-1.786541,43.295201,505.5],[-1.78654,43.295168,505.6],[-1.786518,43.295141,505.8],[-1.786491,43.295115,505.9],[-1.786454,43.295101,506.1],[-1.786414,43.295082,506.3],[-1.786377,43.295065,506.5],[-1.786341,43.295039,506.7],[-1.786312,43.295011,506.9],[-1.786285,43.294978,507.1],[-1.786259,43.294958,507.3],[-1.786222,43.294943,507.4],[-1.786188,43.294933,507.6],[-1.78615,43.294926,507.8],[-1.786111,43.29492,508.0],[-1.786066,43.29492,508.2],[-1.786026,43.294921,508.4],[-1.785983,43.29492,508.6],[-1.785938,43.294905,508.8],[-1.785895,43.294888,509.0],[-1.785879,43.294864,509.2],[-1.78583,43.294849,509.4],[-1.785797,43.294833,509.5],[-1.785765,43.294813,509.7],[-1.785732,43.29478,509.9],[-1.785706,43.294752,510.1],[-1.785675,43.294729,510.3],[-1.785623,43.29471,510.8],[-1.785582,43.294694,511.2],[-1.785543,43.294688,511.5],[-1.785491,43.294682,512.0],[-1.785452,43.294673,512.4],[-1.785403,43.294651,513.1],[-1.785365,43.294633,513.6],[-1.785335,43.294613,514.0],[-1.7853,43.294596,514.4],[-1.785274,43.294572,514.8],[-1.785246,43.294546,515.2],[-1.785207,43.294523,515.9],[-1.785162,43.294475,516.9],[-1.785146,43.294435,517.6],[-1.785126,43.294409,518.1],[-1.785114,43.294377,518.7],[-1.785088,43.294357,519.2],[-1.785066,43.294335,519.6],[-1.785051,43.294302,520.3],[-1.785028,43.294275,520.9],[-1.785027,43.294242,521.6],[-1.785004,43.294212,522.2],[-1.784978,43.294172,523.0],[-1.784962,43.294141,523.6],[-1.784946,43.294111,524.1],[-1.784933,43.294078,524.7],[-1.784933,43.294049,525.1],[-1.784913,43.294018,525.7],[-1.784893,43.293994,526.1],[-1.784868,43.293968,526.6],[-1.784856,43.293929,527.3],[-1.784845,43.293885,528.1],[-1.784842,43.29385,528.7],[-1.784836,43.293819,529.2],[-1.784846,43.29379,529.7],[-1.784851,43.29376,530.2],[-1.784858,43.29373,530.7],[-1.784874,43.293701,531.3],[-1.784879,43.293667,531.9],[-1.78486,43.293636,532.4],[-1.784845,43.293611,532.9],[-1.784849,43.293584,533.3],[-1.784871,43.293559,533.8],[-1.784864,43.293532,534.2],[-1.784854,43.293495,534.8],[-1.784846,43.293467,535.3],[-1.784835,43.293435,535.7],[-1.784824,43.293399,536.0],[-1.784805,43.293369,536.4],[-1.784772,43.293341,536.8],[-1.784748,43.293319,537.0],[-1.784719,43.293274,537.4],[-1.784704,43.293249,537.6],[-1.784683,43.293227,537.8],[-1.784647,43.293206,538.0],[-1.784601,43.293187,538.2],[-1.784561,43.293167,538.4],[-1.784522,43.293143,538.7],[-1.784489,43.293126,539.0],[-1.784468,43.293101,539.3],[-1.784458,43.293072,539.7],[-1.784428,43.293051,540.1],[-1.784419,43.293014,540.5],[-1.784408,43.292987,540.9],[-1.784439,43.292963,541.4],[-1.784482,43.292946,541.9],[-1.784531,43.292931,543.1],[-1.784579,43.292914,543.8],[-1.784615,43.292899,544.2],[-1.78465,43.292881,544.7],[-1.784692,43.292865,545.2],[-1.784733,43.292869,545.7],[-1.784777,43.292873,546.2],[-1.784818,43.292875,546.6],[-1.784864,43.292879,547.0],[-1.78491,43.292864,547.5],[-1.784955,43.292841,548.0],[-1.784999,43.292832,548.5],[-1.785044,43.29283,548.9],[-1.785078,43.292816,549.3],[-1.785121,43.292809,549.7],[-1.785156,43.292799,550.1],[-1.785198,43.292794,550.5],[-1.785241,43.292784,550.9],[-1.785279,43.292773,551.3],[-1.785322,43.29277,551.8],[-1.785365,43.292774,552.2],[-1.785414,43.292777,552.8],[-1.785463,43.292768,553.2],[-1.785505,43.292756,553.6],[-1.785545,43.292747,554.0],[-1.785586,43.292737,554.4],[-1.785589,43.292765,554.9],[-1.785628,43.292757,555.3],[-1.785658,43.292722,556.1],[-1.785675,43.292696,556.6],[-1.785694,43.292671,557.1],[-1.7857,43.29264,557.7],[-1.785682,43.292611,558.3],[-1.785689,43.292582,559.5],[-1.785716,43.292556,560.2],[-1.785743,43.292532,561.0],[-1.785741,43.292497,561.9],[-1.785716,43.292473,562.8],[-1.785699,43.292443,563.7],[-1.785709,43.292412,564.5],[-1.7857,43.292378,565.4],[-1.785705,43.292344,566.3],[-1.785697,43.292318,567.1],[-1.785729,43.292299,567.9],[-1.785748,43.292275,568.7],[-1.785747,43.292239,569.7],[-1.785755,43.292206,570.6],[-1.785764,43.292172,571.5],[-1.785772,43.292143,572.4],[-1.785768,43.292108,573.4],[-1.785747,43.292081,574.4],[-1.785731,43.292056,575.2],[-1.785719,43.292028,576.0],[-1.785714,43.292,576.7],[-1.785681,43.29198,577.5],[-1.785658,43.291953,578.2],[-1.785645,43.291928,578.8],[-1.785637,43.291897,579.4],[-1.785619,43.291868,580.0],[-1.785614,43.291835,580.6],[-1.785591,43.291809,581.2],[-1.785588,43.291775,582.3],[-1.785589,43.291748,582.9],[-1.785562,43.291728,583.5],[-1.785542,43.291684,584.4],[-1.785526,43.291659,585.0],[-1.7855,43.291633,585.7],[-1.785495,43.291604,586.3],[-1.785509,43.291577,586.9],[-1.785504,43.291531,587.7],[-1.785495,43.291502,588.2],[-1.785487,43.291474,588.8],[-1.785485,43.291444,589.4],[-1.785481,43.291401,590.4],[-1.785474,43.291368,591.0],[-1.785463,43.291339,591.6],[-1.785466,43.291301,592.2],[-1.785477,43.291271,592.8],[-1.785485,43.291243,593.4],[-1.785498,43.291188,594.6],[-1.785491,43.291161,595.3],[-1.785476,43.291126,596.2],[-1.785494,43.291102,596.8],[-1.785527,43.291084,597.5],[-1.785574,43.291066,598.3],[-1.785617,43.291049,599.1],[-1.78565,43.291033,599.8],[-1.785676,43.291002,600.8],[-1.785697,43.290972,601.8],[-1.785703,43.290939,602.9],[-1.785677,43.290914,603.9],[-1.78564,43.290897,604.9],[-1.785604,43.290876,606.0],[-1.785564,43.290872,606.8],[-1.785522,43.290849,607.8],[-1.785493,43.290831,608.5],[-1.785468,43.290804,609.6],[-1.785448,43.290776,610.6],[-1.78541,43.290769,611.3],[-1.785338,43.290753,612.5],[-1.785288,43.290745,613.2],[-1.785249,43.290748,613.7],[-1.785228,43.290712,614.4],[-1.785195,43.290679,615.2],[-1.785177,43.290648,615.8],[-1.785165,43.290621,616.4],[-1.785153,43.290589,617.0],[-1.785131,43.290562,617.5],[-1.785104,43.290527,618.1],[-1.785072,43.2905,618.7],[-1.785046,43.290476,619.2],[-1.785027,43.290443,619.7],[-1.785008,43.290397,620.4],[-1.784999,43.290361,621.0],[-1.784956,43.29038,621.6],[-1.784904,43.290387,622.3],[-1.784876,43.290363,622.8],[-1.784854,43.290336,623.3],[-1.78483,43.290312,623.9],[-1.784796,43.290289,624.5],[-1.784752,43.290272,625.2],[-1.784721,43.290256,625.7],[-1.78469,43.290222,626.4],[-1.78464,43.290177,627.4],[-1.784614,43.29015,628.0],[-1.78457,43.290146,628.5],[-1.784538,43.290126,629.0],[-1.784522,43.290096,629.5],[-1.784499,43.290074,630.1],[-1.784466,43.290051,630.9],[-1.784422,43.290027,631.7],[-1.784396,43.290003,632.3],[-1.784355,43.28999,633.1],[-1.784316,43.289998,633.8],[-1.784303,43.289955,634.8],[-1.784287,43.289925,635.5],[-1.784264,43.289903,636.2],[-1.784227,43.289894,636.7],[-1.784175,43.289895,637.3],[-1.784129,43.289889,637.9],[-1.784096,43.289874,638.4],[-1.784047,43.289873,639.0],[-1.783996,43.289882,639.7],[-1.783967,43.289859,640.3],[-1.783933,43.289837,641.0],[-1.783893,43.289826,641.5],[-1.783849,43.289806,642.2],[-1.783811,43.28981,642.6],[-1.783773,43.289792,643.0],[-1.783738,43.289777,643.4],[-1.783709,43.289797,643.8],[-1.783694,43.289771,644.3],[-1.783654,43.289768,644.6],[-1.783649,43.289738,645.0],[-1.783607,43.289722,645.4],[-1.783578,43.289691,645.8],[-1.783549,43.28966,646.4],[-1.78351,43.289644,646.9],[-1.783479,43.289619,647.4],[-1.783443,43.289599,648.0],[-1.783416,43.289576,648.5],[-1.783392,43.289544,649.2],[-1.78338,43.289517,649.8],[-1.783357,43.289496,650.3],[-1.78334,43.289462,651.3],[-1.783343,43.289435,652.1],[-1.783303,43.289428,653.1],[-1.783314,43.289391,654.5],[-1.783337,43.289358,655.9],[-1.783346,43.289329,657.0],[-1.783379,43.289315,658.1],[-1.783404,43.289293,659.3],[-1.783409,43.289266,660.4],[-1.783385,43.289204,663.1],[-1.783368,43.289171,664.6],[-1.783341,43.289139,666.2],[-1.783327,43.289097,668.0],[-1.78332,43.289062,669.4],[-1.783311,43.289028,670.8],[-1.783346,43.289042,672.0],[-1.783374,43.289061,672.9],[-1.783412,43.289066,673.8],[-1.783448,43.289076,674.6],[-1.783478,43.289094,675.5],[-1.783519,43.289114,676.4],[-1.78356,43.289119,677.2],[-1.783601,43.289124,677.9],[-1.783639,43.289117,678.5],[-1.783683,43.289117,679.0],[-1.783724,43.28912,679.5],[-1.783777,43.289129,680.3],[-1.78382,43.289124,680.9],[-1.783861,43.28912,681.5],[-1.783902,43.289113,682.0],[-1.783941,43.289103,684.2],[-1.783981,43.289106,684.6],[-1.784016,43.289116,685.1],[-1.784068,43.289111,685.7],[-1.784092,43.289086,686.8],[-1.784133,43.289086,687.9],[-1.784167,43.289099,689.0],[-1.784209,43.289099,689.8],[-1.784235,43.289077,690.3],[-1.784276,43.289068,690.9],[-1.784312,43.28906,691.6],[-1.784341,43.289039,692.8],[-1.784376,43.289019,694.2],[-1.78442,43.288995,695.8],[-1.784431,43.288969,696.9],[-1.784475,43.288971,698.2],[-1.784522,43.288978,699.6],[-1.784561,43.288985,700.7],[-1.784604,43.288987,701.9],[-1.78465,43.288974,703.3],[-1.784608,43.288966,704.4],[-1.784556,43.288954,705.7],[-1.784551,43.288924,706.8],[-1.784589,43.288905,707.9],[-1.784628,43.288917,708.9],[-1.784679,43.288922,710.2],[-1.784719,43.288928,711.2],[-1.784759,43.288928,712.3],[-1.784806,43.288918,713.6],[-1.784859,43.288911,714.6],[-1.784897,43.288892,715.0],[-1.784936,43.288871,715.3],[-1.784986,43.288867,716.1],[-1.785027,43.288873,717.0],[-1.785054,43.288854,717.8],[-1.785091,43.288836,718.7],[-1.785124,43.288814,719.6],[-1.785132,43.288841,720.3],[-1.785115,43.288812,721.1],[-1.785136,43.288786,721.7],[-1.785174,43.288786,722.3],[-1.785215,43.288794,723.0],[-1.785266,43.288785,723.0],[-1.785282,43.288753,722.8],[-1.785302,43.288727,722.6],[-1.785335,43.288739,722.4],[-1.785351,43.288767,722.5],[-1.785383,43.288787,722.6],[-1.785413,43.288805,722.6],[-1.785468,43.28881,722.8],[-1.785519,43.288824,722.7],[-1.785536,43.288797,722.7],[-1.785551,43.288765,722.7],[-1.785582,43.288749,723.3],[-1.785616,43.288759,723.9],[-1.785665,43.288751,724.7],[-1.785704,43.288756,725.0],[-1.785739,43.288739,725.3],[-1.785742,43.2887,725.7],[-1.785725,43.288668,726.4],[-1.785704,43.288643,726.9],[-1.785679,43.288623,727.4],[-1.785651,43.288602,728.0],[-1.78563,43.288577,729.1],[-1.785619,43.288549,729.2],[-1.78563,43.288517,729.3],[-1.785619,43.288489,729.4],[-1.785593,43.288469,730.2],[-1.785591,43.288439,730.5],[-1.7856,43.288408,730.8],[-1.785603,43.288379,731.1],[-1.785589,43.288351,731.4],[-1.78557,43.288318,731.9],[-1.78556,43.288292,732.3],[-1.785551,43.288263,732.7],[-1.785533,43.288233,733.2],[-1.785495,43.28823,733.6],[-1.78546,43.288214,734.0],[-1.785425,43.288192,734.6],[-1.78541,43.288166,735.0],[-1.785392,43.288139,735.5],[-1.785379,43.28811,735.9],[-1.785408,43.28809,736.4],[-1.785405,43.288061,736.8],[-1.785413,43.288032,737.3],[-1.785411,43.287993,738.0],[-1.785406,43.28796,738.5],[-1.785415,43.287932,739.0],[-1.785411,43.287898,739.7],[-1.785397,43.287868,740.2],[-1.785388,43.287828,741.0],[-1.785373,43.287789,741.5],[-1.785365,43.287757,742.0],[-1.785342,43.287726,742.4],[-1.785328,43.287701,742.8],[-1.785334,43.287738,743.3],[-1.785317,43.287768,743.7],[-1.785309,43.287797,744.1],[-1.785327,43.287832,744.6],[-1.78533,43.287859,745.0],[-1.785303,43.28788,745.4],[-1.785254,43.287851,746.3],[-1.785213,43.28784,747.3],[-1.785171,43.287845,748.2],[-1.785134,43.287831,748.9],[-1.785116,43.287859,749.7],[-1.785073,43.287863,750.5],[-1.785022,43.287871,751.4],[-1.784996,43.287902,752.5],[-1.784964,43.287919,753.4],[-1.78493,43.28793,754.1],[-1.784919,43.287903,754.8],[-1.784887,43.287884,755.5],[-1.78484,43.287889,756.2],[-1.784813,43.28787,756.8],[-1.784782,43.287854,757.0],[-1.78478,43.287824,757.3],[-1.784744,43.287807,757.6],[-1.784701,43.287795,757.8],[-1.784707,43.287764,757.9],[-1.78468,43.287746,757.9],[-1.78465,43.287713,757.9],[-1.784606,43.287718,757.8],[-1.784565,43.287718,757.7],[-1.784514,43.287719,757.6],[-1.784479,43.287707,757.5],[-1.784454,43.287686,757.4],[-1.78443,43.287656,757.3],[-1.784428,43.287625,757.2],[-1.784394,43.287611,757.1],[-1.784354,43.287623,757.1],[-1.784313,43.287624,757.1],[-1.784326,43.28765,757.1],[-1.784286,43.287648,757.1],[-1.784247,43.287646,757.1],[-1.784176,43.287653,757.1],[-1.784119,43.28765,757.2],[-1.784061,43.287644,757.4],[-1.784019,43.287644,757.7],[-1.783973,43.287645,757.9],[-1.783962,43.287617,758.2],[-1.783959,43.287582,758.6],[-1.783946,43.287553,758.9],[-1.783925,43.287528,759.4],[-1.783886,43.28753,759.9],[-1.783839,43.287545,760.6],[-1.783806,43.287531,761.2],[-1.783789,43.287505,761.8],[-1.783772,43.28748,762.4],[-1.783809,43.287474,763.0],[-1.783834,43.287452,763.6],[-1.783854,43.287426,767.5],[-1.783843,43.287396,767.6],[-1.783851,43.287367,767.7],[-1.783881,43.287348,767.9],[-1.783903,43.287322,767.8],[-1.783901,43.287293,767.7],[-1.783873,43.287268,767.6],[-1.783849,43.287244,767.5],[-1.783832,43.287211,767.2],[-1.783815,43.287175,766.9],[-1.783801,43.287147,766.7],[-1.783773,43.287119,766.5],[-1.783748,43.287097,766.3],[-1.783703,43.287092,766.0],[-1.783667,43.287085,765.9],[-1.783633,43.287068,765.7],[-1.783599,43.287045,765.5],[-1.783569,43.287028,765.3],[-1.783549,43.287001,764.9],[-1.783525,43.28698,764.5],[-1.783507,43.286955,764.0],[-1.783465,43.286935,763.5],[-1.783447,43.28691,763.0],[-1.783483,43.286927,762.5],[-1.783495,43.28696,762.0],[-1.783517,43.286986,761.6],[-1.783479,43.286997,761.5],[-1.783451,43.287017,761.3],[-1.783416,43.287037,761.1],[-1.78338,43.287027,760.9],[-1.783342,43.287007,760.6],[-1.783318,43.287027,760.3],[-1.783307,43.287054,760.0],[-1.783271,43.287062,759.7],[-1.783233,43.287042,759.7],[-1.783204,43.28702,759.7],[-1.783166,43.287007,759.6],[-1.783124,43.287023,759.5],[-1.783086,43.287005,759.4],[-1.783066,43.28698,757.9],[-1.783042,43.286948,757.3],[-1.783014,43.28692,756.7],[-1.782987,43.286889,756.1],[-1.782954,43.286856,755.5],[-1.782917,43.286837,755.1],[-1.782877,43.286823,754.7],[-1.782858,43.286799,754.4],[-1.782833,43.286772,754.0],[-1.782809,43.286747,753.7],[-1.782764,43.286731,753.4],[-1.782741,43.286706,753.1],[-1.782731,43.28668,752.9],[-1.782727,43.286646,752.6],[-1.782718,43.286618,752.1],[-1.782719,43.286588,751.6],[-1.782711,43.28655,751.1],[-1.782704,43.286517,750.7],[-1.782694,43.286486,750.3],[-1.782699,43.286454,750.0],[-1.782699,43.286424,749.8],[-1.782724,43.286391,749.7],[-1.782731,43.286363,749.6],[-1.782697,43.286344,749.6],[-1.782675,43.286313,749.6],[-1.782668,43.286282,749.7],[-1.782669,43.286251,749.9],[-1.782669,43.286217,750.2],[-1.782668,43.286185,750.4],[-1.78268,43.286154,750.8],[-1.782689,43.286121,751.4],[-1.782697,43.286091,752.0],[-1.782682,43.286059,752.6],[-1.782696,43.286033,753.2],[-1.782704,43.286005,752.6],[-1.782717,43.285978,752.0],[-1.782733,43.285954,751.6],[-1.782765,43.285934,751.0],[-1.782782,43.285891,750.4],[-1.782794,43.285863,750.3],[-1.782835,43.285856,750.3],[-1.782871,43.285864,749.6],[-1.782909,43.285878,748.9],[-1.782956,43.285876,748.7],[-1.782996,43.285862,748.4],[-1.783032,43.285855,748.2],[-1.783003,43.285836,747.9],[-1.782999,43.285809,747.8],[-1.783005,43.285774,747.9],[-1.782994,43.285748,747.9],[-1.782991,43.285718,747.8],[-1.782985,43.28569,747.7],[-1.782985,43.285663,747.6],[-1.782946,43.285667,747.6],[-1.782918,43.285642,748.0],[-1.78289,43.285618,748.4],[-1.782889,43.285586,749.0],[-1.782897,43.28556,749.8],[-1.782916,43.285535,750.4],[-1.782945,43.285509,750.8],[-1.782953,43.28548,751.1],[-1.782969,43.285454,751.4],[-1.782998,43.285435,751.7],[-1.783037,43.28544,751.9],[-1.783093,43.285436,752.3],[-1.783123,43.285455,752.9],[-1.783162,43.285453,753.3],[-1.783164,43.285481,753.7],[-1.783184,43.285457,754.1],[-1.783221,43.285457,754.3],[-1.783259,43.285444,754.5],[-1.783294,43.285428,754.7],[-1.783301,43.285401,754.7],[-1.783296,43.285369,754.7],[-1.783306,43.285343,754.7],[-1.783344,43.28533,753.1],[-1.78338,43.285321,753.2],[-1.78339,43.285295,753.3],[-1.783414,43.285264,753.4],[-1.783423,43.285235,750.5],[-1.78346,43.285224,749.6],[-1.783468,43.285255,748.7],[-1.783498,43.285238,747.8],[-1.783529,43.285217,747.0],[-1.783547,43.285192,746.7],[-1.783582,43.285171,746.5],[-1.783606,43.285144,746.2],[-1.783625,43.285111,745.9],[-1.783645,43.285086,745.6],[-1.783632,43.285058,746.9],[-1.783617,43.285033,747.1],[-1.783573,43.285029,748.3],[-1.783541,43.285044,750.0],[-1.783501,43.285052,751.7],[-1.783483,43.285077,753.3],[-1.783451,43.285092,754.7],[-1.783411,43.285114,755.5],[-1.783374,43.285122,756.4],[-1.783321,43.285117,757.7],[-1.783282,43.285117,758.7],[-1.783236,43.285125,759.4],[-1.7832,43.285111,759.4],[-1.783192,43.28514,759.7],[-1.783159,43.285127,760.0],[-1.783116,43.285131,760.1],[-1.783084,43.285116,759.9],[-1.783064,43.285092,759.7],[-1.783068,43.285053,759.5],[-1.783059,43.285024,759.3],[-1.783052,43.284997,758.9],[-1.783043,43.284965,758.5],[-1.783045,43.284937,758.1],[-1.783054,43.284965,757.8],[-1.783058,43.284938,757.5],[-1.783079,43.284916,757.2],[-1.783112,43.284929,756.9],[-1.783141,43.284892,756.6],[-1.783167,43.284858,756.4],[-1.783174,43.284831,756.2],[-1.783159,43.284805,756.2],[-1.783192,43.284791,756.2],[-1.783217,43.284769,756.3],[-1.783255,43.284765,756.3],[-1.783222,43.284749,756.4],[-1.78319,43.284766,756.5],[-1.783151,43.284755,756.4],[-1.783173,43.284732,756.3],[-1.78321,43.284724,756.3],[-1.783225,43.284699,756.4],[-1.783255,43.284672,756.4],[-1.783288,43.284659,756.5],[-1.783306,43.284635,756.6],[-1.783315,43.284598,756.8],[-1.783348,43.284573,757.0],[-1.783385,43.284584,757.1],[-1.783365,43.284557,757.2],[-1.783391,43.284535,757.2],[-1.783403,43.284509,757.2],[-1.783424,43.284478,757.2],[-1.783442,43.284452,757.2],[-1.78345,43.284418,757.2],[-1.783492,43.284432,757.1],[-1.783554,43.284429,757.1],[-1.783606,43.284421,757.1],[-1.783649,43.284416,757.3],[-1.783693,43.284404,757.4],[-1.783728,43.284393,757.6],[-1.783712,43.284368,757.6],[-1.783738,43.284347,757.7],[-1.783714,43.284321,757.8],[-1.783697,43.284297,757.9],[-1.783689,43.284265,758.1],[-1.7837,43.284239,758.0],[-1.783699,43.284199,757.8],[-1.783703,43.284171,757.8],[-1.783702,43.284138,758.2],[-1.783744,43.284122,758.7],[-1.783778,43.284099,759.2],[-1.783781,43.284071,759.7],[-1.783824,43.284054,760.1],[-1.783846,43.284026,760.5],[-1.783865,43.283998,760.8],[-1.78391,43.283985,761.3],[-1.783935,43.28396,761.5],[-1.783959,43.283937,761.5],[-1.783995,43.283907,761.6],[-1.784037,43.283903,761.5],[-1.784071,43.283873,761.6],[-1.784094,43.283852,761.8],[-1.784103,43.283823,762.1],[-1.784106,43.283795,762.4],[-1.784131,43.283773,762.7],[-1.784149,43.28375,763.2],[-1.784173,43.283721,764.2],[-1.784188,43.283693,764.6],[-1.784177,43.283663,764.1],[-1.784198,43.283632,764.0],[-1.784211,43.283607,765.4],[-1.784224,43.283569,767.0],[-1.784238,43.283544,767.8],[-1.784209,43.283513,768.3],[-1.784239,43.283485,768.2],[-1.784291,43.283485,767.7],[-1.784336,43.283484,767.1],[-1.784339,43.283455,767.6],[-1.784359,43.283427,768.6],[-1.784379,43.2834,769.2],[-1.784388,43.28337,769.6],[-1.784389,43.283339,770.1],[-1.784399,43.283309,770.8],[-1.784424,43.283287,771.2],[-1.784451,43.283259,771.0],[-1.784492,43.283241,771.4],[-1.784498,43.283212,771.9],[-1.784476,43.28318,772.7],[-1.784462,43.283152,773.3],[-1.784464,43.283119,774.0],[-1.784492,43.283094,774.6],[-1.784512,43.283063,775.2],[-1.784512,43.28303,775.8],[-1.784486,43.283011,776.2],[-1.784478,43.282981,776.8],[-1.784445,43.282966,777.3],[-1.78447,43.282944,777.7],[-1.784481,43.282913,778.3],[-1.784465,43.28288,778.8],[-1.784452,43.282854,779.1],[-1.784463,43.282828,779.4],[-1.78449,43.282805,779.8],[-1.784504,43.282774,780.1],[-1.784529,43.282746,780.4],[-1.784544,43.28272,781.0],[-1.784556,43.282692,781.8],[-1.784577,43.282668,782.6],[-1.784592,43.282638,783.1],[-1.784598,43.282608,783.6],[-1.78462,43.28258,784.2],[-1.784633,43.282548,784.7],[-1.784656,43.282526,784.9],[-1.784684,43.282505,785.1],[-1.784725,43.282498,784.9],[-1.784751,43.282476,784.5],[-1.784771,43.282452,784.8],[-1.78475,43.28243,785.1],[-1.784725,43.282406,785.2],[-1.784706,43.282379,785.1],[-1.784706,43.282352,785.0],[-1.78472,43.282323,785.0],[-1.784754,43.282304,785.1],[-1.784793,43.282292,785.3],[-1.784821,43.282271,785.4],[-1.784815,43.282234,785.4],[-1.784831,43.282204,785.3],[-1.784842,43.282168,785.2],[-1.784829,43.282137,785.0],[-1.784826,43.282103,784.7],[-1.784852,43.282074,784.3],[-1.784866,43.282047,783.9],[-1.784883,43.282023,783.4],[-1.784886,43.281983,782.7],[-1.7849,43.281947,782.0],[-1.784922,43.281918,781.4],[-1.784945,43.281895,780.8],[-1.784959,43.281865,780.1],[-1.784997,43.281848,779.5],[-1.78503,43.281826,778.7],[-1.785066,43.28181,778.0],[-1.785106,43.281799,777.3],[-1.785148,43.28179,776.4],[-1.785186,43.28177,775.4],[-1.785223,43.281755,774.4],[-1.785259,43.281744,773.4],[-1.785292,43.281722,772.1],[-1.785324,43.281702,770.8],[-1.785356,43.281678,769.2],[-1.785379,43.281651,767.7],[-1.785385,43.281623,766.9],[-1.785408,43.281598,766.9],[-1.785446,43.281587,766.9],[-1.78547,43.281612,766.9],[-1.785501,43.281633,766.4],[-1.785539,43.281655,764.9],[-1.785576,43.281672,763.5],[-1.785603,43.281697,761.7],[-1.785622,43.281722,760.1],[-1.785652,43.281739,759.3],[-1.785681,43.281765,758.6],[-1.785677,43.281794,757.8],[-1.785699,43.281816,756.7],[-1.785733,43.281837,755.3],[-1.785743,43.281866,754.2],[-1.785779,43.281875,753.4],[-1.785817,43.281898,753.4],[-1.785826,43.281924,753.3],[-1.785836,43.281958,753.0],[-1.785842,43.281985,752.3],[-1.785888,43.282008,751.2],[-1.785918,43.282034,750.3],[-1.785944,43.282058,749.5],[-1.785961,43.282083,748.8],[-1.785957,43.282113,748.1],[-1.785944,43.28214,747.3],[-1.785921,43.282162,748.1],[-1.785884,43.282187,749.4],[-1.785868,43.282213,750.0],[-1.785868,43.28224,750.4],[-1.78583,43.282256,750.8],[-1.78581,43.282279,751.2],[-1.785776,43.282301,751.6],[-1.785768,43.282333,752.0],[-1.785804,43.282346,752.4],[-1.785799,43.282376,752.8],[-1.785767,43.282391,753.6],[-1.785756,43.28242,753.3],[-1.785755,43.282451,751.8],[-1.78574,43.282486,751.0],[-1.785713,43.282512,750.4],[-1.785671,43.282513,751.4],[-1.785674,43.282542,752.1],[-1.785692,43.282565,752.1],[-1.785728,43.282572,752.1],[-1.785743,43.282599,752.4],[-1.785782,43.282606,752.3],[-1.785823,43.282596,750.5],[-1.785867,43.28259,748.5],[-1.785916,43.282596,746.6],[-1.785953,43.282599,745.5],[-1.785987,43.282582,744.4],[-1.786023,43.282571,743.0],[-1.786063,43.282552,741.1],[-1.786107,43.282541,739.1],[-1.786154,43.282534,736.6],[-1.786191,43.282551,734.4],[-1.786225,43.282538,733.3],[-1.78626,43.282529,732.3],[-1.786291,43.28251,731.3],[-1.786295,43.282538,729.8],[-1.786323,43.282562,728.0],[-1.786359,43.282555,726.4],[-1.786387,43.282575,725.3],[-1.786423,43.282585,724.7],[-1.786458,43.282572,724.0],[-1.786495,43.282575,723.3],[-1.786531,43.282565,722.5],[-1.786506,43.282585,721.7],[-1.786489,43.282611,720.9],[-1.786477,43.282638,720.0],[-1.786473,43.282664,719.1],[-1.78651,43.282673,717.6],[-1.786557,43.282676,716.3],[-1.786604,43.282666,715.5],[-1.786623,43.282634,713.5],[-1.786655,43.282606,711.9],[-1.786675,43.28258,711.4],[-1.786707,43.282564,711.0],[-1.786734,43.282545,710.5],[-1.786698,43.282529,711.3],[-1.786684,43.28249,713.3],[-1.786649,43.28247,715.0],[-1.786636,43.282443,716.5],[-1.786673,43.282414,718.4],[-1.786706,43.282392,719.2],[-1.786753,43.282375,719.4],[-1.786794,43.28236,719.3],[-1.786799,43.282328,718.9],[-1.786819,43.282297,718.1],[-1.786822,43.282267,716.8],[-1.786813,43.282239,715.0],[-1.78685,43.282196,714.9],[-1.786835,43.282171,715.5],[-1.786834,43.282132,714.3],[-1.786854,43.282106,714.0],[-1.78687,43.282073,714.6],[-1.78687,43.282041,714.8],[-1.786887,43.282016,714.8],[-1.786901,43.281968,713.9],[-1.786919,43.281944,713.4],[-1.786983,43.281923,713.2],[-1.787018,43.281911,712.7],[-1.787037,43.281886,711.4],[-1.787066,43.28186,710.1],[-1.787102,43.281821,708.4],[-1.787129,43.281796,708.2],[-1.787135,43.281767,708.1],[-1.7871,43.281753,707.4],[-1.787067,43.281737,705.8],[-1.787045,43.281714,705.2],[-1.787042,43.281678,705.1],[-1.787012,43.281659,705.0],[-1.786988,43.281637,704.9],[-1.786962,43.281611,705.3],[-1.786938,43.281585,706.2],[-1.786922,43.281556,707.1],[-1.786902,43.28153,708.2],[-1.78689,43.281502,709.1],[-1.786866,43.281469,709.0],[-1.786871,43.281438,709.5],[-1.786886,43.281409,710.7],[-1.786889,43.281367,710.9],[-1.786886,43.281337,710.4],[-1.786899,43.281308,709.4],[-1.786924,43.281278,708.3],[-1.786962,43.28125,707.0],[-1.786989,43.281217,706.3],[-1.786999,43.281184,704.3],[-1.787,43.281154,704.4],[-1.787018,43.281119,704.5],[-1.787031,43.281092,704.5],[-1.78705,43.281068,704.7],[-1.787047,43.28104,704.8],[-1.787049,43.281006,704.9],[-1.787052,43.280973,705.0],[-1.787039,43.280941,705.2],[-1.787037,43.280914,705.3],[-1.787032,43.280885,705.4],[-1.787031,43.280858,705.6],[-1.787049,43.280832,705.7],[-1.787038,43.280799,705.9],[-1.787064,43.280764,706.1],[-1.787115,43.280745,706.4],[-1.787139,43.280723,706.6],[-1.787162,43.280697,706.8],[-1.78719,43.280669,707.0],[-1.787228,43.280644,707.3],[-1.787249,43.280616,707.5],[-1.787257,43.280583,707.8],[-1.787258,43.280549,706.4],[-1.787276,43.280506,704.6],[-1.787277,43.280477,703.8],[-1.78727,43.280443,703.0],[-1.787296,43.280404,702.1],[-1.787307,43.280376,701.8],[-1.787348,43.280356,701.5],[-1.787375,43.280324,701.7],[-1.787395,43.280301,702.0],[-1.787414,43.280275,702.8],[-1.787462,43.280271,703.7],[-1.787513,43.280254,704.6],[-1.787569,43.280238,705.2],[-1.787608,43.280239,705.0],[-1.787647,43.280217,704.8],[-1.787687,43.280195,704.5],[-1.787732,43.280184,704.3],[-1.78776,43.280164,704.6],[-1.787786,43.28014,705.0],[-1.787808,43.280116,704.7],[-1.787826,43.280091,704.2],[-1.787859,43.280066,703.6],[-1.787901,43.280055,703.4],[-1.787934,43.28003,703.3],[-1.787965,43.280007,702.6],[-1.78801,43.279984,701.8],[-1.788044,43.27997,701.2],[-1.788096,43.279948,700.2],[-1.788136,43.279931,699.6],[-1.788178,43.279918,699.0],[-1.78822,43.279906,698.4],[-1.788264,43.2799,697.8],[-1.788306,43.27989,697.2],[-1.788339,43.279877,696.6],[-1.788386,43.27987,695.9],[-1.788421,43.279858,695.3],[-1.788455,43.279846,694.7],[-1.788487,43.279829,693.7],[-1.788517,43.279808,692.6],[-1.78855,43.279787,692.2],[-1.788594,43.279769,692.4],[-1.788639,43.27975,692.4],[-1.788685,43.279739,692.0],[-1.788722,43.279713,691.7],[-1.788711,43.279683,692.0],[-1.788742,43.279657,692.2],[-1.788776,43.279643,692.1],[-1.78881,43.279617,691.7],[-1.788842,43.279596,691.4],[-1.788878,43.279572,691.9],[-1.788913,43.279552,692.4],[-1.788936,43.279524,692.7],[-1.788954,43.279498,692.9],[-1.788983,43.279474,693.1],[-1.789009,43.279453,693.4],[-1.789041,43.279432,693.8],[-1.789073,43.27941,694.1],[-1.789109,43.279379,694.4],[-1.789128,43.279351,694.7],[-1.789155,43.279333,695.1],[-1.789196,43.27933,695.5],[-1.789236,43.279314,695.9],[-1.789276,43.279304,696.1],[-1.789308,43.279289,696.2],[-1.78934,43.279275,696.1],[-1.78938,43.279261,695.6],[-1.78942,43.279248,695.0],[-1.789465,43.279239,694.8],[-1.789506,43.279231,694.6],[-1.789543,43.279217,694.5],[-1.789578,43.279205,694.2],[-1.789617,43.279198,694.0],[-1.789661,43.279187,693.6],[-1.789694,43.279169,693.5],[-1.78974,43.279153,693.4],[-1.789784,43.279138,693.3],[-1.78982,43.279119,693.1],[-1.789849,43.279097,693.0],[-1.789882,43.279078,693.1],[-1.789911,43.279056,693.2],[-1.789938,43.279037,693.3],[-1.789968,43.27902,693.2],[-1.790004,43.279006,693.1],[-1.790029,43.27898,693.0],[-1.79005,43.278956,692.9],[-1.790076,43.278937,692.8],[-1.790105,43.278918,692.9],[-1.790151,43.278896,693.1],[-1.79019,43.278881,693.2],[-1.790227,43.278871,693.1],[-1.790271,43.278859,693.1],[-1.790308,43.278851,693.0],[-1.790352,43.278841,693.1],[-1.790388,43.278825,693.1],[-1.790421,43.27881,693.1],[-1.790447,43.27878,693.0],[-1.790476,43.278757,693.0],[-1.790513,43.278738,692.9],[-1.790545,43.278719,692.8],[-1.790587,43.2787,692.5],[-1.790642,43.2787,692.0],[-1.790685,43.278699,691.4],[-1.790732,43.278704,690.4],[-1.790772,43.27872,689.3],[-1.790809,43.278731,689.2],[-1.790852,43.278732,688.7],[-1.790892,43.278719,688.2],[-1.790936,43.278717,687.7],[-1.790978,43.278711,687.2],[-1.791016,43.278703,687.0],[-1.791051,43.278718,686.0],[-1.791095,43.278711,685.3],[-1.791124,43.278686,685.0],[-1.791159,43.278673,684.8],[-1.791195,43.278658,684.6],[-1.791237,43.278658,683.9],[-1.791276,43.278651,683.1],[-1.791299,43.278628,682.9],[-1.791297,43.278596,683.3],[-1.791283,43.27857,684.3],[-1.791295,43.278533,684.0],[-1.791307,43.278506,684.3],[-1.791311,43.278473,684.5],[-1.791341,43.278443,684.0],[-1.791369,43.278414,684.1],[-1.791389,43.278368,683.6],[-1.791404,43.278339,683.7],[-1.791384,43.278314,683.8],[-1.791371,43.278284,684.3],[-1.791385,43.27825,683.8],[-1.791394,43.278223,683.8],[-1.791407,43.278192,683.7],[-1.791396,43.278164,683.6],[-1.791423,43.278139,683.0],[-1.791466,43.278135,682.3],[-1.791499,43.278116,682.2],[-1.791539,43.278089,681.5],[-1.791574,43.278077,680.7],[-1.791573,43.278048,680.6],[-1.791596,43.278023,679.8],[-1.791617,43.277984,679.5],[-1.791636,43.277945,678.6],[-1.791664,43.277926,678.5],[-1.791698,43.277901,677.6],[-1.791717,43.27787,676.8],[-1.79176,43.277844,676.0],[-1.791797,43.277839,675.7],[-1.79182,43.277815,675.3],[-1.791855,43.277792,674.9],[-1.791898,43.277786,674.5],[-1.791936,43.277774,674.2],[-1.791974,43.277758,673.8],[-1.792016,43.277743,673.4],[-1.792051,43.277714,672.9],[-1.792084,43.277682,672.3],[-1.792136,43.2777,671.8],[-1.792181,43.277685,671.3],[-1.792218,43.277666,670.8],[-1.792258,43.277659,670.4],[-1.792305,43.27765,669.9],[-1.792357,43.277628,669.4],[-1.792419,43.277601,668.8],[-1.792449,43.277581,668.5],[-1.792484,43.277561,668.1],[-1.792516,43.277546,667.8],[-1.792556,43.277526,667.5],[-1.792598,43.277505,667.2],[-1.792636,43.277498,667.0],[-1.792668,43.277472,666.8],[-1.792705,43.277443,666.6],[-1.792735,43.277414,666.4],[-1.792764,43.277389,666.3],[-1.792802,43.277377,666.3],[-1.792849,43.27736,666.3],[-1.792894,43.277351,666.3],[-1.79294,43.277356,666.4],[-1.792978,43.277358,666.4],[-1.793003,43.277335,666.4],[-1.793041,43.277317,666.4],[-1.79307,43.277294,666.4],[-1.793097,43.277272,666.4],[-1.793117,43.277246,666.4],[-1.793132,43.277212,666.3],[-1.793149,43.277186,666.2],[-1.793173,43.277161,666.2],[-1.793209,43.277137,666.0],[-1.793234,43.277109,665.9],[-1.793284,43.277086,665.7],[-1.793367,43.27707,665.4],[-1.793379,43.277043,665.3],[-1.7934,43.277017,665.1],[-1.793435,43.277,665.0],[-1.793478,43.276974,664.7],[-1.793512,43.276954,664.6],[-1.79354,43.276929,664.4],[-1.793586,43.276918,664.2],[-1.793613,43.276899,664.1],[-1.793645,43.276876,663.9],[-1.793689,43.276853,663.8],[-1.793735,43.276829,663.6],[-1.793773,43.276817,663.5],[-1.793811,43.276793,663.4],[-1.79386,43.276774,663.4],[-1.793889,43.276753,663.3],[-1.793919,43.276729,663.3],[-1.793936,43.276697,663.0],[-1.793957,43.276674,662.9],[-1.793989,43.276647,662.6],[-1.793999,43.276619,662.5],[-1.794028,43.276595,662.3],[-1.794074,43.276569,661.8],[-1.794099,43.276543,661.4],[-1.794125,43.276521,661.0],[-1.794154,43.276488,660.5],[-1.794192,43.276468,660.0],[-1.794232,43.276448,659.4],[-1.794255,43.276426,658.9],[-1.794296,43.276411,658.3],[-1.794343,43.276405,657.4],[-1.794382,43.276421,656.6],[-1.794424,43.276401,655.7],[-1.794468,43.276385,654.8],[-1.794504,43.276377,654.1],[-1.794534,43.27636,653.4],[-1.794594,43.27635,652.4],[-1.79463,43.276342,651.8],[-1.794661,43.276326,651.1],[-1.794648,43.276364,650.1],[-1.794674,43.276328,648.7],[-1.794706,43.276313,647.6],[-1.794726,43.276343,647.6],[-1.794722,43.27637,647.7],[-1.794755,43.276392,647.7],[-1.794763,43.276418,644.3],[-1.794793,43.276441,643.9],[-1.794816,43.276464,643.5],[-1.794827,43.276493,643.0],[-1.794858,43.276509,642.6],[-1.794898,43.276518,642.2],[-1.79495,43.276513,641.6],[-1.794987,43.276504,641.2],[-1.795039,43.276494,640.6],[-1.795072,43.27647,640.1],[-1.795085,43.276444,639.6],[-1.795123,43.276438,639.2],[-1.795149,43.276417,638.8],[-1.795188,43.276401,638.3],[-1.795214,43.27638,637.9],[-1.795238,43.276348,636.4],[-1.795223,43.276322,635.2],[-1.795248,43.276299,633.9],[-1.795278,43.276278,632.6],[-1.795315,43.276267,631.5],[-1.795322,43.276238,630.7],[-1.795348,43.276217,630.0],[-1.795369,43.276189,629.2],[-1.795377,43.276162,628.4],[-1.795401,43.276132,627.5],[-1.795406,43.2761,626.7],[-1.795431,43.276076,626.1],[-1.795447,43.276048,625.4],[-1.795466,43.276017,624.6],[-1.795475,43.275987,623.8],[-1.795471,43.275959,623.2],[-1.795482,43.275931,622.6],[-1.795491,43.275904,621.9],[-1.795513,43.275878,621.1],[-1.795484,43.275858,620.2],[-1.795517,43.275843,619.4],[-1.795536,43.275819,618.4],[-1.795575,43.275811,617.3],[-1.795619,43.275811,616.0],[-1.795659,43.275809,614.8],[-1.795706,43.275823,613.4],[-1.795745,43.275828,612.2],[-1.795795,43.27583,610.4],[-1.795833,43.275839,609.0],[-1.795872,43.275847,607.5],[-1.795903,43.27587,605.9],[-1.795943,43.275868,604.6],[-1.795981,43.27586,604.0],[-1.796024,43.275856,603.5],[-1.796066,43.275848,602.9],[-1.796113,43.275861,602.2],[-1.796156,43.275863,601.7],[-1.796192,43.275854,601.2],[-1.79623,43.275869,600.6],[-1.796275,43.275862,600.0],[-1.796313,43.275867,599.5],[-1.796353,43.275857,598.9],[-1.796392,43.275869,597.9],[-1.796412,43.275892,597.2],[-1.796433,43.275915,596.5],[-1.796472,43.275921,595.7],[-1.79652,43.275916,594.9],[-1.79655,43.275897,594.1],[-1.79658,43.275876,593.4],[-1.796599,43.275852,592.7],[-1.796617,43.275823,591.9],[-1.796608,43.275796,591.2],[-1.796616,43.275767,590.4],[-1.796626,43.275733,589.6],[-1.796616,43.2757,588.7],[-1.796597,43.275669,588.0],[-1.796599,43.275639,587.4],[-1.796615,43.275611,586.8],[-1.796657,43.275608,586.2],[-1.7967,43.275618,585.7],[-1.796728,43.275641,585.2],[-1.796762,43.275663,584.6],[-1.796803,43.275675,584.0],[-1.796855,43.275669,583.3],[-1.796907,43.275671,582.7],[-1.79695,43.275675,582.1],[-1.796992,43.275673,581.6],[-1.797035,43.275675,581.0],[-1.797074,43.275664,580.6],[-1.797111,43.275654,580.2],[-1.797149,43.27565,579.8],[-1.797187,43.275653,579.4],[-1.797238,43.275655,578.9],[-1.797284,43.275655,578.4],[-1.797323,43.275652,578.1],[-1.797366,43.275647,577.8],[-1.797398,43.275623,577.4],[-1.797443,43.275616,577.2],[-1.797475,43.275631,577.4],[-1.797482,43.275661,577.6],[-1.797457,43.275685,577.9],[-1.797436,43.275708,578.1],[-1.797419,43.275738,578.4],[-1.797402,43.275763,578.6],[-1.79739,43.275799,578.8],[-1.79738,43.275833,579.0],[-1.797393,43.27586,579.2],[-1.797385,43.275894,579.4],[-1.797377,43.275933,579.7],[-1.797369,43.275961,579.9],[-1.79736,43.275992,580.1],[-1.797351,43.276023,580.4],[-1.797336,43.276055,580.6],[-1.79732,43.276092,580.8],[-1.797303,43.276122,581.1],[-1.797286,43.276162,581.5],[-1.797277,43.276194,581.8],[-1.797255,43.276226,582.2],[-1.797238,43.276258,582.5],[-1.79722,43.27629,582.8],[-1.797206,43.27632,583.1],[-1.797188,43.276346,583.3],[-1.797162,43.276374,583.6],[-1.797142,43.276398,583.8],[-1.797108,43.276417,584.1],[-1.797102,43.276455,584.4],[-1.797095,43.276487,584.7],[-1.797093,43.276524,585.0],[-1.797086,43.276562,585.4],[-1.797083,43.276591,586.7],[-1.79708,43.276621,588.0],[-1.797063,43.276655,589.6],[-1.797052,43.276684,590.0],[-1.797045,43.27672,590.4],[-1.797025,43.276744,590.8],[-1.797013,43.276773,591.2],[-1.796997,43.276807,591.8],[-1.796989,43.276834,592.2],[-1.796986,43.276869,591.4],[-1.796982,43.276901,590.4],[-1.796972,43.276929,589.4],[-1.796949,43.276952,587.8],[-1.79693,43.276982,585.4],[-1.796914,43.277013,583.0],[-1.796897,43.277038,582.2],[-1.796872,43.277061,582.5],[-1.796857,43.277087,582.8],[-1.79684,43.277118,583.0],[-1.79683,43.27716,583.1],[-1.796832,43.277188,585.3],[-1.796797,43.277212,588.9],[-1.796772,43.277238,591.1],[-1.796752,43.277262,592.9],[-1.796728,43.277286,594.3],[-1.796707,43.277321,595.1],[-1.796678,43.277361,595.3],[-1.796661,43.277393,594.8],[-1.796654,43.277421,594.4],[-1.796618,43.277448,593.5],[-1.79659,43.277479,592.7],[-1.796557,43.277511,592.1],[-1.796528,43.277534,591.7],[-1.796495,43.277554,591.4],[-1.796468,43.277579,591.3],[-1.796441,43.27761,591.3],[-1.796414,43.27763,591.2],[-1.796382,43.277657,590.8],[-1.796356,43.277681,590.5],[-1.79632,43.277702,590.4],[-1.796284,43.277715,590.5],[-1.796251,43.277743,590.6],[-1.796219,43.277773,591.0],[-1.796191,43.277807,591.4],[-1.796178,43.277833,591.3],[-1.796143,43.277858,591.0],[-1.796101,43.277874,590.7],[-1.796059,43.277896,590.4],[-1.796022,43.277919,590.1],[-1.795975,43.277933,590.1],[-1.795936,43.277947,590.6],[-1.795898,43.27796,591.2],[-1.795863,43.277981,591.5],[-1.795827,43.277997,591.5],[-1.795791,43.278014,591.5],[-1.795747,43.278029,591.7],[-1.795716,43.278052,591.9],[-1.795693,43.278082,592.2],[-1.795658,43.278101,592.2],[-1.795619,43.278115,592.1],[-1.795584,43.278133,592.0],[-1.795577,43.278162,592.3],[-1.795535,43.278168,592.8],[-1.795488,43.27818,593.3],[-1.795454,43.278195,593.6],[-1.795412,43.278204,593.9],[-1.795387,43.278225,594.2],[-1.795348,43.278251,594.3],[-1.795296,43.278268,594.5],[-1.795237,43.278279,595.0],[-1.795182,43.278282,595.8],[-1.795127,43.278292,596.6],[-1.795078,43.278306,597.0],[-1.795035,43.278316,597.4],[-1.794997,43.278331,597.6],[-1.794949,43.278337,597.8],[-1.794905,43.278336,598.0],[-1.794867,43.278354,598.7],[-1.794851,43.278379,599.4],[-1.794819,43.278395,600.1],[-1.794792,43.278428,600.7],[-1.794771,43.278457,601.1],[-1.794745,43.278478,601.5],[-1.79473,43.278511,601.8],[-1.794702,43.278547,602.2],[-1.794681,43.278586,603.0],[-1.794669,43.278615,603.6],[-1.794648,43.278643,604.1],[-1.79464,43.278682,604.3],[-1.794614,43.278714,604.3],[-1.794593,43.278736,604.1],[-1.794581,43.278765,604.0],[-1.794578,43.278793,604.3],[-1.794577,43.278823,604.6],[-1.794585,43.27886,605.0],[-1.794594,43.278892,605.3],[-1.794597,43.278923,605.6],[-1.794576,43.278964,605.6],[-1.79454,43.278987,605.5],[-1.794548,43.27903,605.7],[-1.794563,43.279056,605.9],[-1.794588,43.279083,606.2],[-1.794583,43.279112,606.3],[-1.794568,43.279139,606.2],[-1.794558,43.279165,606.1],[-1.794539,43.279191,606.1],[-1.794534,43.279234,606.7],[-1.794527,43.279261,607.2],[-1.79452,43.279293,607.2],[-1.794514,43.279332,607.2],[-1.794501,43.27936,607.5],[-1.794494,43.27939,608.0],[-1.794484,43.279428,608.2],[-1.794467,43.27946,607.9],[-1.794451,43.279491,607.7],[-1.794433,43.279518,607.6],[-1.794411,43.279548,607.4],[-1.794379,43.279576,607.4],[-1.794353,43.279596,607.4],[-1.794335,43.279625,607.4],[-1.794319,43.279655,607.1],[-1.794294,43.279679,606.3],[-1.794267,43.279699,605.7],[-1.794239,43.279722,605.1],[-1.794218,43.279751,605.6],[-1.794189,43.27977,606.0],[-1.794146,43.279784,605.7],[-1.794111,43.279796,605.3],[-1.794087,43.279822,604.7],[-1.794074,43.279851,604.0],[-1.794059,43.279876,603.4],[-1.794025,43.279892,602.8],[-1.794,43.279913,602.2],[-1.793981,43.279949,601.4],[-1.793973,43.279983,600.3],[-1.793948,43.280018,599.0],[-1.793931,43.280048,598.1],[-1.793889,43.280062,597.3],[-1.793856,43.280087,596.5],[-1.793831,43.280109,595.3],[-1.793807,43.280135,594.1],[-1.793769,43.280144,593.0],[-1.793723,43.280156,591.4],[-1.793685,43.280178,590.2],[-1.793648,43.280175,590.0],[-1.793604,43.280158,589.7],[-1.793562,43.280148,588.5],[-1.793517,43.280149,587.2],[-1.793479,43.280156,586.6],[-1.79344,43.280172,586.5],[-1.793413,43.280191,586.4],[-1.793398,43.28022,586.3],[-1.793355,43.28025,586.2],[-1.79332,43.280269,586.1],[-1.793282,43.280288,586.0],[-1.793234,43.280293,585.9],[-1.79319,43.280305,586.0],[-1.793154,43.280314,586.1],[-1.793131,43.280342,586.5],[-1.793123,43.280377,587.0],[-1.793112,43.280404,587.4],[-1.793084,43.280428,586.9],[-1.793077,43.280461,586.5],[-1.79305,43.280484,586.3],[-1.79304,43.28051,586.2],[-1.793025,43.280539,585.2],[-1.793016,43.280566,584.2],[-1.792991,43.280588,583.4],[-1.792968,43.280626,582.3],[-1.792946,43.28065,581.6],[-1.79291,43.280673,580.6],[-1.792871,43.280692,579.7],[-1.792819,43.280711,578.8],[-1.792788,43.280728,578.2],[-1.79274,43.280737,577.4],[-1.792703,43.280752,576.2],[-1.792662,43.280772,574.8],[-1.79262,43.280797,573.7],[-1.792597,43.28082,573.4],[-1.792569,43.280844,572.9],[-1.792532,43.280871,571.8],[-1.792504,43.280898,571.4],[-1.792458,43.2809,571.5],[-1.792416,43.280898,571.1],[-1.79236,43.280894,569.9],[-1.792325,43.280909,569.3],[-1.792273,43.280913,569.0],[-1.792219,43.280922,568.7],[-1.792177,43.28093,568.3],[-1.792128,43.280934,568.0],[-1.792079,43.280935,567.5],[-1.792037,43.280935,567.2],[-1.79198,43.280928,567.3],[-1.791934,43.280927,567.5],[-1.791893,43.280923,567.5],[-1.791847,43.280917,567.1],[-1.791822,43.280943,566.8],[-1.791786,43.280962,566.9],[-1.791738,43.280955,567.0],[-1.791702,43.280945,567.1],[-1.791652,43.280936,567.2],[-1.791607,43.280923,567.4],[-1.791562,43.280913,567.6],[-1.791529,43.280893,567.7],[-1.791502,43.280875,567.8],[-1.791473,43.280856,568.0],[-1.791428,43.280833,568.4],[-1.791402,43.280808,568.5],[-1.791362,43.280803,568.7],[-1.791306,43.280802,569.2],[-1.79127,43.280814,569.9],[-1.79123,43.28081,570.6],[-1.791181,43.280791,571.3],[-1.791123,43.280776,571.5],[-1.791051,43.280783,572.3],[-1.791005,43.280794,573.4],[-1.790968,43.280812,574.3],[-1.790934,43.280827,575.3],[-1.790892,43.280829,576.3],[-1.790863,43.280855,577.3],[-1.790832,43.280871,577.6],[-1.790786,43.280881,578.0],[-1.790747,43.280875,578.7],[-1.790702,43.280879,580.1],[-1.79065,43.280878,581.7],[-1.790596,43.28088,582.3],[-1.790555,43.280892,582.9],[-1.790507,43.280894,583.5],[-1.790469,43.28091,584.1],[-1.790451,43.280937,584.7],[-1.790429,43.28096,585.3],[-1.790399,43.280976,585.8],[-1.790362,43.280994,586.6],[-1.790326,43.281003,587.4],[-1.790295,43.28103,587.9],[-1.79028,43.281063,587.9],[-1.790252,43.281093,588.1],[-1.790222,43.281127,588.9],[-1.790181,43.281137,589.4],[-1.790136,43.281133,589.2],[-1.790098,43.281138,589.1],[-1.790046,43.281154,589.0],[-1.790007,43.281168,588.9],[-1.789965,43.281185,588.7],[-1.789924,43.28119,588.2],[-1.789886,43.281206,587.7],[-1.789847,43.281216,587.5],[-1.789805,43.281218,587.8],[-1.789777,43.281242,588.0],[-1.789747,43.28126,588.0],[-1.789724,43.281284,587.8],[-1.789707,43.281322,587.7],[-1.789694,43.281349,588.0],[-1.789677,43.281378,588.4],[-1.789657,43.28141,588.6],[-1.789626,43.281438,588.4],[-1.789612,43.281476,588.2],[-1.789601,43.281509,588.7],[-1.789573,43.281539,589.2],[-1.789543,43.281558,589.5],[-1.789517,43.281579,589.7],[-1.789492,43.281603,589.9],[-1.789493,43.281636,589.8],[-1.789488,43.281673,589.7],[-1.789498,43.281705,589.8],[-1.789516,43.281731,590.3],[-1.789531,43.281769,591.0],[-1.78953,43.281801,590.9],[-1.789529,43.281837,590.9],[-1.789544,43.281865,591.5],[-1.789585,43.281885,592.6],[-1.789602,43.28191,593.4],[-1.789592,43.281938,593.1],[-1.789597,43.281967,592.8],[-1.789633,43.281977,592.6],[-1.789655,43.282,592.6],[-1.789667,43.282027,592.7],[-1.78968,43.28206,592.4],[-1.789689,43.282098,591.3],[-1.789688,43.282125,590.5],[-1.78969,43.282153,589.5],[-1.789704,43.282181,588.4],[-1.789707,43.282213,586.3],[-1.789693,43.282245,584.0],[-1.789697,43.282276,583.0],[-1.789694,43.282303,582.3],[-1.789675,43.282326,581.5],[-1.789663,43.28236,579.7],[-1.789656,43.28239,577.9],[-1.789648,43.282417,576.3],[-1.789636,43.282378,573.2],[-1.789635,43.282344,570.5],[-1.789679,43.282333,568.3],[-1.789721,43.282308,566.0],[-1.789757,43.28229,564.3],[-1.789795,43.282286,563.4],[-1.789836,43.282287,562.3],[-1.789874,43.282273,561.2],[-1.789918,43.28228,560.0],[-1.789975,43.282268,558.3],[-1.790017,43.282256,556.4],[-1.790059,43.282243,553.5],[-1.7901,43.282226,551.0],[-1.790143,43.282216,549.3],[-1.790172,43.282191,547.9],[-1.790211,43.282182,546.8],[-1.79024,43.2822,545.9],[-1.790244,43.282239,544.6],[-1.790246,43.282273,543.5],[-1.790239,43.282302,542.8],[-1.790229,43.282339,542.2],[-1.790217,43.282366,539.8],[-1.790253,43.282382,537.2],[-1.790296,43.282405,535.7],[-1.790322,43.282428,535.1],[-1.790361,43.28242,533.3],[-1.790402,43.282424,531.4],[-1.790456,43.282409,529.0],[-1.790492,43.28239,527.2],[-1.790534,43.282369,525.7],[-1.790569,43.282349,524.6],[-1.79061,43.282334,523.2],[-1.790612,43.282365,521.6],[-1.790585,43.282398,519.6],[-1.790586,43.282431,518.5],[-1.790609,43.282454,517.6],[-1.790641,43.282472,516.5],[-1.790682,43.282469,515.1],[-1.790721,43.282466,513.7],[-1.79076,43.282458,512.3],[-1.7908,43.282441,510.3],[-1.790828,43.282406,508.7],[-1.790865,43.282381,507.9],[-1.790897,43.282364,507.2],[-1.790923,43.282341,506.4],[-1.790946,43.282362,505.8],[-1.790976,43.282383,505.4],[-1.791017,43.282376,505.4],[-1.791048,43.282396,505.5],[-1.791068,43.282425,505.1],[-1.791073,43.282453,504.8],[-1.791094,43.282481,504.3],[-1.791132,43.282491,503.7],[-1.791132,43.282527,502.1],[-1.791134,43.282555,500.7],[-1.791132,43.282589,499.4],[-1.791123,43.28262,498.4],[-1.791127,43.282659,496.7],[-1.791128,43.282688,494.8],[-1.791146,43.282722,492.5],[-1.791155,43.282755,490.8],[-1.791154,43.282789,489.1],[-1.791141,43.282821,487.8],[-1.791118,43.282848,486.9],[-1.791118,43.282889,485.8],[-1.79112,43.28292,484.9],[-1.791096,43.282956,483.8],[-1.791072,43.282989,482.7],[-1.79106,43.283022,482.7],[-1.791019,43.283038,482.5],[-1.790988,43.283061,481.7],[-1.790978,43.283096,481.6],[-1.790969,43.283129,481.9],[-1.790928,43.283135,482.1],[-1.790891,43.283146,482.4],[-1.790837,43.283205,482.8],[-1.790781,43.28321,482.9],[-1.790752,43.283182,482.5],[-1.790751,43.283152,482.0],[-1.790713,43.283153,481.4],[-1.790749,43.283186,479.6],[-1.790791,43.283183,478.2],[-1.790833,43.283192,476.4],[-1.790842,43.283218,474.8],[-1.790872,43.283241,472.8],[-1.790863,43.283268,471.6],[-1.790864,43.283309,470.1],[-1.790857,43.283347,468.6],[-1.79085,43.283379,466.9],[-1.790841,43.283424,464.5],[-1.79084,43.283454,462.5],[-1.790843,43.283496,459.6],[-1.790858,43.283524,457.6],[-1.79085,43.283561,455.9],[-1.790825,43.283591,454.5],[-1.7908,43.283622,455.5],[-1.790837,43.283625,455.1],[-1.790882,43.283618,453.7],[-1.790907,43.283597,452.6],[-1.790946,43.283575,451.2],[-1.790982,43.283556,449.1],[-1.791021,43.283568,447.1],[-1.791035,43.283593,445.2],[-1.791071,43.283609,442.8],[-1.791079,43.283643,440.8],[-1.791107,43.283666,439.2],[-1.791149,43.283676,437.6],[-1.791172,43.283699,436.2],[-1.791179,43.283728,434.8],[-1.791167,43.28376,433.4],[-1.791145,43.283784,432.2],[-1.791132,43.28381,431.1],[-1.791126,43.283849,430.4],[-1.791115,43.28388,429.9],[-1.791103,43.283915,429.0],[-1.791084,43.283942,427.8],[-1.791069,43.283984,426.0],[-1.791056,43.284022,425.6],[-1.791031,43.28406,425.5],[-1.790998,43.284097,424.6],[-1.790984,43.284127,423.3],[-1.790965,43.284155,422.0],[-1.790949,43.284183,421.0],[-1.790937,43.284212,420.4],[-1.790919,43.284251,419.4],[-1.790921,43.284281,418.7],[-1.790906,43.28431,417.9],[-1.790868,43.284321,417.1],[-1.790836,43.284335,416.5],[-1.790788,43.284356,416.0],[-1.790735,43.284358,415.5],[-1.790692,43.284344,414.2],[-1.790647,43.284335,412.7],[-1.790606,43.284343,411.4],[-1.790589,43.284371,410.7],[-1.790558,43.284394,410.2],[-1.790533,43.284419,409.7],[-1.790518,43.284448,409.9],[-1.790494,43.284471,410.4],[-1.790494,43.284504,411.0],[-1.790498,43.284539,411.9],[-1.790492,43.284578,413.1],[-1.790489,43.28462,415.4],[-1.790476,43.28465,417.6],[-1.790479,43.284588,421.8],[-1.790485,43.284561,423.5],[-1.790502,43.28453,425.6],[-1.790544,43.284541,427.5],[-1.790561,43.28457,429.3],[-1.790541,43.284599,431.2],[-1.790496,43.284609,433.0],[-1.790456,43.284631,434.8],[-1.790435,43.284655,436.2],[-1.790423,43.284691,437.9],[-1.790396,43.284715,439.3],[-1.790372,43.284738,440.5],[-1.790333,43.284764,441.8],[-1.790298,43.284776,442.8],[-1.790257,43.284777,443.8],[-1.790241,43.284812,445.0],[-1.790202,43.284825,446.0],[-1.790166,43.284838,446.9],[-1.790123,43.284861,447.9],[-1.790098,43.284887,448.2],[-1.790044,43.284907,448.2],[-1.790012,43.284921,447.8],[-1.790019,43.284961,446.8],[-1.789988,43.284984,445.8],[-1.789946,43.284993,445.1],[-1.78991,43.284983,444.5],[-1.789874,43.284973,443.6],[-1.789851,43.284996,442.5],[-1.789853,43.285028,441.9],[-1.789855,43.285059,441.6],[-1.789872,43.285085,440.6],[-1.789912,43.285109,439.0],[-1.789924,43.285138,437.8],[-1.789948,43.285164,436.9],[-1.789971,43.285192,435.9],[-1.79,43.285215,435.0],[-1.790029,43.285236,434.2],[-1.790036,43.285267,433.3],[-1.790076,43.285282,432.4],[-1.790124,43.285294,431.4],[-1.790151,43.285316,430.6],[-1.790202,43.285321,429.3],[-1.790247,43.285337,428.0],[-1.790287,43.285346,426.9],[-1.790318,43.285365,426.0],[-1.790365,43.285382,424.8],[-1.790395,43.285397,423.6],[-1.790445,43.285416,421.6],[-1.790489,43.285425,420.1],[-1.790529,43.28543,419.1],[-1.790521,43.285457,418.2],[-1.790553,43.285472,417.2],[-1.790588,43.285492,415.5],[-1.79063,43.285512,413.5],[-1.790664,43.285531,412.4],[-1.790705,43.285543,411.5],[-1.790747,43.285557,410.7],[-1.790775,43.285581,409.7],[-1.790813,43.285606,408.5],[-1.790846,43.285619,407.6],[-1.790887,43.285619,406.3],[-1.790904,43.285652,404.7],[-1.790923,43.285684,403.4],[-1.790965,43.285689,402.7],[-1.791002,43.285706,402.0],[-1.791018,43.285733,401.4],[-1.791065,43.285737,400.7],[-1.791113,43.285745,399.9],[-1.791159,43.285755,400.2],[-1.791204,43.28576,401.1],[-1.791248,43.285755,402.0],[-1.791287,43.28576,402.7],[-1.791326,43.285765,403.5],[-1.791362,43.285785,404.3],[-1.791398,43.285793,405.3],[-1.791441,43.285819,406.8],[-1.791476,43.285842,407.8],[-1.7915,43.285863,408.2],[-1.79153,43.285885,408.6],[-1.791534,43.285916,409.1],[-1.791542,43.285948,409.7],[-1.791555,43.28598,410.3],[-1.791565,43.286007,410.9],[-1.791569,43.286043,411.7],[-1.791575,43.286077,412.3],[-1.791573,43.286105,411.9],[-1.791551,43.286134,411.5],[-1.791537,43.286168,410.9],[-1.791549,43.286197,410.4],[-1.791558,43.286227,410.0],[-1.791559,43.286264,410.2],[-1.791579,43.286309,410.5],[-1.791593,43.286343,409.9],[-1.7916,43.286374,409.4],[-1.791606,43.286404,409.4],[-1.791665,43.28648,409.5],[-1.791678,43.286512,409.0],[-1.791687,43.28654,408.6],[-1.791695,43.28657,408.3],[-1.791725,43.286593,408.4],[-1.791733,43.286622,408.4],[-1.791751,43.286646,408.5],[-1.791752,43.286673,408.5],[-1.791722,43.286695,408.5],[-1.791731,43.286724,408.5],[-1.791735,43.286766,408.4],[-1.791728,43.286793,408.4],[-1.791731,43.286837,408.3],[-1.791731,43.286886,408.1],[-1.791745,43.286915,407.9],[-1.791764,43.286946,407.8],[-1.791775,43.286982,407.6],[-1.791786,43.287012,407.4],[-1.791792,43.287041,407.3],[-1.791798,43.28707,407.1],[-1.791809,43.2871,406.9],[-1.791798,43.287137,406.7],[-1.791784,43.287167,406.5],[-1.79177,43.287196,406.4],[-1.791767,43.287226,406.2],[-1.791772,43.287259,406.0],[-1.791795,43.287298,406.0],[-1.791801,43.287328,406.6],[-1.791787,43.287354,407.2],[-1.79177,43.287387,407.0],[-1.791757,43.287421,406.9],[-1.79174,43.287458,406.7],[-1.791722,43.287487,406.6],[-1.791707,43.287512,406.6],[-1.791698,43.28755,406.6],[-1.791698,43.28759,406.6],[-1.791698,43.287617,406.6],[-1.791717,43.28764,406.6],[-1.791716,43.28767,406.7],[-1.791708,43.287699,406.8],[-1.791716,43.287733,406.9],[-1.791717,43.287763,407.3],[-1.791718,43.287794,408.1],[-1.791714,43.287822,408.9],[-1.791699,43.287854,409.8],[-1.791681,43.287891,410.9],[-1.791666,43.287922,412.0],[-1.79163,43.287948,413.2],[-1.791598,43.287965,414.5],[-1.791558,43.287976,415.8],[-1.791546,43.288003,416.9],[-1.791532,43.288035,417.9],[-1.791513,43.288064,418.8],[-1.791492,43.288095,420.2],[-1.791457,43.288124,421.8],[-1.791423,43.288156,423.6],[-1.791392,43.288176,425.0],[-1.79136,43.2882,426.4],[-1.791323,43.288219,427.7],[-1.791283,43.288243,429.2],[-1.791241,43.28827,430.6],[-1.791203,43.288271,431.6],[-1.791184,43.288295,432.5],[-1.791181,43.288325,433.4],[-1.79115,43.288343,434.3],[-1.791133,43.288372,435.2],[-1.791089,43.288386,436.1],[-1.791059,43.288407,436.7],[-1.791107,43.288413,435.4],[-1.791149,43.288436,434.0],[-1.791182,43.288459,433.0],[-1.791218,43.288471,432.7],[-1.791254,43.288485,432.3],[-1.791276,43.288513,431.9],[-1.79129,43.288541,431.2],[-1.791313,43.288567,430.5],[-1.791342,43.288591,430.0],[-1.791388,43.2886,429.5],[-1.791428,43.288615,429.1],[-1.791451,43.288639,429.2],[-1.791472,43.288662,429.2],[-1.791483,43.28869,429.3],[-1.791507,43.288711,428.6],[-1.791531,43.288734,427.9],[-1.791562,43.288751,427.2],[-1.791598,43.28876,426.8],[-1.791639,43.288779,426.2],[-1.791663,43.288804,425.8],[-1.791708,43.288808,425.5],[-1.791731,43.288835,425.3],[-1.791764,43.288861,425.2],[-1.791797,43.288876,425.1],[-1.79181,43.288905,424.9],[-1.791829,43.288933,424.8],[-1.791811,43.28896,425.1],[-1.791821,43.288987,425.3],[-1.791822,43.289022,425.6],[-1.791825,43.289057,425.8],[-1.791824,43.289085,426.1],[-1.791797,43.289111,426.7],[-1.791788,43.289142,427.4],[-1.791782,43.289175,427.7],[-1.79177,43.289213,427.7],[-1.791745,43.289237,427.9],[-1.791706,43.289255,428.9],[-1.791689,43.289283,429.8],[-1.791664,43.289311,430.8],[-1.791663,43.28934,431.7],[-1.791639,43.289361,432.4],[-1.791611,43.28938,433.2],[-1.791582,43.2894,434.0],[-1.791566,43.289426,434.7],[-1.791523,43.289429,435.5],[-1.79148,43.289437,436.4],[-1.791441,43.289418,437.2],[-1.791404,43.289406,438.0],[-1.791384,43.289378,438.8],[-1.791378,43.289352,439.5],[-1.791366,43.289323,440.1],[-1.791373,43.289294,440.8],[-1.791346,43.289269,441.5],[-1.791318,43.289246,442.2],[-1.791276,43.289235,443.3],[-1.791238,43.289236,444.2],[-1.791204,43.289255,445.0],[-1.791183,43.289278,445.7],[-1.791148,43.28929,446.4],[-1.791127,43.289317,447.4],[-1.791126,43.289348,448.3],[-1.791116,43.289378,449.2],[-1.791092,43.2894,449.9],[-1.791057,43.289412,450.8],[-1.791017,43.289409,451.7],[-1.790974,43.289425,452.5],[-1.790954,43.289448,453.2],[-1.790955,43.289477,453.8],[-1.790919,43.289503,454.5],[-1.790893,43.289524,454.9],[-1.790868,43.289555,455.4],[-1.790848,43.289581,455.7],[-1.790821,43.289605,456.1],[-1.79081,43.289631,456.3],[-1.790793,43.289655,456.6],[-1.79076,43.28967,456.8],[-1.79072,43.289697,457.0],[-1.790694,43.289718,457.0],[-1.79066,43.28973,457.1],[-1.790638,43.289753,457.1],[-1.79061,43.289772,457.1],[-1.790583,43.289798,457.2],[-1.790535,43.289823,457.2],[-1.790498,43.289841,457.4],[-1.790485,43.289872,457.5],[-1.790483,43.289901,457.6],[-1.790454,43.289939,457.9],[-1.790433,43.289966,458.3],[-1.790407,43.289989,458.7],[-1.790356,43.289998,459.4],[-1.790322,43.290016,460.1],[-1.790286,43.290034,460.9],[-1.790247,43.29004,461.6],[-1.790201,43.29005,462.6],[-1.790168,43.290066,463.3],[-1.790138,43.290049,464.1],[-1.790099,43.290062,464.9],[-1.790049,43.290079,465.9],[-1.790016,43.290092,466.5],[-1.789972,43.29011,467.3],[-1.78994,43.290125,467.9],[-1.789889,43.290122,468.7],[-1.789851,43.290137,469.3],[-1.789813,43.290144,469.9],[-1.789775,43.290155,470.4],[-1.789738,43.290154,471.0],[-1.789708,43.290177,471.6],[-1.789674,43.290189,472.2],[-1.789638,43.290214,473.0],[-1.789605,43.29024,473.7],[-1.789574,43.290258,474.3],[-1.789539,43.290271,474.9],[-1.789494,43.290278,475.3],[-1.789455,43.290289,475.6],[-1.789406,43.290297,475.9],[-1.789368,43.290304,476.0],[-1.789357,43.290331,476.1],[-1.789322,43.290352,476.2],[-1.789292,43.290368,476.1],[-1.789282,43.290398,476.1],[-1.789262,43.290426,476.0],[-1.789258,43.290453,476.0],[-1.789241,43.290482,475.7],[-1.789201,43.290485,475.4],[-1.789163,43.290497,475.0],[-1.789126,43.290529,474.5],[-1.789082,43.290548,474.0],[-1.789039,43.290552,473.6],[-1.789,43.290574,473.1],[-1.788962,43.290591,472.8],[-1.788931,43.290606,472.5],[-1.788906,43.290635,472.2],[-1.788887,43.290668,472.0],[-1.788868,43.290697,471.8],[-1.788841,43.29072,471.7],[-1.78883,43.290753,471.7],[-1.788817,43.290783,471.6],[-1.788841,43.290805,471.7],[-1.788784,43.290838,471.9],[-1.78875,43.290857,472.0],[-1.788713,43.290878,472.2],[-1.788682,43.290894,472.5],[-1.788656,43.290914,472.7],[-1.788645,43.29094,473.0],[-1.788641,43.29097,473.2],[-1.788665,43.290997,473.5],[-1.788682,43.291024,473.7],[-1.78864,43.291052,474.1],[-1.788613,43.291083,474.4],[-1.788586,43.291109,474.8],[-1.788591,43.291139,475.2],[-1.788623,43.291161,475.6],[-1.788631,43.291195,476.0],[-1.788667,43.291219,476.4],[-1.78871,43.291231,476.7],[-1.788731,43.291263,477.0],[-1.788772,43.29128,477.2],[-1.788808,43.291294,477.5],[-1.788848,43.291302,477.7],[-1.788893,43.291316,478.0],[-1.788933,43.291336,478.3],[-1.788955,43.291358,478.5],[-1.788973,43.291387,478.7],[-1.788994,43.291421,478.9],[-1.789019,43.291442,479.1],[-1.789064,43.291442,479.2],[-1.789086,43.291465,479.3],[-1.789115,43.291483,479.4],[-1.789144,43.291505,479.5],[-1.789184,43.291517,479.6],[-1.789232,43.29153,479.7],[-1.789258,43.291551,479.8],[-1.789254,43.291589,479.9],[-1.78926,43.29162,480.0],[-1.789261,43.291655,480.0],[-1.789278,43.291705,480.1],[-1.789295,43.291735,480.2],[-1.789303,43.291768,480.3],[-1.789306,43.291797,480.3],[-1.789325,43.291835,480.5],[-1.789363,43.291853,480.6],[-1.789398,43.291875,480.8],[-1.78943,43.291897,481.0],[-1.789471,43.291922,481.2],[-1.789515,43.291939,481.5],[-1.78953,43.291966,481.7],[-1.789564,43.291989,481.9],[-1.789578,43.292027,482.3],[-1.789592,43.292061,482.6],[-1.789615,43.292086,483.0],[-1.789628,43.292111,483.3],[-1.789646,43.292138,483.6],[-1.789654,43.29217,483.9],[-1.789685,43.292204,484.3],[-1.789708,43.292234,484.5],[-1.789739,43.292263,484.8],[-1.789757,43.292287,485.0],[-1.789789,43.29231,485.2],[-1.789805,43.29234,485.4],[-1.78979,43.292367,485.6],[-1.789776,43.292399,485.9],[-1.789783,43.292433,486.4],[-1.789788,43.292464,486.9],[-1.789792,43.292494,487.4],[-1.789771,43.292523,488.1],[-1.789755,43.292549,488.8],[-1.789726,43.292577,489.6],[-1.789699,43.292596,490.2],[-1.789665,43.292611,491.0],[-1.78964,43.292633,491.8],[-1.789661,43.292664,492.8],[-1.789658,43.292695,493.7],[-1.789618,43.292706,494.5],[-1.789591,43.29274,495.7],[-1.789553,43.292757,496.7],[-1.78952,43.292778,497.8],[-1.789482,43.292785,498.8],[-1.789456,43.292806,499.7],[-1.789445,43.292837,500.8],[-1.789421,43.292814,501.7],[-1.789425,43.292787,502.6],[-1.789388,43.292785,503.5],[-1.789348,43.292794,504.4],[-1.789306,43.292786,505.3],[-1.789276,43.292808,506.0],[-1.789252,43.292835,506.5],[-1.789235,43.292876,507.1],[-1.789199,43.292887,507.3],[-1.789155,43.292891,507.5],[-1.789129,43.292918,507.6],[-1.789105,43.292953,507.6],[-1.789086,43.292981,507.6],[-1.789055,43.292996,507.6],[-1.78902,43.293013,507.7],[-1.788997,43.293042,507.7],[-1.788956,43.29305,507.7],[-1.788936,43.293073,507.8],[-1.788919,43.293102,507.9],[-1.788888,43.293135,508.0],[-1.788866,43.293163,508.1],[-1.788837,43.293181,508.2],[-1.788806,43.293201,508.3],[-1.788772,43.293218,508.5],[-1.788728,43.293232,508.6],[-1.788692,43.293247,508.8],[-1.788662,43.293268,509.0],[-1.788632,43.293286,509.1],[-1.788603,43.293305,509.3],[-1.788571,43.293329,509.4],[-1.788527,43.293336,509.6],[-1.788488,43.293353,509.8],[-1.788435,43.293366,510.0],[-1.788394,43.293385,510.1],[-1.788361,43.29341,510.3],[-1.788317,43.293422,510.5],[-1.788258,43.293416,510.7],[-1.78821,43.293409,510.9],[-1.788157,43.293415,511.1],[-1.788125,43.293429,511.2],[-1.788075,43.293443,511.3],[-1.788041,43.293467,511.4],[-1.788011,43.293485,511.4],[-1.787974,43.293491,511.4],[-1.787923,43.293501,511.4],[-1.787882,43.293517,511.4],[-1.787837,43.293544,511.3],[-1.787799,43.293559,511.3],[-1.787754,43.293538,511.3],[-1.787723,43.293519,511.2],[-1.787681,43.293528,511.2],[-1.787642,43.293536,511.2],[-1.78761,43.293553,511.2],[-1.787574,43.293569,511.2],[-1.787535,43.293572,511.2],[-1.787484,43.293575,511.3],[-1.787418,43.293572,511.3],[-1.787378,43.293569,511.3],[-1.787337,43.29359,511.3],[-1.787318,43.293614,511.4],[-1.787293,43.293643,511.4],[-1.787245,43.293658,511.5],[-1.787209,43.293668,511.5],[-1.787183,43.293698,511.5],[-1.787116,43.293713,511.3],[-1.787079,43.293727,511.2],[-1.787037,43.293734,511.1],[-1.786995,43.293748,511.0],[-1.786964,43.293763,510.9],[-1.786933,43.293787,510.8],[-1.786893,43.293809,510.7],[-1.78685,43.293839,510.5],[-1.786808,43.293869,510.4],[-1.786776,43.293903,510.0],[-1.786742,43.293931,509.8],[-1.786707,43.293951,509.6],[-1.786683,43.293976,509.4],[-1.786691,43.294008,509.2],[-1.786656,43.294028,509.0],[-1.786635,43.294053,508.8],[-1.786603,43.294085,508.6],[-1.786578,43.294115,508.3],[-1.786579,43.294144,508.1],[-1.786568,43.294176,507.8],[-1.786555,43.294217,507.6],[-1.786538,43.294255,507.3],[-1.786518,43.294285,507.1],[-1.786495,43.294325,506.9],[-1.786483,43.294362,506.8],[-1.78648,43.294398,506.6],[-1.786456,43.294437,506.3],[-1.786446,43.294477,506.0],[-1.786439,43.294504,505.8],[-1.786436,43.294536,505.6],[-1.786424,43.294576,505.3],[-1.786407,43.294612,505.0],[-1.786389,43.294643,504.8],[-1.786396,43.294692,504.6],[-1.786395,43.294731,504.5],[-1.786387,43.294758,504.4],[-1.786371,43.294787,504.3],[-1.78637,43.294814,504.3],[-1.786382,43.294847,504.2],[-1.786365,43.294876,504.2],[-1.786364,43.294908,504.2],[-1.786375,43.294938,504.1],[-1.786388,43.294972,504.2],[-1.78639,43.295009,504.3],[-1.7864,43.295036,504.4],[-1.786409,43.295063,504.4],[-1.786429,43.295091,504.6],[-1.786461,43.295115,504.7],[-1.786499,43.295139,504.8]]}}]}