{"type":"FeatureCollection","features":[{"type":"Feature","properties":{"ruta_id":"31925438","nombre":"🏞️ Bera-Manttale-Bera: Ruta circular por mugas 5 a 10","blog_url":"https://www.rutasporelmonte.com/manttale/"},"geometry":{"type":"LineString","coordinates":[[-1.679066,43.282821,49.2],[-1.679121,43.282834,50.5],[-1.679162,43.282858,51.1],[-1.679181,43.282882,51.9],[-1.679155,43.282925,53.2],[-1.679185,43.282949,53.2],[-1.679221,43.282977,54.4],[-1.679239,43.283007,55.6],[-1.679255,43.283041,56.2],[-1.679271,43.28307,56.8],[-1.679268,43.283103,57.3],[-1.679252,43.283128,57.9],[-1.679259,43.283158,58.4],[-1.679272,43.283184,58.9],[-1.679294,43.283211,60.0],[-1.679311,43.283244,60.5],[-1.679323,43.28328,61.7],[-1.679343,43.283309,62.2],[-1.67937,43.283344,63.4],[-1.679402,43.283367,63.9],[-1.679443,43.283385,64.4],[-1.679479,43.2834,65.4],[-1.679521,43.283402,65.9],[-1.679558,43.283412,66.5],[-1.679595,43.283422,67.1],[-1.679634,43.283437,68.2],[-1.679673,43.283445,68.9],[-1.679714,43.283438,69.8],[-1.679769,43.283433,70.6],[-1.679798,43.283416,70.9],[-1.679843,43.283418,71.6],[-1.679881,43.28343,72.9],[-1.679917,43.283442,72.9],[-1.679959,43.283426,73.6],[-1.680005,43.283422,73.9],[-1.680036,43.283439,75.3],[-1.680074,43.283444,76.1],[-1.680127,43.283436,77.1],[-1.680198,43.283423,79.0],[-1.680235,43.283421,79.4],[-1.680282,43.283424,81.0],[-1.680323,43.283427,82.0],[-1.680363,43.283418,82.6],[-1.680404,43.28342,83.7],[-1.680428,43.283396,83.7],[-1.680451,43.283374,84.4],[-1.68048,43.283356,85.0],[-1.680512,43.283342,85.0],[-1.680547,43.283328,85.7],[-1.680587,43.283315,86.9],[-1.680626,43.283315,88.0],[-1.680664,43.283292,88.3],[-1.680688,43.28327,88.3],[-1.68069,43.283238,87.6],[-1.680709,43.283211,87.7],[-1.680724,43.283177,86.8],[-1.680771,43.283198,87.5],[-1.680824,43.283206,89.6],[-1.680785,43.283189,88.1],[-1.680854,43.283165,87.6],[-1.68089,43.283148,88.0],[-1.680941,43.283142,88.7],[-1.680987,43.283148,89.1],[-1.681026,43.283146,89.4],[-1.681065,43.28314,88.4],[-1.68111,43.283133,88.7],[-1.681149,43.283136,89.0],[-1.681188,43.283136,89.2],[-1.68123,43.283132,89.3],[-1.681269,43.283129,89.4],[-1.681321,43.28311,88.1],[-1.681363,43.283113,89.6],[-1.681416,43.283111,89.6],[-1.681464,43.283103,88.2],[-1.681493,43.283126,89.6],[-1.681542,43.283126,89.6],[-1.681591,43.283096,88.2],[-1.681631,43.283084,88.1],[-1.681663,43.283103,88.1],[-1.681639,43.283128,89.4],[-1.681675,43.283121,89.4],[-1.68171,43.283111,89.3],[-1.68178,43.28312,89.0],[-1.681825,43.283127,88.7],[-1.681876,43.283127,88.5],[-1.681937,43.283129,88.2],[-1.681993,43.283134,87.6],[-1.682032,43.283153,88.5],[-1.682074,43.283164,88.2],[-1.682127,43.283169,87.9],[-1.682165,43.283172,87.7],[-1.682215,43.283181,88.5],[-1.682266,43.283189,88.3],[-1.6823,43.283201,88.1],[-1.68234,43.283215,88.9],[-1.682375,43.283231,88.7],[-1.682416,43.283255,89.5],[-1.682452,43.28327,90.5],[-1.682497,43.283285,90.2],[-1.682529,43.283304,91.2],[-1.68254,43.283333,92.1],[-1.682551,43.283367,93.0],[-1.682592,43.283383,92.9],[-1.682631,43.283412,93.7],[-1.682666,43.283437,94.3],[-1.682701,43.283473,94.8],[-1.682742,43.283498,95.3],[-1.682773,43.283514,95.2],[-1.682798,43.283538,95.6],[-1.682856,43.283565,96.1],[-1.682895,43.283587,96.6],[-1.682916,43.283614,97.0],[-1.682935,43.28364,97.2],[-1.682952,43.283664,97.6],[-1.682965,43.283692,98.0],[-1.682994,43.28372,98.9],[-1.683058,43.283719,100.3],[-1.683112,43.283735,101.2],[-1.683153,43.283748,102.8],[-1.683202,43.283757,103.7],[-1.683223,43.283791,104.6],[-1.683211,43.283821,105.6],[-1.683174,43.283833,105.6],[-1.683151,43.283808,104.6],[-1.683185,43.283794,104.6],[-1.683223,43.283802,105.6],[-1.683253,43.283822,106.5],[-1.683294,43.28384,108.4],[-1.683324,43.283883,110.2],[-1.683361,43.283933,112.8],[-1.683378,43.283961,113.7],[-1.683403,43.284009,115.2],[-1.683416,43.28405,116.7],[-1.683416,43.284084,117.4],[-1.683427,43.284128,118.1],[-1.683412,43.28417,118.8],[-1.683416,43.284199,119.5],[-1.683406,43.284228,120.3],[-1.683424,43.284257,121.0],[-1.683455,43.284275,122.4],[-1.683488,43.28429,123.1],[-1.68352,43.284304,123.8],[-1.683543,43.284336,125.2],[-1.683567,43.284359,125.2],[-1.683594,43.284417,127.3],[-1.683615,43.284454,129.8],[-1.683613,43.284503,130.7],[-1.683618,43.284542,131.4],[-1.683618,43.284584,132.8],[-1.683582,43.284614,132.7],[-1.683605,43.284639,132.7],[-1.683586,43.284664,133.4],[-1.683558,43.284698,133.5],[-1.683542,43.284731,134.3],[-1.683552,43.284769,135.8],[-1.683588,43.284785,136.4],[-1.683633,43.284786,137.1],[-1.683676,43.284781,137.8],[-1.683699,43.284809,139.1],[-1.683677,43.284846,139.0],[-1.683696,43.284885,139.6],[-1.683706,43.28493,141.6],[-1.683724,43.284957,142.3],[-1.683743,43.284983,142.8],[-1.683772,43.285007,143.5],[-1.683807,43.285035,144.7],[-1.683844,43.285048,145.8],[-1.683806,43.285045,144.7],[-1.683784,43.285068,145.3],[-1.683831,43.28509,146.4],[-1.683861,43.285121,146.9],[-1.683846,43.285149,147.5],[-1.683847,43.285187,148.0],[-1.683883,43.285197,148.4],[-1.683843,43.285206,148.9],[-1.68379,43.285221,148.6],[-1.683792,43.285262,149.2],[-1.683818,43.285281,149.8],[-1.683868,43.285292,150.1],[-1.68391,43.285316,150.9],[-1.683944,43.285332,151.7],[-1.683993,43.285352,151.9],[-1.684041,43.285357,152.1],[-1.684089,43.285345,152.5],[-1.684123,43.285333,152.5],[-1.684162,43.285318,152.3],[-1.684125,43.285307,152.1],[-1.684145,43.285341,152.8],[-1.68411,43.285366,152.9],[-1.68407,43.285381,152.7],[-1.6841,43.285356,152.5],[-1.684113,43.285329,152.5],[-1.684107,43.285285,151.6],[-1.684093,43.285257,151.2],[-1.684087,43.285221,150.7],[-1.684077,43.285181,149.6],[-1.684073,43.285147,149.2],[-1.68408,43.285116,148.7],[-1.684112,43.28509,148.6],[-1.684126,43.285055,148.1],[-1.684114,43.285025,147.6],[-1.684102,43.284983,146.5],[-1.68411,43.284953,146.0],[-1.684078,43.284921,145.0],[-1.684057,43.284896,145.0],[-1.684062,43.284868,144.5],[-1.684081,43.284828,143.5],[-1.684099,43.284787,143.5],[-1.684114,43.284753,143.0],[-1.684123,43.284716,142.4],[-1.684167,43.284684,142.3],[-1.684195,43.284653,142.3],[-1.684208,43.284624,141.8],[-1.684211,43.284596,141.3],[-1.684218,43.284567,141.4],[-1.684228,43.284534,140.8],[-1.684243,43.284507,140.2],[-1.684289,43.284496,140.8],[-1.684298,43.284465,140.2],[-1.684284,43.284432,139.5],[-1.684271,43.284402,138.9],[-1.684289,43.284369,138.3],[-1.684289,43.284327,137.2],[-1.684291,43.284297,136.6],[-1.684318,43.28426,136.6],[-1.684353,43.284229,136.5],[-1.684393,43.284216,137.1],[-1.684444,43.284215,137.8],[-1.68449,43.28421,138.5],[-1.68453,43.284211,139.2],[-1.684585,43.284199,139.4],[-1.684634,43.284193,140.3],[-1.684679,43.284189,141.2],[-1.684731,43.284194,142.8],[-1.684791,43.284204,144.0],[-1.684842,43.284213,144.5],[-1.684912,43.284216,145.1],[-1.684953,43.284218,145.1],[-1.685025,43.284219,145.1],[-1.68507,43.284225,144.9],[-1.6851,43.284258,145.8],[-1.685148,43.284274,146.7],[-1.685194,43.284265,145.4],[-1.685239,43.284269,146.4],[-1.685256,43.284295,146.2],[-1.685303,43.284308,147.3],[-1.685344,43.284307,147.1],[-1.685384,43.284308,146.9],[-1.685418,43.284323,146.7],[-1.685468,43.284353,147.9],[-1.685506,43.284361,149.0],[-1.68554,43.284375,149.0],[-1.685579,43.28439,149.0],[-1.68561,43.284409,150.3],[-1.68565,43.284433,151.8],[-1.685684,43.284456,153.3],[-1.68573,43.284487,154.7],[-1.685773,43.28449,154.5],[-1.685812,43.284499,154.3],[-1.68587,43.284494,154.0],[-1.685927,43.284505,153.7],[-1.685966,43.284522,154.9],[-1.685968,43.284558,156.3],[-1.685996,43.284582,157.4],[-1.686034,43.284597,157.1],[-1.686077,43.284611,158.2],[-1.686116,43.284626,158.0],[-1.686155,43.284626,157.7],[-1.686212,43.28463,157.5],[-1.686252,43.284648,158.7],[-1.686285,43.284661,158.4],[-1.686311,43.28469,160.0],[-1.686344,43.284716,161.2],[-1.686369,43.284738,162.4],[-1.686408,43.284761,162.1],[-1.686442,43.284783,163.5],[-1.686481,43.284805,164.4],[-1.686529,43.284817,164.1],[-1.686554,43.284845,164.9],[-1.686587,43.284872,165.7],[-1.68661,43.284896,166.8],[-1.686611,43.284928,167.8],[-1.686639,43.28496,168.5],[-1.686672,43.284993,169.1],[-1.686681,43.285028,170.0],[-1.68669,43.285054,170.8],[-1.686709,43.28508,171.0],[-1.68678,43.285093,170.5],[-1.686826,43.285099,169.9],[-1.686877,43.285106,168.6],[-1.686921,43.285112,168.5],[-1.68697,43.285122,167.8],[-1.687032,43.285122,167.1],[-1.687075,43.285124,166.5],[-1.687122,43.285138,165.8],[-1.687145,43.285161,165.8],[-1.687174,43.285179,165.9],[-1.68721,43.2852,166.1],[-1.687222,43.285236,166.4],[-1.687246,43.285266,166.6],[-1.687264,43.285294,166.8],[-1.68728,43.285341,167.1],[-1.687301,43.285363,167.3],[-1.68731,43.285394,167.5],[-1.687324,43.28543,167.7],[-1.687354,43.285456,168.0],[-1.68738,43.285495,168.3],[-1.687407,43.285516,168.5],[-1.687437,43.28554,168.7],[-1.687465,43.285575,168.9],[-1.687489,43.285604,169.0],[-1.687494,43.285633,169.2],[-1.687512,43.285657,169.3],[-1.687521,43.285691,169.4],[-1.68756,43.285706,169.6],[-1.68759,43.285729,169.7],[-1.687594,43.285768,169.8],[-1.6876,43.285803,170.0],[-1.68762,43.285838,170.1],[-1.68762,43.285871,170.3],[-1.687615,43.285903,170.4],[-1.68763,43.285928,170.5],[-1.687656,43.285958,170.7],[-1.687674,43.285988,170.8],[-1.687698,43.286013,170.9],[-1.687724,43.286043,171.1],[-1.687743,43.286079,171.3],[-1.687762,43.286109,171.5],[-1.687772,43.286148,171.7],[-1.687748,43.286171,171.9],[-1.687718,43.286187,172.2],[-1.687708,43.286218,172.5],[-1.687734,43.286242,172.9],[-1.687754,43.286282,173.3],[-1.687768,43.286333,173.8],[-1.687766,43.286374,174.1],[-1.687771,43.286403,174.3],[-1.687765,43.286449,174.8],[-1.687764,43.286487,175.1],[-1.687745,43.286524,175.5],[-1.687764,43.28655,175.8],[-1.6878,43.286555,176.0],[-1.68784,43.286577,176.4],[-1.687833,43.286611,176.7],[-1.687877,43.286621,177.1],[-1.68786,43.28666,177.5],[-1.68789,43.286693,177.9],[-1.687906,43.286721,178.3],[-1.687901,43.286751,178.6],[-1.687921,43.286778,178.9],[-1.687944,43.286825,179.6],[-1.687955,43.286852,179.9],[-1.687957,43.286881,180.2],[-1.687973,43.286906,180.5],[-1.687975,43.286941,180.8],[-1.687972,43.28697,181.0],[-1.687978,43.287002,181.3],[-1.687975,43.287049,181.6],[-1.687977,43.287092,181.9],[-1.687999,43.287133,182.2],[-1.688025,43.287159,182.4],[-1.688058,43.287181,182.7],[-1.688073,43.287207,182.9],[-1.688103,43.287223,183.1],[-1.688124,43.287253,183.3],[-1.688145,43.287276,183.5],[-1.68816,43.287314,183.8],[-1.688156,43.28736,184.2],[-1.688147,43.287388,184.5],[-1.688139,43.287434,185.0],[-1.68814,43.287462,185.3],[-1.688143,43.287493,185.6],[-1.688148,43.287525,185.9],[-1.688182,43.287513,186.1],[-1.688213,43.287492,186.5],[-1.688228,43.28752,186.8],[-1.688192,43.287553,187.2],[-1.688162,43.287572,187.5],[-1.68817,43.2876,187.8],[-1.688168,43.287638,188.3],[-1.688173,43.287677,188.8],[-1.688177,43.287713,189.1],[-1.688198,43.287736,189.4],[-1.688225,43.287766,189.7],[-1.688221,43.287805,190.2],[-1.688218,43.287833,190.6],[-1.688243,43.28787,191.1],[-1.688261,43.287904,191.6],[-1.688301,43.287926,192.0],[-1.688311,43.287959,192.5],[-1.688326,43.287991,192.9],[-1.688343,43.288024,193.4],[-1.688355,43.288063,193.9],[-1.688358,43.288093,194.3],[-1.688331,43.288131,194.9],[-1.688314,43.288156,195.3],[-1.688281,43.288177,195.6],[-1.688292,43.288205,195.9],[-1.688302,43.288234,196.2],[-1.688335,43.288263,196.6],[-1.688351,43.288295,197.0],[-1.688364,43.288324,197.4],[-1.688401,43.288337,197.7],[-1.688428,43.288362,198.2],[-1.68843,43.288395,198.6],[-1.688422,43.288431,199.0],[-1.688402,43.288459,199.4],[-1.688395,43.288509,199.9],[-1.688392,43.288537,200.2],[-1.6884,43.288568,200.5],[-1.688409,43.2886,200.8],[-1.688424,43.288643,201.3],[-1.688421,43.288673,201.6],[-1.688426,43.288713,202.0],[-1.688458,43.288738,202.4],[-1.688498,43.288763,202.8],[-1.688539,43.288769,203.1],[-1.688586,43.288778,203.5],[-1.688611,43.288802,203.9],[-1.688626,43.288838,204.3],[-1.688635,43.28887,204.8],[-1.688674,43.288874,205.2],[-1.688716,43.288859,205.8],[-1.688744,43.288879,206.3],[-1.688785,43.288911,207.0],[-1.688839,43.288942,207.8],[-1.688876,43.288967,208.4],[-1.688898,43.289003,209.0],[-1.688923,43.289026,209.5],[-1.688953,43.289051,210.0],[-1.688974,43.289079,210.6],[-1.689018,43.289099,211.1],[-1.68905,43.289117,211.4],[-1.689079,43.289139,211.8],[-1.689097,43.289165,212.1],[-1.689088,43.289192,212.4],[-1.68911,43.289219,212.7],[-1.689137,43.289239,213.0],[-1.689175,43.289253,213.3],[-1.689221,43.289275,213.6],[-1.689256,43.289291,213.9],[-1.689305,43.289307,214.2],[-1.689336,43.289328,214.6],[-1.689349,43.289356,214.9],[-1.689379,43.289387,215.3],[-1.689435,43.289413,216.0],[-1.689453,43.289449,216.6],[-1.68946,43.289477,217.0],[-1.689442,43.289504,217.4],[-1.689414,43.289524,217.8],[-1.689412,43.289554,218.2],[-1.689417,43.289585,218.6],[-1.68943,43.289618,219.3],[-1.689438,43.289648,219.8],[-1.689447,43.289675,220.3],[-1.689482,43.289705,221.0],[-1.689509,43.289735,221.7],[-1.689527,43.289759,222.2],[-1.689557,43.289783,222.7],[-1.689591,43.2898,223.1],[-1.689616,43.289827,223.6],[-1.689643,43.28985,224.0],[-1.689658,43.289888,224.5],[-1.689647,43.289918,224.9],[-1.689651,43.289952,225.3],[-1.689654,43.289992,225.8],[-1.689659,43.290019,226.9],[-1.689663,43.290049,227.2],[-1.68964,43.29007,227.4],[-1.689684,43.290052,227.7],[-1.689733,43.290044,228.0],[-1.689789,43.290038,228.3],[-1.689855,43.290025,228.6],[-1.689897,43.29001,228.8],[-1.689941,43.290001,229.0],[-1.689981,43.289996,229.2],[-1.690026,43.289988,229.5],[-1.690057,43.289971,229.8],[-1.690099,43.289948,230.3],[-1.690148,43.289932,230.7],[-1.690186,43.289931,230.9],[-1.690223,43.289937,231.2],[-1.690256,43.289924,231.5],[-1.690306,43.289906,231.9],[-1.69034,43.289893,232.1],[-1.690386,43.28988,232.6],[-1.690445,43.289873,233.1],[-1.690499,43.289858,233.6],[-1.69054,43.289846,234.0],[-1.690586,43.289832,234.7],[-1.690622,43.289802,235.6],[-1.690655,43.289789,236.2],[-1.690693,43.289761,237.1],[-1.690719,43.28974,237.7],[-1.690756,43.289717,238.5],[-1.690788,43.289693,239.2],[-1.690824,43.289679,239.9],[-1.690866,43.289668,240.6],[-1.690924,43.289653,241.6],[-1.690962,43.289651,242.0],[-1.691002,43.289656,242.4],[-1.691054,43.289674,242.9],[-1.691094,43.289691,243.2],[-1.691127,43.289705,243.5],[-1.691171,43.28972,243.9],[-1.691205,43.289734,244.2],[-1.691245,43.289755,244.5],[-1.691277,43.28977,244.8],[-1.691323,43.289787,245.2],[-1.691369,43.289778,245.5],[-1.691419,43.289781,245.8],[-1.691457,43.289776,246.1],[-1.691496,43.289795,246.4],[-1.691542,43.28981,246.7],[-1.691579,43.289817,246.9],[-1.691613,43.289836,247.1],[-1.691669,43.289858,247.5],[-1.691702,43.289883,247.7],[-1.691742,43.289895,248.1],[-1.69179,43.289886,248.4],[-1.691834,43.289887,248.8],[-1.691871,43.289902,249.1],[-1.691891,43.289927,249.4],[-1.69191,43.28995,249.6],[-1.69194,43.289984,250.0],[-1.691971,43.290009,250.2],[-1.69198,43.29004,250.5],[-1.691985,43.290068,250.7],[-1.692025,43.290086,251.0],[-1.692073,43.290103,251.3],[-1.692104,43.290121,251.5],[-1.692137,43.290135,251.6],[-1.692164,43.290154,251.8],[-1.692186,43.290184,252.1],[-1.692214,43.290216,252.5],[-1.69224,43.290241,252.8],[-1.692272,43.290274,253.3],[-1.692313,43.290303,253.7],[-1.692359,43.290312,254.1],[-1.692401,43.290314,254.4],[-1.692455,43.290297,254.8],[-1.692493,43.290292,255.0],[-1.692522,43.29032,255.4],[-1.69256,43.290324,255.6],[-1.692596,43.290315,255.9],[-1.692651,43.29033,256.2],[-1.692706,43.290338,256.6],[-1.692749,43.290348,256.9],[-1.692795,43.290351,257.2],[-1.69284,43.290355,257.5],[-1.692878,43.290372,257.8],[-1.69292,43.29039,258.2],[-1.69296,43.29042,258.6],[-1.692995,43.290442,258.9],[-1.693054,43.290459,259.3],[-1.693107,43.290471,259.7],[-1.693141,43.290499,260.0],[-1.693157,43.290532,260.2],[-1.693165,43.290564,260.4],[-1.693168,43.290595,260.5],[-1.693203,43.290622,260.7],[-1.693236,43.290642,260.9],[-1.693262,43.290666,261.1],[-1.693276,43.290711,261.4],[-1.693287,43.290756,261.7],[-1.693297,43.290796,262.0],[-1.693306,43.29084,262.3],[-1.693336,43.290871,262.6],[-1.693368,43.290886,262.7],[-1.693388,43.290913,262.9],[-1.693394,43.29094,263.1],[-1.693425,43.290989,263.3],[-1.693446,43.291015,263.4],[-1.693467,43.29105,263.9],[-1.693489,43.291089,263.9],[-1.693506,43.291126,264.0],[-1.69352,43.291157,264.1],[-1.693548,43.29119,264.1],[-1.693567,43.291222,264.2],[-1.693576,43.291268,264.3],[-1.693577,43.291311,264.3],[-1.693587,43.291343,264.4],[-1.693606,43.291373,264.5],[-1.693644,43.291399,264.5],[-1.69367,43.291423,264.6],[-1.69369,43.291448,264.6],[-1.693717,43.291471,264.7],[-1.693742,43.291497,264.8],[-1.693765,43.29153,264.8],[-1.693786,43.291558,264.9],[-1.693811,43.291597,265.0],[-1.693832,43.291629,265.0],[-1.693859,43.291649,265.1],[-1.693879,43.29168,265.2],[-1.693903,43.291702,265.2],[-1.693929,43.291728,265.2],[-1.693952,43.291759,265.3],[-1.693968,43.29179,265.3],[-1.69398,43.291828,265.3],[-1.693979,43.291874,265.4],[-1.693984,43.291904,265.4],[-1.69401,43.291942,265.4],[-1.694023,43.29198,265.5],[-1.694039,43.292005,265.5],[-1.694059,43.292044,265.6],[-1.694066,43.292075,265.7],[-1.694083,43.292102,265.7],[-1.694102,43.292127,265.8],[-1.694107,43.292156,265.9],[-1.694115,43.292204,266.0],[-1.694132,43.292239,266.1],[-1.694135,43.292279,266.3],[-1.694144,43.292324,266.4],[-1.694161,43.29236,266.5],[-1.694188,43.292388,266.6],[-1.694198,43.292421,266.7],[-1.694197,43.292454,266.9],[-1.694195,43.292494,267.0],[-1.694196,43.292531,267.2],[-1.694201,43.292561,267.4],[-1.694212,43.2926,267.6],[-1.694216,43.292629,267.7],[-1.694217,43.29266,267.9],[-1.69422,43.292697,268.1],[-1.694215,43.292732,268.2],[-1.694209,43.292763,268.4],[-1.694228,43.292794,268.5],[-1.694243,43.29283,268.7],[-1.694248,43.292866,268.9],[-1.694256,43.292909,269.1],[-1.694268,43.292938,269.3],[-1.694288,43.292966,269.6],[-1.694298,43.293005,269.8],[-1.694297,43.293039,270.1],[-1.694301,43.293074,270.3],[-1.694308,43.293117,270.7],[-1.694311,43.293145,270.9],[-1.694318,43.293173,271.2],[-1.694331,43.2932,271.4],[-1.694341,43.293231,271.8],[-1.694369,43.293266,272.4],[-1.694378,43.293293,272.8],[-1.694377,43.29333,273.4],[-1.694378,43.293375,274.0],[-1.694379,43.293409,274.1],[-1.694385,43.293443,274.1],[-1.694392,43.293476,274.1],[-1.694392,43.293509,274.1],[-1.694389,43.293539,274.2],[-1.694391,43.293576,274.2],[-1.694409,43.2936,274.3],[-1.694426,43.293632,274.3],[-1.694429,43.293662,274.4],[-1.694432,43.293703,274.5],[-1.69443,43.293734,274.6],[-1.694443,43.293767,274.8],[-1.694456,43.293806,274.9],[-1.694474,43.293837,275.1],[-1.694481,43.29387,275.2],[-1.694474,43.293902,275.4],[-1.694489,43.29393,275.5],[-1.694501,43.293958,275.6],[-1.694506,43.294002,275.8],[-1.694505,43.294044,275.9],[-1.694524,43.29408,276.1],[-1.694539,43.29411,276.2],[-1.694542,43.29415,276.4],[-1.694548,43.294189,276.5],[-1.694553,43.294219,276.6],[-1.69457,43.294257,276.8],[-1.694592,43.29429,277.0],[-1.694598,43.29432,277.2],[-1.694591,43.294349,277.3],[-1.694552,43.294348,277.5],[-1.694563,43.294376,277.7],[-1.694592,43.294398,277.8],[-1.694625,43.294429,278.1],[-1.694629,43.294476,278.4],[-1.694634,43.29451,278.5],[-1.694647,43.294549,278.7],[-1.694653,43.294585,278.9],[-1.694663,43.294614,279.0],[-1.694667,43.294641,279.2],[-1.69468,43.294677,279.4],[-1.694696,43.294715,279.5],[-1.694705,43.294746,279.7],[-1.694711,43.294779,279.9],[-1.694726,43.294812,280.1],[-1.694752,43.294833,280.3],[-1.694768,43.294863,280.5],[-1.694778,43.294907,280.9],[-1.694784,43.294937,281.1],[-1.694791,43.294971,281.4],[-1.694798,43.295018,281.8],[-1.694802,43.295046,282.1],[-1.694799,43.295085,282.4],[-1.694783,43.295124,282.8],[-1.694771,43.295159,283.2],[-1.69476,43.295194,283.6],[-1.694756,43.295229,284.0],[-1.694755,43.295269,284.4],[-1.694763,43.295303,284.8],[-1.69477,43.295331,285.1],[-1.694775,43.295366,285.4],[-1.694781,43.295402,285.7],[-1.694804,43.295432,286.0],[-1.694821,43.295461,286.3],[-1.694833,43.295493,286.6],[-1.694837,43.295533,287.0],[-1.694839,43.295564,287.2],[-1.69486,43.295593,287.5],[-1.694857,43.295625,288.8],[-1.694877,43.295647,289.3],[-1.694895,43.295679,290.0],[-1.694897,43.295712,290.6],[-1.69491,43.295744,291.3],[-1.694918,43.295775,291.9],[-1.694906,43.295814,292.7],[-1.694906,43.295857,293.5],[-1.694917,43.2959,294.4],[-1.69493,43.295926,294.9],[-1.69495,43.295967,295.8],[-1.694958,43.295995,296.3],[-1.69497,43.296022,296.9],[-1.694985,43.296057,297.6],[-1.694989,43.296089,298.1],[-1.694985,43.29613,298.8],[-1.695004,43.296168,299.3],[-1.695018,43.296204,299.8],[-1.695054,43.296223,300.3],[-1.695078,43.296262,300.9],[-1.695084,43.296289,301.3],[-1.6951,43.296315,301.7],[-1.695132,43.296344,302.2],[-1.695163,43.296378,302.8],[-1.695185,43.296402,303.2],[-1.695228,43.296419,303.7],[-1.695253,43.29644,303.7],[-1.695273,43.296472,303.6],[-1.69529,43.296496,303.5],[-1.695315,43.296528,303.5],[-1.695346,43.296559,303.3],[-1.695357,43.296597,303.2],[-1.695382,43.296629,303.1],[-1.695409,43.296656,303.1],[-1.695426,43.296685,303.1],[-1.695454,43.296714,303.0],[-1.695493,43.296735,303.0],[-1.695522,43.296753,302.9],[-1.695553,43.29679,302.9],[-1.695584,43.296813,302.8],[-1.695631,43.296828,302.8],[-1.695671,43.296844,302.7],[-1.6957,43.296862,302.7],[-1.695737,43.29688,302.6],[-1.69578,43.296881,302.6],[-1.695817,43.296876,302.5],[-1.695855,43.296902,302.5],[-1.695892,43.296929,302.4],[-1.695932,43.296931,302.4],[-1.695992,43.296917,302.3],[-1.696037,43.296916,302.3],[-1.696096,43.296921,302.3],[-1.696147,43.296928,302.2],[-1.696194,43.296936,302.2],[-1.696237,43.296936,302.2],[-1.696273,43.296956,302.2],[-1.696307,43.296986,302.1],[-1.696332,43.297014,302.1],[-1.696346,43.29704,302.1],[-1.696393,43.297063,302.0],[-1.696444,43.297073,302.0],[-1.696484,43.297086,302.0],[-1.696522,43.297106,302.0],[-1.696568,43.297135,301.9],[-1.696613,43.297152,301.9],[-1.696651,43.297163,301.9],[-1.696706,43.297165,301.9],[-1.696759,43.297178,301.9],[-1.696773,43.297207,301.9],[-1.696799,43.29724,301.9],[-1.696844,43.297256,301.9],[-1.696895,43.29728,301.9],[-1.696927,43.297299,301.9],[-1.696961,43.297331,301.9],[-1.697,43.297341,301.8],[-1.697039,43.297366,301.8],[-1.697096,43.297378,301.8],[-1.697137,43.297377,301.8],[-1.697176,43.297372,301.8],[-1.697212,43.297355,301.7],[-1.697236,43.297331,301.7],[-1.697238,43.2973,301.6],[-1.697268,43.297274,301.4],[-1.697321,43.297266,301.3],[-1.697364,43.297267,301.2],[-1.69742,43.297254,301.0],[-1.697463,43.297256,300.9],[-1.697517,43.297244,300.8],[-1.697561,43.297223,300.7],[-1.697603,43.297217,300.6],[-1.697662,43.297217,300.5],[-1.697711,43.297216,300.4],[-1.697755,43.297207,300.3],[-1.697793,43.29721,300.3],[-1.697838,43.297213,300.1],[-1.697886,43.297202,300.0],[-1.697925,43.297193,299.9],[-1.697982,43.297174,299.8],[-1.698026,43.297156,299.7],[-1.69806,43.297144,299.7],[-1.698103,43.297131,299.6],[-1.698138,43.297118,299.5],[-1.698178,43.29711,299.4],[-1.698215,43.297101,299.4],[-1.698258,43.297097,299.3],[-1.698299,43.297084,299.2],[-1.698344,43.297062,299.1],[-1.698379,43.297042,299.0],[-1.698422,43.297028,298.8],[-1.698478,43.297025,298.7],[-1.698514,43.297009,298.6],[-1.698546,43.296991,298.6],[-1.698577,43.296964,298.5],[-1.698618,43.296955,298.4],[-1.698657,43.296938,298.3],[-1.6987,43.29692,298.3],[-1.698744,43.296907,298.2],[-1.698783,43.29689,298.1],[-1.698829,43.296871,298.0],[-1.698865,43.29686,297.9],[-1.698911,43.296851,297.9],[-1.698952,43.296861,297.8],[-1.698991,43.29688,297.5],[-1.699014,43.296904,297.5],[-1.699029,43.296948,297.5],[-1.699026,43.296982,297.6],[-1.699043,43.297016,297.6],[-1.699063,43.297048,297.6],[-1.699083,43.297081,297.6],[-1.699106,43.297116,297.7],[-1.699118,43.297143,297.7],[-1.699129,43.297178,297.7],[-1.699133,43.297215,297.7],[-1.699125,43.297248,297.7],[-1.699131,43.297278,297.7],[-1.699132,43.297307,297.7],[-1.699122,43.29734,297.8],[-1.699102,43.297371,297.8],[-1.699081,43.297397,297.8],[-1.699048,43.297425,297.8],[-1.699022,43.29746,297.7],[-1.699005,43.297489,297.7],[-1.698982,43.297524,297.7],[-1.698961,43.297556,297.6],[-1.698925,43.29758,297.6],[-1.698891,43.297592,297.5],[-1.698864,43.297625,297.5],[-1.698817,43.297657,297.4],[-1.698792,43.297694,297.3],[-1.698767,43.297726,297.2],[-1.698715,43.297765,297.1],[-1.698688,43.297787,296.9],[-1.69864,43.297803,296.5],[-1.698603,43.297817,296.2],[-1.698552,43.297837,295.8],[-1.698529,43.297859,295.5],[-1.698494,43.29789,295.2],[-1.69846,43.297918,294.9],[-1.698415,43.297952,294.5],[-1.698392,43.297985,294.2],[-1.698377,43.298013,294.1],[-1.698357,43.298056,293.8],[-1.698341,43.298093,293.7],[-1.69833,43.298125,293.6],[-1.698323,43.298162,293.5],[-1.698301,43.298193,293.6],[-1.698288,43.29822,293.6],[-1.698269,43.298259,293.7],[-1.698251,43.298291,293.8],[-1.698242,43.298318,294.0],[-1.698232,43.298344,294.1],[-1.698217,43.298381,294.4],[-1.698208,43.298409,294.6],[-1.698189,43.298449,294.9],[-1.698156,43.298479,295.2],[-1.698135,43.298502,295.3],[-1.698129,43.298547,295.5],[-1.698121,43.298573,295.7],[-1.698116,43.298612,295.8],[-1.698119,43.298643,295.9],[-1.698158,43.298657,296.0],[-1.6982,43.298644,296.1],[-1.698237,43.298636,296.2],[-1.698279,43.298627,296.4],[-1.698328,43.298615,296.5],[-1.698375,43.298609,296.6],[-1.698413,43.298614,296.7],[-1.698465,43.298627,296.7],[-1.698502,43.298634,296.8],[-1.698535,43.298649,296.8],[-1.698575,43.298674,296.9],[-1.698613,43.298691,297.0],[-1.698644,43.298713,297.1],[-1.698689,43.298729,297.2],[-1.698734,43.298735,297.3],[-1.698774,43.298737,297.3],[-1.6988,43.298757,297.4],[-1.698823,43.298779,297.5],[-1.698842,43.29881,297.5],[-1.698872,43.29883,297.6],[-1.698924,43.298848,297.7],[-1.698971,43.298857,297.8],[-1.699003,43.298877,297.8],[-1.699057,43.298903,298.0],[-1.69909,43.298921,298.1],[-1.699132,43.298936,298.2],[-1.699183,43.298957,298.3],[-1.699221,43.298978,298.4],[-1.69923,43.299008,298.5],[-1.699261,43.299029,298.6],[-1.699311,43.299044,298.7],[-1.699352,43.299061,298.8],[-1.699399,43.299082,298.9],[-1.699426,43.2991,298.9],[-1.699464,43.299131,299.0],[-1.699505,43.299154,299.1],[-1.699554,43.299171,299.1],[-1.699593,43.299185,299.2],[-1.699615,43.299212,299.2],[-1.699635,43.299242,299.2],[-1.69966,43.299272,299.2],[-1.699691,43.299293,299.3],[-1.699721,43.299315,299.3],[-1.699749,43.299339,299.3],[-1.699784,43.29937,299.2],[-1.699814,43.299395,299.2],[-1.699842,43.299418,299.2],[-1.699868,43.299443,299.2],[-1.699905,43.299465,299.1],[-1.699962,43.299477,299.0],[-1.700004,43.299495,298.9],[-1.700031,43.299525,298.8],[-1.700048,43.299561,298.6],[-1.700053,43.29959,298.5],[-1.700069,43.299619,298.4],[-1.700063,43.299648,298.2],[-1.700088,43.299669,298.1],[-1.700122,43.299686,297.9],[-1.700155,43.299704,297.7],[-1.700184,43.299733,297.6],[-1.700209,43.299765,297.4],[-1.700244,43.299797,297.1],[-1.700278,43.299826,296.8],[-1.700301,43.29985,296.5],[-1.700325,43.299873,296.2],[-1.700354,43.299903,295.9],[-1.700375,43.299927,295.6],[-1.700394,43.299965,295.2],[-1.700416,43.299993,294.9],[-1.70044,43.300024,294.6],[-1.700474,43.300054,294.1],[-1.700506,43.300081,293.9],[-1.700534,43.300102,293.6],[-1.70057,43.300125,293.3],[-1.700593,43.30015,293.0],[-1.700625,43.300173,292.7],[-1.700668,43.300184,292.5],[-1.700697,43.300207,292.2],[-1.700706,43.300249,291.9],[-1.70072,43.300276,291.7],[-1.700729,43.300304,291.4],[-1.700755,43.300325,291.1],[-1.700791,43.300352,290.7],[-1.700815,43.300381,290.3],[-1.700846,43.300411,289.8],[-1.70089,43.300435,289.2],[-1.700904,43.300461,288.8],[-1.700931,43.300482,288.5],[-1.700961,43.300501,288.1],[-1.70098,43.300538,287.6],[-1.700984,43.300567,287.2],[-1.700995,43.300595,286.9],[-1.701005,43.300628,286.4],[-1.701001,43.300676,285.7],[-1.700976,43.300719,285.2],[-1.700957,43.300749,285.0],[-1.70095,43.300786,284.9],[-1.700929,43.30081,285.0],[-1.70091,43.300834,285.0],[-1.700891,43.300865,285.1],[-1.700885,43.300898,285.3],[-1.700859,43.300927,285.5],[-1.700842,43.300961,285.9],[-1.700813,43.300997,286.4],[-1.70079,43.301026,286.8],[-1.700793,43.301055,287.2],[-1.700788,43.301088,287.6],[-1.700763,43.301119,288.0],[-1.700739,43.301152,288.3],[-1.700734,43.301186,288.4],[-1.700737,43.301224,288.6],[-1.70076,43.301255,288.8],[-1.700802,43.301242,289.0],[-1.700838,43.301225,289.2],[-1.700896,43.301221,289.4],[-1.700939,43.301231,289.6],[-1.70098,43.301229,289.7],[-1.701037,43.301242,290.0],[-1.70107,43.301256,290.1],[-1.701127,43.301263,290.1],[-1.701181,43.301269,290.0],[-1.701224,43.301289,289.8],[-1.701253,43.301311,289.8],[-1.701273,43.301345,289.7],[-1.701329,43.301372,289.5],[-1.701372,43.301383,289.5],[-1.701404,43.301403,289.4],[-1.701444,43.301427,289.5],[-1.701482,43.301443,289.5],[-1.701517,43.30143,289.7],[-1.701552,43.301417,289.8],[-1.701564,43.301462,290.1],[-1.701565,43.301491,290.3],[-1.701571,43.301521,290.6],[-1.701562,43.301552,291.0],[-1.701513,43.301554,291.5],[-1.701471,43.301567,291.9],[-1.701456,43.301594,292.3],[-1.701478,43.301616,292.6],[-1.701505,43.301641,293.0],[-1.70155,43.301671,293.6],[-1.701554,43.301698,294.0],[-1.701544,43.301726,294.4],[-1.701539,43.301754,294.7],[-1.701523,43.301786,295.1],[-1.701531,43.301821,295.5],[-1.701546,43.301849,295.8],[-1.701535,43.301894,296.3],[-1.701536,43.301923,296.6],[-1.701544,43.301954,296.9],[-1.70152,43.301991,297.3],[-1.701518,43.302022,297.5],[-1.701546,43.302048,297.8],[-1.701569,43.302087,298.1],[-1.701586,43.302119,298.3],[-1.701617,43.302158,298.6],[-1.701649,43.3022,298.9],[-1.70166,43.302228,299.0],[-1.701675,43.302258,299.2],[-1.701695,43.302283,299.4],[-1.701713,43.302311,299.6],[-1.701744,43.302332,299.7],[-1.701762,43.302373,300.0],[-1.701765,43.302403,300.2],[-1.701764,43.302438,300.4],[-1.701748,43.302464,300.6],[-1.701782,43.302492,300.8],[-1.701781,43.302522,301.0],[-1.701779,43.30257,301.4],[-1.701789,43.302602,301.8],[-1.701806,43.302631,302.1],[-1.701833,43.302663,302.4],[-1.701855,43.302696,302.9],[-1.701858,43.302733,303.3],[-1.701855,43.302778,303.8],[-1.701845,43.302816,304.3],[-1.701832,43.302844,304.8],[-1.701818,43.302878,305.4],[-1.701794,43.302917,306.1],[-1.701751,43.302955,306.9],[-1.701741,43.302982,307.3],[-1.70171,43.303019,307.9],[-1.701712,43.303066,308.6],[-1.701743,43.303098,309.1],[-1.701762,43.303126,309.4],[-1.701802,43.303124,309.7],[-1.70185,43.303119,310.1],[-1.701894,43.303113,310.4],[-1.701949,43.303131,310.8],[-1.701986,43.30317,311.1],[-1.701994,43.303206,311.3],[-1.701988,43.303237,311.4],[-1.701973,43.303276,311.6],[-1.701963,43.303317,311.9],[-1.701966,43.303348,312.0],[-1.701969,43.303376,312.2],[-1.701976,43.303425,312.6],[-1.701979,43.303455,312.8],[-1.701991,43.303487,313.0],[-1.702003,43.303527,313.4],[-1.702,43.303556,313.6],[-1.702031,43.303577,313.9],[-1.702011,43.303601,314.2],[-1.702029,43.303648,314.7],[-1.702045,43.303684,315.1],[-1.702044,43.303712,315.5],[-1.702049,43.303742,315.8],[-1.702055,43.30379,316.5],[-1.702055,43.303817,316.8],[-1.702048,43.303852,317.3],[-1.702049,43.303882,317.7],[-1.702037,43.30392,318.2],[-1.702011,43.303953,318.7],[-1.701995,43.303985,319.1],[-1.701974,43.304022,319.7],[-1.701965,43.30406,320.2],[-1.701946,43.304084,320.5],[-1.701919,43.304104,320.9],[-1.701927,43.304133,321.3],[-1.701966,43.304137,321.7],[-1.702004,43.304144,321.2],[-1.702037,43.304161,320.7],[-1.702083,43.304167,320.1],[-1.702117,43.30415,319.6],[-1.702128,43.30412,319.1],[-1.702137,43.304084,318.7],[-1.70215,43.304058,318.6],[-1.702184,43.304042,318.6],[-1.702226,43.304033,318.7],[-1.702277,43.304014,318.9],[-1.702323,43.303994,319.2],[-1.702347,43.303965,319.5],[-1.702391,43.303956,319.9],[-1.702435,43.303951,320.3],[-1.702466,43.303932,320.6],[-1.702502,43.303908,321.1],[-1.702536,43.303883,321.7],[-1.702564,43.303856,322.1],[-1.702578,43.303826,322.6],[-1.702622,43.303832,323.1],[-1.702655,43.303805,323.6],[-1.702659,43.303774,324.1],[-1.702681,43.303748,324.7],[-1.702715,43.303735,325.3],[-1.702741,43.303705,326.3],[-1.702763,43.303674,327.2],[-1.702777,43.303644,328.0],[-1.702806,43.303615,328.9],[-1.702841,43.303599,329.6],[-1.702888,43.303595,330.4],[-1.702944,43.303604,331.4],[-1.702988,43.303602,332.2],[-1.703024,43.303597,332.8],[-1.703082,43.303603,333.9],[-1.703128,43.303622,334.8],[-1.703167,43.303642,335.6],[-1.703227,43.303645,336.6],[-1.703282,43.303647,337.5],[-1.703325,43.303652,338.2],[-1.703377,43.303672,339.0],[-1.703424,43.303674,339.7],[-1.703475,43.303682,340.3],[-1.703515,43.303689,340.6],[-1.703573,43.303701,341.0],[-1.70362,43.303713,341.1],[-1.703644,43.303736,341.1],[-1.703655,43.303767,341.1],[-1.703681,43.303792,341.1],[-1.703712,43.303807,341.1],[-1.703753,43.303817,341.1],[-1.703813,43.303818,341.1],[-1.703877,43.303824,340.9],[-1.703926,43.303823,340.7],[-1.703965,43.303804,340.4],[-1.704009,43.303777,340.1],[-1.70402,43.303746,339.8],[-1.70402,43.303717,339.3],[-1.704004,43.30368,338.6],[-1.703966,43.30366,337.9],[-1.703949,43.303621,337.0],[-1.703944,43.303589,336.3],[-1.703939,43.303547,335.3],[-1.703945,43.303508,334.4],[-1.703954,43.303474,333.6],[-1.703963,43.303426,332.6],[-1.703964,43.303388,331.9],[-1.703952,43.303359,331.4],[-1.703943,43.303332,331.0],[-1.703953,43.303296,330.4],[-1.703956,43.303253,329.8],[-1.703968,43.303223,329.4],[-1.703974,43.303186,328.8],[-1.703969,43.303148,328.3],[-1.703959,43.303121,327.9],[-1.703937,43.303096,327.4],[-1.703919,43.303061,326.8],[-1.70393,43.30303,326.4],[-1.703902,43.302992,325.9],[-1.703874,43.302963,325.6],[-1.703847,43.302924,325.4],[-1.703833,43.302898,325.2],[-1.703817,43.302845,325.2],[-1.703808,43.302806,325.2],[-1.703807,43.302773,325.3],[-1.703818,43.302744,325.5],[-1.703816,43.302713,325.7],[-1.703806,43.302675,326.1],[-1.703822,43.302649,326.4],[-1.703851,43.302628,326.9],[-1.703899,43.302619,327.5],[-1.703931,43.302594,328.2],[-1.703971,43.302574,328.9],[-1.704007,43.302555,329.7],[-1.704026,43.302527,330.5],[-1.704054,43.302503,331.3],[-1.704094,43.302503,332.1],[-1.70415,43.302508,333.2],[-1.704201,43.302503,334.3],[-1.704253,43.302499,335.3],[-1.704298,43.30249,336.4],[-1.704349,43.302483,337.5],[-1.7044,43.302474,338.8],[-1.70446,43.302471,340.3],[-1.704509,43.30247,341.6],[-1.704562,43.302461,343.0],[-1.704616,43.302453,344.5],[-1.704667,43.302449,345.9],[-1.704715,43.30245,347.3],[-1.704754,43.302449,348.3],[-1.704794,43.302443,349.4],[-1.704858,43.302428,351.2],[-1.704906,43.302419,352.6],[-1.704966,43.302429,354.3],[-1.705012,43.302435,355.5],[-1.705043,43.302452,356.4],[-1.705081,43.302471,357.6],[-1.705126,43.30249,358.7],[-1.705157,43.302507,359.4],[-1.705193,43.302524,360.2],[-1.70522,43.302553,360.9],[-1.705278,43.302571,361.3],[-1.70534,43.302574,361.2],[-1.705386,43.302578,361.1],[-1.70543,43.302569,361.0],[-1.705478,43.302563,360.8],[-1.705519,43.302546,360.7],[-1.705526,43.302518,360.6],[-1.705553,43.302475,360.4],[-1.70558,43.302456,360.3],[-1.705593,43.302428,360.2],[-1.705577,43.302384,359.7],[-1.705566,43.302347,359.2],[-1.705568,43.302312,358.7],[-1.705564,43.302275,358.2],[-1.705541,43.302249,357.8],[-1.705518,43.302211,357.3],[-1.705511,43.302179,356.8],[-1.705517,43.302151,356.4],[-1.705511,43.302113,355.8],[-1.705509,43.302069,355.2],[-1.705511,43.302037,354.7],[-1.705496,43.302001,354.1],[-1.705478,43.301967,353.3],[-1.705453,43.30193,352.4],[-1.705423,43.3019,351.6],[-1.705404,43.301863,350.7],[-1.7054,43.301816,349.4],[-1.705397,43.301778,348.6],[-1.705394,43.301748,348.0],[-1.705374,43.301723,347.4],[-1.705354,43.301696,346.8],[-1.705335,43.301664,346.2],[-1.705335,43.301634,345.8],[-1.705331,43.301605,345.4],[-1.70532,43.301565,345.0],[-1.705324,43.301531,344.7],[-1.70534,43.301501,344.5],[-1.705357,43.301473,344.4],[-1.705379,43.301444,344.3],[-1.705382,43.301408,344.3],[-1.705381,43.301377,344.3],[-1.705389,43.301347,344.3],[-1.705412,43.301312,344.4],[-1.705416,43.301284,344.5],[-1.705421,43.301248,344.7],[-1.705437,43.301206,344.9],[-1.705457,43.301163,345.3],[-1.705473,43.301127,345.6],[-1.705483,43.301094,346.0],[-1.705495,43.301062,346.5],[-1.705505,43.301024,347.0],[-1.705517,43.300996,347.4],[-1.705559,43.300973,348.2],[-1.705613,43.300947,349.3],[-1.705648,43.300915,350.2],[-1.705665,43.300888,351.0],[-1.705687,43.300855,351.9],[-1.705714,43.300824,353.0],[-1.705726,43.300789,354.0],[-1.705738,43.300757,354.9],[-1.705769,43.300728,355.8],[-1.705803,43.300706,356.6],[-1.70584,43.300681,357.5],[-1.705881,43.300663,358.2],[-1.705919,43.300645,358.7],[-1.705957,43.300628,359.2],[-1.705984,43.300599,359.5],[-1.706004,43.300564,359.8],[-1.706024,43.30054,360.0],[-1.706047,43.300518,359.9],[-1.706052,43.300472,359.9],[-1.706061,43.300438,359.8],[-1.70606,43.300407,359.8],[-1.706062,43.30038,359.7],[-1.706059,43.300342,359.7],[-1.706043,43.300298,359.6],[-1.706018,43.300271,359.6],[-1.705996,43.300245,359.5],[-1.705982,43.300219,359.4],[-1.705964,43.300192,359.1],[-1.705939,43.300169,358.8],[-1.705911,43.300143,358.5],[-1.705886,43.30012,358.0],[-1.705854,43.300091,357.3],[-1.705821,43.30005,356.5],[-1.705812,43.300021,356.0],[-1.705836,43.299979,355.2],[-1.705824,43.299948,354.7],[-1.705807,43.299913,354.3],[-1.705801,43.299884,354.0],[-1.705789,43.299853,353.6],[-1.705792,43.29982,353.3],[-1.705782,43.299783,353.0],[-1.70578,43.299752,352.8],[-1.70579,43.299713,352.6],[-1.705791,43.299667,352.3],[-1.705772,43.29964,352.2],[-1.705762,43.299605,352.0],[-1.705745,43.299565,352.0],[-1.705747,43.299534,351.9],[-1.705769,43.299501,352.0],[-1.705805,43.299472,352.1],[-1.705824,43.299445,352.2],[-1.705843,43.299421,352.3],[-1.705873,43.299397,352.5],[-1.705919,43.299378,352.9],[-1.705955,43.299363,353.1],[-1.705999,43.299358,353.5],[-1.706031,43.299343,353.8],[-1.70606,43.299326,354.1],[-1.706066,43.299292,354.6],[-1.706113,43.299298,355.1],[-1.70616,43.299278,355.7],[-1.706192,43.299257,356.2],[-1.706213,43.29923,356.8],[-1.706247,43.29921,357.4],[-1.706296,43.299208,358.0],[-1.706355,43.299197,358.8],[-1.706391,43.299183,359.4],[-1.706436,43.299176,360.2],[-1.706488,43.299183,361.2],[-1.706533,43.29919,362.0],[-1.706591,43.299202,363.1],[-1.70663,43.299211,363.8],[-1.706665,43.299222,364.5],[-1.706688,43.29925,365.3],[-1.706741,43.299272,366.5],[-1.706772,43.299289,367.2],[-1.706799,43.299313,367.9],[-1.706819,43.299338,368.6],[-1.706844,43.299361,369.3],[-1.706867,43.299391,370.1],[-1.706882,43.299422,370.7],[-1.706893,43.299449,371.3],[-1.706898,43.29948,371.9],[-1.706891,43.299508,372.5],[-1.706948,43.299524,373.4],[-1.706977,43.299556,374.3],[-1.706978,43.299588,375.1],[-1.706984,43.299615,375.7],[-1.707016,43.299652,376.1],[-1.707017,43.299686,376.4],[-1.707041,43.29972,376.8],[-1.707074,43.299743,377.1],[-1.707135,43.299764,377.5],[-1.707171,43.29977,377.8],[-1.707212,43.299791,378.0],[-1.707244,43.299809,378.3],[-1.707268,43.299833,378.5],[-1.707312,43.299853,378.8],[-1.707351,43.299882,379.1],[-1.707389,43.299902,379.5],[-1.70744,43.299911,379.8],[-1.707491,43.299936,380.3],[-1.707521,43.299954,380.6],[-1.707559,43.299974,380.9],[-1.707598,43.299985,381.2],[-1.70765,43.3,381.7],[-1.707707,43.300016,382.1],[-1.707743,43.300035,382.4],[-1.707771,43.300061,382.8],[-1.707797,43.300084,383.1],[-1.707835,43.300088,383.4],[-1.707869,43.300098,383.7],[-1.707897,43.300119,384.0],[-1.707945,43.300136,384.4],[-1.707986,43.300145,384.7],[-1.708022,43.300165,385.1],[-1.70807,43.300179,385.4],[-1.708117,43.300184,385.7],[-1.708167,43.3002,386.0],[-1.708204,43.300211,386.3],[-1.708256,43.300216,386.7],[-1.708295,43.30022,386.9],[-1.708342,43.300224,387.2],[-1.708366,43.300203,387.3],[-1.708405,43.300197,387.5],[-1.708439,43.300209,387.6],[-1.708479,43.300226,387.8],[-1.708533,43.300244,387.9],[-1.708582,43.300263,388.0],[-1.708625,43.30028,388.0],[-1.708666,43.300285,388.1],[-1.708709,43.300293,388.1],[-1.708749,43.300297,388.1],[-1.708783,43.300315,388.0],[-1.708826,43.300325,388.0],[-1.708897,43.300333,387.9],[-1.708934,43.300339,387.9],[-1.708974,43.300345,387.9],[-1.709011,43.30035,387.8],[-1.709065,43.300353,387.7],[-1.709118,43.300359,387.6],[-1.709161,43.300364,387.5],[-1.709199,43.300368,387.4],[-1.709244,43.300372,387.3],[-1.709288,43.300372,387.2],[-1.709326,43.300378,387.1],[-1.709364,43.300385,387.1],[-1.709411,43.300395,387.0],[-1.709452,43.300413,387.0],[-1.709489,43.300437,387.1],[-1.709517,43.300463,387.2],[-1.70956,43.30048,387.4],[-1.709596,43.300506,387.6],[-1.709621,43.300534,387.7],[-1.709648,43.300559,387.9],[-1.709679,43.300594,388.1],[-1.709716,43.300617,388.3],[-1.709765,43.300635,388.3],[-1.709802,43.300649,388.4],[-1.709844,43.300665,388.4],[-1.709892,43.300674,388.4],[-1.709935,43.300683,388.5],[-1.709976,43.300679,388.5],[-1.71003,43.300676,388.6],[-1.710081,43.300669,388.6],[-1.710124,43.300649,388.7],[-1.710158,43.300636,388.7],[-1.7102,43.300626,388.8],[-1.710236,43.300619,388.8],[-1.710276,43.300613,388.9],[-1.710321,43.300618,388.9],[-1.710371,43.300625,389.0],[-1.710411,43.30063,389.1],[-1.710452,43.30063,389.1],[-1.710503,43.300631,389.2],[-1.710562,43.300627,389.3],[-1.710619,43.300629,389.4],[-1.710666,43.300627,389.5],[-1.710711,43.300622,389.5],[-1.710769,43.300622,389.5],[-1.710814,43.300618,389.6],[-1.710859,43.300605,389.6],[-1.710892,43.300591,389.6],[-1.710927,43.300576,389.6],[-1.710956,43.300557,389.6],[-1.710984,43.300538,389.6],[-1.711021,43.300513,389.7],[-1.711052,43.300487,389.7],[-1.711087,43.300461,389.8],[-1.711129,43.300438,389.9],[-1.71117,43.300416,390.1],[-1.711202,43.300395,390.2],[-1.711209,43.300367,390.4],[-1.71122,43.30034,390.5],[-1.711248,43.300306,390.7],[-1.71128,43.300278,390.9],[-1.711309,43.300258,391.1],[-1.711341,43.300242,391.2],[-1.711385,43.300225,391.5],[-1.711429,43.300202,391.8],[-1.711463,43.300183,392.0],[-1.71149,43.300158,392.3],[-1.711527,43.300136,392.6],[-1.711562,43.300123,392.8],[-1.711602,43.300111,393.1],[-1.711653,43.300093,393.5],[-1.711698,43.30008,393.9],[-1.711739,43.30006,394.2],[-1.711775,43.300046,394.4],[-1.711804,43.300026,394.7],[-1.711839,43.300001,395.0],[-1.711862,43.299979,395.3],[-1.711886,43.299956,395.5],[-1.71193,43.299944,395.7],[-1.71198,43.299927,396.0],[-1.712019,43.299912,396.1],[-1.712046,43.299884,396.1],[-1.712073,43.299858,396.2],[-1.712108,43.299832,396.3],[-1.712134,43.299811,396.4],[-1.712163,43.299776,396.5],[-1.712179,43.299749,396.5],[-1.712185,43.299717,396.6],[-1.712194,43.299688,396.7],[-1.712233,43.299671,396.8],[-1.712275,43.299657,396.9],[-1.712326,43.29963,397.0],[-1.71237,43.299608,397.1],[-1.712408,43.299603,397.1],[-1.712453,43.299578,397.1],[-1.712492,43.299553,397.1],[-1.712508,43.299524,397.0],[-1.712527,43.299491,397.0],[-1.712553,43.299456,397.0],[-1.712588,43.299435,396.9],[-1.712626,43.299416,396.9],[-1.71266,43.299396,396.8],[-1.712698,43.299371,396.7],[-1.712732,43.299346,396.7],[-1.712764,43.299326,396.6],[-1.712808,43.2993,396.6],[-1.712838,43.299282,396.6],[-1.712857,43.299249,396.6],[-1.712891,43.299236,396.6],[-1.712899,43.299205,396.7],[-1.712919,43.299176,396.9],[-1.712961,43.299153,397.1],[-1.713005,43.299131,397.3],[-1.713055,43.299103,397.7],[-1.713069,43.299076,397.9],[-1.713091,43.299044,398.2],[-1.713127,43.299016,398.5],[-1.713162,43.298989,398.8],[-1.713202,43.298968,399.0],[-1.713247,43.298947,399.2],[-1.713285,43.298928,399.4],[-1.713321,43.298906,399.6],[-1.713349,43.298882,399.7],[-1.713394,43.298862,399.8],[-1.713428,43.298851,399.9],[-1.713445,43.298826,400.0],[-1.713492,43.298814,400.0],[-1.71352,43.298788,400.1],[-1.713566,43.298767,400.0],[-1.713608,43.29874,400.0],[-1.71365,43.298717,399.9],[-1.713685,43.298695,399.8],[-1.713722,43.298673,399.7],[-1.713757,43.298651,399.6],[-1.713793,43.298631,399.5],[-1.713834,43.298614,399.4],[-1.713868,43.2986,399.4],[-1.713907,43.298575,399.4],[-1.713989,43.298523,399.4],[-1.714023,43.298501,399.4],[-1.71405,43.298471,399.5],[-1.714079,43.29845,399.5],[-1.7141,43.298427,399.5],[-1.714132,43.298406,399.6],[-1.714177,43.298388,399.7],[-1.714215,43.298374,399.7],[-1.714254,43.298361,399.8],[-1.714295,43.298346,399.8],[-1.714338,43.29833,399.8],[-1.714382,43.298311,399.8],[-1.714419,43.298304,399.8],[-1.714461,43.298298,399.7],[-1.714503,43.298295,399.7],[-1.714547,43.298272,399.6],[-1.714581,43.298248,399.5],[-1.714605,43.298226,399.5],[-1.714647,43.298195,399.4],[-1.71467,43.298173,399.4],[-1.714705,43.298159,399.3],[-1.714729,43.298136,399.3],[-1.714731,43.298101,399.3],[-1.714735,43.298065,399.2],[-1.714747,43.298032,399.2],[-1.714766,43.298005,399.2],[-1.7148,43.297971,399.1],[-1.71482,43.29794,399.1],[-1.714816,43.297891,399.0],[-1.714848,43.297857,399.0],[-1.714898,43.297829,398.9],[-1.714932,43.297807,398.8],[-1.71496,43.29778,398.7],[-1.71499,43.29776,398.6],[-1.715026,43.297734,398.5],[-1.71506,43.297716,398.4],[-1.7151,43.297697,398.2],[-1.715139,43.297687,398.1],[-1.715181,43.297666,398.0],[-1.715223,43.297667,397.7],[-1.715266,43.29767,397.3],[-1.715313,43.297668,396.9],[-1.71536,43.297658,396.4],[-1.715402,43.29766,395.9],[-1.715444,43.297672,395.4],[-1.71549,43.297674,394.9],[-1.715548,43.297674,394.3],[-1.715592,43.297678,393.9],[-1.715637,43.297687,393.4],[-1.71569,43.297697,392.8],[-1.715729,43.297697,392.3],[-1.715764,43.297719,391.9],[-1.715804,43.297739,391.4],[-1.715857,43.297749,390.9],[-1.715896,43.297766,390.4],[-1.715951,43.297785,389.7],[-1.715999,43.297803,389.1],[-1.71604,43.297821,388.5],[-1.716098,43.297837,387.7],[-1.716136,43.297847,387.2],[-1.716199,43.297869,386.3],[-1.716263,43.297884,385.3],[-1.716337,43.297897,384.1],[-1.716394,43.297901,383.2],[-1.716437,43.297907,382.6],[-1.716498,43.297907,381.6],[-1.716549,43.297907,380.8],[-1.716589,43.297908,380.1],[-1.716627,43.297912,379.4],[-1.716662,43.297926,378.6],[-1.716713,43.297934,377.8],[-1.716763,43.297948,377.0],[-1.716808,43.297965,376.3],[-1.716842,43.297979,375.8],[-1.716884,43.297989,375.2],[-1.716912,43.29801,374.8],[-1.71691,43.298038,374.4],[-1.716929,43.298076,373.8],[-1.716953,43.298107,373.4],[-1.716992,43.298149,372.8],[-1.717017,43.298182,372.4],[-1.717046,43.298213,372.0],[-1.717068,43.298244,371.6],[-1.717089,43.298275,371.2],[-1.717112,43.298303,370.9],[-1.71713,43.29833,370.5],[-1.717147,43.298354,370.1],[-1.717168,43.298378,369.8],[-1.717206,43.298419,369.1],[-1.717241,43.298463,368.3],[-1.717274,43.298497,367.7],[-1.717297,43.298537,367.2],[-1.717302,43.298571,366.8],[-1.717299,43.298599,366.5],[-1.717277,43.298626,366.2],[-1.717243,43.298658,365.8],[-1.717224,43.298685,365.6],[-1.717237,43.298711,365.4],[-1.717244,43.29874,365.2],[-1.717228,43.298767,364.9],[-1.71721,43.298796,364.7],[-1.717191,43.298825,364.5],[-1.717187,43.298871,364.2],[-1.717145,43.298914,363.9],[-1.717183,43.298908,363.8],[-1.717179,43.298938,363.7],[-1.717184,43.298972,363.5],[-1.717169,43.299,363.4],[-1.717162,43.29904,363.2],[-1.717132,43.299075,363.1],[-1.717141,43.299115,363.0],[-1.717147,43.299155,362.9],[-1.717149,43.299203,362.9],[-1.717165,43.29924,362.9],[-1.717176,43.299268,362.9],[-1.717169,43.299303,363.0],[-1.717174,43.299332,363.0],[-1.717162,43.299371,363.1],[-1.717168,43.29941,363.2],[-1.717193,43.299454,363.3],[-1.717188,43.299487,363.3],[-1.71717,43.299522,363.4],[-1.717213,43.299541,363.5],[-1.717258,43.299547,363.0],[-1.717301,43.299559,362.7],[-1.717324,43.299583,362.8],[-1.717304,43.299616,363.0],[-1.717326,43.299643,363.2],[-1.717352,43.299665,363.0],[-1.717354,43.299697,362.7],[-1.717349,43.299728,362.4],[-1.717357,43.299777,362.5],[-1.717376,43.299819,362.6],[-1.717384,43.29986,362.1],[-1.717383,43.299895,361.7],[-1.717426,43.29992,361.2],[-1.717469,43.299941,360.7],[-1.7175,43.299956,360.4],[-1.717527,43.299975,360.1],[-1.717559,43.300001,359.7],[-1.717571,43.300031,359.2],[-1.717572,43.300069,358.6],[-1.717583,43.300107,358.1],[-1.717612,43.300147,357.8],[-1.717643,43.300168,357.6],[-1.717674,43.300186,357.3],[-1.717689,43.300221,356.9],[-1.717678,43.300249,356.6],[-1.71767,43.300284,356.3],[-1.717675,43.300317,356.1],[-1.717702,43.30034,356.0],[-1.717726,43.300369,355.8],[-1.717767,43.300379,355.5],[-1.71782,43.300361,355.1],[-1.717865,43.300336,354.9],[-1.717912,43.300355,354.8],[-1.71795,43.300386,354.6],[-1.717983,43.300414,354.4],[-1.718023,43.30043,354.3],[-1.71807,43.300446,354.1],[-1.718073,43.300479,354.0],[-1.718078,43.30051,353.9],[-1.718046,43.300495,353.8],[-1.718008,43.30048,353.7],[-1.717961,43.300472,354.7],[-1.717913,43.300465,355.0],[-1.717878,43.300454,355.1],[-1.717836,43.300452,355.4],[-1.717779,43.300448,355.7],[-1.717739,43.300445,355.9],[-1.717685,43.300432,356.2],[-1.717649,43.300406,356.5],[-1.717614,43.300387,356.9],[-1.717585,43.300362,357.3],[-1.717561,43.300337,357.7],[-1.717514,43.300317,358.2],[-1.717473,43.300304,358.7],[-1.717435,43.300312,359.2],[-1.717398,43.300318,359.6],[-1.717362,43.300302,360.2],[-1.717318,43.300295,360.8],[-1.717274,43.300294,361.5],[-1.717235,43.300291,362.1],[-1.717198,43.300277,362.7],[-1.71716,43.300266,363.3],[-1.717111,43.300255,364.1],[-1.717064,43.30026,364.9],[-1.717026,43.30026,365.7],[-1.716974,43.300257,366.7],[-1.716928,43.300247,367.6],[-1.716902,43.300226,368.3],[-1.716871,43.300208,369.2],[-1.716833,43.300199,370.0],[-1.716792,43.300197,370.9],[-1.716752,43.300207,371.9],[-1.716709,43.300199,372.8],[-1.716666,43.300184,373.8],[-1.716633,43.300166,374.7],[-1.716594,43.300162,375.5],[-1.716549,43.300157,376.5],[-1.7165,43.300156,377.7],[-1.716463,43.300166,378.6],[-1.716426,43.300164,379.5],[-1.716388,43.300176,380.7],[-1.716342,43.300157,382.1],[-1.7163,43.300168,383.0],[-1.716247,43.300159,384.2],[-1.716206,43.300159,385.3],[-1.71616,43.300144,386.8],[-1.716124,43.300116,388.4],[-1.716092,43.300093,389.8],[-1.716053,43.300095,391.0],[-1.716014,43.300099,392.2],[-1.715983,43.30007,393.8],[-1.71594,43.300053,395.4],[-1.715898,43.300049,396.7],[-1.715861,43.300046,397.9],[-1.715825,43.300037,399.0],[-1.715789,43.300024,400.0],[-1.715751,43.300014,401.0],[-1.71571,43.300001,402.2],[-1.715683,43.299983,403.1],[-1.715645,43.299979,404.1],[-1.715606,43.299977,405.1],[-1.71557,43.299968,406.2],[-1.715518,43.299972,407.6],[-1.715475,43.299971,408.8],[-1.715425,43.29997,410.1],[-1.715391,43.299984,411.2],[-1.715347,43.29999,412.2],[-1.715294,43.299987,413.5],[-1.715257,43.299982,414.3],[-1.715223,43.299966,415.2],[-1.715194,43.299947,416.0],[-1.71516,43.299917,417.1],[-1.715118,43.2999,418.1],[-1.71507,43.299894,419.0],[-1.715027,43.299884,419.9],[-1.714989,43.29987,420.8],[-1.714959,43.299853,421.6],[-1.714929,43.299826,422.5],[-1.714887,43.299814,423.3],[-1.714852,43.299794,424.1],[-1.71482,43.299776,424.8],[-1.714785,43.299754,425.7],[-1.714743,43.299746,426.5],[-1.714711,43.29973,427.1],[-1.714676,43.299712,427.8],[-1.714638,43.2997,428.4],[-1.714592,43.299703,429.3],[-1.714543,43.299701,430.0],[-1.714488,43.2997,430.7],[-1.714455,43.299713,431.2],[-1.714415,43.299709,431.7],[-1.714371,43.299713,432.2],[-1.714334,43.299723,432.6],[-1.714293,43.299732,433.1],[-1.714254,43.299742,433.5],[-1.714212,43.299757,434.0],[-1.714177,43.299775,434.4],[-1.714134,43.299788,434.8],[-1.714093,43.299794,435.1],[-1.714053,43.299805,435.4],[-1.714013,43.299794,435.7],[-1.713986,43.299812,436.0],[-1.71395,43.299832,436.2],[-1.713912,43.299849,436.5],[-1.71388,43.299877,436.7],[-1.713873,43.299913,437.0],[-1.713849,43.299938,437.2],[-1.713811,43.299946,437.4],[-1.713848,43.29993,437.5],[-1.713876,43.299899,437.7],[-1.713886,43.299868,437.9],[-1.713896,43.29984,438.1],[-1.713853,43.299827,438.3],[-1.713793,43.299833,438.4],[-1.713755,43.299843,438.6],[-1.713718,43.299858,438.7],[-1.713684,43.299871,438.8],[-1.713647,43.299883,438.9],[-1.713612,43.299895,439.0],[-1.713567,43.299919,439.1],[-1.71352,43.299936,439.1],[-1.71347,43.29994,439.2],[-1.71343,43.299937,439.2],[-1.713394,43.299947,439.2],[-1.713358,43.299956,439.2],[-1.713325,43.299971,439.2],[-1.713279,43.29999,439.2],[-1.713247,43.300005,439.2],[-1.713219,43.30004,439.1],[-1.713194,43.300072,439.1],[-1.713176,43.300097,439.1],[-1.713162,43.300136,439.1],[-1.71314,43.300171,439.1],[-1.713128,43.300198,439.1],[-1.713098,43.300224,439.2],[-1.713076,43.300252,439.3],[-1.713032,43.300271,439.4],[-1.713018,43.300297,439.5],[-1.71299,43.300316,439.7],[-1.712954,43.300329,439.8],[-1.712925,43.300358,440.1],[-1.712911,43.300388,440.3],[-1.712876,43.300411,440.6],[-1.712851,43.300434,440.9],[-1.712822,43.300455,441.2],[-1.712784,43.300465,441.5],[-1.712745,43.300478,441.7],[-1.712713,43.300497,442.0],[-1.712683,43.300521,442.2],[-1.712657,43.300542,442.4],[-1.71263,43.300569,442.6],[-1.712597,43.300588,442.8],[-1.712566,43.300621,443.0],[-1.712544,43.300645,443.1],[-1.712521,43.300668,443.2],[-1.712492,43.300688,443.2],[-1.712462,43.300717,443.1],[-1.712457,43.300748,443.0],[-1.712454,43.300787,442.7],[-1.712447,43.300818,442.5],[-1.712452,43.300851,442.2],[-1.712456,43.300887,441.9],[-1.712442,43.300917,441.6],[-1.712429,43.300947,441.3],[-1.712412,43.300975,441.0],[-1.712386,43.300995,440.8],[-1.712366,43.301023,440.5],[-1.71235,43.301049,440.4],[-1.712327,43.301078,440.2],[-1.712302,43.301116,440.1],[-1.712266,43.301141,440.1],[-1.712244,43.301163,440.1],[-1.712217,43.301185,440.2],[-1.712183,43.301207,440.3],[-1.712147,43.301214,440.4],[-1.712096,43.30124,440.6],[-1.712054,43.301257,440.8],[-1.712026,43.301279,441.1],[-1.712006,43.301307,441.4],[-1.711979,43.301331,441.7],[-1.711946,43.301351,442.0],[-1.711909,43.301366,442.4],[-1.711863,43.301381,442.9],[-1.711821,43.301397,443.3],[-1.711787,43.301423,443.7],[-1.711741,43.30144,444.2],[-1.711706,43.301457,444.6],[-1.711689,43.301489,445.1],[-1.711677,43.301529,445.6],[-1.711655,43.301567,446.1],[-1.711617,43.301596,446.7],[-1.711576,43.301624,447.2],[-1.711544,43.30164,447.6],[-1.711512,43.301671,448.1],[-1.711492,43.301698,448.6],[-1.711461,43.301722,448.9],[-1.711426,43.301739,449.1],[-1.711387,43.301756,449.3],[-1.711348,43.301776,449.6],[-1.711311,43.30179,449.8],[-1.711287,43.301813,449.9],[-1.711249,43.301834,450.2],[-1.711234,43.301808,450.4],[-1.711199,43.301837,450.6],[-1.71116,43.301862,450.9],[-1.711119,43.301885,453.0],[-1.711088,43.301907,453.7],[-1.711043,43.301925,454.5],[-1.710997,43.301937,455.3],[-1.710966,43.301971,456.2],[-1.710927,43.301993,457.0],[-1.710899,43.30201,457.6],[-1.710867,43.302031,458.3],[-1.710833,43.302048,458.9],[-1.710792,43.302067,459.7],[-1.710757,43.302081,460.3],[-1.710712,43.302096,461.1],[-1.710666,43.302114,462.8],[-1.710624,43.302126,463.5],[-1.710579,43.302136,464.3],[-1.710542,43.302149,465.0],[-1.710505,43.30216,465.7],[-1.71046,43.302166,466.5],[-1.710428,43.302189,467.2],[-1.710394,43.302205,467.9],[-1.710364,43.302231,468.8],[-1.710304,43.302242,470.0],[-1.710283,43.302269,470.8],[-1.710243,43.302306,472.0],[-1.710223,43.302333,472.9],[-1.7102,43.302355,473.8],[-1.710175,43.302376,474.8],[-1.710158,43.302402,475.8],[-1.710115,43.302412,476.9],[-1.71007,43.302409,477.9],[-1.710026,43.302423,478.9],[-1.709995,43.302446,479.7],[-1.709983,43.302475,480.5],[-1.709946,43.302491,481.3],[-1.7099,43.302504,482.3],[-1.709885,43.302531,483.0],[-1.709867,43.302561,484.0],[-1.709851,43.302593,485.0],[-1.709841,43.30262,485.7],[-1.709831,43.302647,486.4],[-1.709821,43.302685,487.0],[-1.709799,43.302714,487.6],[-1.709804,43.302744,488.1],[-1.7098,43.302788,488.8],[-1.709812,43.302821,489.3],[-1.709826,43.302859,489.9],[-1.709837,43.30289,490.4],[-1.709853,43.30294,491.3],[-1.709848,43.302969,491.9],[-1.709822,43.302997,492.6],[-1.709789,43.303021,493.3],[-1.709776,43.303051,494.0],[-1.709742,43.303062,494.8],[-1.709698,43.303092,496.1],[-1.709658,43.303088,497.0],[-1.70966,43.303125,498.2],[-1.709663,43.30316,499.2],[-1.709659,43.303188,499.9],[-1.709644,43.303219,500.7],[-1.709638,43.303251,501.4],[-1.709633,43.30328,502.1],[-1.709623,43.30331,502.7],[-1.709609,43.303335,503.3],[-1.709591,43.303366,503.9],[-1.709576,43.303394,504.5],[-1.709551,43.303423,505.1],[-1.70952,43.303453,505.8],[-1.709516,43.303484,506.4],[-1.709509,43.303513,506.9],[-1.709494,43.303544,507.5],[-1.709484,43.303585,508.2],[-1.709475,43.303612,508.5],[-1.709476,43.303651,509.1],[-1.709469,43.303686,509.5],[-1.709459,43.303718,509.9],[-1.709448,43.303749,510.3],[-1.709432,43.303784,510.8],[-1.709426,43.303815,511.2],[-1.709417,43.303843,511.4],[-1.709403,43.303869,511.6],[-1.709383,43.303897,511.8],[-1.709369,43.303924,511.9],[-1.709346,43.303952,512.1],[-1.709344,43.303985,512.3],[-1.709325,43.30401,512.3],[-1.70931,43.304049,512.4],[-1.7093,43.304078,512.4],[-1.709293,43.304111,512.4],[-1.709273,43.30415,512.5],[-1.709267,43.304191,512.5],[-1.709257,43.304229,512.5],[-1.709247,43.30426,512.6],[-1.709239,43.304298,512.6],[-1.709232,43.304328,512.6],[-1.709235,43.304356,512.6],[-1.709223,43.304392,512.6],[-1.709194,43.304422,512.6],[-1.709173,43.304449,512.6],[-1.709163,43.304479,512.6],[-1.709164,43.304511,512.7],[-1.709175,43.304545,512.7],[-1.709175,43.304576,512.7],[-1.70916,43.304612,512.8],[-1.709147,43.30464,512.8],[-1.709137,43.30467,512.9],[-1.709135,43.304708,513.2],[-1.709127,43.304735,513.4],[-1.709116,43.304763,513.6],[-1.709106,43.30479,513.8],[-1.709097,43.30483,514.2],[-1.709083,43.304857,514.5],[-1.709071,43.30489,514.8],[-1.709062,43.304918,515.2],[-1.709053,43.304956,515.7],[-1.709046,43.304983,516.1],[-1.709024,43.305019,516.8],[-1.709002,43.305045,517.3],[-1.70899,43.305077,518.1],[-1.708971,43.305109,519.0],[-1.708955,43.305138,519.8],[-1.708942,43.305164,520.5],[-1.708915,43.305189,521.2],[-1.708898,43.305221,522.1],[-1.708876,43.305251,522.9],[-1.708855,43.305277,523.7],[-1.708831,43.305303,524.4],[-1.70881,43.305327,525.0],[-1.708785,43.305353,525.7],[-1.708756,43.305393,526.8],[-1.708729,43.305414,527.4],[-1.708711,43.305438,527.9],[-1.7087,43.305469,528.5],[-1.708677,43.305493,529.0],[-1.708642,43.305503,529.5],[-1.708638,43.305531,530.0],[-1.708672,43.30555,530.5],[-1.708698,43.305572,530.9],[-1.708695,43.305601,531.4],[-1.708657,43.30562,531.8],[-1.708611,43.305629,532.3],[-1.708564,43.30564,532.8],[-1.708518,43.305652,533.1],[-1.708489,43.30567,533.4],[-1.708453,43.305688,533.7],[-1.708419,43.305703,533.9],[-1.708395,43.305724,534.1],[-1.708372,43.305748,534.2],[-1.708303,43.305767,534.4],[-1.70828,43.305791,534.4],[-1.708257,43.305827,534.4],[-1.708245,43.305856,534.4],[-1.708231,43.305885,534.3],[-1.70821,43.305913,534.2],[-1.708164,43.305951,533.9],[-1.708135,43.305982,533.7],[-1.708103,43.306013,533.4],[-1.708081,43.306046,533.1],[-1.708062,43.306081,532.8],[-1.708033,43.306127,532.3],[-1.708009,43.306158,532.0],[-1.707977,43.306188,531.6],[-1.707935,43.306215,531.2],[-1.707906,43.306242,530.8],[-1.707873,43.306267,530.4],[-1.707841,43.306289,530.1],[-1.707815,43.306309,529.8],[-1.707785,43.306343,529.4],[-1.707767,43.306367,529.2],[-1.707742,43.306396,528.9],[-1.707712,43.306421,528.7],[-1.707679,43.306439,528.5],[-1.70764,43.306454,528.4],[-1.707605,43.306467,528.3],[-1.707555,43.306496,528.2],[-1.707523,43.306517,528.2],[-1.707501,43.306543,528.2],[-1.707462,43.306564,528.2],[-1.707428,43.306577,528.2],[-1.707407,43.306602,528.2],[-1.707378,43.306621,528.2],[-1.707347,43.306639,528.2],[-1.707318,43.306661,528.2],[-1.707301,43.306692,528.2],[-1.707279,43.306723,528.2],[-1.707244,43.306755,528.2],[-1.707212,43.30678,528.1],[-1.707175,43.306807,528.1],[-1.707156,43.30683,528.0],[-1.707136,43.306858,527.9],[-1.707121,43.306884,527.8],[-1.7071,43.306908,527.7],[-1.707071,43.306931,527.6],[-1.70704,43.306952,527.5],[-1.707007,43.306973,527.6],[-1.706982,43.306997,527.8],[-1.706953,43.307023,528.1],[-1.706919,43.307049,528.3],[-1.70688,43.307079,528.6],[-1.70685,43.307106,528.9],[-1.706823,43.30713,529.1],[-1.706803,43.307165,529.3],[-1.70678,43.307192,529.6],[-1.706739,43.307226,529.9],[-1.706701,43.307264,530.2],[-1.706673,43.30729,530.5],[-1.706645,43.307316,530.8],[-1.706609,43.307331,531.0],[-1.706559,43.307352,531.4],[-1.706528,43.307367,531.7],[-1.706487,43.307388,532.1],[-1.706463,43.307412,532.4],[-1.706434,43.307449,532.9],[-1.706413,43.307479,533.3],[-1.706394,43.307511,533.7],[-1.706376,43.307536,534.1],[-1.706348,43.307565,534.8],[-1.706323,43.307598,535.3],[-1.706315,43.307628,535.8],[-1.706299,43.307665,536.3],[-1.706272,43.3077,536.8],[-1.706258,43.307728,537.1],[-1.706233,43.307753,537.4],[-1.706211,43.307775,537.6],[-1.70618,43.307807,537.9],[-1.706154,43.307829,538.1],[-1.706125,43.307863,538.2],[-1.706077,43.307881,538.4],[-1.706044,43.307906,538.5],[-1.706003,43.307923,538.6],[-1.70596,43.307937,538.7],[-1.705912,43.307944,538.9],[-1.705863,43.307948,539.1],[-1.705819,43.307959,539.3],[-1.70578,43.30796,539.5],[-1.705742,43.307955,539.7],[-1.705693,43.307956,540.0],[-1.705654,43.307971,540.1],[-1.705616,43.307987,540.2],[-1.705577,43.308001,540.4],[-1.70552,43.30802,540.4],[-1.70549,43.308037,540.5],[-1.705443,43.308049,540.7],[-1.705409,43.308061,540.8],[-1.705372,43.308066,541.0],[-1.705335,43.30807,541.2],[-1.705302,43.308087,541.4],[-1.70527,43.308104,541.6],[-1.705225,43.308122,541.8],[-1.705184,43.308132,542.0],[-1.705133,43.308139,542.3],[-1.705076,43.308143,542.5],[-1.70504,43.308156,542.7],[-1.705012,43.308183,542.9],[-1.704963,43.308211,543.2],[-1.704929,43.30823,543.4],[-1.704898,43.308252,543.6],[-1.704873,43.308274,543.8],[-1.704838,43.308296,544.0],[-1.704804,43.308316,544.3],[-1.704772,43.308348,544.5],[-1.704745,43.308372,544.8],[-1.704712,43.308388,545.0],[-1.704673,43.308397,545.3],[-1.704634,43.308429,545.7],[-1.704614,43.308455,545.9],[-1.704591,43.308482,546.2],[-1.704555,43.30851,546.4],[-1.704525,43.308534,546.6],[-1.704475,43.30855,546.8],[-1.704449,43.30857,547.0],[-1.704403,43.308582,547.2],[-1.704357,43.30859,547.4],[-1.704329,43.30861,547.6],[-1.704305,43.308636,547.9],[-1.704281,43.308663,548.1],[-1.704248,43.308679,548.3],[-1.704208,43.308709,548.8],[-1.704195,43.308744,549.6],[-1.704169,43.308774,550.3],[-1.704143,43.308802,550.9],[-1.704108,43.308813,551.4],[-1.704071,43.308829,552.0],[-1.704032,43.308839,552.6],[-1.703991,43.308855,553.2],[-1.703956,43.308865,553.8],[-1.703913,43.308879,554.5],[-1.703884,43.308897,555.0],[-1.703845,43.308912,555.7],[-1.703812,43.308944,556.5],[-1.70377,43.30897,557.2],[-1.703743,43.308991,557.7],[-1.703721,43.309014,558.1],[-1.703676,43.309035,558.6],[-1.703642,43.309048,558.9],[-1.70361,43.309071,559.2],[-1.703557,43.309071,559.4],[-1.703514,43.309081,559.6],[-1.703465,43.30909,559.7],[-1.70342,43.309106,559.6],[-1.703381,43.309121,559.5],[-1.703335,43.309124,559.4],[-1.703296,43.309117,559.2],[-1.70324,43.309125,558.8],[-1.703187,43.309129,558.4],[-1.703136,43.309124,558.1],[-1.703097,43.30912,557.8],[-1.703046,43.309113,557.4],[-1.703002,43.309119,557.2],[-1.702956,43.309123,556.9],[-1.702913,43.309125,556.7],[-1.702867,43.309123,556.5],[-1.702833,43.309135,556.3],[-1.702783,43.309136,556.1],[-1.702721,43.309139,555.9],[-1.702684,43.309146,555.7],[-1.702623,43.309153,555.5],[-1.702561,43.309159,555.4],[-1.702497,43.309175,555.2],[-1.702471,43.309195,555.1],[-1.7025,43.309214,555.1],[-1.702537,43.309236,555.0],[-1.702569,43.30925,554.9],[-1.702528,43.309235,554.9],[-1.702485,43.309226,554.9],[-1.702444,43.30922,554.8],[-1.702399,43.309216,554.8],[-1.702347,43.309209,554.8],[-1.70231,43.309203,554.8],[-1.702272,43.309197,554.8],[-1.70222,43.309183,554.8],[-1.702184,43.309176,554.8],[-1.702147,43.309169,554.8],[-1.702109,43.309161,554.8],[-1.702071,43.309152,554.8],[-1.702016,43.309145,554.8],[-1.701976,43.309145,554.8],[-1.701938,43.309144,554.8],[-1.701887,43.309138,554.8],[-1.701836,43.309127,554.8],[-1.701787,43.309123,554.8],[-1.701742,43.309125,554.8],[-1.701692,43.30912,554.8],[-1.701651,43.309119,554.9],[-1.701598,43.309131,554.9],[-1.70156,43.309135,554.9],[-1.701519,43.309137,554.9],[-1.701474,43.309136,554.9],[-1.701433,43.309139,554.9],[-1.701381,43.309139,554.9],[-1.701341,43.309134,554.9],[-1.701291,43.309125,554.9],[-1.701235,43.309117,554.9],[-1.701193,43.309116,555.0],[-1.701163,43.309136,555.0],[-1.701113,43.309145,555.1],[-1.701066,43.309149,555.2],[-1.701025,43.309156,555.3],[-1.700973,43.309164,555.5],[-1.700923,43.309164,555.7],[-1.700868,43.309168,555.9],[-1.700813,43.309172,556.2],[-1.700759,43.309171,556.4],[-1.700721,43.309166,556.6],[-1.700676,43.309174,556.8],[-1.700626,43.309177,557.0],[-1.700576,43.309181,557.2],[-1.70053,43.30919,557.4],[-1.700493,43.309212,557.5],[-1.700452,43.309229,557.7],[-1.700394,43.309241,557.8],[-1.700352,43.309258,557.9],[-1.700311,43.309277,558.1],[-1.700285,43.309298,558.1],[-1.700239,43.309331,558.3],[-1.700197,43.309349,558.4],[-1.700164,43.309379,558.5],[-1.700135,43.3094,558.6],[-1.700097,43.309419,558.7],[-1.700057,43.309444,558.8],[-1.700031,43.309474,558.8],[-1.700011,43.309499,558.8],[-1.699991,43.309529,558.9],[-1.699971,43.309562,558.9],[-1.699939,43.309588,558.9],[-1.699909,43.309615,558.9],[-1.699884,43.309642,558.9],[-1.699858,43.309661,558.8],[-1.699833,43.309639,558.7],[-1.699837,43.309599,558.6],[-1.699849,43.309567,558.5],[-1.699847,43.309522,558.2],[-1.69986,43.309489,558.0],[-1.69987,43.309463,557.9],[-1.699898,43.309444,557.7],[-1.699903,43.309402,557.4],[-1.699897,43.309368,557.1],[-1.699904,43.309329,556.3],[-1.699885,43.309295,555.8],[-1.699842,43.309278,555.3],[-1.699818,43.309235,554.6],[-1.699798,43.309185,553.9],[-1.699772,43.309153,553.3],[-1.699734,43.309127,552.7],[-1.699701,43.309096,552.0],[-1.699676,43.30907,551.5],[-1.699654,43.309047,551.1],[-1.699635,43.309023,550.6],[-1.699616,43.308999,550.2],[-1.699596,43.308968,549.6],[-1.699582,43.308934,549.0],[-1.69956,43.308904,548.4],[-1.69955,43.308877,547.9],[-1.699538,43.308849,547.3],[-1.699524,43.308821,546.8],[-1.699503,43.308791,546.2],[-1.699465,43.308757,545.5],[-1.699428,43.308738,544.9],[-1.699403,43.308717,544.4],[-1.699378,43.308693,543.9],[-1.699352,43.30867,543.3],[-1.699323,43.308647,542.8],[-1.699286,43.308626,542.2],[-1.699254,43.308589,541.5],[-1.699232,43.30856,540.8],[-1.699201,43.308531,540.1],[-1.699172,43.308508,539.4],[-1.699149,43.308466,538.5],[-1.699139,43.308434,537.8],[-1.699123,43.308406,537.2],[-1.699102,43.308381,536.5],[-1.69909,43.308352,535.7],[-1.699079,43.30832,534.9],[-1.699069,43.308284,534.1],[-1.699064,43.30825,533.4],[-1.699051,43.308222,532.7],[-1.699036,43.308181,531.6],[-1.699032,43.308144,530.7],[-1.699016,43.308107,529.8],[-1.698985,43.30808,529.1],[-1.698944,43.308058,528.2],[-1.698915,43.308019,527.1],[-1.698903,43.307992,526.3],[-1.698878,43.307967,525.5],[-1.698849,43.307943,524.6],[-1.698831,43.307915,523.9],[-1.698808,43.307885,523.0],[-1.698791,43.307853,522.1],[-1.698771,43.307828,521.4],[-1.698755,43.307794,520.5],[-1.698745,43.307758,519.6],[-1.698725,43.307724,518.6],[-1.698707,43.307696,517.8],[-1.698692,43.307665,517.0],[-1.698677,43.307628,516.0],[-1.698654,43.307593,515.1],[-1.698639,43.307563,514.3],[-1.698608,43.307545,513.7],[-1.698576,43.30751,512.8],[-1.698558,43.307472,511.9],[-1.698537,43.307442,511.2],[-1.698498,43.307411,510.4],[-1.698474,43.307386,509.8],[-1.698456,43.307352,509.2],[-1.698427,43.307322,508.5],[-1.698397,43.307285,507.8],[-1.698375,43.307237,507.1],[-1.698352,43.307204,506.5],[-1.69833,43.307175,506.1],[-1.698308,43.307152,505.7],[-1.698276,43.307122,505.2],[-1.698258,43.307095,504.8],[-1.698233,43.307072,504.2],[-1.698201,43.307052,503.6],[-1.698164,43.30703,502.9],[-1.698127,43.307009,502.2],[-1.698094,43.306979,501.5],[-1.698074,43.306951,500.9],[-1.698057,43.306923,500.4],[-1.698042,43.306895,499.8],[-1.698028,43.30687,499.4],[-1.698014,43.306842,498.8],[-1.697998,43.306816,498.4],[-1.697989,43.306789,497.9],[-1.697979,43.30676,497.4],[-1.697962,43.30673,496.8],[-1.697934,43.306697,496.2],[-1.697903,43.306679,495.7],[-1.697876,43.306658,495.2],[-1.697845,43.306624,494.5],[-1.697814,43.306594,493.9],[-1.697798,43.306564,493.4],[-1.697777,43.306536,493.0],[-1.697743,43.306509,492.3],[-1.697726,43.306482,491.8],[-1.697713,43.306439,491.1],[-1.697707,43.30641,490.6],[-1.697683,43.306384,490.0],[-1.697672,43.306354,489.4],[-1.697651,43.306324,488.7],[-1.697636,43.306295,488.1],[-1.697632,43.306267,487.6],[-1.697624,43.306232,486.9],[-1.697627,43.306205,486.4],[-1.697618,43.306174,485.9],[-1.697611,43.306146,485.4],[-1.697606,43.306113,484.9],[-1.697595,43.306082,484.4],[-1.697597,43.306043,483.8],[-1.697592,43.306015,483.4],[-1.697565,43.305981,482.8],[-1.697541,43.305945,482.3],[-1.697531,43.305913,481.8],[-1.697511,43.305878,481.2],[-1.697495,43.305846,480.5],[-1.697481,43.305818,480.0],[-1.697474,43.305785,479.4],[-1.697471,43.305755,479.0],[-1.697459,43.305716,478.6],[-1.697453,43.305687,478.3],[-1.697445,43.305647,477.9],[-1.697433,43.305616,477.5],[-1.697425,43.305581,477.1],[-1.697415,43.305547,476.7],[-1.697402,43.305514,476.3],[-1.697393,43.305484,476.0],[-1.697387,43.305449,475.6],[-1.697378,43.305409,475.0],[-1.69737,43.305376,474.5],[-1.697359,43.305346,474.1],[-1.697351,43.305316,473.7],[-1.697342,43.305287,473.3],[-1.697338,43.305248,472.7],[-1.697336,43.30522,472.3],[-1.697317,43.305185,471.7],[-1.697298,43.305154,471.1],[-1.697278,43.30513,470.6],[-1.69726,43.305101,470.0],[-1.697234,43.305071,469.4],[-1.697207,43.305028,468.7],[-1.697183,43.304982,468.0],[-1.697173,43.304948,467.5],[-1.697172,43.304917,467.0],[-1.697158,43.30488,466.3],[-1.697131,43.304851,465.9],[-1.697102,43.304828,465.5],[-1.697085,43.304788,465.0],[-1.697076,43.304758,464.5],[-1.697072,43.30473,464.1],[-1.697064,43.304697,463.7],[-1.697045,43.304668,463.4],[-1.697037,43.304628,462.9],[-1.69703,43.304582,462.4],[-1.697022,43.304541,461.9],[-1.697007,43.3045,461.4],[-1.696993,43.304463,460.8],[-1.696981,43.30443,460.4],[-1.69697,43.304398,460.1],[-1.69696,43.304368,459.8],[-1.696944,43.304334,459.5],[-1.696926,43.304303,459.0],[-1.696918,43.304271,458.5],[-1.696915,43.304236,458.1],[-1.696938,43.304203,457.6],[-1.696941,43.304175,457.3],[-1.696938,43.304141,456.8],[-1.696938,43.304104,456.4],[-1.696939,43.304076,456.0],[-1.696942,43.304044,455.6],[-1.696936,43.304012,455.1],[-1.696927,43.303986,454.6],[-1.696931,43.303945,453.8],[-1.696943,43.303897,453.0],[-1.696946,43.303869,452.5],[-1.69695,43.30382,451.7],[-1.696961,43.303772,451.1],[-1.696965,43.303744,450.7],[-1.696969,43.303717,450.4],[-1.69698,43.303671,449.8],[-1.697003,43.303631,449.2],[-1.697043,43.303587,448.3],[-1.697071,43.303539,447.4],[-1.697079,43.303506,446.9],[-1.697086,43.303468,446.3],[-1.697078,43.303441,445.8],[-1.697083,43.30341,445.2],[-1.697091,43.303375,444.5],[-1.697087,43.303345,443.8],[-1.697078,43.303316,443.2],[-1.697055,43.30328,442.6],[-1.697031,43.303242,441.8],[-1.697009,43.303207,441.0],[-1.696986,43.303155,439.6],[-1.696955,43.303125,438.7],[-1.69691,43.303117,438.0],[-1.696871,43.303106,437.4],[-1.696834,43.303081,436.5],[-1.696797,43.30305,435.5],[-1.696756,43.303016,434.3],[-1.696731,43.302995,433.5],[-1.696683,43.302957,432.1],[-1.696647,43.302924,431.1],[-1.696622,43.302875,430.0],[-1.696596,43.30284,429.2],[-1.696583,43.302811,428.6],[-1.696601,43.302773,427.9],[-1.69662,43.302736,427.0],[-1.696638,43.30271,426.4],[-1.696647,43.302683,425.8],[-1.696651,43.302636,424.8],[-1.696652,43.302594,423.9],[-1.69665,43.302557,423.0],[-1.696653,43.302526,422.3],[-1.696647,43.302496,421.7],[-1.696637,43.30245,420.8],[-1.696637,43.302409,420.0],[-1.696631,43.302375,419.4],[-1.696616,43.302338,418.7],[-1.696601,43.302299,418.0],[-1.696601,43.30227,417.6],[-1.696606,43.302242,417.1],[-1.696603,43.302213,416.7],[-1.696602,43.302177,416.1],[-1.696608,43.302146,415.7],[-1.696621,43.302118,415.5],[-1.696624,43.30208,415.3],[-1.696642,43.302054,415.1],[-1.696666,43.302027,415.0],[-1.696695,43.301996,414.8],[-1.696711,43.301964,414.6],[-1.696736,43.301924,414.3],[-1.696763,43.301891,414.1],[-1.696775,43.301852,413.8],[-1.696787,43.301823,413.6],[-1.696803,43.301795,413.4],[-1.696822,43.301757,413.1],[-1.696832,43.301729,412.9],[-1.696844,43.301702,412.6],[-1.696854,43.301675,412.4],[-1.696875,43.301641,412.2],[-1.696887,43.301611,411.9],[-1.696894,43.30158,411.5],[-1.6969,43.301552,411.1],[-1.696905,43.301521,410.6],[-1.696901,43.301484,409.9],[-1.696918,43.301457,409.4],[-1.696939,43.301425,408.8],[-1.696955,43.301392,408.2],[-1.696999,43.301346,407.2],[-1.697032,43.301314,406.5],[-1.697058,43.30129,406.0],[-1.697098,43.301246,405.1],[-1.69712,43.301219,404.6],[-1.697144,43.301193,404.1],[-1.697168,43.301166,403.6],[-1.697188,43.301143,403.1],[-1.697226,43.301102,402.3],[-1.697249,43.30108,401.9],[-1.697271,43.301055,401.5],[-1.69729,43.301022,401.0],[-1.697304,43.300989,400.3],[-1.697328,43.300966,399.8],[-1.69736,43.300949,399.4],[-1.697389,43.300929,398.9],[-1.697419,43.300911,398.5],[-1.697454,43.30089,398.0],[-1.69748,43.300868,397.6],[-1.697504,43.300847,397.2],[-1.697531,43.300818,396.6],[-1.697559,43.300799,396.2],[-1.697578,43.300763,395.5],[-1.697578,43.300723,394.8],[-1.697585,43.30069,394.2],[-1.697625,43.30069,393.7],[-1.697607,43.300656,393.0],[-1.697605,43.300625,392.4],[-1.697592,43.300576,391.2],[-1.697571,43.300527,390.0],[-1.697553,43.300479,389.0],[-1.697528,43.300433,387.9],[-1.697474,43.30039,386.4],[-1.697435,43.300369,385.5],[-1.697375,43.300349,384.5],[-1.69734,43.300338,384.0],[-1.6973,43.300327,383.4],[-1.697265,43.300318,382.7],[-1.697226,43.300312,382.1],[-1.697176,43.300309,381.4],[-1.697127,43.300308,380.7],[-1.697087,43.300308,380.3],[-1.697043,43.300304,379.8],[-1.696996,43.300296,379.3],[-1.696959,43.300287,378.9],[-1.696902,43.300283,378.2],[-1.696857,43.300271,377.7],[-1.696828,43.300252,377.3],[-1.69679,43.300249,376.7],[-1.696747,43.300234,376.1],[-1.696705,43.300231,375.7],[-1.696661,43.300219,375.2],[-1.696622,43.300198,374.6],[-1.696567,43.30016,373.5],[-1.696544,43.300137,372.9],[-1.696505,43.300089,371.7],[-1.696485,43.300064,371.1],[-1.696463,43.300042,370.5],[-1.696439,43.300019,369.8],[-1.696416,43.299994,369.0],[-1.696399,43.299967,368.2],[-1.696374,43.299923,366.8],[-1.696352,43.299894,365.8],[-1.696338,43.299863,364.9],[-1.696308,43.299822,363.7],[-1.696292,43.299789,362.8],[-1.69628,43.299759,362.0],[-1.696271,43.299716,360.9],[-1.69626,43.299686,360.0],[-1.69624,43.299642,358.8],[-1.696214,43.299596,357.6],[-1.696201,43.299545,356.5],[-1.6962,43.299501,355.5],[-1.696187,43.299474,354.9],[-1.696181,43.29943,353.9],[-1.696178,43.299385,353.0],[-1.696184,43.299355,352.4],[-1.696193,43.299324,351.7],[-1.696196,43.299286,351.0],[-1.696194,43.299258,350.4],[-1.696204,43.299223,349.7],[-1.696207,43.299182,348.9],[-1.696222,43.299143,348.1],[-1.696241,43.299108,347.2],[-1.696253,43.299069,346.7],[-1.696263,43.29904,346.2],[-1.696271,43.299006,345.8],[-1.696274,43.298972,345.4],[-1.696279,43.298939,344.9],[-1.696283,43.29891,344.5],[-1.696292,43.298867,343.9],[-1.69631,43.29882,343.3],[-1.696319,43.298792,342.9],[-1.696319,43.298756,342.4],[-1.696316,43.298723,341.9],[-1.696312,43.298687,341.4],[-1.696315,43.298657,341.0],[-1.696323,43.298625,340.6],[-1.696331,43.298596,340.2],[-1.69634,43.298557,339.6],[-1.696341,43.298516,339.1],[-1.696341,43.298479,338.6],[-1.696338,43.298446,338.2],[-1.696333,43.298416,337.8],[-1.696317,43.298383,337.3],[-1.696293,43.298358,336.9],[-1.696268,43.298323,336.4],[-1.696268,43.298293,336.0],[-1.696281,43.298243,335.3],[-1.696266,43.298202,334.7],[-1.696245,43.298175,334.3],[-1.696232,43.298139,333.7],[-1.696213,43.298092,333.0],[-1.6962,43.29806,332.5],[-1.696188,43.298034,332.1],[-1.696155,43.298001,331.4],[-1.696108,43.297965,330.7],[-1.69608,43.297938,330.2],[-1.696064,43.297903,329.7],[-1.696039,43.297872,329.2],[-1.696024,43.297842,328.8],[-1.695999,43.297805,328.2],[-1.695966,43.297778,327.7],[-1.695942,43.297752,327.3],[-1.695895,43.297727,326.8],[-1.695861,43.297706,326.4],[-1.695836,43.297686,326.0],[-1.695807,43.297658,325.5],[-1.695791,43.297624,325.0],[-1.695771,43.297589,324.5],[-1.695717,43.297556,323.9],[-1.695693,43.297533,323.5],[-1.695664,43.297503,323.0],[-1.695636,43.297474,322.6],[-1.695603,43.29745,322.1],[-1.695569,43.297421,321.7],[-1.695545,43.297396,321.3],[-1.69551,43.29735,320.7],[-1.695462,43.297313,320.1],[-1.695454,43.297272,319.6],[-1.695406,43.297257,319.2],[-1.695376,43.297234,318.8],[-1.695342,43.297214,318.5],[-1.695303,43.297198,318.1],[-1.695254,43.297161,317.5],[-1.695229,43.297132,317.1],[-1.695196,43.297102,316.7],[-1.695159,43.297071,316.2],[-1.695117,43.297042,315.8],[-1.695082,43.297017,315.4],[-1.695052,43.29699,315.1],[-1.695029,43.296964,314.8],[-1.695008,43.296932,314.4],[-1.694984,43.296898,314.0],[-1.694945,43.296868,313.6],[-1.694916,43.296851,313.3],[-1.694886,43.29683,313.0],[-1.69486,43.296807,312.7],[-1.69484,43.296777,312.3],[-1.694809,43.296741,311.9],[-1.694786,43.296712,311.5],[-1.69475,43.296672,311.1],[-1.69471,43.296652,310.8],[-1.694677,43.296639,310.5],[-1.694644,43.296615,310.3],[-1.694629,43.296583,310.0],[-1.694631,43.296555,308.3],[-1.694624,43.296524,307.9],[-1.694614,43.296497,307.5],[-1.694604,43.296463,307.0],[-1.694592,43.29643,306.6],[-1.694597,43.296394,306.1],[-1.694594,43.296366,305.5],[-1.694587,43.296339,304.8],[-1.694582,43.2963,303.8],[-1.694576,43.296267,303.0],[-1.694588,43.296232,302.1],[-1.694611,43.296209,301.4],[-1.694649,43.296175,300.3],[-1.694673,43.296153,299.6],[-1.694705,43.296128,298.9],[-1.694721,43.296102,298.3],[-1.694722,43.296072,297.8],[-1.694742,43.296043,297.2],[-1.694752,43.296017,296.7],[-1.694766,43.295985,296.1],[-1.694774,43.295954,295.6],[-1.694789,43.295925,295.0],[-1.6948,43.295893,294.5],[-1.694805,43.295864,294.0],[-1.694824,43.295829,293.3],[-1.694839,43.295793,292.7],[-1.694856,43.295757,291.9],[-1.694864,43.29572,291.0],[-1.694862,43.295677,289.9],[-1.694852,43.295637,288.9],[-1.694844,43.295602,288.0],[-1.694842,43.295575,287.4],[-1.694828,43.295544,287.1],[-1.694815,43.295516,286.8],[-1.6948,43.295486,286.5],[-1.694794,43.295455,286.2],[-1.694784,43.295425,286.0],[-1.694777,43.295388,285.6],[-1.694772,43.295358,285.4],[-1.694766,43.295319,285.0],[-1.694763,43.295286,284.7],[-1.694766,43.295249,284.3],[-1.694764,43.29522,283.9],[-1.694758,43.295184,283.5],[-1.694755,43.295156,283.2],[-1.694747,43.295126,282.9],[-1.694728,43.295096,282.5],[-1.694719,43.295062,282.2],[-1.694706,43.295025,281.9],[-1.694693,43.294995,281.6],[-1.694688,43.294955,281.3],[-1.694691,43.294928,281.0],[-1.694688,43.294899,280.8],[-1.694682,43.294865,280.5],[-1.69471,43.294833,280.2],[-1.69472,43.294803,280.0],[-1.694718,43.294773,279.8],[-1.694694,43.294747,279.7],[-1.694659,43.294717,279.5],[-1.694619,43.294679,279.2],[-1.694594,43.294654,279.1],[-1.694603,43.294625,279.0],[-1.694606,43.294589,278.8],[-1.694609,43.294547,278.6],[-1.694614,43.2945,278.3],[-1.69461,43.294459,278.1],[-1.694597,43.294414,277.8],[-1.694591,43.29438,277.6],[-1.694584,43.294353,277.4],[-1.694573,43.294325,277.3],[-1.694566,43.294284,277.0],[-1.69457,43.29425,276.8],[-1.694582,43.294223,276.7],[-1.694565,43.294196,276.6],[-1.694535,43.294153,276.4],[-1.694528,43.294117,276.3],[-1.694513,43.294092,276.2],[-1.694493,43.294062,276.0],[-1.694482,43.294032,275.9],[-1.69447,43.294,275.8],[-1.694459,43.293963,275.6],[-1.69445,43.293921,275.4],[-1.694445,43.29389,275.3],[-1.694435,43.293859,275.2],[-1.694419,43.293834,275.0],[-1.694403,43.293803,274.9],[-1.694381,43.293766,274.7],[-1.694371,43.293736,274.6],[-1.694365,43.293709,274.5],[-1.69435,43.293673,274.4],[-1.694332,43.293649,274.3],[-1.694314,43.293619,274.3],[-1.6943,43.293587,274.2],[-1.694291,43.293558,274.2],[-1.694278,43.293528,274.1],[-1.694261,43.293495,274.1],[-1.694239,43.293457,274.1],[-1.694206,43.293418,274.1],[-1.694178,43.293388,274.1],[-1.694149,43.293363,274.0],[-1.694109,43.293348,273.9],[-1.694055,43.293343,273.8],[-1.694008,43.293342,273.6],[-1.693953,43.293362,273.5],[-1.693941,43.293389,273.3],[-1.693892,43.293373,273.2],[-1.693851,43.29336,273.1],[-1.693803,43.293358,272.9],[-1.69376,43.293358,272.8],[-1.693723,43.293356,271.9],[-1.693695,43.293336,271.6],[-1.693686,43.293297,271.3],[-1.69365,43.293257,270.9],[-1.693624,43.293225,270.6],[-1.693601,43.293175,270.2],[-1.693588,43.293145,270.0],[-1.693561,43.293113,269.7],[-1.693536,43.293089,269.3],[-1.693519,43.293062,269.0],[-1.6935,43.293034,268.7],[-1.693479,43.293004,268.3],[-1.693441,43.292987,268.0],[-1.693405,43.292977,267.8],[-1.693372,43.292954,267.6],[-1.693336,43.292923,267.4],[-1.693314,43.2929,267.4],[-1.693283,43.292876,267.4],[-1.693253,43.292849,267.4],[-1.693226,43.292814,267.4],[-1.693194,43.292785,267.4],[-1.693167,43.292766,267.4],[-1.693133,43.292752,267.4],[-1.693089,43.292729,267.5],[-1.693048,43.292698,267.5],[-1.693016,43.292677,267.6],[-1.692983,43.292657,267.7],[-1.692942,43.292633,267.7],[-1.69289,43.292601,267.8],[-1.692847,43.292569,267.9],[-1.692819,43.292549,268.0],[-1.692781,43.292526,268.1],[-1.692735,43.292507,268.2],[-1.692693,43.292489,268.2],[-1.692663,43.292466,268.2],[-1.692635,43.292443,268.2],[-1.692589,43.292412,268.1],[-1.69256,43.292364,268.0],[-1.692542,43.292331,267.8],[-1.692536,43.292304,267.7],[-1.692539,43.292267,267.6],[-1.692525,43.292224,267.4],[-1.692511,43.292176,267.1],[-1.692499,43.292132,266.6],[-1.692501,43.29208,265.9],[-1.692494,43.292037,265.3],[-1.692469,43.291991,264.5],[-1.692453,43.291966,264.1],[-1.692428,43.291926,263.4],[-1.692406,43.291885,262.5],[-1.692396,43.29185,261.8],[-1.692382,43.291804,260.8],[-1.692336,43.291776,259.8],[-1.692301,43.291762,259.2],[-1.692258,43.291732,258.4],[-1.69222,43.291701,257.6],[-1.692194,43.291671,257.0],[-1.692164,43.291639,256.3],[-1.692123,43.291593,255.5],[-1.69211,43.291552,254.8],[-1.692104,43.291523,254.3],[-1.692091,43.291493,253.9],[-1.692076,43.291468,253.6],[-1.692045,43.291428,253.1],[-1.692016,43.291407,252.9],[-1.69196,43.291379,252.6],[-1.691915,43.291366,252.3],[-1.69187,43.291359,252.1],[-1.691811,43.291362,251.8],[-1.691749,43.291359,251.5],[-1.691681,43.291349,251.1],[-1.691619,43.291343,250.8],[-1.691565,43.291339,250.5],[-1.691484,43.291324,249.8],[-1.69142,43.291301,249.2],[-1.69138,43.291281,248.8],[-1.691337,43.291257,248.2],[-1.691304,43.291236,247.7],[-1.691261,43.291217,247.1],[-1.691217,43.291186,246.5],[-1.69119,43.291166,246.1],[-1.691162,43.291147,245.8],[-1.691116,43.291115,245.3],[-1.691096,43.291082,244.9],[-1.691072,43.291047,244.4],[-1.691039,43.291024,244.2],[-1.691006,43.291004,244.0],[-1.690938,43.290973,243.6],[-1.6909,43.290954,243.5],[-1.690835,43.290942,243.2],[-1.690789,43.290934,243.0],[-1.690751,43.29092,242.9],[-1.690701,43.29089,242.6],[-1.690652,43.290864,242.3],[-1.690621,43.290833,242.0],[-1.690607,43.290806,241.7],[-1.690568,43.290778,241.3],[-1.690526,43.290751,240.8],[-1.690485,43.290722,240.2],[-1.690458,43.290703,239.9],[-1.690422,43.290668,239.3],[-1.690389,43.290644,238.8],[-1.690352,43.290615,238.2],[-1.690325,43.29059,237.8],[-1.690281,43.290561,237.3],[-1.690244,43.290536,236.9],[-1.690211,43.290506,236.4],[-1.690182,43.290467,235.7],[-1.690149,43.290438,235.1],[-1.690111,43.290423,234.6],[-1.690067,43.290405,234.0],[-1.690032,43.290392,233.5],[-1.689996,43.290375,232.9],[-1.68995,43.290355,232.2],[-1.689933,43.290327,231.7],[-1.689918,43.2903,231.2],[-1.689893,43.290263,230.6],[-1.68987,43.290236,230.1],[-1.689837,43.290205,229.6],[-1.689802,43.290194,229.2],[-1.689767,43.29017,228.6],[-1.689735,43.290142,228.0],[-1.689711,43.290114,227.7],[-1.689684,43.290075,227.2],[-1.68968,43.290038,226.8],[-1.689681,43.29001,225.9],[-1.689659,43.289974,225.4],[-1.689638,43.289943,224.9],[-1.689624,43.289918,224.5],[-1.689611,43.289892,224.2],[-1.689588,43.289855,223.6],[-1.689566,43.289827,223.1],[-1.689534,43.289786,222.3],[-1.689503,43.289758,221.7],[-1.689468,43.289722,220.8],[-1.689441,43.289691,220.1],[-1.68942,43.289643,219.1],[-1.689398,43.289593,218.2],[-1.689383,43.289569,217.8],[-1.689348,43.289523,217.1],[-1.689313,43.289493,216.4],[-1.689282,43.289462,215.8],[-1.689252,43.289428,215.2],[-1.689222,43.289398,214.8],[-1.689192,43.289375,214.4],[-1.689162,43.289355,214.1],[-1.689123,43.289325,213.7],[-1.689094,43.289305,213.4],[-1.689047,43.289277,213.0],[-1.689008,43.289245,212.6],[-1.688986,43.289223,212.3],[-1.688961,43.2892,212.0],[-1.688936,43.289177,211.6],[-1.688902,43.289146,211.1],[-1.688863,43.289116,210.4],[-1.688816,43.289083,209.6],[-1.688776,43.289051,208.9],[-1.688744,43.289027,208.3],[-1.68871,43.288997,207.7],[-1.688682,43.288975,207.1],[-1.68864,43.288957,206.5],[-1.688598,43.288947,205.9],[-1.68856,43.288938,205.3],[-1.688526,43.288919,204.9],[-1.688505,43.288897,204.5],[-1.688457,43.288896,204.0],[-1.688415,43.288879,203.5],[-1.688384,43.288849,203.0],[-1.688362,43.288817,202.6],[-1.688331,43.288776,202.1],[-1.688313,43.288724,201.5],[-1.688305,43.288672,201.0],[-1.688294,43.288625,200.4],[-1.688291,43.288591,200.1],[-1.688301,43.288551,199.6],[-1.688307,43.288512,199.2],[-1.688292,43.288486,198.8],[-1.688282,43.288447,198.3],[-1.688284,43.288416,197.8],[-1.688281,43.288388,197.5],[-1.688267,43.288346,196.9],[-1.688255,43.28831,196.4],[-1.68824,43.288285,196.1],[-1.688229,43.288257,195.8],[-1.688236,43.288222,195.4],[-1.688248,43.288193,195.1],[-1.688255,43.288157,194.5],[-1.688251,43.288119,194.0],[-1.68825,43.288087,193.6],[-1.688245,43.28805,193.0],[-1.688242,43.288011,192.4],[-1.688241,43.28798,192.0],[-1.688244,43.287937,191.4],[-1.688244,43.287906,191.0],[-1.688219,43.287881,190.6],[-1.688206,43.287855,190.2],[-1.688199,43.287819,189.7],[-1.688193,43.287785,189.4],[-1.688191,43.287752,189.0],[-1.688195,43.287723,188.7],[-1.68819,43.287685,188.2],[-1.68817,43.287658,187.8],[-1.68818,43.287607,187.2],[-1.688214,43.287579,186.8],[-1.68823,43.287552,186.5],[-1.68823,43.287515,186.1],[-1.688227,43.28748,185.7],[-1.688219,43.287449,185.4],[-1.688201,43.287414,185.0],[-1.688182,43.287391,184.7],[-1.688164,43.287365,184.4],[-1.688143,43.287333,184.0],[-1.68814,43.2873,183.7],[-1.688122,43.287265,183.4],[-1.688092,43.287222,183.0],[-1.688083,43.287181,182.7],[-1.688065,43.287139,182.3],[-1.688047,43.2871,182.0],[-1.688037,43.287072,181.8],[-1.68802,43.287044,181.6],[-1.688008,43.287013,181.4],[-1.688006,43.28697,181.0],[-1.687999,43.286934,180.7],[-1.687983,43.286907,180.4],[-1.687966,43.286874,180.1],[-1.687952,43.286844,179.7],[-1.687925,43.286811,179.2],[-1.687899,43.28676,178.5],[-1.687884,43.286734,178.1],[-1.687868,43.286709,177.8],[-1.687838,43.286678,177.4],[-1.687816,43.286645,177.0],[-1.687802,43.286616,176.6],[-1.687762,43.28659,176.2],[-1.687744,43.286554,175.8],[-1.687734,43.286513,175.4],[-1.68772,43.286477,175.0],[-1.687699,43.286446,174.7],[-1.687678,43.286422,174.4],[-1.687668,43.286391,174.1],[-1.687658,43.286359,173.8],[-1.687633,43.286328,173.5],[-1.687636,43.286293,173.2],[-1.687651,43.286264,172.8],[-1.687667,43.286232,172.4],[-1.687663,43.286198,172.0],[-1.687652,43.286169,171.7],[-1.687644,43.286128,171.5],[-1.687628,43.286088,171.2],[-1.687611,43.286045,171.0],[-1.687584,43.286019,170.9],[-1.687557,43.285992,170.7],[-1.687535,43.285963,170.6],[-1.687513,43.285934,170.4],[-1.687486,43.285916,170.3],[-1.687437,43.285905,170.1],[-1.687399,43.285879,169.9],[-1.687411,43.285837,169.7],[-1.687399,43.285794,169.6],[-1.687388,43.285764,169.5],[-1.687366,43.285721,169.2],[-1.687347,43.285697,169.1],[-1.68734,43.285671,169.0],[-1.687323,43.285635,168.8],[-1.687312,43.285601,168.6],[-1.687312,43.285571,168.4],[-1.687304,43.285538,168.1],[-1.687288,43.28551,167.9],[-1.687264,43.285481,167.6],[-1.687223,43.285455,167.3],[-1.687187,43.285435,167.1],[-1.687143,43.285418,166.9],[-1.687121,43.285395,166.7],[-1.687102,43.28537,166.5],[-1.687076,43.285345,166.3],[-1.687051,43.285316,166.0],[-1.68702,43.285276,166.4],[-1.686992,43.285245,166.7],[-1.686953,43.285222,167.0],[-1.686911,43.285199,166.9],[-1.686873,43.285181,167.5],[-1.686836,43.285158,167.0],[-1.6868,43.28513,167.0],[-1.686769,43.285103,167.0],[-1.686733,43.285082,167.6],[-1.686697,43.285067,167.3],[-1.686666,43.285052,167.3],[-1.686618,43.285026,167.0],[-1.686579,43.284999,166.4],[-1.686555,43.284964,165.7],[-1.686506,43.28494,165.0],[-1.686444,43.284937,165.6],[-1.68641,43.284925,165.6],[-1.686373,43.284909,164.8],[-1.686361,43.284876,163.7],[-1.686335,43.284843,163.0],[-1.686302,43.284818,162.1],[-1.68629,43.28479,160.9],[-1.686267,43.284756,159.8],[-1.686221,43.284728,158.5],[-1.686187,43.284708,158.5],[-1.686147,43.284692,157.2],[-1.686101,43.284681,157.4],[-1.686059,43.284669,156.1],[-1.686018,43.284652,156.3],[-1.685969,43.284619,155.4],[-1.685932,43.284603,154.1],[-1.685895,43.284591,154.4],[-1.685853,43.284576,153.4],[-1.685811,43.284558,153.6],[-1.685767,43.284536,152.5],[-1.685723,43.284511,151.2],[-1.685676,43.284485,151.3],[-1.685612,43.28446,149.9],[-1.685558,43.284434,148.4],[-1.685515,43.284413,146.9],[-1.685451,43.284396,147.1],[-1.685385,43.284372,145.9],[-1.685349,43.284358,144.8],[-1.685308,43.284341,145.0],[-1.685263,43.284328,144.0],[-1.685221,43.284322,144.1],[-1.685155,43.284319,144.3],[-1.685109,43.284315,144.3],[-1.685067,43.284309,144.3],[-1.685031,43.284298,144.3],[-1.684991,43.28429,143.3],[-1.684934,43.284287,142.9],[-1.684894,43.28429,142.5],[-1.684842,43.284284,142.1],[-1.684798,43.284276,141.5],[-1.684742,43.284283,140.9],[-1.68468,43.284293,139.3],[-1.684642,43.284301,139.7],[-1.684586,43.284295,137.7],[-1.684538,43.28429,136.9],[-1.684497,43.284294,136.2],[-1.684466,43.284314,136.1],[-1.684434,43.284339,136.6],[-1.684418,43.284366,136.5],[-1.684407,43.284405,137.1],[-1.684369,43.284439,137.2],[-1.684325,43.284475,137.3],[-1.684297,43.284499,137.4],[-1.684271,43.284519,137.9],[-1.684256,43.284553,138.5],[-1.684239,43.284577,137.9],[-1.684234,43.284607,138.4],[-1.684256,43.284651,139.9],[-1.684271,43.28468,140.4],[-1.684281,43.284726,141.0],[-1.684262,43.284764,141.5],[-1.684246,43.284794,141.6],[-1.684257,43.28482,142.4],[-1.684246,43.28485,142.4],[-1.684234,43.28488,142.9],[-1.684225,43.284911,143.3],[-1.684204,43.284937,143.4],[-1.684189,43.284981,143.9],[-1.684185,43.28501,144.4],[-1.684177,43.285039,144.9],[-1.684184,43.285077,145.4],[-1.684212,43.285096,145.9],[-1.684247,43.285118,146.6],[-1.68427,43.285149,147.4],[-1.68427,43.285181,147.8],[-1.68424,43.285225,148.1],[-1.684243,43.285257,148.5],[-1.684253,43.285285,149.0],[-1.684257,43.285319,149.6],[-1.684258,43.285353,150.0],[-1.684289,43.285372,150.3],[-1.684305,43.285403,150.8],[-1.684277,43.285426,150.9],[-1.684248,43.285444,150.7],[-1.684214,43.285459,151.0],[-1.684168,43.285458,150.6],[-1.684124,43.285455,150.5],[-1.684057,43.285438,150.0],[-1.684009,43.285434,149.8],[-1.683958,43.285429,149.7],[-1.683915,43.285425,149.6],[-1.683873,43.285425,149.4],[-1.683833,43.28543,149.3],[-1.683792,43.285435,149.2],[-1.683745,43.285432,149.1],[-1.683677,43.285453,148.8],[-1.683633,43.28546,149.4],[-1.683589,43.285425,148.6],[-1.683551,43.285391,147.7],[-1.683513,43.285355,145.9],[-1.683485,43.285315,145.0],[-1.683488,43.285271,144.2],[-1.683508,43.285247,143.4],[-1.683514,43.285209,142.6],[-1.683539,43.285169,141.1],[-1.683546,43.285131,140.4],[-1.683544,43.285101,139.7],[-1.683538,43.285073,138.9],[-1.683531,43.285043,138.2],[-1.683513,43.285008,136.9],[-1.683493,43.284982,136.1],[-1.683489,43.284936,135.3],[-1.683466,43.284906,133.9],[-1.683437,43.284887,132.6],[-1.683408,43.284867,132.6],[-1.683388,43.284826,130.6],[-1.683352,43.284787,129.3],[-1.683329,43.284763,128.5],[-1.683328,43.284728,127.6],[-1.683294,43.284704,126.9],[-1.683245,43.284666,124.5],[-1.683241,43.284629,123.8],[-1.683264,43.284592,123.1],[-1.68329,43.284564,123.1],[-1.683296,43.284538,122.3],[-1.683275,43.284512,121.4],[-1.68324,43.284494,120.7],[-1.683207,43.284512,120.0],[-1.683162,43.284533,120.2],[-1.683113,43.284555,120.2],[-1.683052,43.284562,118.8],[-1.683048,43.284511,117.3],[-1.683042,43.284484,116.5],[-1.683061,43.284455,117.1],[-1.683097,43.284416,116.0],[-1.683127,43.284378,115.3],[-1.683138,43.284347,114.6],[-1.68312,43.284297,113.4],[-1.683112,43.284267,113.4],[-1.683109,43.284237,112.7],[-1.683109,43.284205,112.0],[-1.683122,43.284159,110.5],[-1.683111,43.284113,109.8],[-1.683093,43.284074,107.3],[-1.683076,43.284038,106.4],[-1.683051,43.284008,104.5],[-1.683035,43.283975,103.4],[-1.683075,43.283956,104.4],[-1.683099,43.283915,103.3],[-1.683066,43.283858,100.2],[-1.683028,43.283832,99.2],[-1.68301,43.283807,97.4],[-1.682992,43.283781,96.7],[-1.682964,43.283751,95.4],[-1.682949,43.283723,95.0],[-1.68295,43.28369,94.5],[-1.682959,43.283656,94.2],[-1.682979,43.283608,93.7],[-1.682971,43.283581,93.7],[-1.682929,43.28356,92.9],[-1.682884,43.283546,92.3],[-1.682829,43.283544,92.2],[-1.6828,43.283525,92.2],[-1.682765,43.283514,91.7],[-1.682714,43.283504,91.8],[-1.682681,43.283485,91.4],[-1.682629,43.283461,91.5],[-1.682595,43.283442,91.0],[-1.682565,43.283419,90.4],[-1.682527,43.2834,90.6],[-1.682513,43.28337,89.7],[-1.682493,43.283346,89.0],[-1.682464,43.283315,87.9],[-1.682452,43.283285,87.1],[-1.682402,43.283295,87.3],[-1.682363,43.28331,88.5],[-1.682322,43.283312,88.8],[-1.682306,43.283277,87.7],[-1.682321,43.283239,86.6],[-1.682365,43.283233,85.5],[-1.682395,43.283215,85.3],[-1.68236,43.283201,84.5],[-1.682321,43.283188,84.6],[-1.68227,43.283162,83.8],[-1.68222,43.283143,84.0],[-1.682171,43.283139,83.1],[-1.682133,43.283141,83.3],[-1.682076,43.283139,83.6],[-1.682027,43.28314,83.9],[-1.681983,43.283122,84.1],[-1.681936,43.283137,84.7],[-1.681897,43.283129,84.7],[-1.681849,43.283147,86.5],[-1.681793,43.283156,86.7],[-1.681749,43.283148,86.9],[-1.681718,43.283123,85.8],[-1.681677,43.283111,85.9],[-1.68164,43.283089,84.6],[-1.681597,43.28308,84.7],[-1.681557,43.283096,84.7],[-1.681501,43.283112,86.1],[-1.681466,43.283133,86.1],[-1.681401,43.28316,87.4],[-1.68136,43.283167,87.4],[-1.681318,43.283174,88.6],[-1.68128,43.283184,88.5],[-1.681236,43.283188,88.4],[-1.6812,43.283181,88.2],[-1.681158,43.28319,88.0],[-1.681108,43.283194,87.8],[-1.681071,43.283198,87.5],[-1.681018,43.283209,88.2],[-1.680978,43.283206,87.8],[-1.680931,43.283202,86.3],[-1.680887,43.283207,86.7],[-1.680833,43.283222,86.1],[-1.680794,43.283233,85.6],[-1.680743,43.283245,85.8],[-1.680695,43.283261,85.0],[-1.680635,43.283273,83.8],[-1.680596,43.283283,82.7],[-1.680559,43.283289,81.5],[-1.68051,43.283288,80.3],[-1.680468,43.283276,79.1],[-1.680433,43.283297,78.0],[-1.680382,43.2833,77.4],[-1.680333,43.283296,75.6],[-1.680297,43.28329,74.5],[-1.680258,43.28327,73.4],[-1.680207,43.283274,72.3],[-1.680163,43.283275,71.2],[-1.680127,43.283289,70.2],[-1.680085,43.283315,70.0],[-1.680027,43.283334,69.9],[-1.679989,43.283345,69.0],[-1.679934,43.283368,69.0],[-1.679903,43.283395,68.9],[-1.679919,43.283423,69.4],[-1.679873,43.283425,68.7],[-1.679829,43.283425,67.9],[-1.679791,43.283424,67.1],[-1.679752,43.283427,67.1],[-1.679711,43.283437,66.3],[-1.679667,43.283425,65.5],[-1.679618,43.283411,63.6],[-1.679583,43.2834,63.6],[-1.679535,43.283405,63.0],[-1.679487,43.283377,61.5],[-1.679436,43.283346,60.4],[-1.679395,43.283318,59.3],[-1.679362,43.283283,58.2],[-1.679344,43.283253,57.7],[-1.679327,43.283221,57.2],[-1.679307,43.283196,56.1],[-1.679301,43.283161,55.6],[-1.67927,43.283128,54.4],[-1.679246,43.28309,53.9],[-1.679243,43.28306,53.3],[-1.679247,43.28302,52.7],[-1.679247,43.282983,51.5],[-1.67923,43.282949,50.3],[-1.679205,43.282928,50.3],[-1.679167,43.282905,49.1]]}}]}