{"type":"FeatureCollection","features":[{"type":"Feature","properties":{"ruta_id":"32097587","nombre":"⛰️ ENAITZ Y GOROSTIARAN ruta circular desde ARANTZAZU","blog_url":"https://www.rutasporelmonte.com/enaitz-ruta-circular-desde-arantzazu/"},"geometry":{"type":"LineString","coordinates":[[-2.399576,42.979,710.7],[-2.399596,42.979076,712.3],[-2.399611,42.979163,713.7],[-2.399513,42.979173,714.7],[-2.399549,42.979206,715.3],[-2.399528,42.979208,715.6],[-2.399484,42.979227,716.1],[-2.399445,42.979247,716.7],[-2.399406,42.979262,717.3],[-2.399361,42.979273,718.0],[-2.399322,42.979288,718.6],[-2.399282,42.979305,719.1],[-2.399251,42.97932,719.4],[-2.399226,42.97934,719.8],[-2.399185,42.979339,720.2],[-2.399137,42.979331,720.7],[-2.399091,42.979326,721.3],[-2.39905,42.979323,721.8],[-2.399011,42.979325,722.4],[-2.398963,42.97933,723.0],[-2.398925,42.979331,723.5],[-2.398886,42.979339,724.1],[-2.39884,42.979349,724.7],[-2.398802,42.979355,725.3],[-2.398761,42.979362,725.9],[-2.398721,42.979368,726.4],[-2.398677,42.979377,727.1],[-2.398628,42.979383,727.6],[-2.398582,42.979389,728.0],[-2.398536,42.979396,728.4],[-2.398496,42.979411,728.8],[-2.398456,42.979415,729.2],[-2.398414,42.979414,729.7],[-2.398371,42.979409,730.2],[-2.398328,42.979402,730.4],[-2.398286,42.979401,730.3],[-2.398244,42.979386,730.2],[-2.398209,42.979373,730.1],[-2.398171,42.97936,730.0],[-2.398127,42.979352,730.0],[-2.398072,42.979345,729.9],[-2.398032,42.97934,729.9],[-2.397984,42.979338,729.9],[-2.397939,42.979326,730.0],[-2.397904,42.979313,730.1],[-2.397859,42.979313,730.3],[-2.397812,42.979316,730.7],[-2.397775,42.979313,730.9],[-2.397738,42.979313,731.2],[-2.397687,42.979311,731.6],[-2.397651,42.979302,732.1],[-2.397603,42.979292,732.6],[-2.397559,42.979281,732.6],[-2.397516,42.979272,732.6],[-2.397466,42.979271,732.6],[-2.397434,42.979285,732.6],[-2.397403,42.979269,732.6],[-2.397383,42.979234,732.6],[-2.397362,42.979207,732.6],[-2.39734,42.97918,732.6],[-2.397322,42.979154,732.5],[-2.397313,42.979127,732.5],[-2.39731,42.979098,732.5],[-2.397305,42.979068,733.2],[-2.397294,42.979038,733.5],[-2.397278,42.979012,733.6],[-2.397261,42.978986,733.8],[-2.397261,42.978957,733.8],[-2.397253,42.978929,733.8],[-2.39724,42.978901,733.7],[-2.397221,42.978876,733.6],[-2.397213,42.978844,733.3],[-2.397209,42.978817,733.1],[-2.397229,42.978792,732.7],[-2.397216,42.978763,732.4],[-2.397224,42.978731,731.9],[-2.39724,42.978705,731.5],[-2.397232,42.978678,731.1],[-2.397227,42.97865,730.6],[-2.39724,42.978617,730.0],[-2.397248,42.978586,729.4],[-2.397244,42.978556,728.8],[-2.397229,42.978529,728.2],[-2.397203,42.978508,727.6],[-2.397183,42.978478,726.9],[-2.397161,42.97845,725.7],[-2.39715,42.978416,726.3],[-2.397131,42.978385,726.8],[-2.397106,42.978362,727.2],[-2.39708,42.978337,727.6],[-2.397056,42.978314,728.0],[-2.397028,42.978295,728.3],[-2.397001,42.978266,728.8],[-2.397006,42.978233,729.3],[-2.396995,42.978204,729.8],[-2.396951,42.978194,730.1],[-2.396902,42.978178,730.5],[-2.396864,42.978171,730.8],[-2.396819,42.978172,731.0],[-2.396777,42.978179,731.3],[-2.396723,42.978188,731.6],[-2.396674,42.978199,731.8],[-2.39663,42.978211,732.1],[-2.396589,42.978221,732.4],[-2.396546,42.978226,732.7],[-2.396503,42.978233,733.1],[-2.396458,42.978241,733.5],[-2.396414,42.978243,733.9],[-2.396376,42.978236,734.3],[-2.396338,42.978221,734.7],[-2.396305,42.978197,735.1],[-2.396277,42.978162,735.6],[-2.396247,42.978132,735.9],[-2.396223,42.978111,736.2],[-2.396189,42.978092,736.5],[-2.396144,42.978076,736.8],[-2.396108,42.978054,737.0],[-2.396067,42.978035,737.2],[-2.396021,42.978022,737.4],[-2.395982,42.978005,737.4],[-2.395944,42.977992,737.4],[-2.395904,42.977987,737.4],[-2.395872,42.977972,737.4],[-2.395831,42.97797,737.4],[-2.395782,42.977966,737.3],[-2.395739,42.977958,737.3],[-2.395695,42.977942,737.3],[-2.395652,42.977932,737.3],[-2.395613,42.977931,737.3],[-2.39557,42.977923,737.3],[-2.395529,42.977917,737.2],[-2.395487,42.977916,737.2],[-2.395446,42.977914,737.5],[-2.395404,42.977918,737.8],[-2.39536,42.977923,738.1],[-2.395313,42.977925,738.4],[-2.395271,42.977926,738.7],[-2.395223,42.977925,739.0],[-2.39518,42.977921,739.3],[-2.395137,42.977923,739.5],[-2.395097,42.977923,739.7],[-2.395059,42.977924,740.0],[-2.395014,42.97792,740.2],[-2.394972,42.97792,740.5],[-2.394926,42.977916,740.8],[-2.394887,42.977915,741.0],[-2.394848,42.977915,741.2],[-2.394811,42.977917,741.4],[-2.394771,42.977918,741.7],[-2.394733,42.977911,741.9],[-2.394696,42.977912,742.1],[-2.394656,42.977911,742.4],[-2.394617,42.977912,742.6],[-2.39458,42.977914,742.9],[-2.394532,42.977916,743.2],[-2.394495,42.977912,743.4],[-2.394458,42.977908,743.6],[-2.394415,42.977908,743.9],[-2.394375,42.977907,744.1],[-2.39433,42.977908,744.4],[-2.394292,42.977909,744.6],[-2.39425,42.97791,744.8],[-2.394208,42.977913,745.0],[-2.394164,42.977916,745.2],[-2.394126,42.977915,745.4],[-2.394087,42.977911,745.5],[-2.39405,42.977909,745.7],[-2.394008,42.977912,745.8],[-2.393965,42.977912,746.0],[-2.393916,42.977916,746.1],[-2.393868,42.977914,746.2],[-2.393825,42.97791,746.3],[-2.393781,42.977907,746.4],[-2.393733,42.977893,746.5],[-2.393687,42.977878,746.7],[-2.393642,42.977859,746.9],[-2.3936,42.977845,747.1],[-2.393558,42.977836,747.4],[-2.393508,42.977832,747.7],[-2.39347,42.977833,748.0],[-2.393434,42.977833,748.3],[-2.393381,42.97783,748.7],[-2.393342,42.977829,749.0],[-2.393296,42.977832,749.5],[-2.393251,42.977836,749.8],[-2.393211,42.977842,750.1],[-2.393161,42.977851,750.5],[-2.393111,42.977863,750.8],[-2.393063,42.97787,751.1],[-2.393022,42.977879,751.3],[-2.392975,42.977882,751.4],[-2.392938,42.977883,751.4],[-2.392901,42.97788,751.4],[-2.392861,42.977874,751.4],[-2.392825,42.977856,751.3],[-2.392785,42.977838,751.3],[-2.392758,42.977816,751.3],[-2.392738,42.977786,751.2],[-2.39271,42.977766,751.1],[-2.392683,42.97774,751.0],[-2.392661,42.97771,751.0],[-2.392648,42.977683,750.9],[-2.392636,42.977651,750.9],[-2.392641,42.977616,750.9],[-2.392649,42.977588,750.9],[-2.392659,42.97755,751.0],[-2.39266,42.977513,751.0],[-2.392654,42.977482,751.1],[-2.392648,42.977449,751.1],[-2.392641,42.977416,751.2],[-2.392631,42.977388,751.2],[-2.392624,42.977359,751.2],[-2.392614,42.977322,751.2],[-2.392615,42.97729,751.2],[-2.392604,42.977257,751.1],[-2.392592,42.977231,751.1],[-2.392567,42.977205,751.0],[-2.392547,42.977172,750.9],[-2.392539,42.977144,750.8],[-2.392529,42.977116,750.7],[-2.392508,42.977093,750.6],[-2.392493,42.977059,750.4],[-2.392493,42.977028,750.3],[-2.392489,42.976997,750.2],[-2.392475,42.976967,750.1],[-2.392464,42.97693,750.0],[-2.39246,42.976895,749.9],[-2.392454,42.976859,749.8],[-2.392447,42.976828,749.7],[-2.392433,42.976793,749.5],[-2.392409,42.976759,749.4],[-2.392383,42.976732,749.2],[-2.39235,42.976712,749.1],[-2.392312,42.976698,751.0],[-2.39228,42.976678,752.3],[-2.392243,42.976657,753.7],[-2.392199,42.976663,755.0],[-2.392163,42.976682,756.2],[-2.392131,42.976667,757.2],[-2.392091,42.976671,758.2],[-2.392051,42.976668,759.2],[-2.392007,42.976664,760.3],[-2.391965,42.976668,761.2],[-2.391919,42.976665,762.3],[-2.391875,42.976664,763.2],[-2.391839,42.976655,763.9],[-2.391799,42.976647,764.7],[-2.391763,42.976633,765.4],[-2.391723,42.976622,766.1],[-2.391686,42.976612,766.8],[-2.391647,42.976599,767.5],[-2.391608,42.976591,768.2],[-2.391564,42.976589,768.9],[-2.391517,42.976582,769.7],[-2.391475,42.97657,770.5],[-2.39144,42.976557,771.2],[-2.391392,42.976555,772.1],[-2.391354,42.976549,772.8],[-2.391309,42.976534,773.8],[-2.39127,42.976532,774.6],[-2.391225,42.976538,775.6],[-2.391184,42.976531,776.5],[-2.391145,42.97652,777.3],[-2.391106,42.976513,778.2],[-2.391066,42.976506,779.0],[-2.391027,42.976494,779.9],[-2.390991,42.976487,780.7],[-2.39095,42.976488,781.5],[-2.39091,42.976483,782.4],[-2.390864,42.976477,783.3],[-2.390819,42.976463,784.3],[-2.390785,42.976446,785.0],[-2.390747,42.976432,785.8],[-2.390703,42.976424,786.7],[-2.390659,42.976429,787.4],[-2.39062,42.976429,788.0],[-2.390579,42.976435,788.7],[-2.390535,42.97644,789.5],[-2.390487,42.976444,790.5],[-2.390436,42.976441,791.5],[-2.390396,42.976442,792.3],[-2.390355,42.976446,793.2],[-2.39031,42.976452,794.1],[-2.390263,42.976445,795.1],[-2.390216,42.976442,796.0],[-2.390172,42.976441,796.9],[-2.39013,42.976446,797.8],[-2.390075,42.976441,798.9],[-2.390025,42.976447,800.0],[-2.389986,42.976459,800.9],[-2.389944,42.976464,801.7],[-2.389906,42.976471,802.5],[-2.389867,42.976485,803.3],[-2.389828,42.976488,804.1],[-2.389788,42.9765,804.9],[-2.389758,42.976518,805.7],[-2.38973,42.97654,806.5],[-2.389697,42.976561,807.4],[-2.389665,42.97658,808.3],[-2.389635,42.9766,809.1],[-2.389605,42.976627,810.1],[-2.389567,42.976647,811.0],[-2.38953,42.976662,811.9],[-2.389495,42.976682,812.9],[-2.389457,42.9767,813.9],[-2.389424,42.976723,814.9],[-2.38939,42.976742,815.9],[-2.389359,42.97677,817.1],[-2.389334,42.976792,818.0],[-2.389299,42.976811,819.1],[-2.389264,42.976824,820.1],[-2.389224,42.976837,821.2],[-2.389196,42.97686,822.2],[-2.389158,42.976882,823.4],[-2.389118,42.976889,824.4],[-2.389079,42.976892,825.3],[-2.389048,42.976873,827.0],[-2.389017,42.976859,827.6],[-2.388992,42.976835,828.3],[-2.388947,42.976835,828.9],[-2.388916,42.976811,829.5],[-2.388884,42.976797,830.0],[-2.388855,42.976775,830.5],[-2.388832,42.97675,831.0],[-2.388802,42.976731,831.4],[-2.388782,42.976708,831.7],[-2.388761,42.976685,832.1],[-2.388732,42.976657,832.5],[-2.388723,42.976624,832.9],[-2.388707,42.976593,833.4],[-2.38868,42.976573,833.9],[-2.388655,42.976542,834.3],[-2.388631,42.976512,834.7],[-2.388611,42.976489,835.0],[-2.388599,42.976457,835.5],[-2.388578,42.976428,835.9],[-2.388544,42.9764,836.4],[-2.388517,42.976377,836.8],[-2.388489,42.976353,837.1],[-2.388456,42.976327,837.5],[-2.388422,42.9763,837.9],[-2.388393,42.976282,838.1],[-2.388365,42.976256,838.5],[-2.38834,42.976227,838.8],[-2.388315,42.976197,839.2],[-2.388301,42.976161,839.6],[-2.388284,42.97613,839.9],[-2.388274,42.976099,840.2],[-2.388252,42.976063,840.6],[-2.388228,42.976033,840.9],[-2.388182,42.976019,841.3],[-2.388165,42.975995,841.5],[-2.388149,42.975969,841.8],[-2.388125,42.975946,842.1],[-2.388103,42.975918,842.4],[-2.388079,42.975892,842.7],[-2.388057,42.975864,843.0],[-2.388032,42.975834,843.4],[-2.38801,42.975808,843.7],[-2.387997,42.97577,844.0],[-2.387974,42.975746,844.3],[-2.387936,42.975735,844.6],[-2.387893,42.975717,845.0],[-2.387861,42.975698,845.3],[-2.387838,42.975676,845.6],[-2.387809,42.975652,845.9],[-2.387771,42.975633,846.3],[-2.387725,42.97562,846.6],[-2.387684,42.975604,847.0],[-2.387654,42.975579,847.3],[-2.387622,42.975559,847.6],[-2.387597,42.975537,847.9],[-2.387566,42.975518,848.2],[-2.387539,42.975493,848.5],[-2.387514,42.975464,848.8],[-2.387481,42.975439,849.2],[-2.387447,42.975426,849.4],[-2.387414,42.97541,849.7],[-2.387374,42.9754,850.0],[-2.387322,42.975407,850.3],[-2.387279,42.97541,850.6],[-2.38724,42.975402,850.9],[-2.387201,42.975394,851.1],[-2.387159,42.975398,851.4],[-2.387121,42.975389,851.7],[-2.387079,42.975391,852.0],[-2.387041,42.975381,852.3],[-2.387002,42.975371,852.6],[-2.386955,42.975367,852.9],[-2.386916,42.975359,853.2],[-2.386872,42.975358,853.5],[-2.386825,42.975348,853.8],[-2.386777,42.975332,854.2],[-2.386736,42.975323,854.5],[-2.386695,42.975335,854.8],[-2.386658,42.975328,855.1],[-2.386617,42.975315,855.5],[-2.38657,42.975307,855.8],[-2.386531,42.975303,856.1],[-2.386489,42.97531,856.4],[-2.386451,42.97529,856.8],[-2.386421,42.975275,857.0],[-2.386389,42.975251,857.4],[-2.38635,42.97523,857.8],[-2.38631,42.97521,858.1],[-2.386272,42.975201,858.4],[-2.386238,42.975188,858.7],[-2.386209,42.975171,859.0],[-2.386181,42.975152,859.3],[-2.386159,42.975129,859.5],[-2.386121,42.975105,860.0],[-2.386089,42.975081,860.3],[-2.386064,42.97506,860.7],[-2.386036,42.97504,861.1],[-2.386003,42.97502,861.5],[-2.385969,42.974999,861.9],[-2.385946,42.974975,862.3],[-2.385912,42.974957,862.6],[-2.385876,42.974943,863.0],[-2.38584,42.974928,863.5],[-2.385802,42.974906,864.0],[-2.385762,42.974885,864.5],[-2.385718,42.974864,864.9],[-2.385673,42.974852,865.3],[-2.385626,42.974843,865.6],[-2.385585,42.974835,865.9],[-2.385554,42.974812,866.2],[-2.385521,42.974788,866.4],[-2.385491,42.97477,866.7],[-2.385469,42.974748,866.9],[-2.385436,42.974726,867.2],[-2.385422,42.974699,867.6],[-2.3854,42.974669,867.9],[-2.385369,42.974652,868.3],[-2.385332,42.974638,868.6],[-2.385296,42.974627,868.9],[-2.385255,42.974622,869.3],[-2.385215,42.974622,869.6],[-2.385172,42.974615,869.8],[-2.385134,42.974606,870.1],[-2.385098,42.974589,870.3],[-2.385068,42.974573,870.6],[-2.385059,42.974544,870.9],[-2.385031,42.974524,871.1],[-2.385013,42.974501,871.4],[-2.384974,42.974505,871.6],[-2.38493,42.974509,871.8],[-2.384894,42.97452,872.0],[-2.38486,42.974531,872.2],[-2.38482,42.974527,872.4],[-2.384781,42.974525,872.6],[-2.384736,42.974521,872.9],[-2.384692,42.974526,873.2],[-2.384654,42.974524,873.4],[-2.384607,42.974525,873.7],[-2.384568,42.974519,874.0],[-2.384532,42.974509,874.2],[-2.384485,42.974503,874.4],[-2.384442,42.974497,874.7],[-2.384402,42.974496,874.8],[-2.384364,42.974494,875.0],[-2.384321,42.974496,875.2],[-2.384286,42.974486,875.4],[-2.384245,42.974482,875.6],[-2.384202,42.974463,875.8],[-2.384154,42.974458,876.0],[-2.384108,42.974458,876.2],[-2.384071,42.974458,876.4],[-2.384026,42.974454,876.6],[-2.383987,42.974448,876.8],[-2.383944,42.974441,877.0],[-2.383905,42.974445,877.2],[-2.383862,42.974443,877.4],[-2.383828,42.974428,877.6],[-2.383785,42.974418,877.9],[-2.383745,42.974413,878.1],[-2.383701,42.974412,878.4],[-2.383664,42.974401,878.6],[-2.383628,42.974383,878.8],[-2.383589,42.974367,879.0],[-2.383557,42.974348,879.3],[-2.383516,42.97433,879.6],[-2.383475,42.974323,879.9],[-2.383438,42.97431,880.1],[-2.383391,42.974305,880.3],[-2.383338,42.974306,880.6],[-2.383301,42.974291,880.7],[-2.38327,42.974266,880.9],[-2.383232,42.974245,881.2],[-2.383193,42.974246,881.4],[-2.383153,42.974252,881.6],[-2.383106,42.974251,881.9],[-2.383066,42.974249,882.1],[-2.38303,42.974257,882.2],[-2.38299,42.974268,882.5],[-2.382941,42.974265,882.9],[-2.382899,42.974273,883.2],[-2.38286,42.974281,883.4],[-2.382829,42.974301,883.7],[-2.382786,42.974307,884.0],[-2.382739,42.9743,884.4],[-2.382701,42.974291,884.7],[-2.382663,42.974278,885.1],[-2.382618,42.974266,885.5],[-2.38259,42.974239,886.0],[-2.382566,42.974212,886.5],[-2.382545,42.974189,886.9],[-2.382512,42.974162,887.5],[-2.382486,42.974138,888.0],[-2.382461,42.974118,888.5],[-2.382425,42.974099,889.0],[-2.382398,42.97408,889.5],[-2.382368,42.974061,890.0],[-2.382326,42.97404,890.6],[-2.382291,42.974027,891.0],[-2.382255,42.974013,891.5],[-2.382217,42.974004,891.9],[-2.38218,42.974008,892.3],[-2.382145,42.973993,892.7],[-2.382107,42.973972,893.1],[-2.382074,42.973958,893.5],[-2.382046,42.97394,893.9],[-2.382017,42.973917,894.3],[-2.382001,42.97389,894.8],[-2.38198,42.973862,895.2],[-2.381949,42.973831,895.8],[-2.381929,42.973804,896.1],[-2.381916,42.973773,896.4],[-2.381896,42.973742,897.1],[-2.381875,42.973717,897.0],[-2.381855,42.973687,897.0],[-2.381852,42.973656,896.9],[-2.381862,42.973621,896.9],[-2.381872,42.973591,896.8],[-2.381883,42.973561,896.8],[-2.3819,42.973533,896.8],[-2.381917,42.973502,896.7],[-2.381942,42.973472,896.7],[-2.38197,42.973441,896.6],[-2.381991,42.973414,896.6],[-2.382004,42.973383,896.6],[-2.382023,42.973358,896.5],[-2.382044,42.973332,896.5],[-2.382075,42.973315,896.5],[-2.382103,42.973295,896.4],[-2.382137,42.973272,896.4],[-2.382168,42.973247,896.3],[-2.382195,42.973217,896.2],[-2.382204,42.973186,896.1],[-2.382241,42.973172,896.1],[-2.382274,42.973159,896.0],[-2.382303,42.973134,895.9],[-2.382322,42.973107,895.8],[-2.382337,42.97308,895.8],[-2.382351,42.97305,895.7],[-2.382367,42.973022,895.6],[-2.382387,42.972999,895.5],[-2.382415,42.972974,895.5],[-2.382411,42.972938,895.4],[-2.382412,42.972905,895.3],[-2.382406,42.972875,895.2],[-2.382404,42.972838,895.1],[-2.382389,42.97281,895.0],[-2.382375,42.972777,895.0],[-2.382366,42.972745,894.9],[-2.382364,42.972716,894.8],[-2.382355,42.972687,894.7],[-2.382344,42.972653,894.5],[-2.382342,42.972619,894.4],[-2.382326,42.972592,894.3],[-2.382311,42.972567,894.1],[-2.382283,42.972541,894.0],[-2.382256,42.972515,893.9],[-2.382231,42.972492,893.8],[-2.382204,42.97247,893.7],[-2.382168,42.972457,893.6],[-2.38213,42.972451,893.8],[-2.382087,42.972446,894.0],[-2.38205,42.972445,894.2],[-2.382005,42.972452,894.4],[-2.381969,42.972468,894.6],[-2.381935,42.972479,894.9],[-2.381894,42.972473,895.1],[-2.381856,42.972468,895.3],[-2.381819,42.97247,895.5],[-2.38178,42.972471,895.7],[-2.381736,42.972474,895.9],[-2.381693,42.972479,896.2],[-2.381656,42.972484,896.4],[-2.38161,42.972481,896.7],[-2.381573,42.972486,896.9],[-2.381538,42.972497,897.2],[-2.381501,42.972494,897.5],[-2.381456,42.972485,897.7],[-2.381421,42.97247,898.0],[-2.381388,42.972457,898.2],[-2.381354,42.972442,898.4],[-2.381316,42.972423,898.7],[-2.381276,42.972409,898.9],[-2.381235,42.972414,899.1],[-2.381194,42.9724,899.4],[-2.38116,42.972387,899.7],[-2.381124,42.972371,900.1],[-2.381084,42.97236,900.3],[-2.381051,42.972344,900.5],[-2.381015,42.972334,900.7],[-2.380974,42.972325,900.9],[-2.380936,42.972313,901.1],[-2.380888,42.972317,901.5],[-2.380851,42.972313,901.7],[-2.380814,42.972301,902.1],[-2.380776,42.972291,902.4],[-2.380735,42.97228,902.6],[-2.380696,42.972275,902.8],[-2.380651,42.972259,903.0],[-2.380617,42.972246,903.2],[-2.38058,42.972231,903.4],[-2.380534,42.972224,903.7],[-2.380494,42.972216,904.0],[-2.380455,42.972205,904.2],[-2.380413,42.972207,904.5],[-2.380369,42.972207,904.7],[-2.380327,42.972214,905.0],[-2.380283,42.972213,905.2],[-2.380246,42.972213,905.4],[-2.380201,42.972209,905.7],[-2.380155,42.972207,905.9],[-2.380114,42.972204,906.1],[-2.380066,42.972197,906.4],[-2.380022,42.972172,906.7],[-2.380003,42.972146,907.0],[-2.379987,42.972116,907.3],[-2.379974,42.972081,907.7],[-2.379969,42.972047,908.0],[-2.379954,42.972016,908.3],[-2.379938,42.971991,908.6],[-2.379928,42.971955,909.1],[-2.379913,42.971923,909.5],[-2.379883,42.971903,909.8],[-2.379864,42.971879,910.0],[-2.379854,42.97185,910.2],[-2.379833,42.971828,910.3],[-2.379791,42.971817,910.5],[-2.379757,42.971806,910.7],[-2.379721,42.971778,910.9],[-2.379686,42.971763,911.0],[-2.379649,42.971748,911.3],[-2.379626,42.971723,911.6],[-2.379597,42.971697,911.9],[-2.379567,42.971671,912.1],[-2.379546,42.971642,912.3],[-2.37951,42.971619,912.5],[-2.379481,42.971588,912.7],[-2.379452,42.971569,912.9],[-2.379421,42.971547,913.1],[-2.379403,42.97151,913.4],[-2.379373,42.971489,913.6],[-2.379341,42.971475,913.8],[-2.379303,42.971459,914.0],[-2.37927,42.971435,914.4],[-2.379241,42.971413,914.8],[-2.379213,42.971395,915.1],[-2.379183,42.971375,915.4],[-2.379148,42.971358,915.7],[-2.379117,42.971334,916.1],[-2.379086,42.971311,916.4],[-2.37906,42.97129,916.8],[-2.379036,42.971266,917.1],[-2.379016,42.971242,917.4],[-2.378991,42.971213,917.7],[-2.378975,42.971186,918.0],[-2.378954,42.97116,918.3],[-2.378924,42.971142,918.6],[-2.37889,42.971125,918.9],[-2.378864,42.9711,919.3],[-2.378822,42.971095,919.7],[-2.378787,42.971079,920.1],[-2.37875,42.97105,920.6],[-2.378708,42.971027,921.0],[-2.378677,42.971012,921.2],[-2.378631,42.970999,921.5],[-2.378588,42.970994,921.8],[-2.378549,42.970987,922.0],[-2.378504,42.970975,922.3],[-2.378456,42.97097,922.6],[-2.378404,42.970977,922.9],[-2.378366,42.970967,923.2],[-2.378333,42.970952,923.5],[-2.37831,42.970921,923.9],[-2.378298,42.970891,924.2],[-2.378258,42.970877,924.5],[-2.378209,42.970883,924.9],[-2.378166,42.970889,925.2],[-2.378114,42.970887,925.5],[-2.378072,42.970879,925.8],[-2.378026,42.970873,926.1],[-2.377975,42.97087,926.5],[-2.377931,42.970865,926.8],[-2.377888,42.970857,927.0],[-2.377837,42.970851,927.3],[-2.377797,42.970857,927.5],[-2.377758,42.970866,927.7],[-2.377714,42.970865,928.0],[-2.377671,42.970856,928.2],[-2.377626,42.97085,928.5],[-2.377579,42.970833,928.8],[-2.377532,42.97082,929.1],[-2.377488,42.970812,929.4],[-2.37744,42.970804,929.6],[-2.377404,42.970794,929.9],[-2.377354,42.970784,930.3],[-2.377316,42.970777,930.6],[-2.377281,42.970768,930.9],[-2.37725,42.970749,931.3],[-2.377217,42.970737,931.5],[-2.377176,42.970733,931.9],[-2.37714,42.970733,932.2],[-2.3771,42.970737,932.6],[-2.377047,42.970737,933.1],[-2.37701,42.970739,933.3],[-2.37697,42.970742,933.7],[-2.376923,42.97074,934.0],[-2.376879,42.970734,934.4],[-2.376841,42.970722,934.7],[-2.376802,42.970717,935.0],[-2.376747,42.970726,935.5],[-2.376701,42.970735,936.1],[-2.376662,42.970735,936.6],[-2.376624,42.970743,937.1],[-2.376599,42.970769,937.5],[-2.376566,42.970793,938.0],[-2.376537,42.970811,938.4],[-2.376495,42.970821,938.9],[-2.376447,42.970823,939.4],[-2.376401,42.970829,939.8],[-2.37635,42.970829,940.3],[-2.376311,42.970826,940.7],[-2.376264,42.970836,941.2],[-2.376234,42.970853,941.5],[-2.376191,42.970872,941.9],[-2.376149,42.970867,942.2],[-2.376107,42.970854,942.5],[-2.376061,42.970842,943.0],[-2.376021,42.970825,943.5],[-2.375985,42.970813,943.8],[-2.375951,42.970802,944.1],[-2.375914,42.970795,944.4],[-2.37587,42.970796,944.7],[-2.375827,42.970801,945.1],[-2.375781,42.970799,945.6],[-2.375742,42.970786,946.0],[-2.375706,42.970779,946.4],[-2.375667,42.970781,946.7],[-2.375622,42.970794,947.1],[-2.375573,42.970803,947.6],[-2.375525,42.970806,948.1],[-2.375481,42.970813,948.5],[-2.375445,42.970789,949.0],[-2.375419,42.970763,949.4],[-2.375391,42.970742,949.8],[-2.375361,42.970716,950.2],[-2.37533,42.970693,950.5],[-2.37531,42.970668,950.9],[-2.375292,42.970643,951.3],[-2.375269,42.970618,951.8],[-2.375254,42.970592,952.4],[-2.37525,42.970563,952.9],[-2.375244,42.970528,953.5],[-2.375251,42.970491,954.2],[-2.375255,42.970461,954.8],[-2.375259,42.970423,955.6],[-2.375269,42.970393,956.2],[-2.37528,42.970359,956.9],[-2.375296,42.970331,957.5],[-2.375307,42.970302,958.1],[-2.375304,42.970273,958.7],[-2.375293,42.970239,959.4],[-2.375287,42.970204,960.0],[-2.375279,42.970174,960.5],[-2.375271,42.970135,961.1],[-2.375272,42.970106,961.7],[-2.375282,42.970075,962.2],[-2.375273,42.970036,962.8],[-2.375265,42.970005,963.3],[-2.375254,42.969975,963.8],[-2.375245,42.969943,964.3],[-2.375241,42.969908,964.6],[-2.375244,42.969881,964.9],[-2.375241,42.969853,965.2],[-2.375239,42.969825,965.4],[-2.375229,42.969795,965.7],[-2.375228,42.969758,966.0],[-2.375221,42.969728,966.3],[-2.375206,42.969702,966.5],[-2.375187,42.96967,966.7],[-2.375179,42.969636,967.0],[-2.375163,42.969606,967.2],[-2.37514,42.969583,967.5],[-2.375105,42.969567,967.8],[-2.375091,42.96954,968.3],[-2.375068,42.969511,968.7],[-2.37504,42.96949,969.0],[-2.375001,42.969478,969.3],[-2.374968,42.96945,969.7],[-2.374934,42.969432,970.0],[-2.374898,42.969413,970.3],[-2.374864,42.969389,970.8],[-2.374841,42.969367,971.2],[-2.374822,42.969338,971.7],[-2.374815,42.969309,972.1],[-2.374793,42.96928,972.6],[-2.374759,42.969267,973.0],[-2.374712,42.969248,973.6],[-2.374668,42.96924,974.1],[-2.374633,42.969215,974.6],[-2.374585,42.969192,975.1],[-2.374545,42.969192,975.5],[-2.374532,42.969167,975.9],[-2.374521,42.96913,976.6],[-2.374483,42.969123,977.1],[-2.37443,42.969117,977.6],[-2.37439,42.96912,978.0],[-2.37435,42.969102,978.6],[-2.374314,42.969081,979.1],[-2.374273,42.969074,979.6],[-2.374232,42.969059,980.2],[-2.374198,42.969041,980.6],[-2.374157,42.969025,981.0],[-2.374118,42.969015,981.4],[-2.374086,42.969001,981.7],[-2.374057,42.968973,982.3],[-2.374033,42.968944,982.8],[-2.374004,42.968919,983.3],[-2.373963,42.968897,983.9],[-2.373921,42.968877,984.4],[-2.373888,42.968857,984.8],[-2.373858,42.96883,985.3],[-2.373813,42.968816,986.0],[-2.373775,42.968801,986.6],[-2.373734,42.968792,987.1],[-2.37369,42.968792,987.6],[-2.373652,42.968793,988.0],[-2.373602,42.968785,988.5],[-2.373565,42.968771,988.9],[-2.373523,42.968769,989.3],[-2.373481,42.96875,990.0],[-2.373456,42.96873,990.5],[-2.373422,42.968704,991.2],[-2.373385,42.968687,991.7],[-2.373349,42.968664,992.3],[-2.373319,42.968643,992.8],[-2.373299,42.96862,993.2],[-2.373276,42.968599,993.6],[-2.373242,42.968577,994.1],[-2.373208,42.968557,994.6],[-2.373171,42.968542,995.0],[-2.37313,42.968528,995.6],[-2.373092,42.968515,996.3],[-2.373061,42.968493,996.8],[-2.373032,42.968466,997.3],[-2.373006,42.968444,997.7],[-2.372965,42.96844,998.2],[-2.372922,42.968429,998.6],[-2.37289,42.968408,999.2],[-2.372851,42.968392,999.9],[-2.372816,42.968375,1000.5],[-2.372781,42.968364,1001.0],[-2.372742,42.968354,1001.5],[-2.372689,42.968324,1002.2],[-2.372671,42.968298,1002.6],[-2.372631,42.968285,1003.0],[-2.372585,42.968283,1003.7],[-2.372542,42.968271,1004.4],[-2.372506,42.968258,1004.9],[-2.372472,42.968246,1005.4],[-2.372426,42.968228,1006.1],[-2.37239,42.968204,1006.8],[-2.372359,42.968189,1007.3],[-2.372328,42.968171,1007.9],[-2.372296,42.968151,1008.4],[-2.37226,42.968137,1008.9],[-2.372223,42.968127,1009.3],[-2.372181,42.968117,1009.9],[-2.372147,42.968104,1010.4],[-2.37211,42.968099,1010.8],[-2.372082,42.968077,1011.1],[-2.372053,42.968059,1011.4],[-2.372024,42.968037,1011.7],[-2.37199,42.968024,1012.0],[-2.371952,42.968026,1012.4],[-2.37191,42.968032,1012.8],[-2.371861,42.968029,1013.4],[-2.371818,42.968018,1013.8],[-2.371769,42.968019,1014.3],[-2.371735,42.968006,1014.6],[-2.3717,42.967996,1014.9],[-2.371657,42.968002,1015.3],[-2.371617,42.967987,1015.7],[-2.371581,42.967975,1016.1],[-2.371543,42.967974,1016.4],[-2.371524,42.967946,1016.8],[-2.371486,42.967941,1017.1],[-2.371449,42.967937,1017.4],[-2.371412,42.967924,1017.7],[-2.371373,42.967919,1018.0],[-2.371332,42.967924,1018.3],[-2.371287,42.967918,1018.5],[-2.371244,42.967912,1018.8],[-2.371201,42.967905,1019.1],[-2.371166,42.967895,1019.3],[-2.371139,42.967871,1019.5],[-2.371099,42.967847,1019.9],[-2.37106,42.967832,1020.3],[-2.371014,42.967821,1020.6],[-2.370973,42.967807,1021.1],[-2.370932,42.9678,1021.6],[-2.370898,42.967782,1021.9],[-2.370855,42.967771,1022.3],[-2.370811,42.967768,1022.7],[-2.370772,42.967754,1023.2],[-2.37074,42.96774,1023.6],[-2.370714,42.96772,1024.0],[-2.370677,42.967694,1024.5],[-2.370629,42.96768,1025.0],[-2.370586,42.96767,1025.4],[-2.370545,42.967663,1025.8],[-2.370496,42.967653,1026.4],[-2.370452,42.967629,1026.9],[-2.370418,42.967617,1027.3],[-2.370387,42.967591,1027.7],[-2.370354,42.967574,1028.0],[-2.370317,42.967547,1028.3],[-2.370288,42.967531,1028.6],[-2.370258,42.967515,1028.8],[-2.370217,42.967495,1029.2],[-2.370182,42.967477,1029.6],[-2.370149,42.96746,1029.9],[-2.370127,42.967426,1030.2],[-2.370088,42.9674,1030.5],[-2.370047,42.967385,1030.7],[-2.370004,42.967373,1031.0],[-2.369964,42.967364,1031.2],[-2.369927,42.967358,1031.5],[-2.369883,42.967354,1031.8],[-2.369845,42.967339,1032.2],[-2.369798,42.967325,1032.5],[-2.369768,42.967306,1032.7],[-2.369734,42.967284,1033.0],[-2.369707,42.967255,1033.4],[-2.369679,42.967227,1033.9],[-2.369662,42.967203,1034.2],[-2.369636,42.967176,1034.6],[-2.369615,42.967146,1035.0],[-2.369581,42.967125,1035.4],[-2.369549,42.967109,1035.8],[-2.36953,42.967082,1036.3],[-2.369491,42.967068,1036.8],[-2.369453,42.967042,1037.5],[-2.369438,42.967009,1038.2],[-2.369412,42.966985,1038.8],[-2.36939,42.966963,1039.3],[-2.36937,42.96694,1039.8],[-2.369352,42.966906,1040.5],[-2.369322,42.966883,1041.1],[-2.369289,42.966866,1041.6],[-2.369253,42.966856,1042.1],[-2.369216,42.966847,1042.6],[-2.369166,42.966828,1043.4],[-2.369125,42.966817,1043.9],[-2.369093,42.966788,1044.5],[-2.36906,42.966759,1045.0],[-2.369032,42.966742,1045.4],[-2.369004,42.966717,1045.9],[-2.368979,42.966695,1046.3],[-2.368942,42.966675,1046.7],[-2.368905,42.966665,1047.1],[-2.368876,42.966634,1047.6],[-2.36883,42.966629,1048.0],[-2.368786,42.966625,1048.7],[-2.368747,42.966604,1049.4],[-2.368706,42.966576,1050.1],[-2.368686,42.966552,1050.6],[-2.368651,42.966528,1051.2],[-2.368621,42.966506,1051.8],[-2.368591,42.966484,1052.5],[-2.368563,42.966458,1053.1],[-2.368554,42.966424,1053.8],[-2.368533,42.966402,1060.4],[-2.368487,42.966394,1061.1],[-2.368438,42.966387,1061.8],[-2.368409,42.966404,1062.3],[-2.368426,42.966429,1062.8],[-2.36846,42.966442,1063.3],[-2.368472,42.966469,1064.1],[-2.368469,42.966499,1064.9],[-2.368467,42.96653,1065.7],[-2.368467,42.966564,1066.5],[-2.368462,42.966592,1067.1],[-2.368421,42.966585,1067.8],[-2.36838,42.966581,1068.5],[-2.36834,42.966579,1069.1],[-2.368311,42.96656,1069.8],[-2.368285,42.966535,1070.4],[-2.36825,42.96652,1071.1],[-2.368211,42.966525,1071.7],[-2.368169,42.966509,1072.4],[-2.368137,42.966494,1072.9],[-2.368094,42.96649,1073.6],[-2.368055,42.966486,1074.2],[-2.368021,42.966468,1074.8],[-2.367984,42.966453,1075.3],[-2.367952,42.966434,1075.8],[-2.367914,42.966421,1076.3],[-2.367873,42.966417,1076.7],[-2.367833,42.966407,1077.2],[-2.367796,42.966382,1077.6],[-2.367763,42.966354,1078.1],[-2.367735,42.966336,1078.4],[-2.367696,42.966332,1078.7],[-2.367657,42.966328,1079.0],[-2.36762,42.96632,1079.4],[-2.367591,42.966301,1079.7],[-2.367554,42.966282,1080.0],[-2.367531,42.966252,1080.4],[-2.367501,42.966226,1080.7],[-2.367471,42.966206,1081.0],[-2.367429,42.966193,1081.3],[-2.367387,42.966186,1081.6],[-2.36735,42.966176,1081.8],[-2.367302,42.966173,1083.7],[-2.367261,42.966171,1084.7],[-2.367218,42.966166,1085.9],[-2.367176,42.966159,1086.9],[-2.367142,42.966147,1087.7],[-2.367106,42.966132,1088.6],[-2.36707,42.966127,1089.5],[-2.367033,42.96612,1090.4],[-2.36699,42.966115,1091.3],[-2.366948,42.966111,1092.2],[-2.366905,42.9661,1093.2],[-2.366861,42.966087,1094.2],[-2.366826,42.966077,1094.9],[-2.36679,42.966063,1095.7],[-2.366751,42.966051,1096.5],[-2.36671,42.966035,1097.3],[-2.366677,42.966014,1097.9],[-2.366645,42.965991,1098.6],[-2.366608,42.965976,1099.1],[-2.36658,42.965958,1099.6],[-2.366549,42.965943,1100.2],[-2.36651,42.965924,1100.8],[-2.366476,42.965913,1101.3],[-2.36644,42.965896,1101.8],[-2.366413,42.965878,1102.3],[-2.366377,42.965853,1103.0],[-2.366346,42.965838,1103.4],[-2.366308,42.965818,1103.9],[-2.366274,42.965805,1104.4],[-2.366238,42.965797,1104.9],[-2.366203,42.965786,1105.3],[-2.366159,42.96577,1105.9],[-2.366124,42.96576,1106.3],[-2.366082,42.965745,1106.8],[-2.366036,42.965737,1107.5],[-2.366,42.965732,1108.1],[-2.365965,42.965722,1108.7],[-2.36593,42.965702,1109.3],[-2.365886,42.965696,1110.0],[-2.365849,42.965682,1110.8],[-2.365816,42.965665,1111.6],[-2.365783,42.965653,1112.1],[-2.365741,42.965651,1112.6],[-2.365702,42.965649,1113.2],[-2.36566,42.965644,1113.9],[-2.365622,42.965628,1114.6],[-2.365594,42.965611,1115.3],[-2.365554,42.965591,1116.3],[-2.365517,42.965574,1117.1],[-2.365477,42.965565,1117.9],[-2.365436,42.965554,1118.7],[-2.365403,42.965536,1119.6],[-2.365369,42.965523,1120.4],[-2.365335,42.965505,1121.2],[-2.365304,42.965487,1122.0],[-2.365271,42.96547,1122.7],[-2.365236,42.965453,1123.5],[-2.365204,42.965437,1124.2],[-2.365179,42.965416,1124.9],[-2.365146,42.965401,1125.6],[-2.365111,42.965392,1126.3],[-2.365069,42.965383,1127.1],[-2.365021,42.965379,1128.1],[-2.364979,42.965377,1128.7],[-2.364938,42.965377,1129.2],[-2.364896,42.965376,1129.8],[-2.364868,42.965356,1130.3],[-2.364849,42.965328,1130.9],[-2.364825,42.965302,1131.5],[-2.364816,42.965275,1132.0],[-2.36481,42.965247,1132.6],[-2.364787,42.965222,1133.2],[-2.364764,42.965201,1133.8],[-2.364745,42.965173,1134.4],[-2.364707,42.965148,1135.1],[-2.364668,42.965137,1135.7],[-2.364635,42.965119,1136.2],[-2.364605,42.965098,1136.6],[-2.36459,42.96507,1137.1],[-2.36458,42.965039,1137.6],[-2.364565,42.965008,1138.1],[-2.364543,42.964983,1138.6],[-2.364517,42.964959,1139.1],[-2.364494,42.964938,1139.5],[-2.364465,42.964913,1140.0],[-2.364433,42.964891,1140.5],[-2.364406,42.964865,1140.9],[-2.364389,42.964833,1141.4],[-2.36438,42.964798,1141.9],[-2.364358,42.964769,1142.4],[-2.364328,42.964741,1142.9],[-2.364316,42.964715,1143.3],[-2.364313,42.964677,1143.7],[-2.364297,42.96464,1144.2],[-2.364283,42.964609,1144.5],[-2.364274,42.964583,1144.7],[-2.364265,42.964554,1145.0],[-2.364253,42.964519,1145.2],[-2.364263,42.964549,1145.4],[-2.364279,42.964574,1145.6],[-2.364312,42.964596,1145.7],[-2.36433,42.964625,1145.9],[-2.364295,42.964612,1146.0],[-2.364284,42.964585,1146.1],[-2.364261,42.96456,1146.3],[-2.364252,42.964532,1146.4],[-2.364235,42.964506,1146.6],[-2.364233,42.964473,1146.8],[-2.364241,42.964434,1147.2],[-2.364252,42.964401,1147.5],[-2.364262,42.96437,1147.8],[-2.364277,42.964342,1148.1],[-2.364299,42.964314,1148.6],[-2.364285,42.964282,1149.1],[-2.364269,42.964255,1149.6],[-2.364237,42.964238,1150.0],[-2.364214,42.964211,1150.6],[-2.364187,42.964185,1151.2],[-2.364165,42.964162,1151.7],[-2.364137,42.964138,1152.4],[-2.364109,42.964112,1153.1],[-2.364086,42.964088,1153.7],[-2.364059,42.964063,1154.4],[-2.364033,42.964041,1155.1],[-2.364014,42.964015,1155.9],[-2.363984,42.96399,1156.7],[-2.363956,42.963961,1157.5],[-2.36393,42.963936,1158.2],[-2.363905,42.963916,1158.8],[-2.363877,42.963887,1159.5],[-2.363857,42.963863,1160.1],[-2.363823,42.963847,1160.7],[-2.363783,42.963833,1162.3],[-2.363742,42.963822,1162.6],[-2.363699,42.963812,1163.0],[-2.363659,42.963799,1163.4],[-2.363617,42.963786,1163.8],[-2.363576,42.963773,1164.1],[-2.363535,42.963765,1164.4],[-2.363493,42.963754,1164.6],[-2.363449,42.963754,1164.9],[-2.36341,42.963757,1165.1],[-2.363368,42.963758,1165.3],[-2.363322,42.963756,1165.5],[-2.363284,42.963757,1165.7],[-2.36325,42.963768,1165.9],[-2.363211,42.963771,1166.1],[-2.363182,42.963806,1166.3],[-2.363218,42.963791,1166.5],[-2.363184,42.963768,1166.6],[-2.363163,42.963745,1166.8],[-2.363124,42.963754,1166.9],[-2.363088,42.963765,1167.0],[-2.363044,42.963754,1167.2],[-2.36301,42.963737,1167.5],[-2.362969,42.963745,1167.4],[-2.362958,42.963714,1167.4],[-2.362919,42.963707,1167.4],[-2.362882,42.963698,1167.3],[-2.362849,42.963674,1167.3],[-2.362807,42.963662,1167.3],[-2.36277,42.963646,1167.2],[-2.36274,42.963625,1167.2],[-2.36271,42.963603,1167.1],[-2.362671,42.963588,1167.0],[-2.362634,42.963583,1167.0],[-2.362597,42.963564,1166.9],[-2.362565,42.963542,1166.8],[-2.362523,42.963536,1166.7],[-2.362477,42.963529,1166.6],[-2.362437,42.963516,1166.5],[-2.362398,42.963515,1166.4],[-2.362362,42.963506,1166.3],[-2.362328,42.963488,1166.1],[-2.362301,42.963468,1166.0],[-2.362266,42.963453,1165.9],[-2.362224,42.963443,1165.8],[-2.362185,42.963435,1165.6],[-2.36214,42.963421,1165.5],[-2.362101,42.96341,1165.4],[-2.362065,42.963396,1165.3],[-2.362026,42.96339,1165.2],[-2.361987,42.963389,1165.1],[-2.361955,42.963374,1165.0],[-2.361906,42.963372,1164.9],[-2.361864,42.963368,1164.8],[-2.361819,42.96337,1164.6],[-2.361772,42.96337,1164.4],[-2.361729,42.963373,1164.2],[-2.361679,42.963384,1163.9],[-2.361639,42.963395,1163.8],[-2.361589,42.963403,1163.6],[-2.361541,42.96341,1163.4],[-2.361494,42.963421,1163.2],[-2.361436,42.963437,1163.0],[-2.361383,42.963453,1162.7],[-2.361337,42.963459,1162.6],[-2.361286,42.963454,1162.4],[-2.361234,42.963453,1162.3],[-2.361194,42.963453,1162.2],[-2.361155,42.963454,1162.1],[-2.361106,42.963456,1162.0],[-2.361068,42.963459,1161.9],[-2.361016,42.963461,1161.7],[-2.360971,42.963459,1161.6],[-2.360918,42.963458,1161.5],[-2.360881,42.963455,1161.4],[-2.360843,42.963454,1161.3],[-2.360795,42.96345,1161.2],[-2.360745,42.963445,1161.1],[-2.360704,42.963432,1161.1],[-2.360665,42.963424,1161.0],[-2.360625,42.963415,1161.0],[-2.360587,42.963411,1160.9],[-2.36054,42.963416,1160.8],[-2.360497,42.96341,1160.8],[-2.36045,42.963409,1160.7],[-2.360411,42.96341,1160.6],[-2.360368,42.963407,1160.6],[-2.360326,42.963403,1160.5],[-2.360287,42.96341,1160.4],[-2.360249,42.963414,1160.3],[-2.36021,42.96342,1160.3],[-2.360174,42.963427,1160.2],[-2.360123,42.963437,1160.1],[-2.360069,42.963442,1159.9],[-2.360031,42.963442,1159.8],[-2.359986,42.963436,1159.7],[-2.359949,42.963423,1159.5],[-2.359909,42.963427,1159.4],[-2.359863,42.963435,1159.3],[-2.35981,42.963445,1159.2],[-2.359759,42.963456,1159.1],[-2.359711,42.963464,1159.0],[-2.359673,42.963468,1158.9],[-2.359619,42.96347,1158.8],[-2.35957,42.963463,1158.7],[-2.359524,42.963453,1158.6],[-2.359482,42.96345,1158.6],[-2.359431,42.963448,1158.5],[-2.359382,42.963441,1158.3],[-2.359336,42.963427,1158.2],[-2.359293,42.963418,1158.2],[-2.359254,42.963415,1158.1],[-2.359204,42.963411,1158.0],[-2.359164,42.963399,1158.0],[-2.359128,42.963391,1157.9],[-2.359089,42.963384,1157.8],[-2.359042,42.963379,1157.8],[-2.359009,42.963356,1157.7],[-2.359038,42.963337,1157.6],[-2.358999,42.963364,1157.5],[-2.358962,42.963381,1157.4],[-2.358911,42.963388,1157.2],[-2.358897,42.963356,1157.1],[-2.358911,42.963312,1156.9],[-2.358854,42.963335,1156.6],[-2.358901,42.963309,1156.4],[-2.358858,42.963321,1156.2],[-2.358822,42.963331,1156.0],[-2.358786,42.963324,1155.9],[-2.358744,42.963321,1155.6],[-2.358707,42.963315,1155.5],[-2.358661,42.963314,1155.4],[-2.358624,42.963309,1155.3],[-2.358579,42.963297,1155.1],[-2.358534,42.963283,1155.0],[-2.358492,42.96327,1154.8],[-2.358442,42.963253,1155.0],[-2.358396,42.963241,1155.0],[-2.35836,42.963232,1155.0],[-2.358315,42.963217,1155.0],[-2.358271,42.963201,1155.0],[-2.358236,42.963189,1155.0],[-2.358194,42.963178,1154.9],[-2.358151,42.963171,1154.9],[-2.358112,42.963169,1154.8],[-2.358072,42.963171,1154.7],[-2.358034,42.963169,1154.6],[-2.357987,42.963163,1154.4],[-2.357942,42.963158,1154.2],[-2.357895,42.963156,1153.9],[-2.357849,42.963159,1153.6],[-2.357804,42.963168,1153.3],[-2.357761,42.963183,1152.9],[-2.357722,42.963169,1152.6],[-2.357679,42.963175,1152.2],[-2.35766,42.963148,1151.8],[-2.357629,42.963124,1151.4],[-2.357605,42.963103,1151.0],[-2.357585,42.963077,1150.5],[-2.357554,42.963053,1149.9],[-2.357517,42.96303,1149.3],[-2.357481,42.963007,1148.6],[-2.357443,42.962991,1148.0],[-2.357418,42.962969,1147.5],[-2.357381,42.962952,1146.9],[-2.357351,42.962935,1146.4],[-2.357316,42.962913,1145.7],[-2.35729,42.962892,1145.2],[-2.35726,42.962869,1144.6],[-2.35722,42.962843,1143.8],[-2.35719,42.962826,1143.3],[-2.35716,42.962808,1142.8],[-2.35713,42.962791,1142.3],[-2.357095,42.962768,1141.8],[-2.357063,42.962753,1141.4],[-2.357026,42.962737,1140.9],[-2.356987,42.962715,1140.4],[-2.356955,42.962689,1140.1],[-2.356917,42.962669,1139.7],[-2.356883,42.962654,1139.4],[-2.356851,42.962628,1139.1],[-2.356813,42.962608,1138.8],[-2.356775,42.96259,1138.6],[-2.356738,42.962576,1138.4],[-2.356706,42.962562,1138.3],[-2.356671,42.96255,1138.2],[-2.356636,42.962538,1138.1],[-2.356599,42.962522,1138.1],[-2.356565,42.962505,1138.0],[-2.356534,42.962483,1138.0],[-2.356503,42.96246,1138.0],[-2.356472,42.962436,1137.9],[-2.356439,42.96241,1137.9],[-2.356405,42.962389,1137.8],[-2.356369,42.962372,1137.7],[-2.356335,42.962356,1137.5],[-2.356302,42.962338,1137.3],[-2.35627,42.962319,1137.1],[-2.356241,42.962292,1136.9],[-2.356218,42.96227,1136.6],[-2.356189,42.962247,1136.4],[-2.35615,42.962234,1136.1],[-2.356107,42.962218,1135.7],[-2.356075,42.962202,1135.4],[-2.356045,42.962187,1135.1],[-2.356008,42.962172,1134.8],[-2.355978,42.962153,1134.6],[-2.355951,42.962132,1134.3],[-2.355919,42.962112,1134.0],[-2.355884,42.962091,1133.6],[-2.355853,42.962071,1133.2],[-2.355828,42.962047,1132.9],[-2.355808,42.962014,1132.9],[-2.355793,42.961986,1132.9],[-2.355771,42.961959,1132.9],[-2.35573,42.961948,1132.8],[-2.355691,42.961943,1132.8],[-2.355649,42.961926,1132.8],[-2.355619,42.961911,1132.7],[-2.355583,42.961902,1132.7],[-2.355546,42.961906,1132.7],[-2.355531,42.961936,1132.7],[-2.355557,42.961958,1132.6],[-2.355588,42.961986,1132.6],[-2.355608,42.961955,1132.6],[-2.355612,42.961928,1132.5],[-2.35557,42.961933,1132.5],[-2.355559,42.961964,1132.5],[-2.355529,42.961983,1132.4],[-2.355509,42.962007,1132.4],[-2.355533,42.96203,1132.4],[-2.355529,42.96206,1132.4],[-2.355551,42.962081,1132.3],[-2.355584,42.962057,1132.3],[-2.355633,42.962087,1132.3],[-2.355693,42.962095,1132.2],[-2.355682,42.962121,1132.2],[-2.355645,42.962115,1132.2],[-2.355623,42.962138,1132.1],[-2.355607,42.962167,1132.1],[-2.355584,42.962194,1132.1],[-2.355548,42.962186,1132.1],[-2.355531,42.962156,1132.0],[-2.355525,42.962126,1132.0],[-2.35552,42.962097,1132.0],[-2.355526,42.962058,1131.9],[-2.355541,42.962024,1131.9],[-2.355564,42.961987,1131.9],[-2.355539,42.962011,1131.8],[-2.35555,42.962038,1131.8],[-2.355582,42.962064,1131.8],[-2.355612,42.962081,1131.7],[-2.355649,42.962097,1131.7],[-2.355649,42.962067,1131.7],[-2.355616,42.962052,1131.7],[-2.355604,42.962085,1131.6],[-2.355566,42.962109,1131.6],[-2.355562,42.962075,1131.6],[-2.355551,42.962047,1131.5],[-2.355547,42.962018,1131.5],[-2.355555,42.961987,1131.5],[-2.355575,42.961964,1131.4],[-2.355537,42.961969,1131.4],[-2.355507,42.961993,1131.4],[-2.355466,42.962004,1131.3],[-2.355429,42.962003,1131.3],[-2.35539,42.962005,1131.3],[-2.355368,42.962032,1131.3],[-2.355341,42.962056,1131.3],[-2.3553,42.962067,1131.3],[-2.355283,42.96204,1131.3],[-2.355257,42.962014,1131.2],[-2.355228,42.961995,1131.2],[-2.355187,42.961972,1131.2],[-2.355153,42.961961,1131.2],[-2.355183,42.961978,1131.1],[-2.355218,42.961992,1131.1],[-2.355263,42.961987,1131.1],[-2.355302,42.961984,1131.2],[-2.355342,42.961991,1131.2],[-2.355378,42.962007,1131.3],[-2.355414,42.961996,1131.3],[-2.355448,42.961986,1131.4],[-2.355486,42.961976,1131.5],[-2.355527,42.961964,1131.6],[-2.355552,42.961987,1131.8],[-2.355593,42.961981,1131.9],[-2.355642,42.961983,1132.1],[-2.355685,42.961989,1132.2],[-2.355704,42.962021,1132.4],[-2.355707,42.962049,1132.5],[-2.35573,42.96207,1132.6],[-2.35577,42.962081,1132.8],[-2.355809,42.962095,1132.9],[-2.355844,42.962105,1133.0],[-2.355882,42.962121,1133.2],[-2.355917,42.962131,1133.9],[-2.355956,42.962156,1134.3],[-2.355994,42.962186,1134.6],[-2.356031,42.9622,1134.9],[-2.356077,42.962212,1135.3],[-2.356123,42.962223,1135.6],[-2.356154,42.96224,1135.9],[-2.356189,42.962256,1136.2],[-2.356215,42.962276,1136.5],[-2.356244,42.962295,1136.7],[-2.356272,42.962317,1137.0],[-2.356317,42.962331,1137.2],[-2.356362,42.962331,1137.4],[-2.356401,42.962344,1137.6],[-2.356442,42.962364,1137.7],[-2.356474,42.962383,1137.8],[-2.356501,42.962404,1137.9],[-2.356523,42.962432,1138.0],[-2.356546,42.962457,1138.0],[-2.356577,42.962487,1138.0],[-2.3566,42.962512,1138.0],[-2.356622,42.962552,1138.1],[-2.356649,42.96258,1138.2],[-2.356685,42.962588,1138.2],[-2.356728,42.962606,1138.4],[-2.356771,42.962622,1138.6],[-2.356814,42.962628,1138.8],[-2.35685,42.962639,1139.1],[-2.356893,42.962657,1139.3],[-2.356927,42.962677,1139.7],[-2.356962,42.96271,1140.1],[-2.356999,42.962729,1140.5],[-2.357038,42.962742,1140.9],[-2.357078,42.962751,1141.3],[-2.357115,42.962766,1141.8],[-2.357148,42.962799,1142.4],[-2.357164,42.96283,1143.0],[-2.357181,42.962855,1143.4],[-2.357222,42.962865,1144.0],[-2.357266,42.962873,1144.6],[-2.357296,42.962894,1145.2],[-2.357326,42.962919,1145.9],[-2.357363,42.962935,1146.4],[-2.357367,42.962974,1147.2],[-2.357385,42.963001,1147.7],[-2.357414,42.963027,1148.3],[-2.357438,42.963051,1148.9],[-2.357482,42.963053,1149.5],[-2.357518,42.963066,1150.0],[-2.357555,42.963075,1150.5],[-2.35759,42.963102,1151.1],[-2.357611,42.963125,1151.4],[-2.357639,42.963148,1151.5],[-2.357659,42.963178,1151.8],[-2.357674,42.963205,1151.7],[-2.357678,42.963239,1152.0],[-2.357682,42.963274,1152.1],[-2.357686,42.963307,1152.4],[-2.357697,42.963334,1152.6],[-2.357713,42.963364,1152.8],[-2.357737,42.963392,1152.8],[-2.357773,42.963412,1153.1],[-2.357814,42.963427,1153.4],[-2.357855,42.96343,1153.4],[-2.357903,42.963423,1153.2],[-2.357941,42.963418,1153.2],[-2.357986,42.963413,1153.2],[-2.35803,42.963417,1153.3],[-2.358067,42.963423,1153.4],[-2.358117,42.963417,1153.6],[-2.358163,42.963427,1153.8],[-2.358197,42.963448,1154.1],[-2.358226,42.963472,1154.3],[-2.358266,42.963499,1154.9],[-2.358297,42.963519,1155.3],[-2.358328,42.963543,1155.8],[-2.358367,42.963561,1156.2],[-2.358398,42.963577,1156.4],[-2.358441,42.963591,1156.7],[-2.358483,42.963598,1157.0],[-2.358528,42.963608,1157.4],[-2.35856,42.963623,1157.7],[-2.3586,42.963627,1158.1],[-2.358633,42.963645,1158.7],[-2.358667,42.963664,1159.3],[-2.358698,42.963687,1159.9],[-2.358722,42.963712,1160.5],[-2.358755,42.963726,1161.1],[-2.35878,42.963749,1161.5],[-2.358799,42.963779,1161.9],[-2.35882,42.963805,1162.4],[-2.358837,42.96383,1163.0],[-2.35887,42.963848,1163.6],[-2.35889,42.963878,1164.0],[-2.358916,42.963898,1164.6],[-2.358935,42.963922,1165.2],[-2.358966,42.963945,1165.9],[-2.358997,42.963962,1166.5],[-2.359032,42.963981,1167.1],[-2.359064,42.963997,1167.6],[-2.359091,42.964019,1168.2],[-2.359113,42.96404,1168.6],[-2.359143,42.964057,1168.9],[-2.359165,42.964082,1169.2],[-2.359197,42.964106,1170.0],[-2.359216,42.964136,1170.7],[-2.35924,42.964162,1171.3],[-2.359258,42.964188,1171.8],[-2.359274,42.964213,1172.3],[-2.359292,42.964243,1172.9],[-2.359303,42.964269,1173.4],[-2.359314,42.964299,1174.0],[-2.359322,42.964326,1174.3],[-2.359318,42.964354,1174.6],[-2.359321,42.964386,1175.0],[-2.359332,42.964419,1175.4],[-2.359352,42.964448,1175.9],[-2.359358,42.964475,1176.3],[-2.359372,42.964503,1176.7],[-2.359375,42.964537,1177.2],[-2.359383,42.964569,1177.6],[-2.359398,42.964601,1178.1],[-2.35941,42.96463,1178.6],[-2.359419,42.964656,1179.1],[-2.359426,42.964687,1179.5],[-2.359436,42.964714,1179.8],[-2.359456,42.964742,1180.2],[-2.359465,42.964771,1180.7],[-2.359463,42.964804,1181.3],[-2.359474,42.964836,1181.9],[-2.359437,42.96486,1182.4],[-2.359401,42.96488,1182.9],[-2.359375,42.964899,1183.4],[-2.359341,42.964912,1183.8],[-2.359298,42.964918,1184.3],[-2.359255,42.964918,1185.0],[-2.359214,42.964913,1185.5],[-2.359175,42.964906,1185.7],[-2.35913,42.964911,1185.9],[-2.359089,42.964915,1185.9],[-2.35905,42.964903,1186.0],[-2.359011,42.964916,1186.1],[-2.358962,42.964912,1186.2],[-2.358915,42.964912,1186.3],[-2.358871,42.964909,1186.3],[-2.35883,42.964906,1186.2],[-2.358786,42.964915,1186.2],[-2.358749,42.964912,1186.0],[-2.358704,42.964919,1185.9],[-2.358663,42.964931,1185.7],[-2.358628,42.964944,1185.6],[-2.358596,42.96496,1185.4],[-2.358554,42.964963,1185.3],[-2.35851,42.964951,1185.2],[-2.358476,42.964934,1185.1],[-2.35851,42.964948,1185.1],[-2.358547,42.96494,1185.1],[-2.35859,42.96495,1185.0],[-2.358634,42.964944,1184.8],[-2.358673,42.964947,1184.7],[-2.35871,42.964956,1184.7],[-2.358746,42.964965,1184.7],[-2.358783,42.964972,1184.7],[-2.35882,42.964987,1184.9],[-2.358868,42.964982,1185.1],[-2.358911,42.965001,1185.3],[-2.358945,42.965018,1185.5],[-2.358991,42.965027,1185.7],[-2.359045,42.965029,1186.2],[-2.359096,42.965033,1186.8],[-2.359144,42.965037,1187.0],[-2.359182,42.96503,1187.2],[-2.35922,42.965023,1187.5],[-2.359246,42.965046,1187.8],[-2.35929,42.965054,1188.1],[-2.359326,42.965059,1188.4],[-2.359363,42.965069,1188.8],[-2.359399,42.965078,1189.2],[-2.359434,42.965089,1189.4],[-2.35948,42.965094,1189.7],[-2.359521,42.965111,1190.0],[-2.359565,42.965121,1190.5],[-2.359598,42.965138,1190.9],[-2.359624,42.965166,1191.7],[-2.359653,42.965194,1192.5],[-2.359681,42.965219,1193.3],[-2.359701,42.965242,1193.8],[-2.359731,42.965269,1194.6],[-2.359751,42.965299,1195.6],[-2.359778,42.965319,1196.4],[-2.35981,42.965339,1197.3],[-2.359846,42.965363,1198.2],[-2.359874,42.965383,1198.9],[-2.359903,42.965402,1199.7],[-2.359935,42.965429,1200.9],[-2.359968,42.965446,1201.9],[-2.360004,42.965454,1202.7],[-2.360037,42.965479,1203.6],[-2.360064,42.965506,1204.4],[-2.360099,42.965515,1205.1],[-2.360138,42.965531,1205.9],[-2.360172,42.965548,1206.6],[-2.360204,42.965564,1207.5],[-2.36024,42.965589,1208.7],[-2.360275,42.965612,1209.8],[-2.360311,42.965629,1210.8],[-2.360343,42.965653,1211.9],[-2.360374,42.965679,1213.0],[-2.360412,42.965679,1213.9],[-2.360453,42.965693,1214.9],[-2.360486,42.965713,1215.9],[-2.360518,42.965737,1217.2],[-2.360557,42.965748,1218.4],[-2.360597,42.965756,1219.5],[-2.360623,42.965775,1220.4],[-2.360652,42.965798,1221.4],[-2.360673,42.96582,1222.1],[-2.360691,42.965849,1222.9],[-2.36071,42.965878,1223.8],[-2.360723,42.965904,1224.7],[-2.360757,42.96592,1225.7],[-2.360794,42.965929,1226.7],[-2.360823,42.965953,1227.8],[-2.360855,42.965975,1228.7],[-2.360893,42.965993,1229.7],[-2.36093,42.965997,1230.4],[-2.360954,42.966019,1230.9],[-2.360993,42.966026,1231.6],[-2.361024,42.966041,1232.1],[-2.361052,42.966063,1232.6],[-2.361069,42.966094,1233.0],[-2.361109,42.966096,1233.7],[-2.361149,42.966085,1234.5],[-2.361184,42.966078,1235.2],[-2.361223,42.966075,1235.9],[-2.361254,42.966099,1236.7],[-2.361279,42.966122,1237.2],[-2.361306,42.966141,1237.7],[-2.361337,42.966163,1238.3],[-2.361357,42.966189,1238.8],[-2.361394,42.966199,1239.4],[-2.361427,42.966218,1239.8],[-2.361451,42.96624,1240.2],[-2.361472,42.966272,1240.6],[-2.361499,42.966304,1241.1],[-2.36152,42.966329,1241.5],[-2.361536,42.966358,1241.9],[-2.361548,42.966385,1242.2],[-2.361567,42.966412,1242.5],[-2.361571,42.966439,1242.6],[-2.361585,42.966464,1242.8],[-2.361563,42.966497,1242.9],[-2.361562,42.966526,1243.0],[-2.361596,42.966548,1243.2],[-2.361616,42.966573,1243.3],[-2.361651,42.966583,1243.3],[-2.361683,42.966601,1243.3],[-2.361709,42.966624,1243.3],[-2.36173,42.966649,1243.3],[-2.36174,42.966678,1243.3],[-2.361757,42.966705,1243.2],[-2.361788,42.96669,1243.1],[-2.361816,42.966672,1243.0],[-2.361857,42.966664,1242.8],[-2.361896,42.966661,1242.7],[-2.361938,42.966676,1242.5],[-2.361964,42.966697,1242.3],[-2.361984,42.966725,1242.0],[-2.36199,42.966761,1241.6],[-2.362017,42.966795,1241.2],[-2.362041,42.966821,1240.8],[-2.362069,42.96684,1240.4],[-2.362104,42.96686,1240.1],[-2.362111,42.96689,1239.8],[-2.362124,42.966918,1239.5],[-2.362154,42.966936,1239.2],[-2.362172,42.966966,1238.7],[-2.3622,42.96699,1238.3],[-2.362232,42.967019,1238.0],[-2.36225,42.967044,1237.9],[-2.362282,42.967058,1237.7],[-2.362324,42.967074,1237.4],[-2.362355,42.967095,1237.2],[-2.362392,42.967099,1237.0],[-2.362427,42.967115,1236.8],[-2.362444,42.967138,1236.6],[-2.362456,42.967167,1236.5],[-2.362478,42.967194,1236.3],[-2.362514,42.967207,1236.2],[-2.362549,42.967217,1236.1],[-2.362577,42.967241,1236.0],[-2.3626,42.967266,1235.9],[-2.362617,42.96731,1235.8],[-2.362637,42.967339,1235.7],[-2.362672,42.967358,1235.6],[-2.362709,42.967379,1235.5],[-2.362727,42.967411,1235.4],[-2.362753,42.967434,1235.4],[-2.362781,42.967456,1235.4],[-2.362793,42.967484,1235.4],[-2.362827,42.967509,1235.7],[-2.362857,42.967531,1236.0],[-2.362886,42.967557,1236.6],[-2.362922,42.96758,1237.4],[-2.362949,42.967602,1238.1],[-2.36298,42.967623,1238.8],[-2.363009,42.96764,1239.5],[-2.363042,42.967655,1240.2],[-2.363076,42.967678,1241.2],[-2.363113,42.967698,1242.1],[-2.36314,42.967717,1242.6],[-2.363167,42.967742,1243.2],[-2.36319,42.967772,1244.0],[-2.363216,42.967793,1244.6],[-2.36324,42.967819,1245.1],[-2.363269,42.967836,1245.6],[-2.363302,42.967858,1246.1],[-2.363326,42.96788,1246.6],[-2.363355,42.967897,1247.2],[-2.363382,42.967917,1247.7],[-2.363415,42.967929,1248.2],[-2.363442,42.967949,1248.7],[-2.363458,42.967975,1249.2],[-2.363483,42.968,1249.9],[-2.363509,42.968019,1250.5],[-2.363549,42.968039,1251.3],[-2.363585,42.968057,1251.8],[-2.363618,42.968071,1252.3],[-2.363648,42.968089,1252.8],[-2.363685,42.968105,1253.4],[-2.36372,42.96812,1253.9],[-2.363748,42.96814,1254.3],[-2.363782,42.968166,1254.7],[-2.363815,42.968179,1255.1],[-2.363848,42.968198,1255.4],[-2.363872,42.968218,1255.7],[-2.363905,42.968248,1256.1],[-2.363931,42.968279,1256.7],[-2.363956,42.968301,1257.1],[-2.363984,42.96832,1257.6],[-2.364023,42.968348,1258.2],[-2.364064,42.96837,1258.6],[-2.364096,42.968385,1258.8],[-2.36412,42.968407,1259.1],[-2.364132,42.968433,1259.4],[-2.364139,42.968465,1259.8],[-2.364161,42.968498,1260.3],[-2.364191,42.968519,1260.6],[-2.364219,42.968549,1261.0],[-2.36426,42.968572,1261.2],[-2.364293,42.968596,1261.3],[-2.364323,42.968619,1261.5],[-2.364356,42.968645,1261.7],[-2.364395,42.968671,1262.0],[-2.364423,42.968695,1262.4],[-2.364449,42.968726,1262.7],[-2.36447,42.968753,1263.1],[-2.36449,42.968779,1263.5],[-2.36452,42.968802,1263.9],[-2.364554,42.968823,1264.3],[-2.364587,42.96884,1264.6],[-2.364623,42.968858,1265.0],[-2.36467,42.968872,1265.5],[-2.364702,42.968897,1265.9],[-2.364738,42.96892,1266.3],[-2.364764,42.968943,1266.7],[-2.364799,42.968964,1267.0],[-2.364828,42.968986,1267.4],[-2.364856,42.969006,1267.7],[-2.364891,42.969021,1267.9],[-2.364928,42.969045,1268.2],[-2.364958,42.969064,1268.4],[-2.36499,42.969086,1268.5],[-2.365012,42.969114,1268.7],[-2.365041,42.969137,1268.8],[-2.365062,42.969161,1268.9],[-2.365097,42.969177,1268.9],[-2.365122,42.969212,1269.0],[-2.365146,42.969243,1269.0],[-2.365182,42.969257,1269.0],[-2.365206,42.96928,1268.9],[-2.365227,42.969308,1268.9],[-2.365251,42.969332,1268.8],[-2.365284,42.969359,1268.8],[-2.365317,42.969371,1268.7],[-2.365352,42.969388,1268.6],[-2.365386,42.969401,1268.5],[-2.365432,42.969409,1268.3],[-2.36547,42.969424,1268.1],[-2.365507,42.96944,1267.9],[-2.365543,42.969457,1267.7],[-2.365579,42.969482,1267.6],[-2.365613,42.969509,1267.2],[-2.36565,42.969525,1266.9],[-2.365689,42.969517,1266.6],[-2.365715,42.969494,1266.2],[-2.365673,42.969496,1265.7],[-2.365702,42.969477,1265.1],[-2.365717,42.969448,1264.5],[-2.36564,42.96948,1263.5],[-2.365679,42.969474,1263.1],[-2.365716,42.969482,1262.8],[-2.365679,42.969487,1262.5],[-2.365715,42.9695,1262.2],[-2.365748,42.969514,1262.0],[-2.365741,42.969542,1261.7],[-2.365749,42.969571,1261.5],[-2.365757,42.969601,1261.2],[-2.365767,42.969627,1261.1],[-2.365762,42.96966,1261.2],[-2.365774,42.969692,1261.3],[-2.365784,42.96972,1261.2],[-2.365798,42.969746,1261.1],[-2.365813,42.969774,1261.0],[-2.365832,42.969802,1260.9],[-2.36584,42.969831,1260.8],[-2.365865,42.969856,1260.7],[-2.365892,42.969879,1260.8],[-2.365923,42.969899,1260.9],[-2.365942,42.969928,1260.7],[-2.365967,42.969951,1260.4],[-2.366,42.96997,1260.0],[-2.366024,42.970002,1259.9],[-2.366054,42.970025,1259.7],[-2.366087,42.970053,1259.3],[-2.366107,42.970077,1259.0],[-2.366134,42.970104,1258.8],[-2.36616,42.970124,1258.7],[-2.366187,42.970147,1258.6],[-2.36621,42.970172,1258.5],[-2.366244,42.970186,1258.3],[-2.36627,42.970213,1258.1],[-2.366292,42.970237,1258.1],[-2.366313,42.97026,1258.2],[-2.366338,42.970286,1258.2],[-2.366366,42.970313,1258.1],[-2.366398,42.97033,1258.1],[-2.366419,42.970355,1258.1],[-2.366443,42.970381,1258.1],[-2.366464,42.970411,1258.2],[-2.366491,42.970435,1258.1],[-2.366514,42.970462,1258.0],[-2.366529,42.97049,1257.9],[-2.366552,42.970514,1257.9],[-2.366577,42.970541,1258.0],[-2.366595,42.970565,1258.1],[-2.366614,42.970591,1258.1],[-2.366647,42.970614,1258.0],[-2.366676,42.970641,1258.0],[-2.366703,42.970664,1258.0],[-2.366728,42.970696,1258.0],[-2.366754,42.97072,1257.9],[-2.36678,42.970747,1257.8],[-2.366806,42.970776,1257.7],[-2.366829,42.970797,1257.6],[-2.36686,42.970822,1257.4],[-2.366886,42.970848,1257.1],[-2.366911,42.970874,1256.8],[-2.36694,42.970906,1256.4],[-2.366974,42.970929,1256.2],[-2.367005,42.970956,1255.9],[-2.36703,42.970979,1255.6],[-2.367058,42.971002,1255.1],[-2.367088,42.971018,1254.7],[-2.367116,42.97104,1254.3],[-2.367149,42.971059,1254.0],[-2.36718,42.971077,1253.6],[-2.367213,42.971101,1253.3],[-2.367246,42.971129,1252.9],[-2.367283,42.971146,1252.6],[-2.367317,42.971159,1252.3],[-2.367349,42.971173,1251.9],[-2.367379,42.971191,1251.5],[-2.367409,42.971211,1251.2],[-2.367433,42.971238,1251.0],[-2.367442,42.971267,1250.7],[-2.367456,42.971303,1250.4],[-2.367451,42.971334,1250.0],[-2.367439,42.971362,1249.7],[-2.367438,42.971395,1249.3],[-2.367445,42.971431,1248.9],[-2.367455,42.971466,1248.4],[-2.367466,42.971494,1248.1],[-2.367482,42.971522,1247.7],[-2.367508,42.971549,1247.2],[-2.367536,42.971572,1246.8],[-2.367571,42.971557,1246.4],[-2.367588,42.971588,1245.5],[-2.367597,42.971623,1244.5],[-2.367614,42.971648,1243.7],[-2.367626,42.971675,1243.2],[-2.36764,42.971706,1242.7],[-2.367656,42.971737,1242.1],[-2.367669,42.971769,1241.6],[-2.367662,42.971801,1241.0],[-2.367668,42.971829,1240.8],[-2.367681,42.971859,1240.7],[-2.367688,42.971894,1240.6],[-2.367695,42.971932,1240.4],[-2.367706,42.971964,1240.2],[-2.367718,42.971997,1240.1],[-2.367719,42.972029,1240.1],[-2.36772,42.972059,1240.1],[-2.367721,42.972091,1240.1],[-2.367722,42.972119,1240.1],[-2.367707,42.972146,1240.1],[-2.367703,42.972173,1240.2],[-2.36771,42.972205,1240.5],[-2.367721,42.972237,1240.8],[-2.367735,42.972276,1240.8],[-2.367746,42.972305,1240.8],[-2.367753,42.972342,1240.8],[-2.367758,42.972372,1241.0],[-2.367756,42.972404,1241.2],[-2.367754,42.972433,1241.4],[-2.367756,42.972466,1241.4],[-2.367777,42.972497,1241.5],[-2.367799,42.97253,1241.5],[-2.367814,42.972561,1241.4],[-2.367829,42.97259,1241.3],[-2.367846,42.972625,1241.4],[-2.36786,42.972653,1241.5],[-2.367873,42.972682,1241.6],[-2.367891,42.972715,1241.6],[-2.367909,42.972744,1241.5],[-2.367917,42.972777,1241.5],[-2.367936,42.972801,1241.5],[-2.367957,42.972827,1241.5],[-2.367969,42.972857,1241.4],[-2.367985,42.972892,1241.4],[-2.368006,42.972922,1241.4],[-2.368023,42.972954,1241.5],[-2.368029,42.972982,1241.6],[-2.368027,42.973014,1241.6],[-2.36803,42.973042,1241.6],[-2.36805,42.973069,1241.5],[-2.368075,42.973096,1241.5],[-2.368097,42.973126,1241.6],[-2.368115,42.97316,1241.7],[-2.368138,42.973187,1242.0],[-2.368161,42.973217,1242.4],[-2.368185,42.973246,1242.7],[-2.368211,42.973274,1242.9],[-2.368231,42.973301,1243.1],[-2.368252,42.973329,1243.2],[-2.368281,42.973356,1243.1],[-2.368306,42.973385,1243.1],[-2.368331,42.973417,1243.0],[-2.368351,42.973441,1242.9],[-2.368377,42.973464,1242.9],[-2.36841,42.973493,1242.8],[-2.368439,42.973516,1242.8],[-2.368472,42.973544,1242.7],[-2.368503,42.973574,1242.7],[-2.368535,42.973594,1242.7],[-2.368558,42.973623,1242.7],[-2.368573,42.973649,1242.7],[-2.368601,42.973676,1242.7],[-2.368625,42.973697,1242.7],[-2.368652,42.973723,1242.7],[-2.368678,42.97375,1242.8],[-2.36871,42.973781,1242.9],[-2.368742,42.97381,1242.9],[-2.368776,42.973834,1243.0],[-2.368809,42.973861,1243.0],[-2.36884,42.973892,1243.1],[-2.368867,42.973921,1243.2],[-2.368898,42.973951,1243.3],[-2.368938,42.973958,1243.3],[-2.368963,42.973977,1243.4],[-2.368995,42.974007,1243.5],[-2.369017,42.974036,1243.6],[-2.36905,42.974074,1243.7],[-2.369073,42.974095,1243.8],[-2.369108,42.974129,1243.9],[-2.369132,42.974159,1244.0],[-2.369154,42.974185,1244.2],[-2.369184,42.974209,1244.3],[-2.369218,42.974237,1244.5],[-2.369237,42.97426,1244.7],[-2.369261,42.974289,1244.8],[-2.369279,42.974318,1245.0],[-2.369296,42.974343,1245.2],[-2.36931,42.97437,1245.4],[-2.369332,42.974404,1245.7],[-2.369358,42.974433,1245.9],[-2.369384,42.974452,1246.2],[-2.369411,42.974479,1246.5],[-2.369439,42.974498,1246.7],[-2.36947,42.974523,1246.8],[-2.369483,42.974549,1247.0],[-2.369493,42.974581,1247.1],[-2.369506,42.974608,1247.3],[-2.369527,42.974634,1247.4],[-2.36955,42.974655,1247.5],[-2.369574,42.974678,1247.8],[-2.369596,42.974706,1248.0],[-2.36962,42.974727,1248.2],[-2.36964,42.974755,1248.4],[-2.369653,42.974782,1248.6],[-2.36967,42.974811,1248.7],[-2.369694,42.974837,1248.9],[-2.369723,42.974862,1249.0],[-2.369751,42.974884,1249.2],[-2.369783,42.974911,1249.3],[-2.369804,42.974941,1249.5],[-2.369834,42.974971,1249.7],[-2.369855,42.974995,1249.8],[-2.369877,42.975017,1249.9],[-2.369908,42.975039,1250.0],[-2.369938,42.975064,1250.2],[-2.369965,42.97509,1250.3],[-2.369995,42.975114,1250.4],[-2.370018,42.975143,1250.6],[-2.370037,42.975169,1250.7],[-2.370051,42.9752,1250.8],[-2.370068,42.975234,1251.0],[-2.370088,42.97526,1251.1],[-2.370109,42.975284,1251.2],[-2.370124,42.975315,1251.3],[-2.370151,42.975345,1251.5],[-2.370166,42.975373,1251.6],[-2.370164,42.9754,1251.7],[-2.370151,42.975432,1251.9],[-2.370154,42.975461,1252.0],[-2.370165,42.975488,1252.1],[-2.370169,42.975518,1252.2],[-2.370163,42.975556,1252.4],[-2.370157,42.97559,1252.6],[-2.370156,42.975628,1252.8],[-2.370152,42.975655,1252.9],[-2.37014,42.975687,1253.1],[-2.370138,42.97572,1253.3],[-2.37014,42.975758,1253.5],[-2.370152,42.975788,1253.7],[-2.370167,42.975818,1253.8],[-2.370163,42.975848,1253.9],[-2.370167,42.975877,1254.0],[-2.370166,42.975907,1254.1],[-2.370162,42.975941,1254.3],[-2.370162,42.975969,1254.4],[-2.370164,42.975997,1254.4],[-2.370154,42.97603,1254.5],[-2.37014,42.976058,1254.6],[-2.370147,42.976094,1254.7],[-2.370162,42.976119,1254.8],[-2.37018,42.976156,1254.9],[-2.370173,42.976189,1255.0],[-2.370167,42.976218,1255.1],[-2.370173,42.976248,1255.2],[-2.370175,42.976276,1255.2],[-2.370163,42.976306,1255.3],[-2.370131,42.976336,1255.4],[-2.370099,42.976367,1255.5],[-2.370082,42.976401,1255.6],[-2.370073,42.976438,1255.7],[-2.370065,42.976469,1255.8],[-2.37005,42.976495,1255.9],[-2.370045,42.976528,1256.0],[-2.370049,42.976563,1256.1],[-2.370024,42.976593,1256.2],[-2.370033,42.976626,1256.3],[-2.370049,42.976661,1256.4],[-2.370056,42.976692,1256.5],[-2.370064,42.976722,1256.5],[-2.370056,42.976759,1256.6],[-2.370036,42.976789,1256.7],[-2.370007,42.97681,1256.8],[-2.369992,42.976835,1256.8],[-2.369969,42.976865,1256.9],[-2.369952,42.976892,1257.0],[-2.369943,42.976927,1257.0],[-2.369948,42.976963,1257.1],[-2.36993,42.976991,1257.2],[-2.369923,42.977019,1257.2],[-2.369925,42.977053,1257.3],[-2.369927,42.977083,1257.3],[-2.369924,42.977114,1257.4],[-2.369913,42.977143,1257.5],[-2.369894,42.977167,1257.5],[-2.369863,42.977184,1257.6],[-2.36984,42.977216,1257.7],[-2.369829,42.977248,1257.7],[-2.369837,42.977283,1257.8],[-2.369848,42.97731,1257.8],[-2.369862,42.977346,1257.9],[-2.369878,42.977373,1257.9],[-2.369887,42.977401,1258.0],[-2.369882,42.977442,1258.0],[-2.369887,42.977478,1258.1],[-2.369901,42.977512,1258.2],[-2.369925,42.977547,1258.2],[-2.369939,42.977573,1258.3],[-2.36995,42.977601,1258.3],[-2.369968,42.977626,1258.3],[-2.36999,42.977652,1258.4],[-2.370008,42.977681,1258.4],[-2.370032,42.977711,1258.5],[-2.370052,42.977736,1258.5],[-2.370075,42.977763,1258.6],[-2.370094,42.977789,1258.6],[-2.370122,42.977816,1258.7],[-2.370144,42.977845,1258.7],[-2.370168,42.97787,1258.8],[-2.370188,42.977894,1258.8],[-2.370212,42.977925,1258.8],[-2.370232,42.977949,1258.9],[-2.370256,42.977977,1258.9],[-2.370278,42.978004,1259.0],[-2.370306,42.978034,1259.1],[-2.370332,42.978064,1259.1],[-2.370361,42.97809,1259.2],[-2.370386,42.978125,1259.3],[-2.370412,42.978153,1259.3],[-2.370434,42.978183,1259.4],[-2.370459,42.978216,1259.4],[-2.370479,42.978244,1259.5],[-2.3705,42.97827,1259.5],[-2.370532,42.978302,1259.6],[-2.370564,42.97833,1259.6],[-2.370591,42.978348,1259.7],[-2.370624,42.978371,1259.7],[-2.370653,42.978392,1259.8],[-2.370684,42.978417,1259.8],[-2.370716,42.978441,1259.9],[-2.370744,42.978462,1259.9],[-2.370777,42.978489,1260.0],[-2.37081,42.97851,1260.0],[-2.370846,42.978531,1260.0],[-2.370883,42.97855,1260.1],[-2.37092,42.978577,1260.1],[-2.370957,42.978598,1260.1],[-2.370996,42.978612,1260.1],[-2.371029,42.978633,1260.1],[-2.371066,42.978656,1260.1],[-2.371101,42.978674,1260.1],[-2.371136,42.978696,1260.1],[-2.371176,42.978713,1260.1],[-2.371208,42.978732,1260.1],[-2.371249,42.97875,1260.1],[-2.371278,42.978771,1260.1],[-2.371294,42.978801,1260.1],[-2.371321,42.978823,1260.0],[-2.371352,42.978845,1260.0],[-2.371387,42.978859,1259.9],[-2.371427,42.978851,1259.9],[-2.371464,42.978845,1259.8],[-2.371494,42.978825,1259.7],[-2.371533,42.978828,1259.5],[-2.37158,42.97884,1259.3],[-2.371618,42.97886,1259.0],[-2.371655,42.978875,1258.7],[-2.37169,42.978893,1258.4],[-2.371726,42.978908,1258.1],[-2.371767,42.978907,1257.8],[-2.371804,42.978916,1257.5],[-2.37184,42.978929,1257.2],[-2.371873,42.978941,1256.8],[-2.371911,42.978961,1256.3],[-2.371953,42.978967,1255.8],[-2.371989,42.978973,1255.4],[-2.37202,42.978988,1255.0],[-2.372053,42.979001,1254.6],[-2.372088,42.979021,1254.2],[-2.372128,42.979024,1253.8],[-2.372169,42.979034,1253.3],[-2.372205,42.979047,1252.9],[-2.372243,42.979062,1252.5],[-2.372279,42.979073,1252.1],[-2.372313,42.979088,1251.7],[-2.372346,42.979112,1251.2],[-2.372383,42.979134,1250.7],[-2.372416,42.97915,1250.3],[-2.372456,42.97916,1250.0],[-2.37249,42.979177,1249.6],[-2.372529,42.979192,1249.2],[-2.372569,42.979209,1248.6],[-2.372608,42.979215,1248.1],[-2.372645,42.979218,1247.6],[-2.372683,42.979237,1246.9],[-2.37273,42.979247,1246.3],[-2.372776,42.97926,1245.6],[-2.372817,42.97927,1245.1],[-2.37286,42.979277,1244.5],[-2.372903,42.979275,1243.9],[-2.372941,42.979288,1243.3],[-2.372984,42.979303,1242.7],[-2.373024,42.979323,1242.0],[-2.373061,42.979326,1241.5],[-2.373099,42.979332,1241.0],[-2.37313,42.979349,1240.5],[-2.373163,42.979365,1239.9],[-2.373199,42.979386,1239.2],[-2.373239,42.979404,1238.6],[-2.373277,42.979419,1238.0],[-2.373325,42.979427,1237.2],[-2.373362,42.979438,1236.5],[-2.373403,42.979452,1235.7],[-2.373445,42.979457,1235.1],[-2.373482,42.979467,1234.5],[-2.373519,42.979475,1234.0],[-2.373547,42.979501,1233.4],[-2.373571,42.979531,1232.8],[-2.373617,42.979537,1232.3],[-2.373657,42.979553,1231.6],[-2.373701,42.979554,1230.9],[-2.373732,42.979571,1230.3],[-2.373778,42.979585,1229.6],[-2.373821,42.979604,1228.8],[-2.373857,42.97962,1228.1],[-2.373906,42.979625,1227.4],[-2.373936,42.979643,1226.9],[-2.373974,42.979666,1226.1],[-2.374018,42.979677,1225.4],[-2.374062,42.979693,1224.7],[-2.374092,42.979711,1224.2],[-2.374126,42.979732,1223.5],[-2.374165,42.979742,1223.0],[-2.374209,42.979755,1222.5],[-2.374245,42.979766,1222.0],[-2.374285,42.979779,1221.5],[-2.374327,42.979797,1220.9],[-2.374361,42.979809,1220.5],[-2.374403,42.979827,1219.9],[-2.374435,42.97984,1219.4],[-2.374479,42.979857,1218.7],[-2.374512,42.97987,1218.1],[-2.374548,42.979876,1217.5],[-2.374584,42.979892,1216.9],[-2.374627,42.979897,1216.3],[-2.374656,42.979917,1216.0],[-2.374693,42.979911,1215.6],[-2.374733,42.979909,1215.2],[-2.374766,42.979895,1214.8],[-2.374803,42.979904,1214.3],[-2.374838,42.979923,1213.6],[-2.374871,42.979938,1213.1],[-2.374908,42.979951,1212.5],[-2.374947,42.979958,1211.9],[-2.374976,42.979975,1211.3],[-2.375018,42.979975,1210.7],[-2.37506,42.979983,1210.0],[-2.375101,42.979987,1209.4],[-2.375139,42.980002,1208.6],[-2.375179,42.980008,1207.9],[-2.375214,42.979993,1207.3],[-2.375255,42.979977,1206.5],[-2.375299,42.979975,1205.9],[-2.375341,42.979964,1205.0],[-2.375383,42.979962,1204.2],[-2.375424,42.97997,1203.5],[-2.375462,42.979966,1202.8],[-2.375508,42.979977,1201.8],[-2.375549,42.979987,1200.9],[-2.375587,42.979993,1200.2],[-2.37563,42.980005,1199.3],[-2.375668,42.98001,1198.6],[-2.375706,42.980014,1197.9],[-2.375748,42.980012,1197.1],[-2.375783,42.980005,1196.4],[-2.375821,42.980021,1195.4],[-2.375862,42.980021,1194.6],[-2.375904,42.980018,1193.8],[-2.375942,42.980022,1193.0],[-2.375982,42.980026,1192.2],[-2.376031,42.980025,1191.3],[-2.376081,42.980036,1190.3],[-2.37612,42.980049,1189.5],[-2.376162,42.980062,1188.6],[-2.376198,42.980064,1188.0],[-2.376239,42.98006,1187.2],[-2.376279,42.980062,1186.5],[-2.376326,42.980067,1185.6],[-2.37637,42.980077,1184.6],[-2.376405,42.980084,1183.8],[-2.376447,42.980076,1182.9],[-2.376488,42.980083,1182.2],[-2.37653,42.98009,1181.5],[-2.376567,42.980088,1180.9],[-2.376613,42.980072,1180.0],[-2.376652,42.980063,1179.4],[-2.37669,42.980057,1178.7],[-2.376728,42.980069,1178.0],[-2.376769,42.980073,1177.3],[-2.376809,42.980075,1176.4],[-2.376844,42.980066,1175.7],[-2.376889,42.980058,1174.8],[-2.376933,42.980053,1174.0],[-2.37698,42.98005,1173.3],[-2.377022,42.980049,1172.5],[-2.377067,42.980052,1171.6],[-2.377109,42.980053,1171.0],[-2.377147,42.980057,1170.4],[-2.377187,42.980066,1169.8],[-2.377221,42.980083,1169.2],[-2.37726,42.980098,1168.6],[-2.377304,42.980097,1168.0],[-2.377343,42.980101,1167.6],[-2.377385,42.980107,1167.1],[-2.37742,42.980116,1166.7],[-2.377463,42.980129,1166.2],[-2.377496,42.980143,1165.7],[-2.377523,42.980163,1165.3],[-2.377559,42.980187,1164.7],[-2.377587,42.980205,1164.3],[-2.377622,42.980221,1163.7],[-2.377666,42.980233,1163.1],[-2.377701,42.980242,1162.7],[-2.37773,42.98026,1162.2],[-2.377758,42.980283,1161.7],[-2.377786,42.98031,1161.2],[-2.377805,42.980336,1160.7],[-2.377831,42.980356,1160.3],[-2.377853,42.980381,1159.8],[-2.377871,42.980405,1159.4],[-2.377876,42.980431,1159.0],[-2.377898,42.980461,1158.4],[-2.377895,42.980488,1158.0],[-2.377916,42.980515,1157.5],[-2.377903,42.980553,1157.0],[-2.3779,42.980587,1156.5],[-2.377899,42.98062,1156.0],[-2.37789,42.980646,1155.5],[-2.377885,42.980684,1154.9],[-2.377873,42.980721,1154.2],[-2.377859,42.980747,1153.7],[-2.37784,42.980774,1153.2],[-2.377816,42.9808,1152.6],[-2.37779,42.980835,1151.9],[-2.377771,42.98086,1151.4],[-2.377754,42.980895,1150.8],[-2.377728,42.980926,1150.2],[-2.377702,42.98096,1149.5],[-2.37769,42.980994,1149.2],[-2.377676,42.981028,1148.8],[-2.377648,42.981051,1148.6],[-2.37761,42.981074,1148.2],[-2.377573,42.981093,1147.9],[-2.377535,42.981118,1147.6],[-2.377535,42.981153,1147.0],[-2.377559,42.981182,1146.4],[-2.377581,42.981206,1146.0],[-2.377605,42.981238,1145.5],[-2.377624,42.981267,1145.0],[-2.377636,42.981301,1144.5],[-2.377647,42.981334,1144.1],[-2.377655,42.981362,1143.8],[-2.377661,42.981394,1143.3],[-2.377663,42.981426,1143.0],[-2.377664,42.981457,1142.6],[-2.377666,42.981485,1142.3],[-2.377674,42.981511,1142.0],[-2.37769,42.981542,1141.6],[-2.377727,42.981558,1141.2],[-2.377747,42.98159,1140.9],[-2.377766,42.981616,1140.6],[-2.377785,42.98164,1140.2],[-2.377808,42.981667,1139.9],[-2.377841,42.981687,1139.5],[-2.377874,42.981714,1139.1],[-2.377897,42.981745,1138.7],[-2.377924,42.981779,1138.2],[-2.377949,42.981814,1137.8],[-2.377972,42.981838,1137.5],[-2.378009,42.98186,1137.2],[-2.378032,42.981888,1136.9],[-2.378056,42.981915,1136.6],[-2.378075,42.98194,1136.3],[-2.378097,42.981968,1135.9],[-2.378123,42.981997,1135.5],[-2.378155,42.982029,1135.1],[-2.378177,42.982056,1134.6],[-2.378212,42.98208,1134.1],[-2.378242,42.982103,1133.7],[-2.37827,42.982136,1133.2],[-2.378291,42.98217,1132.6],[-2.378311,42.9822,1132.1],[-2.378343,42.982229,1131.6],[-2.378379,42.982253,1131.1],[-2.37841,42.982275,1130.7],[-2.378426,42.982302,1130.3],[-2.378444,42.982331,1129.8],[-2.378465,42.98236,1129.3],[-2.378483,42.98239,1128.8],[-2.378504,42.982416,1128.4],[-2.378522,42.982446,1127.8],[-2.378546,42.982475,1127.2],[-2.378574,42.982505,1126.6],[-2.378597,42.982533,1126.1],[-2.378619,42.982558,1125.5],[-2.378645,42.982583,1125.0],[-2.378684,42.982597,1124.4],[-2.378724,42.982603,1123.8],[-2.37876,42.982612,1123.2],[-2.378789,42.982635,1122.6],[-2.378819,42.982653,1122.0],[-2.378864,42.982668,1121.2],[-2.378905,42.982677,1120.5],[-2.378934,42.982695,1119.9],[-2.378964,42.982721,1119.2],[-2.378995,42.982739,1118.6],[-2.379005,42.982768,1117.9],[-2.379023,42.982799,1117.2],[-2.379052,42.982816,1116.5],[-2.379092,42.982837,1115.7],[-2.379132,42.982861,1114.7],[-2.379178,42.982878,1113.7],[-2.379228,42.982879,1112.7],[-2.379272,42.982876,1112.7],[-2.379315,42.982871,1112.6],[-2.379349,42.982856,1112.5],[-2.379396,42.98284,1112.4],[-2.379431,42.98283,1112.3],[-2.37947,42.982821,1112.2],[-2.379511,42.982813,1112.1],[-2.379551,42.9828,1112.0],[-2.379595,42.982802,1112.0],[-2.379636,42.982808,1111.9],[-2.379678,42.982823,1111.8],[-2.379723,42.982843,1111.7],[-2.379771,42.982853,1111.4],[-2.379815,42.982861,1111.2],[-2.379851,42.982876,1111.1],[-2.379892,42.98289,1110.9],[-2.379933,42.982906,1110.7],[-2.379978,42.982928,1110.4],[-2.380013,42.982945,1110.2],[-2.380054,42.982955,1109.9],[-2.380094,42.982963,1109.7],[-2.380137,42.982971,1109.4],[-2.380175,42.982976,1109.1],[-2.380215,42.982984,1108.8],[-2.380256,42.982996,1108.5],[-2.380297,42.983,1108.2],[-2.380338,42.983002,1107.9],[-2.380377,42.983003,1107.6],[-2.380414,42.983017,1107.2],[-2.380454,42.983039,1106.6],[-2.380488,42.983053,1106.2],[-2.380534,42.983068,1105.7],[-2.38058,42.983078,1105.2],[-2.380621,42.983085,1104.7],[-2.380659,42.983096,1104.1],[-2.380696,42.983109,1103.7],[-2.38073,42.983124,1103.3],[-2.38077,42.983129,1102.8],[-2.38081,42.983137,1102.4],[-2.380853,42.98315,1101.7],[-2.380901,42.983163,1100.8],[-2.380945,42.98317,1100.1],[-2.38099,42.98318,1099.4],[-2.381027,42.983192,1098.7],[-2.381066,42.9832,1098.1],[-2.381108,42.983206,1097.4],[-2.381154,42.983214,1096.6],[-2.381189,42.983224,1095.9],[-2.381231,42.983239,1095.1],[-2.381266,42.983257,1094.4],[-2.381303,42.983272,1093.8],[-2.381335,42.983297,1093.2],[-2.381372,42.983313,1092.6],[-2.381417,42.983332,1092.0],[-2.381452,42.983343,1091.5],[-2.381495,42.983357,1090.8],[-2.381533,42.983366,1090.2],[-2.381572,42.983362,1089.7],[-2.38161,42.983373,1089.1],[-2.381647,42.983384,1088.5],[-2.381689,42.983388,1087.8],[-2.381734,42.983399,1087.1],[-2.381782,42.983407,1086.4],[-2.38182,42.983414,1085.9],[-2.381865,42.983428,1085.3],[-2.381918,42.98343,1084.6],[-2.381966,42.983426,1084.1],[-2.382002,42.983434,1083.7],[-2.38204,42.983444,1083.2],[-2.382077,42.983448,1082.9],[-2.382123,42.983437,1082.4],[-2.382171,42.983454,1081.9],[-2.382224,42.983466,1081.4],[-2.38227,42.983466,1080.9],[-2.382323,42.983469,1080.3],[-2.382377,42.983477,1079.8],[-2.382426,42.98348,1079.3],[-2.382472,42.983485,1078.8],[-2.382514,42.983494,1078.3],[-2.382559,42.983519,1077.7],[-2.382601,42.983538,1077.1],[-2.382651,42.983553,1076.5],[-2.382693,42.983572,1075.8],[-2.382724,42.983588,1075.3],[-2.382772,42.983603,1074.5],[-2.382819,42.983623,1073.8],[-2.382867,42.983635,1073.1],[-2.382922,42.983646,1072.3],[-2.382961,42.983657,1071.7],[-2.383,42.983666,1071.1],[-2.383037,42.983681,1070.4],[-2.383072,42.983696,1069.7],[-2.383119,42.983713,1068.9],[-2.383159,42.983727,1068.2],[-2.383204,42.983736,1067.4],[-2.383253,42.983737,1066.6],[-2.383295,42.983752,1065.8],[-2.383341,42.98377,1064.9],[-2.383389,42.983775,1064.1],[-2.383437,42.983791,1063.3],[-2.383464,42.983812,1062.7],[-2.383512,42.983833,1061.7],[-2.383548,42.983844,1061.1],[-2.383582,42.983856,1060.5],[-2.383619,42.983871,1059.9],[-2.383657,42.98389,1059.2],[-2.383696,42.983908,1058.7],[-2.383732,42.983921,1058.2],[-2.383771,42.983936,1057.6],[-2.38381,42.983944,1057.1],[-2.383858,42.983957,1056.4],[-2.383903,42.983979,1055.7],[-2.383938,42.983997,1055.2],[-2.383983,42.984013,1054.5],[-2.384022,42.984035,1053.8],[-2.384052,42.984053,1053.2],[-2.384093,42.98408,1052.5],[-2.384124,42.984099,1052.0],[-2.384155,42.984116,1051.5],[-2.38419,42.984128,1050.9],[-2.38424,42.984134,1050.2],[-2.38429,42.984142,1049.3],[-2.38433,42.984146,1047.9],[-2.384382,42.984146,1047.8],[-2.384431,42.98414,1047.7],[-2.384484,42.984133,1047.7],[-2.38453,42.984132,1047.6],[-2.384586,42.98414,1047.5],[-2.384624,42.984142,1047.5],[-2.384678,42.984141,1047.4],[-2.38473,42.984146,1047.3],[-2.384777,42.984152,1047.3],[-2.384821,42.984154,1047.2],[-2.384867,42.98415,1047.1],[-2.384914,42.98415,1047.2],[-2.384957,42.984162,1047.3],[-2.384993,42.984154,1047.3],[-2.385002,42.984128,1047.4],[-2.384988,42.984155,1047.4],[-2.384951,42.984157,1047.5],[-2.384908,42.984134,1047.5],[-2.384865,42.984126,1047.5],[-2.384902,42.984124,1047.6],[-2.38494,42.984111,1047.6],[-2.384983,42.984098,1047.6],[-2.38503,42.984086,1047.6],[-2.385081,42.984096,1047.7],[-2.38513,42.984105,1047.7],[-2.385176,42.984124,1047.7],[-2.385207,42.984142,1047.7],[-2.385247,42.98416,1047.8],[-2.385285,42.984162,1047.8],[-2.385328,42.984168,1047.8],[-2.385372,42.984174,1047.9],[-2.385413,42.984184,1047.9],[-2.38545,42.984192,1047.9],[-2.385486,42.984198,1047.9],[-2.385522,42.984213,1048.0],[-2.385564,42.984226,1048.0],[-2.385607,42.984231,1048.0],[-2.385639,42.984252,1048.0],[-2.385672,42.98427,1048.1],[-2.385718,42.98427,1048.1],[-2.385758,42.98426,1048.1],[-2.385799,42.984254,1048.1],[-2.385758,42.984246,1048.1],[-2.385716,42.984232,1048.2],[-2.385732,42.984207,1048.2],[-2.385713,42.984183,1048.2],[-2.385746,42.984203,1048.2],[-2.38575,42.984231,1048.3],[-2.385702,42.984204,1048.4],[-2.385672,42.984182,1048.5],[-2.385628,42.98417,1048.5],[-2.385592,42.984148,1048.6],[-2.385618,42.984184,1048.7],[-2.385656,42.984213,1048.7],[-2.385717,42.984217,1048.8],[-2.385759,42.98422,1048.8],[-2.385804,42.984225,1048.9],[-2.385834,42.98425,1048.9],[-2.385824,42.984211,1049.0],[-2.385837,42.984241,1049.0],[-2.385856,42.984218,1049.1],[-2.385897,42.984205,1049.1],[-2.385926,42.984171,1049.2],[-2.385963,42.984164,1049.2],[-2.386002,42.984173,1049.3],[-2.386048,42.984165,1049.4],[-2.386082,42.984154,1049.4],[-2.386121,42.984147,1049.5],[-2.386168,42.984154,1049.5],[-2.386218,42.984156,1049.6],[-2.386262,42.984153,1049.6],[-2.386304,42.984134,1049.7],[-2.386344,42.984128,1049.7],[-2.386385,42.98413,1049.8],[-2.386426,42.984128,1049.8],[-2.386467,42.984125,1049.9],[-2.386519,42.984122,1049.9],[-2.386562,42.984118,1050.0],[-2.386603,42.984112,1050.0],[-2.386645,42.984104,1050.1],[-2.386697,42.984103,1050.2],[-2.386747,42.984096,1050.3],[-2.386796,42.984097,1050.4],[-2.386842,42.98409,1050.5],[-2.386878,42.984082,1050.6],[-2.386927,42.984081,1050.8],[-2.38698,42.984079,1051.0],[-2.387017,42.984074,1051.1],[-2.387065,42.984064,1051.2],[-2.387112,42.984056,1051.4],[-2.38716,42.98405,1051.5],[-2.387207,42.984046,1051.6],[-2.387252,42.984042,1051.8],[-2.387293,42.984043,1051.9],[-2.387346,42.984051,1052.0],[-2.387383,42.984047,1052.2],[-2.387428,42.984031,1052.4],[-2.387475,42.98402,1052.6],[-2.387525,42.984015,1052.8],[-2.387575,42.983999,1053.0],[-2.387614,42.983985,1053.2],[-2.387658,42.98397,1053.5],[-2.387698,42.983965,1053.8],[-2.387744,42.98397,1054.1],[-2.387782,42.983969,1054.4],[-2.387818,42.983958,1054.6],[-2.387863,42.983955,1054.9],[-2.387914,42.983949,1055.1],[-2.387959,42.983926,1055.4],[-2.387997,42.983905,1055.6],[-2.388029,42.983891,1055.8],[-2.38807,42.983876,1056.0],[-2.388115,42.983855,1056.2],[-2.388158,42.983844,1056.3],[-2.388197,42.983832,1056.5],[-2.388233,42.983814,1056.6],[-2.388279,42.983817,1056.8],[-2.388315,42.983827,1056.9],[-2.388352,42.983833,1057.0],[-2.388387,42.983842,1057.1],[-2.388431,42.98385,1057.2],[-2.38847,42.983863,1057.3],[-2.388514,42.983875,1057.4],[-2.388545,42.983891,1057.4],[-2.388577,42.983909,1057.5],[-2.388617,42.983926,1057.5],[-2.388651,42.98394,1057.6],[-2.388691,42.983962,1057.7],[-2.388727,42.983981,1057.7],[-2.388763,42.983988,1057.8],[-2.388805,42.983996,1057.9],[-2.388845,42.983995,1057.6],[-2.388888,42.983985,1057.4],[-2.38893,42.983981,1057.2],[-2.388965,42.983993,1057.0],[-2.388994,42.984016,1056.8],[-2.389033,42.984025,1056.5],[-2.389072,42.984028,1056.3],[-2.389109,42.984031,1056.0],[-2.389147,42.984044,1055.7],[-2.389182,42.984068,1055.4],[-2.389213,42.984084,1055.1],[-2.389249,42.9841,1054.7],[-2.389294,42.984113,1054.3],[-2.389344,42.984131,1053.8],[-2.389384,42.984145,1053.4],[-2.389428,42.984144,1052.8],[-2.389473,42.984137,1052.3],[-2.389519,42.984145,1051.6],[-2.389553,42.984159,1051.0],[-2.389592,42.984167,1050.4],[-2.38963,42.98417,1049.8],[-2.389677,42.984171,1049.1],[-2.389713,42.984175,1048.5],[-2.389757,42.984184,1047.8],[-2.389801,42.984187,1047.0],[-2.389842,42.984195,1046.3],[-2.38988,42.984206,1045.5],[-2.389913,42.984232,1044.6],[-2.389934,42.984269,1043.6],[-2.389964,42.984293,1042.2],[-2.390005,42.9843,1041.8],[-2.39004,42.98431,1041.4],[-2.39008,42.984326,1040.9],[-2.390117,42.984338,1040.4],[-2.390155,42.984339,1040.0],[-2.390193,42.984342,1039.6],[-2.390236,42.984351,1039.1],[-2.39028,42.984365,1038.6],[-2.390318,42.984352,1038.2],[-2.390343,42.984327,1037.7],[-2.390383,42.984346,1037.2],[-2.390421,42.984361,1036.7],[-2.390452,42.984382,1036.3],[-2.390479,42.984404,1035.8],[-2.390494,42.98443,1035.4],[-2.390537,42.984445,1034.9],[-2.390578,42.984454,1034.5],[-2.390599,42.984495,1033.8],[-2.390619,42.984533,1033.1],[-2.390643,42.984565,1032.3],[-2.39067,42.984584,1031.8],[-2.390698,42.984608,1031.1],[-2.390734,42.984615,1030.5],[-2.390758,42.984636,1030.0],[-2.390784,42.984664,1029.3],[-2.390784,42.984624,1028.6],[-2.390809,42.9846,1027.9],[-2.390848,42.984595,1027.2],[-2.390884,42.984575,1026.4],[-2.390921,42.984566,1025.7],[-2.390936,42.984591,1025.2],[-2.390973,42.984588,1024.9],[-2.391013,42.984598,1024.6],[-2.391034,42.984632,1024.1],[-2.391074,42.984648,1023.5],[-2.391114,42.984666,1022.7],[-2.391151,42.984669,1022.1],[-2.391198,42.984666,1021.3],[-2.39124,42.984654,1020.6],[-2.391274,42.984637,1020.0],[-2.391316,42.984652,1019.5],[-2.391336,42.984676,1019.0],[-2.391373,42.984693,1018.5],[-2.391423,42.984683,1017.9],[-2.391472,42.984678,1017.5],[-2.391511,42.9847,1017.2],[-2.391553,42.984706,1016.8],[-2.391595,42.984698,1016.5],[-2.391645,42.984686,1016.0],[-2.391683,42.984688,1015.6],[-2.39172,42.984703,1015.2],[-2.391752,42.984688,1014.8],[-2.391795,42.984693,1014.4],[-2.391833,42.984709,1013.8],[-2.39188,42.984715,1013.3],[-2.391921,42.984705,1012.7],[-2.391955,42.984738,1012.1],[-2.391981,42.984771,1011.7],[-2.39201,42.984792,1011.4],[-2.39204,42.984817,1011.0],[-2.392077,42.984808,1010.7],[-2.392124,42.984792,1010.3],[-2.392161,42.984789,1009.9],[-2.392199,42.98478,1009.4],[-2.392233,42.984795,1008.9],[-2.392273,42.984773,1008.4],[-2.392311,42.984762,1007.9],[-2.392344,42.984746,1007.5],[-2.392381,42.984745,1007.1],[-2.392423,42.984752,1006.6],[-2.392456,42.984771,1006.1],[-2.392498,42.984799,1005.5],[-2.392539,42.984808,1005.0],[-2.39253,42.984772,1004.5],[-2.392492,42.984722,1003.6],[-2.392479,42.984696,1003.1],[-2.392501,42.984665,1002.4],[-2.392488,42.984696,1001.8],[-2.392445,42.984703,1001.4],[-2.392407,42.984731,1000.8],[-2.392381,42.984752,1000.5],[-2.392407,42.984777,1000.1],[-2.392433,42.98481,999.5],[-2.392458,42.984834,999.0],[-2.39245,42.984865,998.5],[-2.392468,42.98484,998.1],[-2.392484,42.984812,997.6],[-2.392453,42.984795,997.2],[-2.392493,42.98484,996.5],[-2.392504,42.984889,995.9],[-2.392465,42.984875,995.5],[-2.392425,42.984861,995.2],[-2.392382,42.984849,994.9],[-2.392381,42.984889,994.4],[-2.392393,42.984927,994.1],[-2.392415,42.9849,993.8],[-2.3924,42.984867,993.4],[-2.392389,42.984835,993.1],[-2.392434,42.984853,992.9],[-2.392418,42.984815,992.6],[-2.392425,42.984785,992.4],[-2.392458,42.984758,992.2],[-2.392496,42.984776,991.8],[-2.392536,42.984776,991.4],[-2.39257,42.984758,991.0],[-2.392616,42.98474,990.9],[-2.392652,42.984734,990.9],[-2.392697,42.984744,990.9],[-2.392732,42.984725,990.7],[-2.392777,42.984709,990.2],[-2.392809,42.984692,989.8],[-2.392849,42.984672,989.3],[-2.392895,42.98467,988.8],[-2.392937,42.984665,988.4],[-2.392982,42.984644,987.7],[-2.393021,42.98463,987.3],[-2.393057,42.984651,986.8],[-2.393096,42.984672,986.3],[-2.393134,42.984687,985.9],[-2.393183,42.984689,985.3],[-2.393216,42.984675,984.9],[-2.393263,42.98469,984.4],[-2.393305,42.984675,984.0],[-2.393337,42.984649,983.6],[-2.393386,42.984643,983.1],[-2.393423,42.984648,982.8],[-2.393464,42.984652,982.4],[-2.393509,42.984645,982.0],[-2.393548,42.984633,981.7],[-2.393589,42.984618,981.2],[-2.393637,42.984612,980.6],[-2.393691,42.984612,979.9],[-2.393734,42.98461,979.4],[-2.393775,42.984606,978.9],[-2.393819,42.984598,978.3],[-2.393863,42.984588,977.7],[-2.393904,42.984578,977.2],[-2.393941,42.984573,976.6],[-2.393976,42.984559,975.9],[-2.394016,42.984542,975.2],[-2.39405,42.984531,974.6],[-2.394093,42.984514,973.7],[-2.394134,42.984514,973.0],[-2.394173,42.984518,972.2],[-2.394211,42.984522,971.5],[-2.394264,42.984521,970.5],[-2.394319,42.984517,969.4],[-2.394364,42.984513,968.5],[-2.394397,42.984501,967.9],[-2.394431,42.984477,967.1],[-2.394461,42.984459,966.4],[-2.394494,42.984446,965.7],[-2.394539,42.984429,964.9],[-2.394577,42.984417,964.3],[-2.39462,42.984419,963.6],[-2.394671,42.984412,962.9],[-2.394708,42.984404,962.4],[-2.394746,42.984395,962.0],[-2.394789,42.984384,961.6],[-2.394828,42.984372,961.1],[-2.394862,42.984348,960.7],[-2.394911,42.984331,960.1],[-2.394943,42.984314,959.7],[-2.394979,42.984297,959.3],[-2.395016,42.98429,958.8],[-2.395059,42.984312,958.6],[-2.395097,42.984336,958.4],[-2.395146,42.984349,958.2],[-2.395197,42.984344,957.9],[-2.395235,42.984348,957.6],[-2.395276,42.984353,957.4],[-2.39532,42.984348,957.1],[-2.395348,42.984367,956.9],[-2.395387,42.984389,956.7],[-2.395437,42.984399,956.6],[-2.395471,42.984416,956.4],[-2.395507,42.984432,956.3],[-2.395549,42.984421,956.2],[-2.395588,42.984414,956.1],[-2.395632,42.984428,956.1],[-2.395674,42.984451,955.9],[-2.395716,42.984459,955.8],[-2.395761,42.984479,955.7],[-2.395788,42.984499,955.6],[-2.395815,42.984518,955.5],[-2.395841,42.984539,955.4],[-2.395871,42.984563,955.3],[-2.395913,42.984569,955.2],[-2.395956,42.984593,955.0],[-2.395986,42.984611,955.0],[-2.396032,42.984625,954.8],[-2.396066,42.984639,954.7],[-2.396101,42.984653,954.6],[-2.396145,42.984668,954.5],[-2.396184,42.984683,954.4],[-2.396224,42.98469,954.2],[-2.396262,42.98469,954.0],[-2.396299,42.984697,953.9],[-2.396328,42.984719,953.7],[-2.396374,42.984722,953.4],[-2.396409,42.984743,953.1],[-2.396441,42.984762,952.9],[-2.39647,42.984782,952.6],[-2.396496,42.984804,952.3],[-2.396532,42.984834,951.9],[-2.39657,42.984858,951.6],[-2.396601,42.984885,951.3],[-2.396628,42.984915,951.0],[-2.396655,42.984942,950.8],[-2.396694,42.984963,950.5],[-2.396735,42.984988,950.3],[-2.396765,42.985006,950.1],[-2.396811,42.985029,949.8],[-2.396851,42.98504,949.6],[-2.396884,42.985057,949.4],[-2.396929,42.985074,949.1],[-2.396968,42.985095,948.9],[-2.397006,42.98511,948.6],[-2.397046,42.985107,948.4],[-2.397087,42.9851,947.7],[-2.397126,42.985092,947.0],[-2.397174,42.985106,946.2],[-2.39723,42.985115,945.3],[-2.397266,42.985122,944.7],[-2.397307,42.985126,944.0],[-2.397348,42.985133,943.3],[-2.397381,42.985153,942.6],[-2.397422,42.98517,941.9],[-2.397465,42.98518,941.1],[-2.397509,42.985185,940.5],[-2.397549,42.985189,940.1],[-2.397588,42.985199,939.6],[-2.39763,42.985215,939.0],[-2.397663,42.98523,938.5],[-2.397707,42.985223,938.0],[-2.397754,42.985234,937.4],[-2.397791,42.985255,936.8],[-2.397814,42.98523,936.3],[-2.397854,42.985232,935.8],[-2.397888,42.985255,935.3],[-2.397923,42.985232,934.7],[-2.397952,42.985213,934.3],[-2.397979,42.985194,933.8],[-2.397953,42.98522,933.3],[-2.397955,42.985248,932.9],[-2.39797,42.985281,932.3],[-2.398004,42.985311,931.6],[-2.398042,42.985293,931.1],[-2.398086,42.985291,930.5],[-2.398128,42.985291,930.0],[-2.398161,42.985317,929.4],[-2.39819,42.985342,928.9],[-2.398226,42.985366,928.3],[-2.398264,42.985375,927.8],[-2.398309,42.985361,927.2],[-2.398341,42.985343,926.7],[-2.398327,42.985368,926.3],[-2.398337,42.985402,925.6],[-2.398355,42.985432,925.0],[-2.398403,42.98544,924.3],[-2.398442,42.985469,923.6],[-2.39847,42.985497,923.0],[-2.39851,42.985496,922.5],[-2.398534,42.985469,921.9],[-2.39853,42.98542,921.2],[-2.398503,42.985381,920.7],[-2.398471,42.985344,920.1],[-2.398454,42.985316,919.8],[-2.398468,42.985281,919.2],[-2.398503,42.985268,918.7],[-2.398542,42.985271,918.1],[-2.398581,42.985274,917.6],[-2.398614,42.985258,917.0],[-2.398651,42.985238,916.4],[-2.398664,42.985211,915.9],[-2.398688,42.985189,915.4],[-2.398708,42.985166,914.9],[-2.398703,42.985136,914.3],[-2.398736,42.985119,913.7],[-2.39877,42.985101,910.4],[-2.398807,42.985092,909.3],[-2.398852,42.985078,908.0],[-2.398885,42.985064,907.0],[-2.398925,42.985045,905.7],[-2.398959,42.985027,904.8],[-2.39901,42.985025,903.6],[-2.39905,42.985004,902.6],[-2.399083,42.984988,901.7],[-2.39912,42.984979,900.8],[-2.399159,42.984974,899.9],[-2.399196,42.984971,899.0],[-2.399231,42.984951,898.0],[-2.399272,42.98494,897.0],[-2.399317,42.984933,895.9],[-2.399352,42.984917,894.9],[-2.399372,42.984889,893.9],[-2.399392,42.984861,893.1],[-2.399397,42.984834,892.4],[-2.399398,42.984802,891.6],[-2.399399,42.984763,890.6],[-2.399415,42.98473,889.6],[-2.399429,42.9847,888.7],[-2.399453,42.984668,887.7],[-2.399478,42.98464,886.9],[-2.399499,42.984615,886.3],[-2.399507,42.984582,885.6],[-2.39952,42.984549,884.8],[-2.399539,42.984523,884.2],[-2.399551,42.984493,883.5],[-2.399559,42.984461,882.9],[-2.399591,42.984434,882.2],[-2.39961,42.984409,881.6],[-2.399632,42.984384,881.0],[-2.399649,42.984355,880.3],[-2.399674,42.984329,879.5],[-2.399709,42.98431,878.7],[-2.399754,42.984309,877.8],[-2.399788,42.984327,877.1],[-2.399828,42.984333,876.4],[-2.399866,42.984336,875.7],[-2.39991,42.984321,874.9],[-2.399949,42.984315,874.2],[-2.399995,42.984315,873.3],[-2.400036,42.984323,872.5],[-2.400077,42.984336,871.6],[-2.400116,42.984355,870.5],[-2.400148,42.984374,869.6],[-2.400181,42.984389,868.6],[-2.400221,42.984408,867.5],[-2.400263,42.984415,866.6],[-2.400304,42.98442,865.6],[-2.40035,42.98442,864.6],[-2.4004,42.984432,863.4],[-2.400454,42.984435,862.0],[-2.400496,42.984427,861.1],[-2.400536,42.984435,860.3],[-2.400577,42.984443,859.4],[-2.400618,42.984446,858.5],[-2.400647,42.984426,857.7],[-2.40068,42.984412,856.9],[-2.400731,42.984413,855.9],[-2.400769,42.984421,855.3],[-2.400807,42.984429,854.7],[-2.400845,42.984436,854.0],[-2.400888,42.984452,853.3],[-2.400928,42.984455,852.7],[-2.400975,42.984453,852.0],[-2.401008,42.984471,851.4],[-2.40105,42.984472,850.7],[-2.401091,42.98447,850.0],[-2.401134,42.984467,849.7],[-2.40118,42.984448,849.3],[-2.401218,42.984445,849.1],[-2.401258,42.984447,848.8],[-2.401304,42.984437,848.4],[-2.401341,42.984424,848.1],[-2.401372,42.984408,847.9],[-2.401372,42.984379,847.6],[-2.40135,42.984347,847.1],[-2.401349,42.984319,846.6],[-2.401351,42.98429,846.0],[-2.401334,42.984263,845.4],[-2.401314,42.984232,844.8],[-2.401298,42.984202,844.3],[-2.401292,42.984174,843.9],[-2.401271,42.98415,843.5],[-2.401234,42.984125,842.9],[-2.4012,42.984099,842.4],[-2.401165,42.984073,842.0],[-2.401141,42.984049,841.7],[-2.401114,42.98403,841.4],[-2.401093,42.984,841.1],[-2.401061,42.98398,840.8],[-2.40104,42.983955,840.6],[-2.401005,42.983931,840.3],[-2.400958,42.983913,839.9],[-2.400926,42.983896,839.7],[-2.400895,42.98388,839.4],[-2.400853,42.983854,839.1],[-2.400829,42.983833,838.9],[-2.400811,42.983807,838.7],[-2.400791,42.98378,838.5],[-2.400758,42.983757,838.3],[-2.400713,42.983744,838.0],[-2.400677,42.983727,837.8],[-2.400647,42.983704,837.6],[-2.40061,42.983685,837.5],[-2.400576,42.983658,837.3],[-2.400553,42.983634,837.2],[-2.400532,42.98361,837.2],[-2.400516,42.983585,837.2],[-2.400492,42.983556,837.2],[-2.400488,42.983517,837.2],[-2.400478,42.983486,837.2],[-2.400448,42.983465,837.2],[-2.400422,42.98344,837.2],[-2.400412,42.983411,837.2],[-2.400376,42.983387,837.2],[-2.400353,42.983365,837.2],[-2.400315,42.983339,837.1],[-2.400283,42.98332,837.0],[-2.400248,42.983298,836.9],[-2.400228,42.983265,836.8],[-2.400204,42.983237,836.7],[-2.400181,42.983205,836.6],[-2.400148,42.983182,836.6],[-2.400111,42.98317,836.5],[-2.400081,42.98314,836.5],[-2.400051,42.983111,836.4],[-2.400034,42.983086,836.4],[-2.400024,42.983049,836.3],[-2.400011,42.983021,836.3],[-2.399989,42.982998,836.3],[-2.399963,42.982974,836.2],[-2.399935,42.982955,836.2],[-2.399912,42.982927,836.1],[-2.399872,42.982903,836.0],[-2.399843,42.982882,835.9],[-2.399824,42.982858,835.7],[-2.399802,42.982831,835.5],[-2.399781,42.982809,835.3],[-2.399761,42.982772,834.9],[-2.399751,42.982742,834.6],[-2.399746,42.982711,834.3],[-2.39974,42.982682,834.0],[-2.399736,42.982655,833.7],[-2.399728,42.982617,833.3],[-2.399733,42.982583,832.9],[-2.399735,42.982556,832.5],[-2.399725,42.982529,832.1],[-2.399724,42.982492,831.7],[-2.399718,42.982466,831.4],[-2.399721,42.982435,831.1],[-2.399735,42.982409,830.8],[-2.399748,42.982379,830.4],[-2.399744,42.982348,830.0],[-2.399734,42.982308,829.6],[-2.399715,42.982271,829.1],[-2.399702,42.98223,828.6],[-2.399704,42.9822,828.2],[-2.399706,42.982163,827.7],[-2.399704,42.982125,827.2],[-2.399701,42.982087,826.7],[-2.399697,42.982057,826.2],[-2.399687,42.982028,825.8],[-2.399672,42.981999,824.5],[-2.399662,42.981972,824.0],[-2.399652,42.981942,823.3],[-2.399661,42.981913,822.7],[-2.399687,42.981885,821.4],[-2.399705,42.981861,820.8],[-2.399743,42.981853,820.1],[-2.39978,42.981852,819.4],[-2.399817,42.981849,818.7],[-2.399858,42.981841,818.0],[-2.399897,42.981827,817.2],[-2.399946,42.981825,816.3],[-2.399983,42.981824,815.0],[-2.400029,42.981821,813.6],[-2.400076,42.981817,812.1],[-2.400114,42.981802,810.8],[-2.400156,42.981799,809.5],[-2.4002,42.981801,808.3],[-2.400246,42.981795,807.0],[-2.40028,42.98178,805.9],[-2.400318,42.981772,804.9],[-2.40036,42.981771,803.8],[-2.400418,42.981772,802.3],[-2.400456,42.981773,801.4],[-2.400493,42.981765,800.5],[-2.400531,42.981784,799.4],[-2.400579,42.981772,798.1],[-2.400612,42.981744,796.8],[-2.400655,42.981721,795.5],[-2.400692,42.981716,794.5],[-2.400731,42.98171,793.5],[-2.400776,42.98172,792.0],[-2.400814,42.981706,790.9],[-2.40085,42.981687,789.7],[-2.400878,42.981654,788.3],[-2.400912,42.981628,786.9],[-2.400957,42.981609,785.4],[-2.401004,42.981607,784.1],[-2.401048,42.981603,782.8],[-2.401086,42.981607,781.8],[-2.40112,42.981596,780.8],[-2.401143,42.981574,779.9],[-2.40117,42.981553,778.8],[-2.401205,42.98154,777.7],[-2.401237,42.981521,776.5],[-2.401261,42.981496,775.4],[-2.401296,42.981477,774.1],[-2.401337,42.981462,772.7],[-2.401358,42.981439,771.6],[-2.40138,42.981403,770.1],[-2.401399,42.981376,769.0],[-2.401419,42.981347,767.8],[-2.401454,42.981315,766.3],[-2.401483,42.981295,765.1],[-2.401506,42.981264,763.7],[-2.401528,42.981226,762.4],[-2.401548,42.981202,761.4],[-2.401578,42.981179,760.3],[-2.40161,42.981157,759.3],[-2.401643,42.981137,758.3],[-2.401666,42.981114,757.5],[-2.401679,42.981077,756.3],[-2.401688,42.981047,755.3],[-2.401679,42.981011,754.6],[-2.401674,42.980978,754.3],[-2.401658,42.98095,754.1],[-2.401648,42.980921,753.8],[-2.401631,42.980892,753.6],[-2.401619,42.98086,753.4],[-2.401619,42.980827,753.2],[-2.401613,42.980795,753.0],[-2.401609,42.980764,752.9],[-2.40161,42.980732,752.8],[-2.401621,42.980704,752.7],[-2.401612,42.980673,752.6],[-2.401601,42.980647,752.5],[-2.401561,42.980647,752.4],[-2.401519,42.980632,752.3],[-2.401485,42.980614,752.3],[-2.401453,42.980592,752.2],[-2.401421,42.980577,752.1],[-2.401398,42.980554,752.0],[-2.401362,42.980532,752.0],[-2.401347,42.980502,751.9],[-2.401311,42.980485,751.9],[-2.401273,42.980466,751.8],[-2.401231,42.980459,751.7],[-2.401194,42.980453,751.7],[-2.401162,42.980428,751.7],[-2.401146,42.980395,751.6],[-2.401114,42.980382,751.6],[-2.401087,42.980359,751.6],[-2.401046,42.98034,751.6],[-2.40101,42.980318,751.6],[-2.400967,42.980307,751.5],[-2.400922,42.980297,751.5],[-2.40088,42.980285,751.5],[-2.400838,42.980274,751.5],[-2.400803,42.98026,751.5],[-2.400764,42.980241,751.5],[-2.400728,42.980225,751.6],[-2.400699,42.980203,751.6],[-2.400663,42.980189,751.6],[-2.400614,42.980177,751.6],[-2.400574,42.980161,751.6],[-2.400536,42.980136,751.6],[-2.400497,42.980117,751.6],[-2.400461,42.980103,751.6],[-2.400423,42.980085,751.6],[-2.400386,42.980072,751.5],[-2.400354,42.980058,751.5],[-2.40032,42.980045,751.2],[-2.400271,42.980044,750.3],[-2.400229,42.980043,749.5],[-2.400194,42.980018,748.6],[-2.400166,42.979991,747.8],[-2.400153,42.979962,747.0],[-2.400131,42.979927,746.1],[-2.400104,42.979901,745.3],[-2.400073,42.979884,744.6],[-2.400037,42.979873,743.9],[-2.4,42.979859,743.8],[-2.39996,42.979841,743.9],[-2.399934,42.97982,743.9],[-2.399893,42.979801,744.0],[-2.399856,42.979793,744.0],[-2.399808,42.979785,744.1],[-2.399764,42.97977,744.1],[-2.399727,42.979751,744.1],[-2.399687,42.979742,744.1],[-2.399648,42.979738,744.0],[-2.399609,42.979726,744.0],[-2.399562,42.97971,744.0],[-2.399527,42.979698,743.9],[-2.399484,42.979677,743.8],[-2.399436,42.979672,743.7],[-2.399387,42.979656,743.5],[-2.39934,42.979644,743.3],[-2.3993,42.979642,743.1],[-2.39925,42.979647,742.9],[-2.399212,42.979649,742.7],[-2.399175,42.979651,742.5],[-2.399129,42.979663,742.3],[-2.399076,42.979672,742.1],[-2.399029,42.97967,741.9],[-2.398986,42.979663,741.8],[-2.398951,42.979683,741.7],[-2.398923,42.979711,741.6],[-2.398868,42.979709,741.6],[-2.398833,42.979693,741.6],[-2.398789,42.979685,741.6],[-2.398739,42.979679,741.6],[-2.398698,42.979676,741.6],[-2.398647,42.979685,741.6],[-2.398601,42.979698,741.6],[-2.398551,42.979707,741.6],[-2.39851,42.979717,741.6],[-2.398462,42.979731,741.6],[-2.39841,42.979731,741.7],[-2.398369,42.979733,741.7],[-2.398331,42.979738,741.7],[-2.398284,42.97974,741.7],[-2.398233,42.979728,741.7],[-2.398187,42.979727,741.7],[-2.398148,42.979734,741.5],[-2.398098,42.979737,741.2],[-2.398056,42.979739,741.0],[-2.398013,42.979746,740.7],[-2.397971,42.979763,740.6],[-2.397925,42.979773,740.4],[-2.397879,42.979772,740.3],[-2.39783,42.979775,740.3],[-2.397785,42.979779,740.4],[-2.39773,42.979771,740.5],[-2.397692,42.979768,740.6],[-2.397646,42.979765,740.8],[-2.397603,42.97976,741.1],[-2.397559,42.979753,741.5],[-2.397514,42.979759,742.0],[-2.397479,42.979774,742.4],[-2.397431,42.979767,743.0],[-2.3974,42.979745,743.6],[-2.397359,42.979723,743.3],[-2.397322,42.979698,742.3],[-2.397308,42.979673,741.6],[-2.397306,42.979643,740.9],[-2.397307,42.979612,740.1],[-2.397303,42.979583,739.4],[-2.397296,42.979555,738.7],[-2.397291,42.979525,738.0],[-2.397295,42.979494,737.3],[-2.397297,42.979462,736.6],[-2.397299,42.979431,736.0],[-2.397301,42.979401,735.4],[-2.397316,42.97937,734.8],[-2.397325,42.979341,734.5],[-2.39733,42.979311,734.2],[-2.397332,42.979275,733.9],[-2.397328,42.979247,733.6],[-2.397318,42.979211,733.3],[-2.39731,42.979182,733.0],[-2.397294,42.979151,732.7],[-2.397265,42.979123,732.4],[-2.397236,42.979099,732.1],[-2.397216,42.979068,731.8]]}}]}