{"type":"FeatureCollection","features":[{"type":"Feature","properties":{"ruta_id":"33141674","nombre":"TRINIDAD DE LUMBIER ida y vuelta acercándonos a los dos ojos y a la Foz de Lumbier.","blog_url":"https://www.rutasporelmonte.com/foz-de-lumbier-ascenso-a-trinidad/"},"geometry":{"type":"LineString","coordinates":[[-1.30748,42.638221,426.651],[-1.308124,42.638505,426.101],[-1.308682,42.639026,426.911],[-1.309218,42.639515,427.108],[-1.309733,42.640115,427.368],[-1.310055,42.641015,427.198],[-1.310248,42.641899,426.526],[-1.310399,42.643382,428.269],[-1.310291,42.644756,427.876],[-1.310141,42.645939,428.151],[-1.309798,42.646729,429.082],[-1.309412,42.647376,427.189],[-1.309562,42.648117,426.039],[-1.308854,42.648859,425.201],[-1.308103,42.649522,426.221],[-1.307877,42.649846,425.408],[-1.30762,42.650035,425.746],[-1.307191,42.650217,425.816],[-1.306922,42.650303,426.534],[-1.306611,42.650288,427.257],[-1.306204,42.650272,429.054],[-1.305699,42.650288,429.729],[-1.305356,42.650288,432.72],[-1.305184,42.650272,434.027],[-1.305013,42.650224,434.666],[-1.304852,42.650169,436.229],[-1.304637,42.650169,437.821],[-1.304294,42.650232,439.108],[-1.304079,42.650264,440.259],[-1.303833,42.650335,440.159],[-1.303511,42.650437,439.957],[-1.303307,42.650556,438.45],[-1.303071,42.650706,437.487],[-1.302867,42.650895,435.842],[-1.302674,42.651092,434.073],[-1.302449,42.651163,435.49],[-1.302245,42.651227,435.819],[-1.301934,42.651258,437.509],[-1.301697,42.651258,440.419],[-1.301461,42.651258,442.308],[-1.301236,42.651258,443.634],[-1.301022,42.651227,445.594],[-1.301,42.651163,447.262],[-1.301107,42.651163,446.765],[-1.301183,42.651148,446.692],[-1.301268,42.651132,446.497],[-1.301354,42.651092,446.898],[-1.301461,42.651077,446.445],[-1.301515,42.651037,446.934],[-1.30159,42.651014,446.655],[-1.301622,42.650958,447.31],[-1.301633,42.650864,449.008],[-1.301687,42.650793,449.556],[-1.301665,42.650753,450.556],[-1.301708,42.650658,451.794],[-1.301751,42.650579,452.927],[-1.301794,42.650477,454.374],[-1.301912,42.65039,455.129],[-1.301955,42.650319,456.35],[-1.302041,42.650272,457.867],[-1.302084,42.650169,459.278],[-1.302127,42.650122,459.833],[-1.302052,42.650027,460.726],[-1.301901,42.649893,462.208],[-1.301773,42.649798,463.67],[-1.301622,42.649648,466.57],[-1.301494,42.649498,469.568],[-1.301376,42.64938,472.461],[-1.301322,42.649301,474.428],[-1.301258,42.649206,476.423],[-1.301301,42.649135,477.414],[-1.301354,42.649112,477.661],[-1.301429,42.649104,477.326],[-1.301494,42.649064,477.747],[-1.301547,42.649025,478.111],[-1.301547,42.648922,480.508],[-1.301547,42.648883,481.435],[-1.301515,42.648796,483.035],[-1.301365,42.648757,485.683],[-1.301247,42.648725,487.696],[-1.301032,42.648622,492.353],[-1.300861,42.648567,494.778],[-1.300646,42.648457,498.149],[-1.300431,42.648354,501.926],[-1.300281,42.648323,503.325],[-1.300217,42.648315,504.026],[-1.300088,42.648315,505.008],[-1.299959,42.648315,505.708],[-1.299981,42.648236,508.255],[-1.300088,42.64822,508.095],[-1.300228,42.648188,508.193],[-1.300378,42.648125,508.826],[-1.300474,42.648062,509.753],[-1.300507,42.647975,511.498],[-1.300592,42.647849,512.949],[-1.300635,42.647778,513.946],[-1.300635,42.647715,515.215],[-1.300689,42.64766,516.065],[-1.300786,42.64762,516.411],[-1.300904,42.647612,516.008],[-1.301,42.647565,516.884],[-1.301086,42.647455,519.364],[-1.301118,42.647391,520.712],[-1.30115,42.647273,523.165],[-1.301204,42.647155,524.212],[-1.301215,42.647076,525.037],[-1.301258,42.646997,525.278],[-1.30115,42.647036,526.925],[-1.301043,42.647036,528.645],[-1.300936,42.647052,529.747],[-1.300893,42.647044,530.411],[-1.300893,42.646965,531.808],[-1.300839,42.646902,533.787],[-1.300839,42.646831,534.917],[-1.300775,42.646721,537.845],[-1.300764,42.646665,539.048],[-1.300721,42.646586,540.925],[-1.300668,42.646515,542.99],[-1.300668,42.646437,544.261],[-1.300657,42.646334,546.438],[-1.300614,42.646231,549.422],[-1.300614,42.646105,552.062],[-1.300592,42.646018,553.708],[-1.300592,42.645916,555.208],[-1.300582,42.645884,555.865],[-1.30056,42.645797,557.445],[-1.30056,42.645703,558.853],[-1.300517,42.645584,561.336],[-1.300517,42.645474,563.273],[-1.300517,42.645387,564.788],[-1.300431,42.645363,566.739],[-1.300228,42.645363,570.536],[-1.300013,42.645387,574.849],[-1.299745,42.645419,580.002],[-1.299455,42.645474,584.822],[-1.299208,42.645497,589.608],[-1.298908,42.645568,593.377],[-1.298672,42.64564,597.187],[-1.298447,42.645695,601.715],[-1.298243,42.645837,601.988],[-1.298093,42.645916,603.315],[-1.297942,42.646066,603.14],[-1.297824,42.646066,605.321],[-1.297685,42.646066,607.228],[-1.297578,42.646042,609.133],[-1.297449,42.645995,611.923],[-1.297266,42.645939,615.515],[-1.296998,42.645916,618.208],[-1.29673,42.6459,621.086],[-1.296462,42.6459,624.316],[-1.29629,42.645955,626.584],[-1.296237,42.645955,627.517],[-1.29614,42.645876,630.634],[-1.296065,42.645797,633.169],[-1.295947,42.645663,636.96],[-1.29585,42.645521,641.087],[-1.295754,42.645387,644.453],[-1.295668,42.645245,648.204],[-1.295582,42.645103,652.114],[-1.295485,42.644969,656.108],[-1.295561,42.644866,657.878],[-1.295668,42.644803,658.738],[-1.295764,42.6447,661.246],[-1.295882,42.644629,662.459],[-1.29599,42.644558,663.976],[-1.296097,42.644448,666.921],[-1.296183,42.644424,667.192],[-1.296204,42.644369,668.739],[-1.296226,42.644337,669.587],[-1.296118,42.644306,671.442],[-1.296011,42.644282,672.826],[-1.29585,42.644282,673.808],[-1.295754,42.644251,675.841],[-1.295657,42.644235,677.421],[-1.295636,42.644172,679.919],[-1.295668,42.64414,680.892],[-1.295732,42.644093,682.019],[-1.295775,42.644053,683.114],[-1.295904,42.644006,684.085],[-1.295968,42.643943,686.382],[-1.296033,42.643903,687.727],[-1.296065,42.643856,689.168],[-1.296108,42.64384,689.414],[-1.296151,42.643824,689.408],[-1.296161,42.643753,691.485],[-1.296178,42.643722,692.145],[-1.296183,42.643702,692.613],[-1.296204,42.643667,693.496],[-1.296204,42.643619,694.843],[-1.29621,42.643572,696.138],[-1.29622,42.643548,696.779],[-1.29629,42.643513,697.166],[-1.296344,42.643477,697.813],[-1.296397,42.643453,698.043],[-1.296435,42.643438,698.207],[-1.296467,42.643438,697.908],[-1.296494,42.643426,698.054],[-1.296499,42.643386,699.244],[-1.296494,42.643339,700.722],[-1.296462,42.643331,701.375],[-1.296419,42.643311,702.332],[-1.296408,42.64326,703.967],[-1.296392,42.643236,704.848],[-1.296381,42.643193,706.185],[-1.296419,42.643165,706.663],[-1.296462,42.643126,707.444],[-1.296462,42.643102,708.118],[-1.296483,42.643075,708.708],[-1.296515,42.643055,709.119],[-1.296569,42.643019,709.599],[-1.296607,42.642992,709.967],[-1.296639,42.642976,709.93],[-1.296639,42.642948,710.627],[-1.296639,42.642901,711.622],[-1.296633,42.642858,712.693],[-1.296628,42.642818,713.55],[-1.296633,42.642779,714.342],[-1.29665,42.642735,715.022],[-1.29665,42.6427,715.614],[-1.29665,42.642637,716.708],[-1.296655,42.642577,717.817],[-1.296676,42.642522,718.587],[-1.296666,42.642502,719.025],[-1.296612,42.642483,719.948],[-1.29658,42.642467,720.645],[-1.296521,42.642443,721.75],[-1.296451,42.642431,723.041],[-1.296387,42.642404,724.498],[-1.296387,42.642372,724.966],[-1.296387,42.642309,725.829],[-1.29636,42.642266,726.921],[-1.296355,42.642242,727.308],[-1.296328,42.64221,727.489],[-1.29629,42.642171,726.069],[-1.29621,42.642108,724.917],[-1.296161,42.642108,726.48],[-1.296097,42.642108,728.327],[-1.29603,42.642112,730.562],[-1.295984,42.642104,731.863],[-1.295928,42.642084,733.68],[-1.295882,42.642066,735.346],[-1.295848,42.642051,736.988],[-1.295807,42.642043,737.916],[-1.295764,42.642015,738.908],[-1.295738,42.641991,739.647],[-1.295689,42.641968,740.747],[-1.295649,42.641944,741.615],[-1.295612,42.641944,742.278],[-1.295526,42.64194,743.235],[-1.295467,42.64193,743.68],[-1.295421,42.64193,744.211],[-1.295354,42.641916,744.768],[-1.295306,42.641899,745.087],[-1.295268,42.641877,745.142],[-1.295233,42.641853,745.326],[-1.295201,42.641836,745.608],[-1.29518,42.641812,745.861],[-1.29515,42.641788,746.241],[-1.295137,42.641757,746.439],[-1.295137,42.641745,746.352],[-1.295134,42.641733,746.479],[-1.295115,42.641717,746.854],[-1.295075,42.641705,747.845],[-1.295075,42.641684,747.852],[-1.29507,42.641666,747.954],[-1.295051,42.641638,746.856],[-1.29503,42.641628,746.911],[-1.294997,42.641611,746.908],[-1.294979,42.641611,747.478],[-1.294944,42.641611,748.438],[-1.294909,42.641611,749.416],[-1.294869,42.641585,749.429],[-1.294842,42.641546,748.776],[-1.294815,42.641534,749.291],[-1.294791,42.641506,749.232],[-1.294783,42.641482,748.769],[-1.294745,42.641453,749.683],[-1.294724,42.641447,750.425],[-1.294681,42.641447,751.717],[-1.294665,42.641433,751.908],[-1.294659,42.641417,751.811],[-1.29463,42.641417,752.741],[-1.294603,42.641419,753.689],[-1.294598,42.641392,753.562],[-1.29459,42.641376,752.999],[-1.29456,42.641362,753.274],[-1.29452,42.641346,753.785],[-1.29449,42.641327,753.732],[-1.294461,42.641313,754.084],[-1.294437,42.641303,754.307],[-1.294437,42.641275,752.717],[-1.294413,42.641252,752.308],[-1.294372,42.64124,753.311],[-1.294351,42.641232,753.711],[-1.294297,42.64122,755.529],[-1.294265,42.64122,756.842],[-1.294222,42.641246,759.359],[-1.294201,42.64124,760.044],[-1.294166,42.641234,761.285],[-1.294134,42.641214,761.662],[-1.294126,42.641202,761.711],[-1.294088,42.641165,762.321],[-1.294067,42.641145,762.803],[-1.294037,42.641117,763.708],[-1.294013,42.641106,764.244],[-1.293981,42.6411,765.084],[-1.293954,42.641094,765.672],[-1.293946,42.641068,764.375],[-1.29393,42.641052,763.912],[-1.293884,42.641052,765.467],[-1.293857,42.641052,765.668],[-1.293788,42.641054,766.355],[-1.293753,42.641054,766.678],[-1.293731,42.641046,766.433],[-1.293696,42.64105,766.926],[-1.293619,42.640983,764.808],[-1.293479,42.640912,765.36],[-1.293297,42.640833,768.82],[-1.293082,42.640794,771.298],[-1.292975,42.640739,769.761],[-1.292793,42.640707,770.868],[-1.292578,42.640683,773.733],[-1.29246,42.640778,778.024],[-1.292363,42.640754,778.681],[-1.292342,42.640636,777.812],[-1.292202,42.640541,781.032],[-1.292138,42.640462,780.605],[-1.292009,42.640368,782.808],[-1.291902,42.640241,782.564],[-1.29173,42.640178,779.594],[-1.291612,42.640202,782.792],[-1.291419,42.640265,789.955],[-1.291269,42.640249,791.472],[-1.291151,42.640147,790.177],[-1.291022,42.640107,792.468],[-1.290872,42.640123,796.595],[-1.290711,42.64021,798.759],[-1.290658,42.64021,799.203],[-1.290518,42.640194,800.323],[-1.290368,42.640186,800.808],[-1.29025,42.640186,801.198],[-1.290089,42.640147,802.558],[-1.289939,42.640091,804.186],[-1.289767,42.639957,806.479],[-1.289649,42.639878,807.316],[-1.289595,42.639831,808.081],[-1.289499,42.639823,809.242],[-1.289413,42.639744,811.149],[-1.289359,42.639681,811.945],[-1.289274,42.639626,813.147],[-1.289123,42.639602,815.311],[-1.288984,42.639571,817.108],[-1.288898,42.639476,818.777],[-1.288801,42.639381,819.647],[-1.288694,42.639286,820.115],[-1.288512,42.639231,821.728],[-1.288351,42.639168,823.785],[-1.28819,42.63916,825.92],[-1.288029,42.639136,827.741],[-1.287965,42.639065,827.548],[-1.287879,42.639002,828.697],[-1.287804,42.638931,830.223],[-1.28775,42.638876,831.425],[-1.287707,42.638829,832.008],[-1.287621,42.638821,833.652],[-1.287493,42.638781,836.112],[-1.28745,42.638734,836.69],[-1.287407,42.638663,837.373],[-1.28731,42.638584,838.41],[-1.287246,42.63856,839.135],[-1.287096,42.638497,840.056],[-1.286999,42.638458,840.873],[-1.28687,42.638363,841.986],[-1.286795,42.638316,842.06],[-1.286709,42.6383,842.326],[-1.286634,42.638268,841.808],[-1.28657,42.638197,839.481],[-1.286548,42.638166,838.461],[-1.286516,42.63815,837.989],[-1.286473,42.638138,837.742],[-1.286425,42.638156,838.549],[-1.286395,42.63817,839.194],[-1.286353,42.638176,839.735],[-1.286315,42.638158,839.552],[-1.286275,42.638126,838.938],[-1.286245,42.638104,838.57],[-1.286202,42.638104,839.117],[-1.286159,42.638136,840.508],[-1.28613,42.638146,841.136],[-1.286082,42.638148,841.676],[-1.286039,42.638144,841.884],[-1.285996,42.638128,841.977],[-1.285985,42.638083,841.044],[-1.285972,42.638057,840.579],[-1.285974,42.638033,839.27],[-1.285958,42.638018,838.557],[-1.285982,42.638002,837.311],[-1.286012,42.638002,836.921],[-1.286039,42.637988,835.703],[-1.286023,42.63797,834.808],[-1.286009,42.637949,833.814],[-1.285982,42.637937,833.564],[-1.285958,42.637919,832.922],[-1.285934,42.637891,831.865],[-1.285918,42.637856,830.292],[-1.285899,42.637824,828.837],[-1.285899,42.637795,827.338],[-1.285897,42.637767,826.255],[-1.285891,42.637743,825.917],[-1.285891,42.637698,825.187],[-1.285883,42.637684,825.215],[-1.285883,42.637668,825.008],[-1.285883,42.637651,824.764],[-1.285889,42.637639,824.224],[-1.285889,42.637617,823.822],[-1.285889,42.637599,823.545],[-1.285886,42.63756,823.052],[-1.285875,42.63753,823.397],[-1.285867,42.637513,823.628],[-1.285851,42.637505,824.785],[-1.285816,42.637487,825.357],[-1.285795,42.637469,824.4],[-1.285776,42.637455,823.72],[-1.285776,42.637441,822.508],[-1.285773,42.637408,819.718],[-1.285773,42.637388,818.028],[-1.28576,42.637357,815.816],[-1.285738,42.637353,816.289],[-1.285703,42.637341,816.556],[-1.285655,42.637325,817.021],[-1.285615,42.637313,817.642],[-1.285577,42.637307,818.679],[-1.285553,42.637301,819.068],[-1.285465,42.637297,821.542],[-1.285465,42.637284,820.626],[-1.28543,42.637284,821.708],[-1.285395,42.637288,823.119],[-1.285355,42.63727,823.289],[-1.285323,42.637262,823.867],[-1.285234,42.63724,824.77],[-1.285202,42.63724,825.157],[-1.285159,42.637248,826.282],[-1.285121,42.637242,826.483],[-1.285081,42.637236,826.63],[-1.285003,42.637222,826.973],[-1.284934,42.637219,828.885],[-1.284869,42.637219,830.913],[-1.28481,42.637219,832.808],[-1.284682,42.637155,828.25],[-1.284606,42.637144,828.77],[-1.284558,42.637144,829.988],[-1.28451,42.637132,829.881],[-1.284446,42.637132,831.528],[-1.284338,42.637076,830.393],[-1.284279,42.637049,830.894],[-1.28422,42.637017,831.661],[-1.284177,42.636986,832.216],[-1.284124,42.636994,834.376],[-1.28407,42.637033,837.213],[-1.284,42.637025,838.708],[-1.283941,42.637009,839.864],[-1.283872,42.637033,841.784],[-1.283802,42.637049,842.342],[-1.283732,42.637057,842.825],[-1.283652,42.637045,843.032],[-1.28356,42.63708,843.247],[-1.283512,42.63708,842.588],[-1.283453,42.637084,841.755],[-1.283394,42.637128,842.854],[-1.283324,42.637171,844.456],[-1.283244,42.637171,844.011],[-1.283201,42.637171,843.908],[-1.283142,42.637159,843.058],[-1.283083,42.637155,842.518],[-1.283024,42.637147,842.466],[-1.282949,42.637108,841.629],[-1.282884,42.63708,841.456],[-1.282809,42.637049,841.571],[-1.28274,42.637033,841.992],[-1.282707,42.637013,841.439],[-1.282627,42.637041,843.385],[-1.282573,42.637041,843.889],[-1.282648,42.637132,846.517],[-1.2826,42.637132,846.908],[-1.282552,42.637128,847.211],[-1.282509,42.637128,847.531],[-1.282477,42.637124,847.919],[-1.282423,42.637124,849.022],[-1.282364,42.637112,849.819],[-1.282327,42.637108,850.474],[-1.282241,42.637092,851.835],[-1.282219,42.637065,851.742],[-1.282203,42.637021,851.098],[-1.282171,42.636978,850.815],[-1.28215,42.636926,850.326],[-1.282128,42.636883,849.908],[-1.282048,42.636848,850.442],[-1.281973,42.636824,850.712],[-1.281865,42.6368,852.26],[-1.281822,42.6368,853.263],[-1.281779,42.636792,854.04],[-1.281747,42.636788,854.785],[-1.281715,42.636765,854.926],[-1.281688,42.636733,854.993],[-1.28164,42.636658,854.595],[-1.281533,42.636587,855.149],[-1.28149,42.636571,855.423],[-1.281452,42.636524,854.508],[-1.281404,42.636477,853.392],[-1.281318,42.636437,854.442],[-1.281254,42.636417,856.25],[-1.281211,42.636402,857.453],[-1.281136,42.636382,859.88],[-1.281087,42.636358,860.675],[-1.281039,42.636311,860.376],[-1.281023,42.636307,860.513],[-1.281012,42.636279,860.024],[-1.281034,42.63626,859.004],[-1.280969,42.63626,860.414],[-1.280932,42.636236,860.508],[-1.2809,42.6362,860.195],[-1.280841,42.636185,861.045],[-1.280766,42.636192,862.023],[-1.280701,42.636208,863.196],[-1.280648,42.636185,863.033],[-1.280583,42.636149,862.778],[-1.280529,42.636125,862.859],[-1.280476,42.636125,863.796],[-1.280395,42.636149,865.674],[-1.280331,42.636161,866.956],[-1.280267,42.636161,867.821],[-1.28017,42.636185,868.708],[-1.2801,42.636189,869.24],[-1.280031,42.636189,869.62],[-1.279961,42.636216,870.018],[-1.279923,42.636216,869.991],[-1.279891,42.636192,869.568],[-1.279827,42.636181,869.113],[-1.279741,42.63622,869.214],[-1.279687,42.636287,869.781],[-1.279639,42.636283,869.324],[-1.279596,42.636248,868.604],[-1.279596,42.63622,868.214],[-1.279532,42.636256,868.208],[-1.279473,42.636279,868.265],[-1.279424,42.636271,867.835],[-1.279382,42.63626,867.553],[-1.279339,42.636248,867.116],[-1.279312,42.636248,867.033],[-1.279183,42.63622,865.858],[-1.279135,42.63622,865.959],[-1.279049,42.636224,866.386],[-1.278968,42.636236,866.945],[-1.278926,42.636236,867.147],[-1.278883,42.636224,867.111],[-1.27884,42.636224,867.408],[-1.278802,42.63622,867.767],[-1.278786,42.636181,867.277],[-1.278743,42.636169,867.425],[-1.278679,42.636185,868.278],[-1.278636,42.636185,868.695],[-1.278582,42.636177,869.02],[-1.278507,42.636141,869.481],[-1.278427,42.636117,870.018],[-1.278368,42.636106,870.591],[-1.278309,42.636086,870.881],[-1.27826,42.636039,870.619],[-1.278234,42.636007,870.508],[-1.278217,42.635991,870.552],[-1.278148,42.635999,871.362],[-1.278078,42.635999,872.08],[-1.278003,42.635979,872.573],[-1.277949,42.635952,872.88],[-1.277906,42.635916,872.835],[-1.277858,42.635889,873.016],[-1.277826,42.635861,872.983],[-1.277794,42.635841,873.077],[-1.27774,42.635841,873.561],[-1.277708,42.635829,873.627],[-1.277676,42.635825,873.708],[-1.277665,42.635786,872.26],[-1.277611,42.635778,872.61],[-1.27759,42.635758,872.158],[-1.277558,42.635731,871.741],[-1.277533,42.635717,871.638],[-1.277533,42.635695,870.973],[-1.277544,42.635683,870.274],[-1.277558,42.635666,869.331],[-1.277574,42.635644,868.249],[-1.277582,42.635622,867.102],[-1.27755,42.63561,867.522],[-1.277539,42.635604,867.608],[-1.27752,42.635591,867.657],[-1.277528,42.635571,866.757],[-1.277547,42.635563,865.925],[-1.277558,42.635541,864.568],[-1.277568,42.635535,863.955],[-1.277568,42.635514,862.88],[-1.277582,42.6355,861.671],[-1.277601,42.635478,859.818],[-1.277611,42.635466,858.836],[-1.277622,42.63546,858.217],[-1.277657,42.635449,856.518],[-1.277689,42.635447,855.408],[-1.277748,42.635439,853.286],[-1.277772,42.635427,851.826],[-1.277804,42.635415,850.484],[-1.277829,42.635409,849.547],[-1.277853,42.635393,848.194],[-1.277855,42.635381,847.489],[-1.277866,42.635364,846.23],[-1.277858,42.635336,844.777],[-1.277866,42.635328,844.046],[-1.277909,42.635332,843.488],[-1.277947,42.63537,844.916],[-1.277976,42.635385,845.208],[-1.278024,42.635417,846.177],[-1.278094,42.635441,846.437],[-1.278142,42.635454,846.515],[-1.278193,42.635476,847.228],[-1.278223,42.635472,846.575],[-1.278255,42.635466,845.61],[-1.278317,42.635458,844.331],[-1.278346,42.635447,843.288],[-1.278368,42.635431,842.072],[-1.278368,42.635419,841.313],[-1.278373,42.635401,840.114],[-1.278381,42.635389,839.308],[-1.278413,42.635374,838.12],[-1.278427,42.635356,836.95],[-1.278435,42.635346,836.338],[-1.27844,42.635334,835.541],[-1.278429,42.635316,834.658],[-1.278411,42.63531,834.343],[-1.278405,42.635291,833.354],[-1.278394,42.635277,832.591],[-1.278397,42.635245,830.735],[-1.278405,42.635222,829.486],[-1.278405,42.635196,827.914],[-1.278413,42.635178,826.808],[-1.278451,42.635166,825.866],[-1.278494,42.635158,824.956],[-1.278534,42.635156,824.384],[-1.278545,42.635145,823.617],[-1.278558,42.635131,822.624],[-1.27859,42.635115,821.319],[-1.278625,42.635101,819.84],[-1.278663,42.635097,818.667],[-1.278687,42.635091,817.723],[-1.278746,42.635089,816.183],[-1.278799,42.635093,815.011],[-1.278837,42.635111,814.908],[-1.278875,42.635141,815.545],[-1.278931,42.635231,817.985],[-1.278979,42.635322,820.523],[-1.279022,42.635433,824.576],[-1.279033,42.635518,828.543],[-1.279046,42.6356,832.678],[-1.279046,42.635683,837.319],[-1.279062,42.63577,841.866],[-1.279076,42.635847,845.953],[-1.27914,42.635839,843.304],[-1.279191,42.635827,841.614],[-1.279242,42.63582,841.208],[-1.279288,42.635808,840.488],[-1.279325,42.635818,841.028],[-1.279363,42.635833,842.076],[-1.279416,42.635847,843.179],[-1.279443,42.635831,841.856],[-1.279454,42.635806,840.111],[-1.279483,42.63577,837.872],[-1.279529,42.635784,839.359],[-1.279569,42.635804,841.426],[-1.279647,42.63581,842.847],[-1.279693,42.63581,843.411],[-1.279722,42.635796,842.408],[-1.279773,42.635827,843.635],[-1.279862,42.635849,842.555],[-1.279905,42.635873,843.623],[-1.279961,42.635891,843.976],[-1.280023,42.635904,843.983],[-1.280076,42.635932,846.318],[-1.280124,42.635934,845.649],[-1.280173,42.635946,846.396],[-1.280218,42.635969,848.574],[-1.280248,42.635979,849.456],[-1.280269,42.635975,848.521],[-1.28031,42.635956,845.308],[-1.280334,42.635944,843.41],[-1.280363,42.635926,840.66],[-1.280438,42.635902,836.418],[-1.280492,42.635883,833.231],[-1.280532,42.635867,830.628],[-1.280578,42.635877,831.343],[-1.280615,42.635877,830.854],[-1.28065,42.635881,830.981],[-1.280709,42.635891,831.418],[-1.280757,42.635904,832.498],[-1.2808,42.635916,833.517],[-1.280835,42.635934,835.408],[-1.280867,42.635944,836.194],[-1.280924,42.635979,839.674],[-1.280959,42.636003,842.192],[-1.281012,42.635997,840.265],[-1.281044,42.636009,841.182],[-1.28105,42.635995,839.217],[-1.28105,42.635977,836.898],[-1.281047,42.63595,833.435],[-1.281053,42.635938,831.735],[-1.281061,42.635918,828.986],[-1.281095,42.635902,826.214],[-1.281146,42.635898,824.408],[-1.281189,42.635896,823.096],[-1.281267,42.635906,821.756],[-1.281313,42.63593,822.074],[-1.28135,42.635952,822.167],[-1.281385,42.635979,822.124],[-1.281436,42.635997,821.179],[-1.281466,42.635997,820.11],[-1.281538,42.635985,816.857],[-1.281573,42.635993,816.045],[-1.281637,42.636005,814.347],[-1.28171,42.636023,812.711],[-1.281755,42.636037,812.008],[-1.281806,42.63605,811.037],[-1.281857,42.636064,810.127],[-1.281908,42.636088,809.855],[-1.281954,42.636117,810.158],[-1.281986,42.636137,810.745],[-1.281956,42.636177,814.09],[-1.281994,42.636189,813.931],[-1.282029,42.636208,814.548],[-1.282074,42.636208,813.532],[-1.282061,42.636198,813.192],[-1.28205,42.636177,811.911],[-1.282045,42.636167,811.308],[-1.28204,42.636147,810.146],[-1.282042,42.636129,808.876],[-1.282048,42.636114,807.694],[-1.282085,42.636104,806.077],[-1.282115,42.636112,805.844],[-1.282182,42.636135,805.899],[-1.282214,42.636149,806.14],[-1.282249,42.636143,804.537],[-1.282278,42.636167,805.281],[-1.282319,42.636153,802.861],[-1.282353,42.636145,801.017],[-1.282404,42.636153,799.808],[-1.282439,42.636157,798.851],[-1.282479,42.636196,799.721],[-1.282528,42.636222,799.459],[-1.282592,42.63626,799.442],[-1.282622,42.636289,800.129],[-1.282659,42.636323,800.914],[-1.282713,42.636329,799.575],[-1.282758,42.636325,797.742],[-1.282812,42.636329,796.519],[-1.282855,42.636338,796.009],[-1.28289,42.636352,796.019],[-1.28293,42.636364,795.708],[-1.282992,42.636362,794.014],[-1.283021,42.63636,793.294],[-1.283053,42.63637,793.072],[-1.283102,42.636411,795.055],[-1.283145,42.636451,797.482],[-1.283204,42.63649,799.577],[-1.283252,42.63649,799.118],[-1.283308,42.63649,798.575],[-1.283354,42.63649,798.565],[-1.283416,42.636488,799.168],[-1.283461,42.636488,799.614],[-1.28352,42.636486,800.008],[-1.283579,42.636504,803.129],[-1.283625,42.636486,800.689],[-1.283555,42.636502,802.517],[-1.283523,42.636492,800.85],[-1.283485,42.636486,799.637],[-1.283429,42.63649,799.492],[-1.283378,42.63649,798.843],[-1.283343,42.636488,798.22],[-1.283298,42.636486,798.339],[-1.283233,42.636486,798.901],[-1.283201,42.636492,799.721],[-1.28318,42.636467,798.108],[-1.283137,42.636441,796.726],[-1.283107,42.636413,795.166],[-1.283075,42.63639,793.914],[-1.283024,42.636364,793.437],[-1.282976,42.636366,794.774],[-1.282935,42.636358,795.239],[-1.282901,42.636348,795.55],[-1.282866,42.63634,795.827],[-1.282804,42.636327,796.692],[-1.28275,42.636325,798.073],[-1.282705,42.636329,799.72],[-1.282673,42.636321,800.308],[-1.282662,42.636317,800.562],[-1.28264,42.636303,800.482],[-1.282624,42.636285,799.83],[-1.282592,42.636256,799.253],[-1.282549,42.636236,799.58],[-1.282506,42.636214,799.755],[-1.282479,42.636196,799.766],[-1.282469,42.636183,799.323],[-1.282453,42.636163,798.776],[-1.28242,42.636155,799.39],[-1.282375,42.636143,800.119],[-1.282348,42.636147,801.308],[-1.282289,42.636169,805.04],[-1.282276,42.636167,805.36],[-1.28226,42.636149,804.568],[-1.282241,42.636141,804.651],[-1.282211,42.636149,806.128],[-1.282182,42.636133,805.683],[-1.282147,42.636127,806.034],[-1.282123,42.636115,805.811],[-1.282088,42.636106,806.055],[-1.282058,42.636112,807.207],[-1.282032,42.636137,809.617],[-1.282077,42.636214,813.908],[-1.282032,42.636208,814.458],[-1.282002,42.63619,813.848],[-1.281956,42.636177,814.056],[-1.281986,42.636139,810.889],[-1.281922,42.636094,809.796],[-1.281879,42.636076,810.031],[-1.281833,42.636054,810.332],[-1.281771,42.636039,811.589],[-1.281718,42.636027,812.785],[-1.281656,42.636011,814.089],[-1.281592,42.636001,815.717],[-1.281551,42.635989,816.608],[-1.2815,42.635993,818.641],[-1.281452,42.636001,820.871],[-1.281412,42.635993,821.819],[-1.281382,42.635975,822.082],[-1.281337,42.635944,822.179],[-1.281299,42.63592,821.814],[-1.281197,42.635896,822.745],[-1.281138,42.635898,824.692],[-1.281093,42.635904,826.553],[-1.281053,42.635928,830.404],[-1.28105,42.636007,840.714],[-1.28102,42.636003,840.808],[-1.280953,42.636001,841.918],[-1.280913,42.635969,838.518],[-1.280876,42.635952,837.076],[-1.280846,42.635936,835.489],[-1.280808,42.635924,834.466],[-1.280776,42.63591,833.061],[-1.280733,42.6359,832.262],[-1.28069,42.635891,831.629],[-1.280639,42.635877,830.592],[-1.280597,42.635879,831.373],[-1.280554,42.635875,831.42],[-1.280527,42.635871,831.208],[-1.280452,42.635896,835.452],[-1.280398,42.635912,838.272],[-1.280355,42.635936,842.07],[-1.280307,42.635966,846.713],[-1.280261,42.635979,849.26],[-1.280221,42.635975,849.325],[-1.280154,42.635944,846.486],[-1.280119,42.635936,846.073],[-1.280079,42.63593,846.049],[-1.280044,42.635914,844.702],[-1.280004,42.6359,843.822],[-1.279958,42.635891,844.008],[-1.279921,42.635887,844.657],[-1.279891,42.635865,843.277],[-1.279864,42.635851,842.765],[-1.279832,42.635841,842.858],[-1.279787,42.635835,843.855],[-1.279754,42.63582,843.65],[-1.279733,42.635796,842.021],[-1.279701,42.6358,842.548],[-1.279666,42.635818,843.889],[-1.27961,42.635814,842.706],[-1.279567,42.635804,841.326],[-1.279542,42.635788,839.708],[-1.279508,42.635776,838.541],[-1.279475,42.635768,837.641],[-1.279449,42.635833,842.089],[-1.279419,42.635845,843.082],[-1.279384,42.635839,842.599],[-1.279336,42.635823,841.324],[-1.279293,42.635816,840.945],[-1.279263,42.635816,841.012],[-1.279213,42.635833,842.083],[-1.279154,42.635835,842.525],[-1.279097,42.635837,844.517],[-1.279081,42.635833,844.808],[-1.279076,42.635818,844.131],[-1.279068,42.635778,842.161],[-1.279054,42.635729,839.789],[-1.279041,42.63567,836.762],[-1.279041,42.635622,834.039],[-1.279041,42.635549,829.854],[-1.27903,42.635496,827.445],[-1.279025,42.635449,825.272],[-1.279014,42.635403,823.328],[-1.279001,42.635364,821.889],[-1.278968,42.635312,820.517],[-1.27895,42.635253,818.308],[-1.278928,42.635214,817.245],[-1.278899,42.635172,816.315],[-1.278869,42.635131,815.143],[-1.278834,42.635113,815.156],[-1.278775,42.635085,815.183],[-1.278676,42.635099,818.468],[-1.278596,42.635109,820.849],[-1.27855,42.635145,823.566],[-1.278486,42.63517,825.737],[-1.278445,42.635174,826.349],[-1.278408,42.635192,827.713],[-1.278397,42.635275,832.408],[-1.278445,42.635326,835.026],[-1.278403,42.635381,838.676],[-1.278376,42.635391,839.574],[-1.278341,42.635451,843.517],[-1.278322,42.635451,843.844],[-1.278279,42.635464,845.249],[-1.278242,42.635468,846.07],[-1.278199,42.635478,847.277],[-1.278166,42.635464,846.867],[-1.278116,42.635451,846.781],[-1.278078,42.635435,846.319],[-1.278043,42.635423,846.108],[-1.278006,42.635407,845.919],[-1.277968,42.635385,845.339],[-1.277944,42.635364,844.697],[-1.277922,42.635344,843.86],[-1.277898,42.635326,843.377],[-1.277871,42.635326,843.862],[-1.277855,42.635395,848.233],[-1.277804,42.635425,851.01],[-1.277772,42.635431,852.029],[-1.277705,42.635449,855.1],[-1.277649,42.63546,857.42],[-1.277609,42.635472,859.208],[-1.27756,42.635539,864.425],[-1.277523,42.635599,867.825],[-1.277568,42.63562,867.413],[-1.277603,42.635634,867.166],[-1.277566,42.635652,868.633],[-1.277536,42.635683,870.468],[-1.277571,42.635743,871.979],[-1.277611,42.635772,872.426],[-1.277649,42.635786,872.499],[-1.277681,42.635796,872.407],[-1.27771,42.635833,873.727],[-1.277759,42.635845,873.308],[-1.277796,42.635845,873.062],[-1.277831,42.635861,872.912],[-1.277871,42.635894,872.95],[-1.277941,42.635946,872.873],[-1.278014,42.635985,872.56],[-1.278102,42.636003,871.845],[-1.278169,42.636003,871.156],[-1.278209,42.636003,870.793],[-1.278228,42.635997,870.423],[-1.27826,42.636041,870.783],[-1.278293,42.636066,870.711],[-1.278325,42.636094,870.808],[-1.278378,42.636102,870.465],[-1.278456,42.636129,869.835],[-1.278518,42.636149,869.413],[-1.27862,42.636183,868.716],[-1.278684,42.636189,868.253],[-1.278719,42.636179,867.858],[-1.27874,42.636171,867.559],[-1.278789,42.636183,867.266],[-1.278818,42.636232,867.723],[-1.27884,42.636228,867.583],[-1.278931,42.636238,867.111],[-1.278985,42.636236,866.908],[-1.27903,42.636232,866.665],[-1.279084,42.636224,866.215],[-1.279191,42.63622,865.983],[-1.279237,42.636228,866.236],[-1.279301,42.636244,866.913],[-1.279344,42.63625,867.178],[-1.279384,42.636256,867.419],[-1.27943,42.636277,867.966],[-1.279475,42.636279,868.294],[-1.2795,42.636275,868.357],[-1.279537,42.63626,868.322],[-1.279556,42.636238,868.108],[-1.279564,42.636226,868.042],[-1.279604,42.63623,868.412],[-1.279636,42.636267,869.17],[-1.279666,42.636285,869.593],[-1.279693,42.636285,869.71],[-1.279709,42.636267,869.625],[-1.279736,42.636246,869.596],[-1.279765,42.63623,869.443],[-1.279784,42.63621,869.362],[-1.279813,42.6362,869.383],[-1.279837,42.63619,869.311],[-1.27987,42.63619,869.408],[-1.279896,42.636187,869.479],[-1.279926,42.636198,869.759],[-1.279958,42.636214,870.027],[-1.279996,42.636206,870.05],[-1.280049,42.636185,869.567],[-1.28009,42.636173,869.192],[-1.280119,42.636171,868.973],[-1.280151,42.636181,868.82],[-1.280221,42.636183,868.492],[-1.28028,42.636173,867.973],[-1.28031,42.636165,867.32],[-1.28035,42.636159,866.508],[-1.280401,42.636149,865.572],[-1.280436,42.636139,864.722],[-1.28047,42.636129,863.95],[-1.280503,42.636129,863.463],[-1.280548,42.636125,862.59],[-1.280597,42.636149,862.565],[-1.280629,42.636167,862.766],[-1.280658,42.636183,862.833],[-1.280709,42.6362,862.881],[-1.280755,42.6362,862.361],[-1.280795,42.636194,861.817],[-1.280827,42.63619,861.308],[-1.280902,42.636196,860.051],[-1.280948,42.636252,860.621],[-1.280977,42.636267,860.489],[-1.281026,42.636271,859.452],[-1.281058,42.636335,860.629],[-1.281101,42.636366,860.624],[-1.281157,42.636386,859.175],[-1.281254,42.636415,856.112],[-1.281318,42.636435,854.498],[-1.281385,42.636471,853.415],[-1.281431,42.6365,853.926],[-1.281476,42.636542,854.708],[-1.281509,42.636577,855.362],[-1.281557,42.636603,855.172],[-1.281597,42.636625,854.85],[-1.281648,42.636656,854.333],[-1.281686,42.636721,854.72],[-1.281734,42.636771,854.655],[-1.281777,42.636794,854.196],[-1.281838,42.6368,852.823],[-1.281908,42.636808,851.498],[-1.281967,42.636822,850.815],[-1.28205,42.636855,850.626],[-1.282107,42.636869,850.008],[-1.282136,42.636889,849.912],[-1.282166,42.63697,850.752],[-1.282206,42.637025,851.12],[-1.282241,42.637092,851.813],[-1.2823,42.637102,850.83],[-1.282383,42.637118,849.615],[-1.28245,42.637126,848.586],[-1.282477,42.637122,847.873],[-1.282549,42.637126,847.124],[-1.282597,42.637126,846.704],[-1.282627,42.637126,846.514],[-1.282619,42.63711,845.908],[-1.282597,42.637094,845.575],[-1.282581,42.637074,844.985],[-1.282579,42.637053,844.263],[-1.282579,42.637035,843.556],[-1.282606,42.637033,843.283],[-1.28264,42.637033,842.848],[-1.28267,42.637033,842.549],[-1.282702,42.637025,841.996],[-1.282737,42.637019,841.493],[-1.282791,42.637047,841.865],[-1.282844,42.637065,841.521],[-1.282909,42.63709,841.408],[-1.282952,42.637118,842.012],[-1.283005,42.637142,842.412],[-1.28307,42.637155,842.47],[-1.283222,42.637169,843.823],[-1.283257,42.637163,843.71],[-1.2833,42.637167,844.125],[-1.283324,42.637163,844.036],[-1.283346,42.637153,843.623],[-1.283365,42.637136,842.955],[-1.283397,42.637122,842.607],[-1.28341,42.637102,841.917],[-1.283421,42.637088,841.508],[-1.283461,42.637082,841.898],[-1.283477,42.637071,841.668],[-1.283523,42.637072,842.416],[-1.283579,42.637072,843.359],[-1.283611,42.637067,843.686],[-1.283638,42.637061,843.471],[-1.283662,42.637059,843.242],[-1.283708,42.637059,843.019],[-1.283754,42.637063,842.881],[-1.283796,42.637055,842.561],[-1.283839,42.637041,842.017],[-1.283885,42.637029,841.508],[-1.283909,42.637023,840.961],[-1.283931,42.637009,840.051],[-1.283965,42.637005,839.019],[-1.284008,42.637027,838.552],[-1.284086,42.637029,836.659],[-1.284118,42.637003,834.854],[-1.284153,42.636988,833.365],[-1.284199,42.636988,831.252],[-1.284252,42.637029,830.729],[-1.284306,42.637059,830.3],[-1.28437,42.63709,830.22],[-1.284437,42.637124,831.008],[-1.284467,42.637136,831.465],[-1.284499,42.637134,830.385],[-1.284547,42.637134,829.193],[-1.284601,42.637146,829.126],[-1.284639,42.637151,828.753],[-1.284679,42.637153,828.068],[-1.284738,42.637179,829.979],[-1.284781,42.637201,831.446],[-1.284832,42.637226,832.699],[-1.284885,42.63722,830.507],[-1.28495,42.63722,828.427],[-1.285033,42.637224,826.608],[-1.285089,42.63724,826.752],[-1.285148,42.637244,826.182],[-1.285199,42.637246,825.53],[-1.285223,42.637242,824.953],[-1.285344,42.63727,823.63],[-1.285433,42.637288,821.955],[-1.285467,42.637288,820.886],[-1.2855,42.637299,820.553],[-1.28558,42.637301,818.011],[-1.285623,42.637321,817.921],[-1.285752,42.637357,816.103],[-1.285781,42.637428,821.208],[-1.285811,42.637487,825.594],[-1.285872,42.63752,823.464],[-1.285881,42.637637,824.652],[-1.285889,42.637755,826.225],[-1.285918,42.637858,830.392],[-1.285972,42.637927,833.147],[-1.286004,42.637951,834.078],[-1.286041,42.63799,835.745],[-1.286012,42.638006,837.158],[-1.285982,42.63801,837.752],[-1.285956,42.638024,838.917],[-1.285985,42.638055,840.308],[-1.285996,42.63813,841.998],[-1.286036,42.63814,841.898],[-1.286098,42.638152,841.556],[-1.286135,42.63815,841.169],[-1.286173,42.63813,840.266],[-1.286213,42.63811,839.151],[-1.286253,42.638114,838.872],[-1.286296,42.638142,839.189],[-1.286345,42.638174,839.731],[-1.28639,42.638176,839.361],[-1.286422,42.638164,838.807],[-1.286454,42.638146,838.008],[-1.286489,42.638136,837.516],[-1.286524,42.638152,838.046],[-1.286594,42.638213,839.944],[-1.286648,42.638274,841.957],[-1.286712,42.638294,842.194],[-1.286758,42.638308,842.119],[-1.286811,42.638325,842.19],[-1.28691,42.638389,841.537],[-1.28698,42.63844,841.031],[-1.287058,42.638479,840.361],[-1.287117,42.638515,840.007],[-1.287195,42.638552,839.608],[-1.287216,42.638543,839.386],[-1.287235,42.638537,839.096],[-1.287275,42.638556,838.684],[-1.287332,42.638592,838.297],[-1.287369,42.63861,837.914],[-1.287409,42.638677,837.259],[-1.287447,42.638704,836.77],[-1.287493,42.638728,836.187],[-1.28753,42.638775,835.461],[-1.287565,42.638835,834.721],[-1.287608,42.638823,833.913],[-1.287648,42.638809,833.008],[-1.287683,42.638829,832.429],[-1.287718,42.638904,832.029],[-1.287745,42.638898,831.617],[-1.287796,42.638957,830.56],[-1.287836,42.638984,829.567],[-1.287873,42.638996,828.732],[-1.287935,42.639026,827.653],[-1.287981,42.639077,827.43],[-1.288021,42.639132,827.715],[-1.28808,42.639146,827.265],[-1.288198,42.63916,825.711],[-1.288244,42.639168,825.308],[-1.28834,42.639166,823.934],[-1.288437,42.639202,822.634],[-1.288482,42.639217,822.112],[-1.288595,42.639253,820.835],[-1.288697,42.639298,820.252],[-1.288761,42.639351,819.957],[-1.288818,42.639399,819.628],[-1.288882,42.639462,818.935],[-1.288949,42.639531,817.774],[-1.289003,42.639582,816.856],[-1.28908,42.639592,815.921],[-1.289131,42.639604,815.208],[-1.289204,42.63962,814.29],[-1.289276,42.63964,813.11],[-1.289316,42.639665,812.538],[-1.289373,42.639709,811.871],[-1.289413,42.639754,811.098],[-1.289456,42.639782,810.253],[-1.289501,42.639829,809.114],[-1.289536,42.639837,808.751],[-1.289558,42.639837,808.497],[-1.289595,42.639845,807.923],[-1.289628,42.639864,807.525],[-1.289676,42.639888,807.008],[-1.289735,42.639934,806.672],[-1.289778,42.639967,806.472],[-1.289834,42.640007,806.13],[-1.289877,42.640046,805.183],[-1.289928,42.640085,804.26],[-1.289971,42.640103,803.795],[-1.290006,42.640089,803.746],[-1.290046,42.640129,803.023],[-1.290081,42.640141,802.769],[-1.29011,42.640139,802.604],[-1.290145,42.640158,802.124],[-1.290204,42.640182,801.408],[-1.290247,42.640182,801.249],[-1.290298,42.64019,800.999],[-1.290346,42.64019,800.767],[-1.2904,42.64019,800.69],[-1.290462,42.64019,800.597],[-1.29051,42.640196,800.372],[-1.290564,42.6402,800.053],[-1.290615,42.640204,799.67],[-1.290644,42.640202,799.374],[-1.29069,42.64021,798.956],[-1.290722,42.6402,798.721],[-1.290743,42.640194,798.508],[-1.290773,42.640166,798.37],[-1.290797,42.640158,798.05],[-1.290829,42.640135,797.548],[-1.290867,42.640119,796.661],[-1.290918,42.640119,795.398],[-1.290947,42.640113,794.573],[-1.291006,42.640113,793.034],[-1.291044,42.640111,791.961],[-1.291113,42.640149,791.257],[-1.291146,42.640157,790.6],[-1.291197,42.640186,790.32],[-1.291232,42.640222,791.008],[-1.291272,42.640255,791.648],[-1.291312,42.640261,791.358],[-1.291392,42.640267,790.326],[-1.291438,42.640255,789.189],[-1.291481,42.640247,788.036],[-1.291527,42.640231,786.211],[-1.291604,42.640206,783.152],[-1.291653,42.640204,782.169],[-1.291685,42.640198,781.399],[-1.291728,42.640188,780.307],[-1.291771,42.640192,780.327],[-1.291814,42.640222,782.108],[-1.291862,42.640235,782.592],[-1.291902,42.640255,783.352],[-1.29194,42.640297,784.35],[-1.291972,42.640336,783.623],[-1.292023,42.64037,782.44],[-1.292066,42.640389,781.315],[-1.292098,42.640427,781.026],[-1.292135,42.640456,780.613],[-1.292173,42.640494,780.574],[-1.292221,42.640551,780.956],[-1.292261,42.640569,779.721],[-1.292296,42.64061,778.808],[-1.292329,42.640624,778.19],[-1.292358,42.640697,778.14],[-1.29239,42.640766,778.588],[-1.292428,42.640772,778.211],[-1.29246,42.64078,778.058],[-1.292481,42.640762,777.473],[-1.292516,42.640744,776.574],[-1.292535,42.640723,775.751],[-1.292543,42.640719,775.418],[-1.292557,42.640699,774.698],[-1.292632,42.640683,772.717],[-1.292672,42.640703,772.708],[-1.292712,42.640695,771.724],[-1.292776,42.640709,771.234],[-1.292868,42.640723,770.562],[-1.292913,42.640731,770.275],[-1.292959,42.640739,770.062],[-1.293015,42.640748,769.737],[-1.293063,42.640776,770.548],[-1.293109,42.64081,771.525],[-1.293144,42.640833,772.151],[-1.293203,42.640847,770.901],[-1.29324,42.640847,770.111],[-1.293291,42.640837,768.908],[-1.293356,42.640851,767.558],[-1.293418,42.640885,766.398],[-1.293466,42.6409,765.316],[-1.29353,42.640936,764.819],[-1.293578,42.640969,765.056],[-1.293611,42.640983,764.921],[-1.293675,42.641035,766.482],[-1.293713,42.641048,766.699],[-1.293745,42.641048,766.432],[-1.293788,42.64105,766.192],[-1.293841,42.641052,765.811],[-1.293887,42.641052,765.408],[-1.293935,42.641058,764.156],[-1.293973,42.6411,765.386],[-1.294034,42.641115,763.884],[-1.29411,42.641181,761.877],[-1.294163,42.641238,761.454],[-1.294214,42.641244,759.679],[-1.294252,42.64124,758.02],[-1.294284,42.641224,756.257],[-1.294335,42.641228,754.214],[-1.294388,42.641246,752.954],[-1.294431,42.641265,752.309],[-1.294466,42.641321,754.308],[-1.294544,42.64136,753.644],[-1.294576,42.641378,753.664],[-1.294611,42.641423,753.462],[-1.294641,42.641423,752.575],[-1.294678,42.641423,751.382],[-1.294651,42.641445,752.567],[-1.294681,42.641447,751.748],[-1.294713,42.641449,750.815],[-1.294775,42.641465,748.592],[-1.294836,42.641542,748.773],[-1.294871,42.641589,749.52],[-1.294917,42.641607,748.908],[-1.294987,42.641617,747.542],[-1.295008,42.641617,746.922],[-1.295062,42.64165,747.21],[-1.295091,42.641717,747.493],[-1.295129,42.641725,746.54],[-1.295158,42.64179,746.155],[-1.295201,42.641834,745.696],[-1.295252,42.641875,745.393],[-1.295311,42.641893,744.862],[-1.295378,42.641922,744.583],[-1.295472,42.64194,743.811],[-1.29555,42.641944,743.008],[-1.295628,42.641952,741.829],[-1.29574,42.641991,739.679],[-1.295805,42.642037,738.097],[-1.295885,42.642068,735.27],[-1.296051,42.642112,729.927],[-1.296116,42.642104,727.672],[-1.296204,42.642112,725.343],[-1.296261,42.642153,725.74],[-1.29636,42.642278,726.773],[-1.296384,42.642388,724.785],[-1.296424,42.642418,723.613],[-1.296668,42.642487,719.108],[-1.29665,42.642568,718.05],[-1.29665,42.642702,715.67],[-1.296631,42.642773,714.548],[-1.296628,42.642862,712.651],[-1.296647,42.642978,709.868],[-1.296599,42.642982,710.133],[-1.296556,42.643023,709.524],[-1.29651,42.643043,709.471],[-1.296475,42.643079,708.774],[-1.29643,42.643124,707.756],[-1.296381,42.643185,706.421],[-1.296411,42.643272,703.508],[-1.296459,42.643353,700.64],[-1.296499,42.643386,699.27],[-1.296473,42.643444,697.668],[-1.296451,42.643444,697.851],[-1.296376,42.643457,698.188],[-1.296285,42.643507,697.473],[-1.296237,42.643542,696.714],[-1.296196,42.643574,696.281],[-1.296199,42.643682,693.065],[-1.296151,42.643769,691.068],[-1.296121,42.643785,690.914],[-1.296161,42.643836,689.008],[-1.296124,42.643848,689.059],[-1.296043,42.643888,688.399],[-1.296017,42.643897,688.027],[-1.295968,42.643915,687.46],[-1.295923,42.64397,685.487],[-1.29584,42.644004,684.442],[-1.295797,42.644034,683.613],[-1.295767,42.644057,683.11],[-1.295716,42.64411,681.568],[-1.29566,42.64418,679.442],[-1.295692,42.644253,676.426],[-1.295856,42.644274,674.008],[-1.296027,42.644304,672.059],[-1.296135,42.644331,670.569],[-1.296194,42.644349,669.487],[-1.296231,42.644365,668.64],[-1.296132,42.644444,666.967],[-1.296009,42.644535,664.642],[-1.295963,42.644574,663.683],[-1.295858,42.644659,661.71],[-1.295679,42.64475,660.315],[-1.295625,42.644795,659.365],[-1.295577,42.644844,658.311],[-1.295515,42.644919,657.008],[-1.295515,42.64502,654.464],[-1.295628,42.645148,650.744],[-1.295756,42.645359,644.782],[-1.29581,42.645442,642.795],[-1.295872,42.645594,639.552],[-1.295933,42.645685,637.057],[-1.296009,42.645754,634.678],[-1.296116,42.645841,631.865],[-1.296153,42.645876,630.447],[-1.296263,42.645943,627.229],[-1.296298,42.645949,626.421],[-1.296379,42.645926,625.208],[-1.29644,42.645896,624.697],[-1.296483,42.64587,624.537],[-1.296529,42.645868,623.985],[-1.296655,42.645874,622.378],[-1.296824,42.645882,620.665],[-1.297073,42.645939,617.08],[-1.29717,42.645953,615.991],[-1.297296,42.645971,614.288],[-1.297368,42.645971,613.587],[-1.29747,42.645985,612.042],[-1.297637,42.646048,608.226],[-1.297728,42.646046,607.208],[-1.297873,42.64603,605.221],[-1.297977,42.645989,604.291],[-1.298026,42.645973,603.689],[-1.298058,42.645931,603.852],[-1.298114,42.645866,604.019],[-1.298149,42.645847,603.784],[-1.298178,42.645837,603.355],[-1.298208,42.645817,603.342],[-1.298248,42.645789,603.485],[-1.298296,42.645768,603.289],[-1.298339,42.645734,603.417],[-1.298361,42.645714,603.508],[-1.298423,42.645703,602.121],[-1.298428,42.645677,602.991],[-1.2985,42.645667,601.139],[-1.29868,42.64561,597.722],[-1.298819,42.645582,595.129],[-1.29894,42.645545,593.344],[-1.299115,42.645511,591.135],[-1.299485,42.645454,584.782],[-1.299699,42.645419,581.017],[-1.29982,42.645405,578.687],[-1.300083,42.645367,573.615],[-1.300169,42.645355,572.008],[-1.300268,42.645349,569.954],[-1.300362,42.645348,568.264],[-1.300488,42.645371,565.582],[-1.300512,42.645494,562.915],[-1.30055,42.645618,560.212],[-1.30059,42.645782,557.157],[-1.300579,42.646085,553.088],[-1.300609,42.646291,548.295],[-1.300617,42.646446,544.934],[-1.300678,42.646573,541.855],[-1.30082,42.646758,536.51],[-1.300863,42.64688,533.708],[-1.300845,42.646989,532.046],[-1.300898,42.64706,530.196],[-1.300976,42.647056,529.194],[-1.301075,42.647024,528.387],[-1.301166,42.646997,527.194],[-1.301215,42.646995,526.129],[-1.301247,42.646991,525.56],[-1.301212,42.647084,525.037],[-1.301183,42.647196,524.178],[-1.301081,42.647407,520.633],[-1.301035,42.64749,518.826],[-1.300989,42.647551,517.308],[-1.300904,42.647599,516.45],[-1.300783,42.647654,515.46],[-1.300745,42.647654,515.728],[-1.300689,42.647681,515.521],[-1.300654,42.647725,514.828],[-1.30063,42.647825,512.953],[-1.300576,42.647932,511.374],[-1.300515,42.648039,509.851],[-1.300338,42.648143,508.781],[-1.300112,42.648206,508.361],[-1.300048,42.648232,507.917],[-1.299989,42.648265,507.308],[-1.300053,42.648285,506.221],[-1.300166,42.648295,505.051],[-1.300284,42.648297,504.119],[-1.300372,42.648329,502.822],[-1.300917,42.648585,493.989],[-1.30133,42.648757,486.024],[-1.301577,42.648869,481.245],[-1.301574,42.648966,479.292],[-1.301507,42.649041,478.149],[-1.301464,42.649072,477.802],[-1.301317,42.649149,477.022],[-1.301268,42.649199,476.408],[-1.301378,42.649394,472.157],[-1.302084,42.650059,460.417],[-1.302132,42.650102,460.095],[-1.302105,42.650191,459.058],[-1.301869,42.650362,455.855],[-1.301789,42.650465,454.67],[-1.301727,42.650613,452.431],[-1.301687,42.650662,451.968],[-1.301647,42.650828,449.414],[-1.301606,42.650958,447.654],[-1.301486,42.651049,446.909],[-1.301303,42.651106,446.808],[-1.30111,42.651161,446.744],[-1.301056,42.651189,446.384],[-1.301014,42.651231,445.512],[-1.301319,42.651227,443.935],[-1.301832,42.651244,439.012],[-1.302196,42.651234,436.057],[-1.30233,42.651225,435.258],[-1.302526,42.651159,434.865],[-1.30321,42.650572,439.256],[-1.30336,42.650491,439.859],[-1.303658,42.650392,439.814],[-1.303972,42.650286,440.708],[-1.304291,42.65022,439.378],[-1.304516,42.650171,438.648],[-1.304913,42.65022,435.256],[-1.305158,42.650274,434.039],[-1.305394,42.650278,432.756],[-1.305616,42.650276,430.651],[-1.306247,42.650264,429.162],[-1.306676,42.650272,427.069],[-1.306971,42.650228,427.029],[-1.307244,42.650171,426.0],[-1.307416,42.650098,426.02],[-1.307577,42.650009,426.308],[-1.307861,42.649848,425.575],[-1.307915,42.64979,425.815],[-1.308025,42.649711,426.133],[-1.308135,42.649743,424.656],[-1.308205,42.649788,423.343],[-1.308253,42.649792,422.748],[-1.308242,42.649763,423.029],[-1.308148,42.649727,424.636],[-1.308041,42.649692,426.255],[-1.308025,42.64967,426.307],[-1.308028,42.649621,426.517],[-1.308795,42.648948,424.908],[-1.309116,42.648536,424.818],[-1.309243,42.648413,425.158],[-1.309519,42.64819,425.916],[-1.309572,42.648076,426.069],[-1.309465,42.647792,426.966],[-1.309422,42.647551,427.061],[-1.309487,42.647218,426.912],[-1.309704,42.646841,428.969],[-1.309951,42.646496,428.792],[-1.31005,42.646304,427.973],[-1.310117,42.645953,428.32],[-1.310154,42.645705,428.508],[-1.310315,42.644473,427.782],[-1.310391,42.643424,428.282],[-1.310393,42.642804,427.33],[-1.310337,42.642388,427.323],[-1.3102,42.641867,427.27],[-1.3102,42.641867,427.285],[-1.310093,42.641289,427.066],[-1.309894,42.640496,427.143],[-1.309723,42.640111,427.477],[-1.309479,42.639768,427.061],[-1.308891,42.639182,427.027],[-1.308427,42.638765,426.608],[-1.308017,42.638385,425.54],[-1.307918,42.638314,425.58],[-1.307791,42.638199,425.588],[-1.307711,42.638122,425.541],[-1.307258,42.637765,425.838],[-1.306646,42.637211,425.083],[-1.306204,42.636786,424.214],[-1.305852,42.636435,424.821],[-1.30571,42.636177,423.918],[-1.305627,42.636039,424.798],[-1.305504,42.635727,425.417],[-1.305445,42.635636,425.808],[-1.305281,42.635451,429.854],[-1.305184,42.63536,430.044],[-1.303554,42.634136,436.462],[-1.304342,42.634718,446.775],[-1.305163,42.635344,430.312],[-1.305611,42.635962,425.127],[-1.305723,42.636262,424.558],[-1.305909,42.636486,424.445],[-1.306606,42.637169,424.965],[-1.307357,42.637816,425.668],[-1.307475,42.637925,425.614],[-1.30744,42.638006,425.908],[-1.307467,42.638089,426.189],[-1.307483,42.638213,426.699]]}}]}