{"type":"FeatureCollection","features":[{"type":"Feature","properties":{"ruta_id":"33210211","nombre":"PALACIO DE AIZKOLEGI circular por BERTIZ","blog_url":"https://www.rutasporelmonte.com/palacio-de-aizkolegi-ruta-por-bertiz/"},"geometry":{"type":"LineString","coordinates":[[-1.577836,43.179994,536.4],[-1.577842,43.179965,536.6],[-1.577856,43.179939,536.7],[-1.577896,43.179952,536.8],[-1.577932,43.179969,536.9],[-1.57796,43.179998,537.0],[-1.577995,43.180011,537.1],[-1.578036,43.180011,537.1],[-1.578061,43.180032,537.1],[-1.578088,43.180053,537.2],[-1.578111,43.180077,537.2],[-1.578135,43.180102,537.2],[-1.578168,43.180131,537.3],[-1.578161,43.180162,537.3],[-1.578169,43.180204,537.3],[-1.578195,43.180235,537.3],[-1.57821,43.180266,537.3],[-1.578225,43.180304,537.3],[-1.578251,43.180339,537.3],[-1.578245,43.180367,537.2],[-1.578232,43.180397,537.1],[-1.578218,43.180422,537.1],[-1.578246,43.180453,537.0],[-1.578285,43.180471,536.9],[-1.57832,43.180494,536.8],[-1.578358,43.180516,536.6],[-1.578389,43.18054,536.4],[-1.578416,43.180559,536.3],[-1.578433,43.180591,536.1],[-1.578457,43.180624,535.9],[-1.578471,43.180666,536.0],[-1.578492,43.180698,536.1],[-1.578518,43.180721,536.2],[-1.578542,43.180744,536.3],[-1.578568,43.180776,536.4],[-1.578572,43.180808,536.6],[-1.578589,43.180838,536.7],[-1.578617,43.18086,536.8],[-1.578641,43.180899,537.0],[-1.578659,43.180926,537.1],[-1.578672,43.180959,537.3],[-1.578693,43.180989,537.5],[-1.578708,43.181017,537.6],[-1.578714,43.181051,537.9],[-1.57873,43.181084,538.1],[-1.578764,43.181114,538.4],[-1.578795,43.181134,538.6],[-1.578835,43.181137,538.8],[-1.578876,43.181135,539.0],[-1.578925,43.181133,539.3],[-1.578972,43.181151,539.6],[-1.579007,43.181164,539.8],[-1.579037,43.181147,540.1],[-1.579045,43.181113,540.3],[-1.579086,43.181141,540.7],[-1.579103,43.181168,540.9],[-1.57914,43.18119,541.2],[-1.579174,43.181222,541.5],[-1.579201,43.181257,541.9],[-1.579234,43.18128,542.3],[-1.579251,43.181315,542.7],[-1.579275,43.181343,543.1],[-1.579285,43.181384,543.6],[-1.579288,43.181419,544.2],[-1.579287,43.181447,544.7],[-1.57932,43.181474,545.5],[-1.579348,43.181494,546.2],[-1.579363,43.18152,547.0],[-1.579386,43.181549,548.0],[-1.579395,43.181581,549.0],[-1.579427,43.181604,550.1],[-1.579446,43.181632,551.2],[-1.579455,43.181667,552.3],[-1.579494,43.181675,553.1],[-1.579504,43.181704,554.0],[-1.57955,43.181722,555.1],[-1.579609,43.181717,556.2],[-1.579657,43.181725,557.0],[-1.579689,43.18174,557.6],[-1.579721,43.181767,558.3],[-1.579765,43.181792,559.0],[-1.579806,43.181813,559.7],[-1.579815,43.18184,560.1],[-1.579826,43.181876,560.8],[-1.57985,43.181904,561.3],[-1.579893,43.181927,562.0],[-1.579934,43.181938,562.6],[-1.579976,43.181965,563.4],[-1.580004,43.181989,564.0],[-1.580029,43.182009,564.6],[-1.580061,43.182023,565.2],[-1.580088,43.182041,565.9],[-1.580121,43.182057,566.5],[-1.580152,43.182079,567.1],[-1.580178,43.182117,567.9],[-1.580205,43.182144,568.5],[-1.58023,43.182171,569.1],[-1.58026,43.182192,569.6],[-1.580283,43.182222,570.2],[-1.580305,43.18225,570.9],[-1.580325,43.182274,571.6],[-1.580342,43.1823,572.1],[-1.580335,43.18233,572.7],[-1.580366,43.182362,573.4],[-1.580389,43.182383,573.9],[-1.58043,43.182395,574.5],[-1.58047,43.182428,575.3],[-1.580508,43.182448,575.9],[-1.580553,43.182478,576.7],[-1.580583,43.182501,577.3],[-1.580607,43.182522,577.7],[-1.580615,43.182549,578.2],[-1.580631,43.18258,578.8],[-1.580648,43.182611,579.4],[-1.580669,43.182644,580.0],[-1.580688,43.182668,580.4],[-1.580714,43.182689,580.9],[-1.580746,43.182711,581.4],[-1.580761,43.182751,582.1],[-1.580796,43.182775,582.7],[-1.580835,43.182811,583.5],[-1.58086,43.182841,584.1],[-1.580878,43.18287,584.6],[-1.580891,43.182896,585.1],[-1.5809,43.182929,585.8],[-1.580929,43.182949,586.4],[-1.580967,43.18297,587.2],[-1.580998,43.182997,587.9],[-1.581028,43.183015,588.4],[-1.581056,43.183041,589.0],[-1.581086,43.183064,589.5],[-1.581126,43.183071,590.1],[-1.581158,43.183086,590.6],[-1.581186,43.183106,591.2],[-1.581213,43.183125,591.8],[-1.581215,43.183154,592.3],[-1.581216,43.183185,592.8],[-1.581218,43.183212,593.2],[-1.581222,43.183239,593.6],[-1.581264,43.183242,594.1],[-1.581298,43.183255,594.5],[-1.581336,43.183278,594.9],[-1.581361,43.183303,595.3],[-1.581359,43.183331,595.6],[-1.581354,43.183358,596.0],[-1.581374,43.183388,596.4],[-1.58139,43.18343,596.9],[-1.581401,43.183459,597.3],[-1.581414,43.183484,597.5],[-1.581445,43.183504,597.8],[-1.581478,43.183532,598.2],[-1.581479,43.18357,598.7],[-1.581496,43.1836,599.0],[-1.581532,43.183626,599.4],[-1.581545,43.183658,599.8],[-1.581582,43.183682,600.2],[-1.581624,43.18368,600.6],[-1.581663,43.183685,601.1],[-1.581714,43.183688,601.7],[-1.581766,43.183679,602.4],[-1.581813,43.183674,603.0],[-1.581857,43.183677,603.6],[-1.581901,43.183678,604.2],[-1.581928,43.183658,604.7],[-1.581969,43.18364,605.3],[-1.581997,43.183614,605.8],[-1.582035,43.183597,606.3],[-1.582064,43.183568,606.7],[-1.582114,43.183554,607.2],[-1.582167,43.18356,607.5],[-1.582213,43.183554,607.8],[-1.582253,43.183537,608.1],[-1.582295,43.183547,608.3],[-1.582331,43.183569,608.6],[-1.582366,43.183585,608.8],[-1.5824,43.183624,609.2],[-1.582429,43.183648,609.5],[-1.582464,43.183678,610.0],[-1.582496,43.183692,610.4],[-1.582541,43.183693,610.8],[-1.582591,43.183719,611.4],[-1.582623,43.183737,611.7],[-1.582659,43.183749,612.1],[-1.5827,43.183758,612.4],[-1.582729,43.183776,612.7],[-1.582768,43.183783,613.1],[-1.582797,43.183801,613.4],[-1.582828,43.183817,613.7],[-1.582865,43.183822,614.0],[-1.582892,43.183843,614.3],[-1.582914,43.183869,614.6],[-1.582936,43.183894,614.9],[-1.582972,43.183916,615.2],[-1.583,43.183939,615.6],[-1.583024,43.183967,615.9],[-1.583057,43.183987,616.2],[-1.583095,43.183999,616.4],[-1.583133,43.18402,616.8],[-1.58317,43.18404,617.1],[-1.5832,43.184072,617.5],[-1.583217,43.184097,617.7],[-1.583253,43.184114,618.1],[-1.583301,43.184122,618.4],[-1.583346,43.18414,618.8],[-1.583395,43.184164,619.2],[-1.583441,43.184182,619.6],[-1.583483,43.1842,619.9],[-1.583525,43.184206,620.2],[-1.583563,43.184223,620.6],[-1.5836,43.184244,620.9],[-1.583636,43.184266,621.3],[-1.583675,43.184277,621.7],[-1.583719,43.184308,622.2],[-1.583741,43.18434,622.7],[-1.583749,43.184374,623.2],[-1.583765,43.184402,623.6],[-1.583779,43.18443,623.9],[-1.58377,43.18446,624.3],[-1.583776,43.184488,624.8],[-1.583796,43.184531,625.4],[-1.583803,43.184572,625.9],[-1.583799,43.184602,626.3],[-1.583785,43.184629,626.6],[-1.58378,43.184666,627.2],[-1.583791,43.18471,627.9],[-1.583788,43.184743,628.4],[-1.583792,43.184776,628.8],[-1.583812,43.184809,629.2],[-1.583829,43.184847,629.7],[-1.583842,43.184874,630.0],[-1.583856,43.184902,630.3],[-1.583881,43.184941,630.8],[-1.583903,43.184967,631.1],[-1.583924,43.184992,631.4],[-1.583951,43.185031,631.7],[-1.583974,43.185056,632.0],[-1.583995,43.185085,632.3],[-1.584017,43.185107,632.6],[-1.584025,43.185134,632.9],[-1.584041,43.185164,633.2],[-1.584072,43.185182,633.5],[-1.584103,43.185213,633.9],[-1.584134,43.185237,634.2],[-1.584164,43.185267,634.6],[-1.584189,43.185289,635.0],[-1.584226,43.185306,635.3],[-1.584275,43.18532,635.7],[-1.584315,43.185343,636.2],[-1.584355,43.185375,636.7],[-1.584378,43.185416,637.3],[-1.584413,43.185458,637.9],[-1.58444,43.185482,638.3],[-1.58448,43.1855,638.7],[-1.584524,43.185516,639.2],[-1.584546,43.185542,639.6],[-1.584586,43.185557,640.0],[-1.584618,43.185583,640.3],[-1.584663,43.185602,640.7],[-1.584709,43.185612,641.1],[-1.584759,43.185616,641.4],[-1.584808,43.185621,641.7],[-1.584859,43.185632,642.0],[-1.5849,43.185648,642.2],[-1.584938,43.185649,642.4],[-1.584975,43.185665,642.7],[-1.58503,43.185682,643.0],[-1.585064,43.185698,643.2],[-1.585106,43.185702,643.4],[-1.58515,43.185705,643.6],[-1.585187,43.185705,643.8],[-1.585223,43.18572,644.0],[-1.585255,43.185739,644.2],[-1.585287,43.185767,644.4],[-1.585316,43.185784,644.6],[-1.585351,43.185797,644.8],[-1.585384,43.185821,644.9],[-1.585406,43.185846,645.1],[-1.585447,43.185861,645.3],[-1.585494,43.185857,645.4],[-1.585528,43.185883,645.6],[-1.585557,43.185902,645.8],[-1.585591,43.185921,645.9],[-1.585628,43.185934,646.1],[-1.585663,43.185955,646.2],[-1.585696,43.185975,646.4],[-1.585728,43.186,646.6],[-1.585767,43.186011,646.7],[-1.585804,43.186028,646.9],[-1.58586,43.186039,647.1],[-1.585906,43.186029,647.3],[-1.585966,43.186032,647.6],[-1.586006,43.186039,647.8],[-1.586038,43.186024,648.1],[-1.586077,43.186013,648.4],[-1.586116,43.186009,648.7],[-1.586173,43.186013,649.1],[-1.586226,43.186025,649.5],[-1.586291,43.186035,650.0],[-1.586332,43.186043,650.4],[-1.586378,43.186047,650.8],[-1.586426,43.186047,651.3],[-1.586449,43.186076,651.7],[-1.586496,43.186094,652.2],[-1.586533,43.186103,652.5],[-1.586584,43.186111,652.9],[-1.586627,43.186123,653.3],[-1.586664,43.186128,653.7],[-1.586707,43.186122,654.2],[-1.58676,43.186112,654.7],[-1.586809,43.186119,655.2],[-1.586852,43.186122,655.7],[-1.586909,43.18612,656.3],[-1.586946,43.186115,656.7],[-1.586991,43.186116,657.2],[-1.58703,43.186125,657.7],[-1.587071,43.186117,658.2],[-1.587103,43.186103,658.6],[-1.587147,43.186095,659.0],[-1.587189,43.186091,659.5],[-1.58724,43.1861,660.2],[-1.587286,43.186107,660.8],[-1.587322,43.186119,661.3],[-1.587365,43.186132,661.9],[-1.587395,43.18615,662.3],[-1.587437,43.186167,662.8],[-1.587476,43.186173,663.3],[-1.58752,43.18617,663.7],[-1.587571,43.186175,664.3],[-1.587611,43.186173,664.8],[-1.587653,43.186171,665.4],[-1.587706,43.186169,666.1],[-1.587751,43.186161,666.7],[-1.587793,43.186171,667.3],[-1.587849,43.186166,668.1],[-1.587906,43.186159,668.9],[-1.587942,43.186143,669.4],[-1.587979,43.186156,670.0],[-1.588027,43.186165,670.6],[-1.588073,43.186179,671.4],[-1.588101,43.186199,672.0],[-1.588133,43.186221,672.7],[-1.58818,43.186247,673.7],[-1.588215,43.18627,674.5],[-1.588255,43.186292,675.3],[-1.588277,43.186317,675.9],[-1.588322,43.186323,676.6],[-1.58834,43.186353,677.3],[-1.58836,43.186378,677.8],[-1.5884,43.1864,678.5],[-1.588436,43.186421,679.3],[-1.588469,43.186436,680.0],[-1.588502,43.186461,680.7],[-1.58854,43.186477,681.5],[-1.588577,43.186484,682.1],[-1.588619,43.186504,682.9],[-1.588648,43.186528,683.5],[-1.588676,43.186548,684.0],[-1.588699,43.186586,684.8],[-1.588704,43.186616,685.4],[-1.588749,43.186609,686.2],[-1.588759,43.186641,687.0],[-1.588759,43.186672,687.7],[-1.588768,43.186702,688.3],[-1.588782,43.186732,688.8],[-1.5888,43.186766,689.6],[-1.588837,43.18679,690.3],[-1.588866,43.186816,690.9],[-1.588896,43.186846,691.7],[-1.588937,43.18684,692.3],[-1.588984,43.186858,693.1],[-1.589013,43.18689,693.8],[-1.589023,43.186918,694.4],[-1.589041,43.186952,695.1],[-1.589081,43.186977,695.8],[-1.589115,43.186994,696.4],[-1.589142,43.18702,697.0],[-1.589167,43.187047,697.6],[-1.589186,43.187077,698.1],[-1.589212,43.187105,698.7],[-1.589205,43.187078,699.2],[-1.589192,43.187052,699.7],[-1.589193,43.18708,700.2],[-1.589227,43.187102,700.8],[-1.589249,43.187128,701.4],[-1.589289,43.187141,702.0],[-1.589319,43.187161,702.6],[-1.58934,43.187183,703.1],[-1.58938,43.187203,703.7],[-1.589395,43.187233,704.3],[-1.589399,43.187263,704.8],[-1.5894,43.187303,705.5],[-1.589414,43.187329,706.1],[-1.589436,43.187353,706.7],[-1.589455,43.187379,707.3],[-1.589473,43.187413,707.9],[-1.58947,43.187447,708.4],[-1.589464,43.187482,709.0],[-1.589477,43.187515,709.5],[-1.589482,43.187542,710.0],[-1.589504,43.187574,710.6],[-1.589533,43.187598,711.1],[-1.589581,43.187619,711.8],[-1.589626,43.187628,712.4],[-1.589661,43.187661,713.0],[-1.589698,43.187679,713.5],[-1.589741,43.187696,714.0],[-1.589776,43.187714,714.4],[-1.589806,43.18773,714.9],[-1.589834,43.187753,715.3],[-1.589875,43.187774,715.9],[-1.589906,43.187794,716.4],[-1.58994,43.187816,716.8],[-1.589972,43.187841,717.3],[-1.590001,43.187862,717.7],[-1.590027,43.187883,718.1],[-1.590063,43.187904,718.6],[-1.590102,43.187919,719.0],[-1.590137,43.187908,719.4],[-1.590174,43.187916,720.1],[-1.590211,43.187899,719.9],[-1.590256,43.187905,719.6],[-1.590283,43.187928,719.4],[-1.590329,43.187923,719.1],[-1.590366,43.187916,718.9],[-1.590402,43.187902,718.7],[-1.590443,43.187894,718.4],[-1.590494,43.187891,718.1],[-1.590529,43.187879,717.9],[-1.590572,43.18787,717.7],[-1.59061,43.187863,717.5],[-1.590661,43.187857,717.2],[-1.590709,43.187856,716.9],[-1.590761,43.187865,716.6],[-1.590812,43.187863,716.3],[-1.590864,43.187872,715.9],[-1.590908,43.187889,715.6],[-1.590941,43.187904,715.4],[-1.590967,43.187927,715.2],[-1.591005,43.187933,714.9],[-1.591045,43.187947,714.7],[-1.591078,43.187973,714.3],[-1.591113,43.187995,714.0],[-1.591148,43.188015,713.7],[-1.59118,43.188033,713.4],[-1.591219,43.188049,713.1],[-1.591249,43.188066,712.8],[-1.591281,43.188081,712.6],[-1.591327,43.188105,712.1],[-1.591351,43.188128,711.8],[-1.591374,43.188154,711.5],[-1.591395,43.188179,711.1],[-1.591429,43.188203,710.7],[-1.59148,43.188217,710.4],[-1.591519,43.188229,710.1],[-1.591516,43.188256,709.8],[-1.591537,43.188282,709.6],[-1.591582,43.188306,709.2],[-1.591648,43.188334,708.7],[-1.591696,43.188345,708.4],[-1.59174,43.188346,708.2],[-1.591777,43.188365,707.9],[-1.591807,43.188381,707.7],[-1.591848,43.1884,707.3],[-1.591885,43.18841,707.1],[-1.591939,43.188427,706.7],[-1.591995,43.188445,706.2],[-1.592039,43.188457,705.9],[-1.592051,43.188487,705.6],[-1.592073,43.188516,705.2],[-1.592102,43.188544,704.9],[-1.592133,43.18857,704.6],[-1.592157,43.188593,704.4],[-1.592207,43.188624,704.0],[-1.592232,43.18865,703.8],[-1.592283,43.188677,703.6],[-1.592343,43.188695,703.4],[-1.59239,43.188699,703.2],[-1.592439,43.188693,703.1],[-1.592495,43.188724,702.8],[-1.592553,43.188742,702.5],[-1.592586,43.18876,702.2],[-1.592631,43.188793,701.8],[-1.592665,43.188815,701.4],[-1.592676,43.188849,701.0],[-1.592712,43.188873,700.6],[-1.592749,43.188893,700.2],[-1.592782,43.18892,699.8],[-1.59281,43.188955,699.4],[-1.592847,43.188983,699.1],[-1.59288,43.189014,698.7],[-1.592914,43.189037,698.4],[-1.592948,43.189056,698.2],[-1.592988,43.189073,697.9],[-1.593048,43.189093,697.6],[-1.593051,43.189121,697.4],[-1.593095,43.189135,697.2],[-1.593135,43.189135,696.9],[-1.593179,43.189135,696.6],[-1.593219,43.189133,696.4],[-1.593267,43.189133,696.1],[-1.593321,43.189144,695.6],[-1.593365,43.189164,695.2],[-1.593408,43.189173,694.9],[-1.593467,43.189192,694.4],[-1.593511,43.189198,694.1],[-1.593549,43.18921,693.9],[-1.593604,43.189217,693.5],[-1.59365,43.189223,693.3],[-1.593704,43.189228,693.0],[-1.593751,43.189228,692.8],[-1.593792,43.189232,692.6],[-1.59384,43.18924,692.3],[-1.593895,43.189246,692.1],[-1.593963,43.18924,691.7],[-1.594022,43.189252,691.3],[-1.594078,43.189261,691.0],[-1.594117,43.189257,690.7],[-1.594156,43.189237,690.4],[-1.594202,43.189242,690.2],[-1.594187,43.189268,690.0],[-1.594188,43.189299,689.7],[-1.594216,43.189322,689.5],[-1.594263,43.189294,689.2],[-1.59431,43.189287,689.0],[-1.594369,43.189283,688.7],[-1.594412,43.189286,688.4],[-1.594492,43.189291,688.0],[-1.594532,43.18929,687.8],[-1.59457,43.189274,687.6],[-1.594618,43.189261,687.3],[-1.594656,43.189254,687.1],[-1.594709,43.189257,686.8],[-1.594749,43.189253,686.6],[-1.594812,43.189236,686.3],[-1.594844,43.18925,686.1],[-1.594897,43.189233,685.8],[-1.594956,43.189224,685.5],[-1.594993,43.189218,685.3],[-1.595038,43.189212,685.1],[-1.595077,43.189232,684.8],[-1.595128,43.189241,684.4],[-1.595169,43.189235,684.2],[-1.595206,43.189248,683.9],[-1.595232,43.18927,683.6],[-1.595271,43.189275,683.4],[-1.595359,43.189273,682.9],[-1.595399,43.189285,682.7],[-1.595438,43.189309,682.5],[-1.595483,43.189326,682.3],[-1.595517,43.189343,682.2],[-1.595547,43.189361,682.0],[-1.595592,43.189375,681.8],[-1.59563,43.18939,681.6],[-1.595664,43.189422,681.4],[-1.595681,43.189449,681.2],[-1.595704,43.189474,681.0],[-1.595739,43.189507,680.8],[-1.595768,43.189525,680.6],[-1.59581,43.189538,680.4],[-1.595861,43.189541,680.1],[-1.595906,43.189544,679.8],[-1.595944,43.189556,679.6],[-1.595988,43.189552,679.4],[-1.59603,43.189565,679.1],[-1.596078,43.189572,678.7],[-1.596111,43.189587,678.4],[-1.596145,43.1896,678.2],[-1.596186,43.189623,677.8],[-1.596223,43.189644,677.4],[-1.596258,43.189631,677.1],[-1.596292,43.18962,676.9],[-1.596332,43.189612,676.6],[-1.596369,43.189602,676.4],[-1.596401,43.189582,676.1],[-1.596434,43.189559,675.8],[-1.596464,43.189541,675.6],[-1.596517,43.189549,675.3],[-1.596566,43.189539,675.0],[-1.596607,43.189523,674.7],[-1.596645,43.189522,674.5],[-1.596678,43.189496,674.2],[-1.596727,43.189488,673.9],[-1.596768,43.189483,673.7],[-1.596806,43.189462,673.4],[-1.596841,43.18944,673.1],[-1.596888,43.18942,672.8],[-1.596933,43.189403,672.5],[-1.596975,43.189397,672.2],[-1.597015,43.189383,671.9],[-1.597047,43.189367,671.7],[-1.597083,43.189349,671.5],[-1.597135,43.18935,671.2],[-1.597178,43.189328,671.0],[-1.597216,43.189312,670.8],[-1.59725,43.189298,670.6],[-1.597285,43.189281,670.3],[-1.597316,43.189264,670.1],[-1.597362,43.18925,669.8],[-1.59741,43.189253,669.5],[-1.597456,43.189246,669.1],[-1.597496,43.189229,668.8],[-1.597524,43.189203,668.5],[-1.597561,43.189187,668.2],[-1.597597,43.189172,667.9],[-1.597634,43.189148,667.5],[-1.597679,43.189133,667.2],[-1.597724,43.189125,666.9],[-1.597754,43.189089,666.5],[-1.597779,43.189059,666.1],[-1.597839,43.189051,665.8],[-1.597882,43.189048,665.5],[-1.597925,43.189024,665.3],[-1.597971,43.189013,665.0],[-1.598016,43.189012,664.8],[-1.598057,43.189002,664.5],[-1.598061,43.188965,664.3],[-1.598082,43.188935,664.1],[-1.598139,43.188932,663.8],[-1.598176,43.188934,663.6],[-1.598219,43.188939,663.4],[-1.598267,43.188931,663.1],[-1.598317,43.188922,662.9],[-1.598361,43.188916,662.6],[-1.598409,43.188898,662.3],[-1.59845,43.188879,662.1],[-1.598491,43.188854,661.8],[-1.598522,43.188839,661.7],[-1.598539,43.188803,661.5],[-1.598549,43.188774,661.4],[-1.598575,43.188749,661.2],[-1.598585,43.18872,661.1],[-1.598602,43.188693,661.0],[-1.598629,43.188667,660.8],[-1.59866,43.188646,660.7],[-1.598693,43.188621,660.5],[-1.598702,43.188577,660.3],[-1.598718,43.188537,660.1],[-1.598747,43.188519,659.9],[-1.598793,43.188511,659.7],[-1.598813,43.188466,659.4],[-1.598806,43.188433,659.1],[-1.598775,43.188411,658.9],[-1.59877,43.188376,658.6],[-1.598799,43.188358,658.3],[-1.598827,43.188332,658.0],[-1.598847,43.188304,657.8],[-1.598867,43.188276,657.5],[-1.598886,43.188248,657.3],[-1.598915,43.188215,656.9],[-1.598951,43.188203,656.7],[-1.598981,43.188174,656.4],[-1.599004,43.18814,656.1],[-1.599009,43.188111,656.0],[-1.599014,43.188078,655.7],[-1.599029,43.188039,655.5],[-1.599049,43.188006,655.2],[-1.599077,43.187988,655.1],[-1.599097,43.187965,654.9],[-1.599111,43.187933,654.7],[-1.599135,43.187909,654.5],[-1.599163,43.187889,654.4],[-1.599193,43.187853,654.2],[-1.599202,43.18782,654.0],[-1.599205,43.187793,653.9],[-1.599207,43.187761,653.7],[-1.599219,43.187733,653.5],[-1.599235,43.187701,653.3],[-1.599273,43.187686,653.1],[-1.599308,43.187668,652.9],[-1.599328,43.18764,652.6],[-1.599352,43.187612,652.4],[-1.599355,43.187585,652.1],[-1.599352,43.187557,651.9],[-1.599362,43.187529,651.7],[-1.599359,43.1875,651.5],[-1.599349,43.187471,651.2],[-1.599345,43.187433,651.0],[-1.599376,43.187411,650.8],[-1.599418,43.187414,650.6],[-1.59945,43.187398,650.5],[-1.599452,43.187366,650.3],[-1.599446,43.187329,650.1],[-1.599449,43.187282,649.7],[-1.599462,43.187245,649.4],[-1.599458,43.187206,649.0],[-1.599486,43.18718,648.7],[-1.599531,43.187167,648.3],[-1.599577,43.187145,647.7],[-1.599617,43.187123,647.3],[-1.599655,43.187106,646.8],[-1.599687,43.187082,646.4],[-1.599733,43.187071,646.0],[-1.599778,43.187068,645.6],[-1.599813,43.187051,645.3],[-1.599841,43.187027,645.1],[-1.599876,43.186998,644.7],[-1.599912,43.186976,644.5],[-1.599936,43.186955,644.3],[-1.599974,43.186962,644.1],[-1.600024,43.18696,643.9],[-1.600039,43.186923,643.7],[-1.600051,43.186891,643.5],[-1.600094,43.186881,643.3],[-1.60014,43.186867,643.0],[-1.600168,43.186842,642.7],[-1.600196,43.186817,642.6],[-1.600205,43.186789,642.4],[-1.600232,43.18677,642.2],[-1.600269,43.186752,642.1],[-1.600305,43.186736,641.9],[-1.600354,43.186715,641.6],[-1.600388,43.186704,641.4],[-1.600423,43.186681,641.2],[-1.600463,43.186672,641.0],[-1.600508,43.186673,640.8],[-1.600542,43.186646,640.6],[-1.600576,43.186624,640.3],[-1.600609,43.186607,640.1],[-1.600652,43.186604,639.9],[-1.600692,43.186602,639.6],[-1.600743,43.186588,639.3],[-1.600777,43.186578,639.0],[-1.600812,43.186563,638.8],[-1.600849,43.186554,638.5],[-1.600896,43.186542,638.2],[-1.600938,43.186542,638.0],[-1.600984,43.186542,637.7],[-1.601026,43.18655,637.5],[-1.601068,43.186551,637.3],[-1.601111,43.186552,637.1],[-1.601179,43.186553,636.8],[-1.601211,43.186532,636.6],[-1.601258,43.186533,636.4],[-1.601293,43.186546,636.3],[-1.601323,43.186564,636.1],[-1.601374,43.186547,635.9],[-1.601401,43.18652,635.7],[-1.601447,43.186518,635.4],[-1.601486,43.186544,635.1],[-1.601523,43.186571,634.8],[-1.601557,43.186587,634.6],[-1.60159,43.186601,634.3],[-1.601618,43.186576,634.1],[-1.601654,43.186563,633.8],[-1.601695,43.186555,633.5],[-1.601747,43.186545,633.2],[-1.601781,43.186527,633.0],[-1.601815,43.186501,632.7],[-1.601855,43.186469,632.4],[-1.60189,43.186455,632.2],[-1.601927,43.186445,632.0],[-1.601972,43.186431,631.8],[-1.602015,43.186422,631.6],[-1.602047,43.186392,631.3],[-1.602065,43.186361,631.0],[-1.602095,43.186332,630.8],[-1.602124,43.186301,630.4],[-1.60214,43.186276,630.2],[-1.602168,43.186247,629.9],[-1.602196,43.186224,629.6],[-1.602242,43.186222,629.3],[-1.602301,43.18622,629.0],[-1.602348,43.186196,628.6],[-1.602369,43.186152,628.2],[-1.602357,43.186125,628.0],[-1.602347,43.186095,627.7],[-1.602385,43.186083,627.5],[-1.602405,43.186053,627.3],[-1.602431,43.186021,627.0],[-1.602442,43.185993,626.8],[-1.602463,43.185967,626.7],[-1.602484,43.185938,626.5],[-1.602504,43.185913,626.3],[-1.60253,43.185875,626.0],[-1.602542,43.185831,625.7],[-1.602549,43.185796,625.4],[-1.602573,43.185764,625.2],[-1.602623,43.185745,624.8],[-1.602638,43.185709,624.5],[-1.602633,43.185677,624.2],[-1.602628,43.185648,623.9],[-1.602627,43.185611,623.6],[-1.602614,43.185585,623.3],[-1.602626,43.185554,623.1],[-1.602625,43.185524,622.8],[-1.602604,43.185501,622.5],[-1.602586,43.18547,622.3],[-1.602587,43.185441,622.0],[-1.602608,43.185403,621.8],[-1.602615,43.185371,621.6],[-1.602617,43.185336,621.3],[-1.602628,43.185301,621.1],[-1.602642,43.18527,620.9],[-1.602677,43.185245,620.7],[-1.602724,43.185229,620.5],[-1.602754,43.18521,620.4],[-1.602773,43.185187,620.2],[-1.602792,43.185161,620.0],[-1.602805,43.185132,619.8],[-1.602835,43.185105,619.6],[-1.602854,43.185059,619.3],[-1.602846,43.185011,618.9],[-1.602853,43.184982,618.7],[-1.602872,43.18495,618.5],[-1.602907,43.184935,618.2],[-1.602957,43.184933,617.9],[-1.602976,43.184901,617.6],[-1.602974,43.184864,617.3],[-1.602992,43.184829,617.0],[-1.603035,43.184798,616.7],[-1.603073,43.184784,616.5],[-1.603115,43.184785,616.4],[-1.603141,43.184762,616.2],[-1.60315,43.184726,616.0],[-1.603154,43.184697,615.8],[-1.603178,43.184661,615.6],[-1.603198,43.184632,615.4],[-1.603231,43.184616,615.2],[-1.603266,43.184589,614.9],[-1.603297,43.184559,614.6],[-1.603349,43.184535,614.3],[-1.603386,43.184513,614.0],[-1.603406,43.184481,613.8],[-1.603442,43.184454,613.6],[-1.60348,43.184441,613.4],[-1.603525,43.184433,613.2],[-1.60357,43.184424,613.0],[-1.603608,43.184405,612.8],[-1.603633,43.184385,612.7],[-1.60368,43.184421,612.4],[-1.603712,43.18446,612.2],[-1.603759,43.184473,612.0],[-1.603792,43.184454,611.8],[-1.603817,43.184417,611.6],[-1.603873,43.184441,611.2],[-1.60392,43.184463,610.9],[-1.603963,43.184456,610.6],[-1.604011,43.184436,610.3],[-1.604053,43.184418,610.1],[-1.60408,43.184399,609.9],[-1.604125,43.184396,609.7],[-1.604175,43.184391,609.6],[-1.604213,43.184389,609.5],[-1.604251,43.184391,609.4],[-1.604258,43.18436,609.3],[-1.604267,43.184321,609.2],[-1.60428,43.184295,609.2],[-1.604285,43.184268,609.1],[-1.604294,43.184234,608.9],[-1.604311,43.184195,608.7],[-1.604321,43.184162,608.5],[-1.604317,43.184131,608.3],[-1.604308,43.184096,608.0],[-1.60432,43.18406,607.5],[-1.604314,43.18402,607.1],[-1.604301,43.183991,606.7],[-1.604293,43.183956,606.3],[-1.604285,43.18392,605.9],[-1.604286,43.183891,605.5],[-1.604297,43.183863,605.2],[-1.604302,43.183832,604.9],[-1.604314,43.183793,604.5],[-1.604319,43.18376,604.2],[-1.604339,43.183733,603.9],[-1.604379,43.183703,603.6],[-1.604395,43.183663,603.2],[-1.604402,43.183624,602.7],[-1.604433,43.183602,602.4],[-1.604468,43.18359,602.0],[-1.604517,43.183579,601.6],[-1.604556,43.183556,601.2],[-1.604582,43.183533,600.8],[-1.604608,43.1835,600.4],[-1.604634,43.183474,600.0],[-1.604634,43.183442,599.7],[-1.604624,43.18341,599.5],[-1.60465,43.183382,599.2],[-1.604694,43.183377,598.9],[-1.60474,43.183358,598.6],[-1.604777,43.183346,598.4],[-1.604802,43.183322,598.2],[-1.604811,43.183293,598.0],[-1.604846,43.183266,597.8],[-1.604857,43.183228,597.6],[-1.604853,43.183197,597.4],[-1.604873,43.183167,597.2],[-1.604909,43.183149,597.0],[-1.604946,43.18317,596.8],[-1.604985,43.183179,596.7],[-1.605021,43.183157,596.4],[-1.605049,43.183126,596.2],[-1.605095,43.183109,595.9],[-1.605127,43.183075,595.6],[-1.605155,43.183054,595.4],[-1.605213,43.183027,595.0],[-1.605256,43.183012,594.7],[-1.605298,43.183015,594.4],[-1.605349,43.183024,594.1],[-1.605388,43.183019,593.9],[-1.605436,43.183005,593.6],[-1.605484,43.183004,593.3],[-1.60553,43.183003,593.1],[-1.605564,43.182982,592.9],[-1.605602,43.182961,592.7],[-1.60564,43.182938,592.5],[-1.605684,43.182913,592.3],[-1.605728,43.182898,592.2],[-1.605773,43.182883,591.9],[-1.605805,43.182863,591.7],[-1.605813,43.182836,591.5],[-1.605775,43.182832,591.3],[-1.605797,43.182859,591.0],[-1.60576,43.182842,590.7],[-1.605742,43.182814,590.4],[-1.605784,43.182799,590.1],[-1.605817,43.182784,589.9],[-1.605854,43.182778,589.7],[-1.605891,43.182777,589.4],[-1.605918,43.182754,589.2],[-1.605958,43.182753,589.0],[-1.606,43.182758,588.8],[-1.606043,43.182752,588.6],[-1.606074,43.182729,588.4],[-1.606074,43.182702,588.3],[-1.606102,43.182681,588.1],[-1.606134,43.182655,587.9],[-1.606171,43.182631,587.7],[-1.606191,43.182607,587.6],[-1.606222,43.182561,587.3],[-1.60625,43.182518,587.0],[-1.606265,43.182476,586.7],[-1.606264,43.182424,586.3],[-1.60626,43.182396,586.1],[-1.606255,43.182368,585.9],[-1.606252,43.182322,585.4],[-1.606267,43.182297,585.2],[-1.606284,43.182271,584.9],[-1.6063,43.182236,584.5],[-1.606315,43.182206,584.2],[-1.606332,43.182175,583.9],[-1.60636,43.182149,583.6],[-1.606359,43.182119,583.4],[-1.60635,43.182086,583.1],[-1.60633,43.18205,582.8],[-1.606335,43.182009,582.4],[-1.606353,43.181975,582.2],[-1.606377,43.181944,581.9],[-1.606385,43.18191,581.6],[-1.606393,43.181881,581.4],[-1.606408,43.181849,581.1],[-1.606453,43.181824,580.8],[-1.606493,43.181793,580.5],[-1.606507,43.18176,580.2],[-1.606548,43.181742,579.9],[-1.606598,43.181755,579.6],[-1.606642,43.181767,579.3],[-1.606697,43.181768,578.9],[-1.606742,43.181761,578.6],[-1.606779,43.181754,578.3],[-1.606813,43.181742,578.1],[-1.606865,43.181747,577.8],[-1.606899,43.181758,577.5],[-1.606943,43.181766,577.3],[-1.606982,43.181779,577.1],[-1.607032,43.181777,576.8],[-1.607078,43.181769,576.6],[-1.607122,43.181766,576.4],[-1.607175,43.181757,576.2],[-1.607214,43.18175,576.0],[-1.607257,43.181753,575.8],[-1.607297,43.181762,575.7],[-1.607346,43.181777,575.5],[-1.607383,43.181794,575.3],[-1.607422,43.181821,575.0],[-1.607461,43.181847,574.8],[-1.607511,43.181842,574.5],[-1.60754,43.181817,574.3],[-1.607569,43.181798,574.1],[-1.607603,43.181786,573.9],[-1.607649,43.181781,573.7],[-1.607687,43.181791,573.5],[-1.607742,43.1818,573.2],[-1.607791,43.181813,573.0],[-1.607834,43.181834,572.8],[-1.607873,43.181845,572.6],[-1.607921,43.181834,572.4],[-1.607974,43.181831,572.2],[-1.608015,43.181828,572.0],[-1.608064,43.181843,571.7],[-1.608114,43.181841,571.5],[-1.608162,43.181828,571.2],[-1.608207,43.181821,570.9],[-1.608247,43.181816,570.7],[-1.608292,43.181804,570.4],[-1.608331,43.181806,570.2],[-1.608367,43.181816,570.0],[-1.608422,43.18181,569.7],[-1.608467,43.181809,569.4],[-1.608521,43.181806,569.1],[-1.608556,43.181818,568.9],[-1.608593,43.181834,568.7],[-1.608645,43.181833,568.4],[-1.60869,43.18183,568.1],[-1.608731,43.18181,567.8],[-1.608756,43.181781,567.6],[-1.608807,43.181773,567.3],[-1.60885,43.181759,567.1],[-1.60888,43.181735,566.8],[-1.6089,43.18171,566.6],[-1.60893,43.181684,566.4],[-1.608965,43.181668,566.2],[-1.608993,43.181646,565.9],[-1.609037,43.181626,565.6],[-1.609067,43.181609,565.4],[-1.609102,43.181582,565.0],[-1.60914,43.181561,564.7],[-1.609178,43.181551,564.5],[-1.609222,43.181546,564.2],[-1.609273,43.181522,563.9],[-1.609309,43.181506,563.7],[-1.609352,43.181497,563.4],[-1.6094,43.181491,563.2],[-1.609438,43.181489,563.0],[-1.60949,43.181491,562.7],[-1.609533,43.181463,562.4],[-1.609561,43.181439,562.2],[-1.609604,43.181434,562.0],[-1.609651,43.181445,561.7],[-1.609689,43.181447,561.5],[-1.60973,43.181444,561.3],[-1.609773,43.181439,561.0],[-1.609828,43.181444,560.7],[-1.609856,43.181418,560.4],[-1.609874,43.181393,560.2],[-1.609917,43.181376,559.9],[-1.609955,43.181379,559.7],[-1.609965,43.181406,559.5],[-1.610008,43.181395,559.2],[-1.610033,43.181361,559.0],[-1.610054,43.181328,558.7],[-1.610057,43.1813,558.5],[-1.610088,43.18128,558.3],[-1.610114,43.181246,558.1],[-1.610126,43.181202,557.8],[-1.610148,43.181164,557.6],[-1.61016,43.181124,557.4],[-1.610172,43.181085,557.1],[-1.610189,43.181046,556.9],[-1.61021,43.18101,556.8],[-1.610209,43.180981,556.6],[-1.610213,43.180948,556.4],[-1.610219,43.180906,556.2],[-1.61022,43.180867,555.9],[-1.610231,43.18084,555.7],[-1.610256,43.180814,555.5],[-1.610292,43.180785,555.1],[-1.610299,43.180749,554.8],[-1.610286,43.180717,554.5],[-1.610287,43.180684,554.2],[-1.610304,43.180659,553.9],[-1.610343,43.180656,553.9],[-1.610313,43.180673,554.0],[-1.610357,43.18067,553.9],[-1.610399,43.180665,553.9],[-1.610432,43.18068,554.0],[-1.610483,43.180694,554.1],[-1.610531,43.180711,554.1],[-1.610559,43.180729,554.2],[-1.610591,43.18071,554.2],[-1.610644,43.180711,554.3],[-1.610689,43.180691,554.4],[-1.610735,43.180656,554.4],[-1.610782,43.180626,554.5],[-1.610828,43.180595,554.6],[-1.610879,43.180578,554.6],[-1.610927,43.18058,554.7],[-1.610977,43.180573,554.7],[-1.611014,43.180565,554.8],[-1.611061,43.180547,554.9],[-1.611098,43.180524,554.9],[-1.611133,43.180512,555.0],[-1.611171,43.180508,555.0],[-1.611217,43.180504,555.1],[-1.611252,43.180481,555.2],[-1.611306,43.180472,555.2],[-1.611365,43.180462,555.3],[-1.611415,43.180458,555.4],[-1.611466,43.180461,555.5],[-1.611516,43.180451,555.6],[-1.61155,43.180436,555.6],[-1.611596,43.180442,555.7],[-1.611645,43.180442,555.8],[-1.611686,43.180459,555.8],[-1.611706,43.180488,555.9],[-1.611716,43.180521,556.0],[-1.611751,43.180534,556.0],[-1.611744,43.180508,556.1],[-1.611738,43.18048,556.2],[-1.611746,43.180512,556.3],[-1.611788,43.180495,556.3],[-1.611813,43.180445,556.5],[-1.611816,43.180407,556.6],[-1.611846,43.180428,556.6],[-1.611848,43.180464,556.7],[-1.611837,43.180495,556.2],[-1.611831,43.180536,555.8],[-1.611846,43.180562,555.5],[-1.611833,43.180588,555.2],[-1.611815,43.180615,555.0],[-1.611842,43.180637,554.8],[-1.611806,43.180655,554.6],[-1.611765,43.180667,554.4],[-1.611734,43.180692,554.2],[-1.611703,43.180711,554.2],[-1.611671,43.180735,554.3],[-1.611641,43.180759,554.3],[-1.611611,43.18078,554.3],[-1.611565,43.180785,554.3],[-1.611518,43.180778,554.4],[-1.611479,43.180795,554.5],[-1.61145,43.180822,554.6],[-1.611439,43.180856,554.7],[-1.611423,43.180894,554.9],[-1.611395,43.180913,555.0],[-1.611357,43.180908,555.2],[-1.611314,43.180896,555.4],[-1.611285,43.18092,555.6],[-1.611277,43.180947,555.9],[-1.611232,43.180936,556.2],[-1.611193,43.180933,556.5],[-1.611151,43.180943,556.8],[-1.611137,43.180976,557.2],[-1.611134,43.18102,557.8],[-1.611127,43.181054,558.3],[-1.611106,43.181089,558.9],[-1.611075,43.181113,559.2],[-1.61106,43.181143,559.5],[-1.61103,43.18117,559.8],[-1.610991,43.181192,560.3],[-1.610949,43.181209,560.9],[-1.610912,43.181224,561.4],[-1.610886,43.181248,561.7],[-1.610863,43.18127,562.0],[-1.610827,43.181284,562.3],[-1.610782,43.181291,562.7],[-1.610755,43.181319,563.3],[-1.610714,43.181326,563.7],[-1.61068,43.181342,564.2],[-1.610671,43.181378,564.8],[-1.610654,43.181411,565.4],[-1.610642,43.181442,565.9],[-1.610617,43.181462,566.3],[-1.610572,43.181479,566.7],[-1.61055,43.18151,567.0],[-1.610523,43.18153,567.3],[-1.610505,43.181558,567.8],[-1.610492,43.181585,568.2],[-1.610462,43.181624,569.0],[-1.610437,43.181646,569.5],[-1.610404,43.181669,570.0],[-1.610376,43.181708,570.4],[-1.61037,43.181741,570.8],[-1.610333,43.181758,571.4],[-1.610293,43.181764,571.9],[-1.610256,43.181779,572.5],[-1.610227,43.181804,573.3],[-1.610204,43.181826,573.9],[-1.610176,43.181844,574.4],[-1.61014,43.181871,575.0],[-1.610115,43.181897,575.4],[-1.610075,43.181909,576.1],[-1.610044,43.181928,576.8],[-1.610016,43.18195,577.4],[-1.609996,43.181978,578.0],[-1.609991,43.182016,578.7],[-1.60997,43.182044,579.3],[-1.609935,43.182055,579.6],[-1.609906,43.182074,580.0],[-1.609869,43.182101,580.5],[-1.609826,43.182102,580.8],[-1.609815,43.182135,581.1],[-1.609803,43.182166,581.5],[-1.609768,43.182185,582.3],[-1.609743,43.182208,582.9],[-1.609753,43.182237,583.5],[-1.609755,43.182272,584.0],[-1.609707,43.182271,584.5],[-1.609664,43.182282,585.1],[-1.609639,43.182314,585.7],[-1.609618,43.182346,586.4],[-1.609584,43.182378,587.0],[-1.609549,43.1824,587.5],[-1.609507,43.182425,587.9],[-1.609458,43.182453,588.5],[-1.609424,43.182465,588.9],[-1.609388,43.182485,589.5],[-1.609365,43.182514,590.1],[-1.609356,43.18254,590.7],[-1.609316,43.182555,591.3],[-1.609278,43.182565,592.0],[-1.609249,43.182587,592.6],[-1.609206,43.182604,593.4],[-1.609178,43.182626,594.1],[-1.609143,43.182648,594.9],[-1.609094,43.182662,595.7],[-1.609043,43.182691,596.8],[-1.608993,43.182719,598.0],[-1.608956,43.182742,598.9],[-1.608937,43.182767,599.6],[-1.608892,43.182779,600.6],[-1.608849,43.182792,601.5],[-1.608817,43.18282,602.6],[-1.608765,43.18285,604.0],[-1.608741,43.182873,604.9],[-1.608716,43.182903,606.2],[-1.608688,43.182928,607.5],[-1.608658,43.182946,608.5],[-1.608649,43.182976,609.1],[-1.60864,43.183004,609.8],[-1.608594,43.183012,610.5],[-1.608538,43.183028,612.0],[-1.608501,43.183052,613.3],[-1.608464,43.183065,614.3],[-1.608436,43.183086,615.3],[-1.608396,43.183101,616.5],[-1.608356,43.183111,617.5],[-1.608326,43.183128,618.5],[-1.608296,43.183164,620.0],[-1.60826,43.183191,621.4],[-1.608211,43.183195,622.7],[-1.6082,43.183221,623.5],[-1.608163,43.183261,624.4],[-1.60812,43.183282,625.2],[-1.608098,43.183305,625.8],[-1.608069,43.183335,626.8],[-1.608036,43.183354,627.7],[-1.607995,43.183378,628.9],[-1.607968,43.183398,629.6],[-1.607952,43.183427,630.4],[-1.607911,43.183434,631.3],[-1.607876,43.18345,632.3],[-1.607853,43.183472,633.1],[-1.607808,43.183485,633.7],[-1.607782,43.183514,634.2],[-1.607772,43.183544,635.0],[-1.607758,43.183569,635.8],[-1.607735,43.183593,636.7],[-1.607707,43.183613,637.3],[-1.607692,43.183638,637.9],[-1.607676,43.183665,638.5],[-1.607661,43.18369,639.3],[-1.607656,43.18373,640.4],[-1.607656,43.183758,641.1],[-1.607642,43.183789,641.6],[-1.607621,43.183816,642.1],[-1.607607,43.183841,642.5],[-1.607606,43.183872,643.2],[-1.60758,43.183902,643.9],[-1.607547,43.183924,644.4],[-1.607518,43.183947,644.8],[-1.607486,43.183969,645.2],[-1.60746,43.183997,645.6],[-1.607448,43.184027,646.0],[-1.607441,43.184066,646.4],[-1.607422,43.1841,646.6],[-1.607411,43.184127,646.8],[-1.607384,43.184154,646.9],[-1.607373,43.18418,647.0],[-1.607379,43.184226,647.2],[-1.60736,43.184264,647.6],[-1.60733,43.184291,647.9],[-1.607292,43.184307,648.1],[-1.607271,43.184339,648.4],[-1.607235,43.184351,648.9],[-1.607198,43.184344,649.4],[-1.607167,43.184377,649.9],[-1.607133,43.184403,650.2],[-1.6071,43.184425,650.6],[-1.607067,43.184442,651.2],[-1.607022,43.184454,651.8],[-1.606983,43.184479,652.6],[-1.60696,43.184501,653.3],[-1.606912,43.184504,654.1],[-1.60689,43.184541,655.0],[-1.606871,43.184585,656.0],[-1.606841,43.184624,657.1],[-1.606815,43.184652,657.6],[-1.606801,43.184684,657.8],[-1.606784,43.184713,657.9],[-1.60675,43.184738,658.3],[-1.606706,43.184743,658.8],[-1.606681,43.184763,659.1],[-1.606663,43.184791,659.7],[-1.606651,43.184824,660.3],[-1.606631,43.184859,660.8],[-1.606614,43.184888,661.0],[-1.606586,43.184925,661.3],[-1.606561,43.184972,661.9],[-1.606528,43.184988,662.3],[-1.606486,43.184995,662.7],[-1.606449,43.185008,663.0],[-1.606429,43.185031,663.3],[-1.606404,43.185052,663.5],[-1.606387,43.185083,663.6],[-1.606364,43.185111,663.6],[-1.606335,43.185146,663.9],[-1.606311,43.185174,664.2],[-1.60628,43.185201,664.4],[-1.606264,43.185225,664.4],[-1.606232,43.18525,664.5],[-1.60619,43.185265,664.7],[-1.606171,43.185298,665.0],[-1.606158,43.185332,665.2],[-1.606147,43.18537,665.4],[-1.606136,43.185402,665.5],[-1.60612,43.185433,665.7],[-1.606094,43.185475,666.1],[-1.606063,43.185494,666.3],[-1.606046,43.185521,666.4],[-1.606018,43.185559,666.5],[-1.605999,43.185589,666.7],[-1.605982,43.185616,667.0],[-1.605948,43.185628,667.3],[-1.605916,43.185647,667.6],[-1.605892,43.185686,668.1],[-1.605858,43.185721,668.2],[-1.605825,43.185739,668.2],[-1.605789,43.185746,668.2],[-1.605746,43.185759,668.4],[-1.60571,43.185783,668.5],[-1.605671,43.185808,668.5],[-1.605642,43.185828,668.4],[-1.605635,43.185859,668.3],[-1.605624,43.185889,668.1],[-1.605612,43.185917,667.9],[-1.605583,43.185952,667.9],[-1.605561,43.185977,668.1],[-1.605531,43.18601,668.4],[-1.605482,43.186035,668.7],[-1.605451,43.186059,669.0],[-1.605416,43.186079,669.1],[-1.605375,43.186102,669.1],[-1.605336,43.186118,669.3],[-1.605294,43.186143,670.4],[-1.605258,43.186166,671.3],[-1.605228,43.186195,672.0],[-1.605196,43.186209,672.5],[-1.605159,43.186234,673.2],[-1.605135,43.186264,673.9],[-1.605103,43.186294,674.6],[-1.605072,43.186329,674.9],[-1.605047,43.186351,675.2],[-1.605003,43.186365,675.6],[-1.604977,43.186387,676.1],[-1.604934,43.186413,676.9],[-1.604912,43.186437,677.3],[-1.6049,43.186464,677.8],[-1.604873,43.186493,678.3],[-1.604837,43.186506,678.5],[-1.604804,43.18652,678.7],[-1.604776,43.186541,678.9],[-1.604742,43.186561,679.3],[-1.604708,43.186583,679.7],[-1.604694,43.186609,680.1],[-1.604656,43.18662,680.5],[-1.604614,43.186634,680.9],[-1.604584,43.186657,681.3],[-1.604556,43.186676,681.7],[-1.604517,43.186703,682.2],[-1.604476,43.186717,682.5],[-1.604444,43.186739,682.7],[-1.604424,43.186766,682.8],[-1.604401,43.186791,683.3],[-1.604378,43.186815,683.9],[-1.604348,43.186834,684.5],[-1.604323,43.186855,685.0],[-1.604303,43.186897,685.6],[-1.604281,43.186924,686.1],[-1.604244,43.186955,686.9],[-1.604224,43.18698,687.5],[-1.604191,43.187,688.2],[-1.604161,43.187018,688.8],[-1.604131,43.187042,689.2],[-1.604106,43.187064,689.3],[-1.60408,43.187085,689.4],[-1.604055,43.187118,689.8],[-1.604044,43.187154,690.2],[-1.604034,43.187186,690.9],[-1.604006,43.18721,691.8],[-1.603995,43.187236,692.5],[-1.603965,43.187257,692.9],[-1.603929,43.187265,693.3],[-1.603902,43.187301,693.8],[-1.603882,43.187325,694.2],[-1.603855,43.187357,694.7],[-1.603838,43.187383,695.2],[-1.603833,43.187419,695.7],[-1.603819,43.187455,695.9],[-1.603801,43.187484,696.0],[-1.603771,43.187506,696.2],[-1.603776,43.187536,696.6],[-1.60378,43.187563,697.0],[-1.603745,43.187583,697.6],[-1.603789,43.187591,698.4],[-1.603813,43.187612,699.0],[-1.603798,43.187637,699.7],[-1.603772,43.187662,700.7],[-1.603758,43.187688,701.5],[-1.603721,43.187693,701.9],[-1.603696,43.187719,702.4],[-1.603662,43.187748,703.0],[-1.603633,43.187766,703.4],[-1.603601,43.187782,703.9],[-1.603571,43.1878,704.6],[-1.603538,43.187814,705.4],[-1.6035,43.187813,706.2],[-1.603461,43.187825,707.1],[-1.603432,43.187851,708.2],[-1.60339,43.187872,709.3],[-1.603367,43.187896,710.1],[-1.603342,43.187923,711.1],[-1.603304,43.187949,712.1],[-1.603269,43.187971,712.9],[-1.603258,43.187999,713.4],[-1.603228,43.188025,714.0],[-1.603186,43.188044,714.9],[-1.603138,43.188059,716.0],[-1.6031,43.188074,716.5],[-1.603063,43.188086,716.9],[-1.603032,43.188102,717.4],[-1.603008,43.18813,719.3],[-1.602991,43.188163,719.3],[-1.602991,43.188198,719.7],[-1.602986,43.188226,720.3],[-1.602948,43.188221,720.8],[-1.602988,43.188228,721.2],[-1.602987,43.188255,721.5],[-1.602944,43.188257,721.8],[-1.602899,43.188246,721.8],[-1.602868,43.188262,721.8],[-1.602851,43.188287,721.8],[-1.602858,43.188331,722.2],[-1.602862,43.188362,722.5],[-1.602851,43.188403,722.4],[-1.602839,43.18843,722.3],[-1.602832,43.188468,722.1],[-1.602826,43.188507,722.4],[-1.602813,43.188541,722.7],[-1.602779,43.188568,722.8],[-1.602763,43.188598,722.6],[-1.60275,43.188635,722.3],[-1.602748,43.188662,722.5],[-1.602738,43.188694,722.9],[-1.602712,43.188734,723.4],[-1.602701,43.188762,723.6],[-1.602684,43.188789,723.8],[-1.602661,43.188816,724.1],[-1.602651,43.18885,724.5],[-1.602651,43.188879,724.8],[-1.602634,43.188911,725.2],[-1.602608,43.188937,725.9],[-1.602583,43.18897,726.8],[-1.602565,43.189003,727.6],[-1.602547,43.189032,728.5],[-1.60251,43.189057,729.4],[-1.60249,43.189088,729.8],[-1.60246,43.189117,730.1],[-1.602423,43.189138,730.4],[-1.602403,43.189161,731.0],[-1.602385,43.189188,731.7],[-1.602348,43.189216,732.5],[-1.602314,43.189243,732.9],[-1.60228,43.189271,733.4],[-1.602267,43.189312,733.8],[-1.602268,43.189353,734.4],[-1.602257,43.189396,735.0],[-1.602238,43.189433,734.9],[-1.602216,43.189483,734.7],[-1.602192,43.189512,735.1],[-1.602157,43.18953,735.5],[-1.60213,43.18955,735.4],[-1.602111,43.189575,735.3],[-1.602079,43.189603,735.2],[-1.602068,43.189629,735.2],[-1.602074,43.189656,735.2],[-1.602083,43.189683,735.6],[-1.602091,43.189712,736.0],[-1.602106,43.189738,736.4],[-1.602132,43.189777,736.5],[-1.602118,43.189808,736.5],[-1.602084,43.18983,736.8],[-1.602064,43.189855,737.4],[-1.602056,43.189883,737.9],[-1.602051,43.189916,738.3],[-1.602059,43.189946,738.4],[-1.602057,43.189975,738.6],[-1.602026,43.189992,738.7],[-1.602079,43.19,738.9],[-1.602099,43.190076,737.9],[-1.602098,43.190115,737.9],[-1.602089,43.190143,738.1],[-1.60209,43.190171,738.3],[-1.602106,43.190207,738.6],[-1.602124,43.190241,738.7],[-1.602139,43.190276,738.2],[-1.602132,43.190304,737.8],[-1.602134,43.190333,737.8],[-1.602145,43.19036,738.0],[-1.60216,43.190386,738.2],[-1.602169,43.190418,738.4],[-1.602196,43.190462,738.6],[-1.602204,43.190504,738.8],[-1.602218,43.19054,739.1],[-1.602226,43.190572,738.9],[-1.602217,43.190613,738.3],[-1.6022,43.190648,738.0],[-1.602192,43.190678,738.2],[-1.60219,43.190722,738.5],[-1.60218,43.190759,737.9],[-1.602167,43.190785,737.5],[-1.602177,43.190814,737.4],[-1.60218,43.190848,737.5],[-1.602205,43.190874,737.6],[-1.602221,43.190909,737.3],[-1.602247,43.19094,736.9],[-1.602273,43.190968,736.5],[-1.602271,43.191001,736.1],[-1.602284,43.19104,735.7],[-1.602289,43.191079,735.8],[-1.602285,43.191115,736.0],[-1.602308,43.191142,736.0],[-1.602321,43.191168,735.7],[-1.602328,43.191197,735.4],[-1.602344,43.191233,735.0],[-1.602361,43.191262,734.7],[-1.602389,43.191286,734.4],[-1.602414,43.191307,734.4],[-1.602428,43.191335,734.6],[-1.602421,43.191364,734.7],[-1.602428,43.191405,734.6],[-1.602441,43.191438,734.3],[-1.602446,43.19148,734.0],[-1.602449,43.19151,734.3],[-1.602455,43.191537,734.4],[-1.602472,43.191562,734.6],[-1.602478,43.19159,734.8],[-1.602481,43.191622,735.1],[-1.60247,43.191653,735.3],[-1.602473,43.191687,735.4],[-1.602498,43.191727,735.6],[-1.602515,43.191766,735.8],[-1.602507,43.191801,736.0],[-1.602513,43.191847,736.3],[-1.602528,43.191897,736.6],[-1.602505,43.191926,736.8],[-1.602492,43.191961,737.0],[-1.602489,43.191992,737.2],[-1.602483,43.192021,737.4],[-1.602477,43.192048,737.6],[-1.602483,43.192088,737.9],[-1.602486,43.192118,738.1],[-1.602474,43.192147,738.3],[-1.60249,43.192176,738.6],[-1.602533,43.192192,738.8],[-1.602556,43.192221,738.6],[-1.60257,43.192248,738.5],[-1.602569,43.192298,738.6],[-1.602566,43.192345,739.1],[-1.602566,43.192379,739.2],[-1.602576,43.192415,739.1],[-1.602569,43.192447,739.2],[-1.602555,43.19248,739.7],[-1.602573,43.192516,740.2],[-1.602588,43.192545,740.2],[-1.602596,43.192576,740.2],[-1.602602,43.192607,740.0],[-1.602611,43.19264,739.7],[-1.602641,43.192659,739.4],[-1.602662,43.192689,739.1],[-1.602683,43.192722,738.8],[-1.602695,43.192757,738.5],[-1.602726,43.192775,738.5],[-1.602756,43.192799,738.5],[-1.602793,43.192825,738.4],[-1.60281,43.192849,738.2],[-1.602837,43.192877,737.8],[-1.602854,43.192906,737.6],[-1.602868,43.192934,737.4],[-1.602889,43.192957,737.3],[-1.602922,43.192984,737.2],[-1.60296,43.193008,736.9],[-1.603004,43.19303,736.7],[-1.603039,43.193057,736.7],[-1.603057,43.193082,736.8],[-1.603074,43.193107,736.9],[-1.603118,43.193115,736.7],[-1.603153,43.193135,736.4],[-1.603176,43.193165,736.2],[-1.603211,43.193191,735.9],[-1.603244,43.193218,735.6],[-1.60328,43.193236,735.3],[-1.60332,43.193254,735.1],[-1.603354,43.19327,734.8],[-1.603388,43.193283,734.5],[-1.603429,43.193307,733.8],[-1.60347,43.193321,733.2],[-1.603509,43.193323,732.8],[-1.603549,43.193337,732.4],[-1.603585,43.193355,732.0],[-1.603628,43.193366,731.6],[-1.60366,43.193386,731.2],[-1.603704,43.193394,730.5],[-1.603735,43.193414,729.9],[-1.603758,43.193436,729.7],[-1.603796,43.19346,729.9],[-1.603825,43.19348,729.9],[-1.603862,43.19349,729.8],[-1.603896,43.193517,729.7],[-1.603928,43.193542,729.9],[-1.603956,43.193564,730.1],[-1.60398,43.193598,730.3],[-1.603987,43.193625,730.5],[-1.603998,43.193659,730.7],[-1.603994,43.19369,730.9],[-1.603994,43.193718,731.1],[-1.603995,43.193746,731.3],[-1.603988,43.193775,731.4],[-1.603993,43.19381,731.7],[-1.604003,43.19384,731.9],[-1.604026,43.193868,732.1],[-1.604054,43.193892,732.2],[-1.604096,43.193913,732.5],[-1.604128,43.193933,731.7],[-1.604171,43.193952,731.4],[-1.604216,43.193968,731.1],[-1.604256,43.193978,730.9],[-1.604293,43.193983,730.6],[-1.60433,43.193993,730.4],[-1.604377,43.193992,730.0],[-1.604414,43.194009,729.8],[-1.604451,43.194027,729.6],[-1.604486,43.194039,729.4],[-1.604543,43.19404,729.1],[-1.604582,43.194048,728.9],[-1.604622,43.194055,728.6],[-1.604663,43.194061,728.4],[-1.604705,43.194061,728.1],[-1.604743,43.194079,727.9],[-1.604779,43.194085,727.7],[-1.604834,43.194083,727.4],[-1.604872,43.19408,727.2],[-1.604927,43.194083,726.9],[-1.604972,43.194085,726.7],[-1.605016,43.194102,726.6],[-1.605062,43.19411,726.5],[-1.6051,43.194113,726.6],[-1.605147,43.194112,726.6],[-1.605196,43.194118,726.6],[-1.605244,43.194127,726.7],[-1.605283,43.194133,726.7],[-1.605316,43.194148,726.8],[-1.605354,43.194167,727.0],[-1.605402,43.194183,727.2],[-1.605438,43.194192,727.4],[-1.605478,43.194201,727.6],[-1.605514,43.194215,727.9],[-1.605547,43.194231,728.2],[-1.605575,43.194255,728.4],[-1.605616,43.194267,728.9],[-1.605662,43.194289,729.4],[-1.605697,43.194299,729.7],[-1.605734,43.194308,730.1],[-1.605772,43.194324,730.4],[-1.605812,43.19434,730.7],[-1.605853,43.194355,731.0],[-1.605894,43.194369,731.2],[-1.605932,43.194384,731.4],[-1.605977,43.194397,731.5],[-1.606007,43.194413,731.5],[-1.606049,43.19443,731.6],[-1.606085,43.194441,731.6],[-1.606142,43.194448,731.7],[-1.606195,43.194451,731.7],[-1.60624,43.194456,731.6],[-1.60628,43.194464,731.5],[-1.606318,43.194481,731.4],[-1.606364,43.194493,731.2],[-1.606403,43.194504,731.1],[-1.60645,43.194513,731.0],[-1.606488,43.194517,730.8],[-1.606538,43.194527,730.7],[-1.606576,43.194531,730.5],[-1.606619,43.194533,730.4],[-1.606677,43.194546,730.4],[-1.606712,43.194564,730.4],[-1.606751,43.194576,730.4],[-1.606792,43.194585,730.4],[-1.60681,43.19461,730.4],[-1.606847,43.194624,730.4],[-1.606873,43.194652,730.4],[-1.606897,43.19468,730.5],[-1.606923,43.194699,730.6],[-1.606969,43.194714,730.9],[-1.60701,43.194726,731.2],[-1.607043,43.194739,731.6],[-1.60708,43.194752,732.0],[-1.607109,43.194774,732.5],[-1.60714,43.194793,733.0],[-1.607174,43.194815,733.6],[-1.607218,43.194825,734.2],[-1.60726,43.19484,734.9],[-1.607296,43.19486,735.7],[-1.607329,43.194881,736.3],[-1.607349,43.194906,736.9],[-1.607371,43.194934,737.5],[-1.607391,43.194962,738.2],[-1.607433,43.194983,739.1],[-1.607466,43.194996,739.7],[-1.607493,43.195021,740.3],[-1.607519,43.195049,741.0],[-1.607553,43.195076,741.7],[-1.607594,43.195098,742.4],[-1.607642,43.19511,743.0],[-1.607684,43.195131,743.6],[-1.607733,43.195146,744.0],[-1.607776,43.19514,744.3],[-1.60782,43.195138,744.6],[-1.607867,43.195143,744.9],[-1.607911,43.195152,745.3],[-1.607961,43.195155,745.6],[-1.607999,43.195161,745.8],[-1.608041,43.195166,746.0],[-1.608081,43.195165,746.2],[-1.608119,43.195169,746.4],[-1.608155,43.19518,746.5],[-1.608199,43.195198,746.8],[-1.608239,43.195209,746.9],[-1.608271,43.195225,747.1],[-1.608318,43.195247,747.3],[-1.608355,43.195264,747.6],[-1.608396,43.195268,747.9],[-1.608448,43.195271,748.4],[-1.608494,43.195273,748.8],[-1.608532,43.195262,749.2],[-1.608584,43.195257,749.8],[-1.608631,43.195262,750.6],[-1.608672,43.195257,751.2],[-1.608714,43.19525,751.9],[-1.608756,43.195248,752.5],[-1.608799,43.195245,753.3],[-1.608845,43.19524,754.2],[-1.608881,43.195229,755.1],[-1.608927,43.195218,756.2],[-1.608968,43.195222,757.1],[-1.609006,43.195228,757.9],[-1.609052,43.195233,758.9],[-1.609095,43.195232,759.9],[-1.609138,43.195236,760.9],[-1.609184,43.195238,761.9],[-1.609228,43.19523,762.6],[-1.609268,43.195238,763.3],[-1.609309,43.195255,764.1],[-1.609341,43.195271,764.7],[-1.609384,43.19528,764.2],[-1.609416,43.195265,763.6],[-1.609384,43.195278,763.0],[-1.609418,43.195302,762.2],[-1.609385,43.195286,761.6],[-1.609355,43.195271,760.9],[-1.609319,43.195256,759.9],[-1.609286,43.195238,759.0],[-1.609253,43.195215,758.0],[-1.609185,43.195235,756.6],[-1.609147,43.19522,755.7],[-1.609103,43.19522,754.7],[-1.609072,43.195204,754.0],[-1.60903,43.195187,753.1],[-1.60898,43.195186,752.2],[-1.60894,43.195192,751.6],[-1.608905,43.195201,751.1],[-1.608868,43.19519,750.5],[-1.608826,43.195187,749.9],[-1.608779,43.195203,749.3],[-1.608742,43.195209,748.9],[-1.608691,43.195212,748.5],[-1.608648,43.195219,748.1],[-1.608611,43.195223,747.8],[-1.608556,43.195216,747.4],[-1.608511,43.195211,747.2],[-1.608469,43.195211,747.0],[-1.608421,43.195229,746.8],[-1.608377,43.195225,746.7],[-1.608339,43.19521,746.5],[-1.608301,43.195201,746.3],[-1.608263,43.195181,746.1],[-1.608218,43.195187,745.9],[-1.608167,43.195175,745.7],[-1.608118,43.195161,745.4],[-1.608071,43.195149,745.0],[-1.608032,43.195148,744.7],[-1.607995,43.195151,744.5],[-1.607952,43.195154,744.2],[-1.607908,43.195146,743.9],[-1.60787,43.195138,743.6],[-1.607829,43.195144,743.1],[-1.6078,43.195125,742.7],[-1.607768,43.19511,742.2],[-1.607731,43.195083,741.6],[-1.60769,43.195073,741.0],[-1.607647,43.195068,740.4],[-1.607611,43.195043,739.7],[-1.607587,43.195023,739.1],[-1.607553,43.194987,738.2],[-1.607518,43.194963,737.5],[-1.60749,43.194945,736.9],[-1.607446,43.194933,736.3],[-1.607425,43.194906,735.7],[-1.607393,43.194892,735.1],[-1.607357,43.194882,734.6],[-1.607296,43.194888,733.7],[-1.607244,43.194879,733.1],[-1.607195,43.194867,732.4],[-1.607158,43.194856,732.0],[-1.607134,43.194834,731.6],[-1.607097,43.194822,731.2],[-1.607065,43.194795,730.9],[-1.607015,43.194773,730.6],[-1.606973,43.194752,730.4],[-1.606927,43.194722,730.4],[-1.60689,43.194702,730.4],[-1.606859,43.194682,730.4],[-1.606842,43.19465,730.4],[-1.606812,43.194624,730.4],[-1.606775,43.194606,730.4],[-1.606739,43.194582,730.4],[-1.606702,43.194559,730.4],[-1.606656,43.19454,730.6],[-1.606602,43.194529,730.8],[-1.606545,43.194522,731.0],[-1.606506,43.194515,731.1],[-1.606471,43.194503,731.2],[-1.606429,43.194489,731.4],[-1.606369,43.194482,731.5],[-1.60633,43.19447,731.6],[-1.606295,43.194451,731.7],[-1.606258,43.194443,731.7],[-1.606224,43.194423,731.7],[-1.606189,43.194414,731.6],[-1.606139,43.1944,731.6],[-1.606098,43.194388,731.5],[-1.60606,43.19438,731.5],[-1.606012,43.194372,731.4],[-1.605974,43.194361,731.2],[-1.60592,43.194343,731.0],[-1.605794,43.194286,730.0],[-1.605756,43.194272,729.6],[-1.605724,43.194258,729.2],[-1.605693,43.194241,728.9],[-1.605667,43.194211,728.5],[-1.605639,43.194187,728.2],[-1.605594,43.194171,727.9],[-1.605552,43.194161,727.6],[-1.605502,43.194157,727.3],[-1.605449,43.194152,727.1],[-1.605411,43.194145,726.9],[-1.605361,43.194138,726.7],[-1.605308,43.194125,726.7],[-1.605264,43.194107,726.7],[-1.605222,43.1941,726.6],[-1.605178,43.194084,726.6],[-1.605141,43.194069,726.6],[-1.605099,43.194063,726.5],[-1.605053,43.194062,726.6],[-1.605006,43.194045,726.8],[-1.604961,43.194029,727.0],[-1.604929,43.194012,727.2],[-1.604884,43.194001,727.4],[-1.604837,43.193993,727.7],[-1.604796,43.193993,727.9],[-1.604745,43.193978,728.2],[-1.604695,43.193972,728.4],[-1.604643,43.193971,728.7],[-1.604602,43.193976,729.0],[-1.604565,43.193969,729.2],[-1.604532,43.193952,729.4],[-1.604467,43.193956,729.7],[-1.604418,43.193965,729.9],[-1.604385,43.193952,730.1],[-1.604349,43.193947,730.4],[-1.604302,43.193939,730.7],[-1.604258,43.193929,730.9],[-1.604217,43.193917,731.2],[-1.604177,43.193907,731.5],[-1.60414,43.193891,731.7],[-1.604101,43.193888,732.5],[-1.604058,43.193892,733.3],[-1.604021,43.193894,733.9],[-1.603981,43.193882,734.7],[-1.603933,43.193881,735.5],[-1.603883,43.193889,736.4],[-1.603838,43.193878,737.2],[-1.603801,43.193873,737.8],[-1.603761,43.193867,738.5],[-1.603717,43.193873,739.2],[-1.603675,43.193885,739.9],[-1.603618,43.193887,740.9],[-1.603576,43.193884,741.7],[-1.603527,43.193882,742.5],[-1.603486,43.193895,743.3],[-1.603455,43.193909,743.9],[-1.603421,43.193922,744.6],[-1.603383,43.193906,745.4],[-1.603357,43.193879,746.2],[-1.603307,43.193872,747.2],[-1.603268,43.193867,747.9],[-1.60323,43.19386,748.7],[-1.603195,43.193839,749.8],[-1.603159,43.193828,750.7],[-1.603121,43.193813,751.6],[-1.603083,43.193803,752.3],[-1.603039,43.193797,753.2],[-1.603009,43.193768,754.0],[-1.602968,43.193783,754.8],[-1.602929,43.193798,755.5],[-1.602893,43.193807,756.1],[-1.602852,43.193795,756.7],[-1.602794,43.193793,757.3],[-1.602742,43.193785,757.9],[-1.602697,43.193779,758.3],[-1.602649,43.193785,758.5],[-1.602605,43.193787,758.6],[-1.602568,43.193794,758.6],[-1.602534,43.193773,758.5],[-1.602494,43.193761,758.2],[-1.602468,43.193741,758.0],[-1.602446,43.193707,757.3],[-1.602431,43.193676,756.7],[-1.602407,43.193644,756.1],[-1.602374,43.193621,755.4],[-1.60235,43.193599,754.8],[-1.602326,43.193576,754.1],[-1.602301,43.193553,753.5],[-1.60228,43.193522,752.8],[-1.602274,43.193492,752.3],[-1.602263,43.193456,751.7],[-1.602254,43.19342,751.2],[-1.602231,43.193374,750.8],[-1.602218,43.193348,750.6],[-1.602217,43.193309,750.2],[-1.602207,43.193275,749.9],[-1.602194,43.193245,749.7],[-1.602165,43.193225,749.4],[-1.602146,43.193184,748.9],[-1.602132,43.193154,748.5],[-1.602114,43.193116,748.1],[-1.60211,43.193083,747.6],[-1.602087,43.19306,747.2],[-1.602052,43.193035,746.7],[-1.602029,43.193006,746.2],[-1.602021,43.192973,745.8],[-1.602015,43.192937,745.3],[-1.602013,43.192903,744.8],[-1.601985,43.192874,744.4],[-1.601956,43.192843,743.8],[-1.601937,43.192817,743.4],[-1.601925,43.192779,743.0],[-1.601906,43.192737,742.5],[-1.601891,43.192702,742.1],[-1.601885,43.19267,741.8],[-1.601862,43.192637,741.6],[-1.601832,43.192611,741.4],[-1.601805,43.192588,741.3],[-1.601792,43.192557,741.2],[-1.601782,43.192526,741.2],[-1.601747,43.19249,741.4],[-1.601715,43.192473,741.6],[-1.601678,43.192485,741.8],[-1.601654,43.192452,742.3],[-1.601657,43.192423,742.7],[-1.601664,43.192393,743.2],[-1.601642,43.192369,743.6],[-1.601615,43.192348,744.2],[-1.601587,43.19232,744.9],[-1.601566,43.192296,745.5],[-1.60153,43.192257,746.5],[-1.601498,43.192221,747.5],[-1.601489,43.192184,748.4],[-1.601483,43.192141,749.4],[-1.601471,43.192106,750.3],[-1.601458,43.192066,751.4],[-1.601452,43.192029,752.3],[-1.601451,43.191998,753.0],[-1.601447,43.191967,753.7],[-1.601438,43.191935,754.5],[-1.601431,43.191901,755.3],[-1.601426,43.19187,756.0],[-1.601406,43.191844,756.7],[-1.601361,43.19183,757.5],[-1.601324,43.191815,758.2],[-1.601293,43.19179,759.0],[-1.60127,43.191761,759.9],[-1.601251,43.191731,760.7],[-1.601237,43.191699,761.5],[-1.601201,43.191682,762.4],[-1.60116,43.191672,763.3],[-1.601132,43.191653,763.9],[-1.601107,43.191627,764.7],[-1.601096,43.191595,765.5],[-1.601089,43.191557,766.5],[-1.601067,43.191523,767.4],[-1.601043,43.191498,768.1],[-1.601037,43.191471,768.8],[-1.601037,43.191438,769.7],[-1.601003,43.191413,770.5],[-1.600988,43.191383,771.2],[-1.600977,43.191356,771.8],[-1.600976,43.191322,772.5],[-1.600959,43.191286,773.4],[-1.600944,43.19126,774.0],[-1.600929,43.191229,774.7],[-1.600907,43.191207,775.4],[-1.600865,43.19119,776.3],[-1.600839,43.191169,777.0],[-1.600802,43.191161,777.5],[-1.600763,43.19117,778.1],[-1.600724,43.191154,778.7],[-1.600693,43.191132,780.6],[-1.600669,43.191111,781.0],[-1.60063,43.191107,781.4],[-1.600592,43.191105,781.6],[-1.600549,43.191115,781.6],[-1.600509,43.191116,781.6],[-1.600459,43.191117,781.5],[-1.600413,43.191113,781.4],[-1.600368,43.191117,781.2],[-1.600323,43.191104,781.0],[-1.600275,43.191101,780.7],[-1.600229,43.191103,780.2],[-1.600179,43.191122,779.7],[-1.600151,43.191145,779.4],[-1.600137,43.191115,779.1],[-1.600097,43.19111,778.8],[-1.600056,43.191115,778.2],[-1.600019,43.191128,777.7],[-1.599981,43.191136,777.1],[-1.599944,43.191144,776.8],[-1.599906,43.191146,776.6],[-1.599853,43.191154,776.3],[-1.599818,43.191166,775.7],[-1.599766,43.191172,774.8],[-1.599726,43.191158,774.2],[-1.599688,43.191163,773.8],[-1.599642,43.191165,773.3],[-1.599595,43.19117,772.9],[-1.599554,43.191175,772.5],[-1.59951,43.191194,772.0],[-1.599471,43.191212,771.5],[-1.599428,43.191223,770.9],[-1.599373,43.191233,770.2],[-1.599326,43.191233,769.8],[-1.599285,43.191233,769.5],[-1.599242,43.191245,769.0],[-1.599198,43.191261,768.3],[-1.599157,43.191252,767.8],[-1.599116,43.191262,767.5],[-1.599068,43.191265,767.3],[-1.599016,43.191257,767.1],[-1.598978,43.191254,766.9],[-1.598935,43.191259,766.7],[-1.598891,43.191254,766.4],[-1.598856,43.191271,766.0],[-1.598822,43.191285,765.7],[-1.598778,43.191286,765.4],[-1.598744,43.191273,765.3],[-1.598697,43.191271,765.2],[-1.598645,43.191281,765.0],[-1.598606,43.191277,764.9],[-1.598561,43.191265,764.8],[-1.598517,43.191256,764.6],[-1.598489,43.191276,764.5],[-1.598433,43.191276,764.3],[-1.598397,43.191262,764.1],[-1.598358,43.191249,763.8],[-1.598316,43.191257,763.5],[-1.598261,43.19126,763.3],[-1.598216,43.191266,763.2],[-1.598163,43.191273,763.2],[-1.598115,43.191259,763.2],[-1.598061,43.191249,763.2],[-1.598016,43.191264,763.2],[-1.59798,43.191278,763.1],[-1.597931,43.191273,763.0],[-1.597888,43.191275,762.9],[-1.597857,43.191293,762.8],[-1.597818,43.191295,762.6],[-1.597754,43.191286,762.3],[-1.597692,43.191269,762.1],[-1.597634,43.191267,762.0],[-1.597588,43.191278,761.8],[-1.597563,43.191301,761.7],[-1.597525,43.191308,761.6],[-1.59747,43.191309,761.4],[-1.597425,43.191322,761.3],[-1.597366,43.191328,761.1],[-1.597322,43.191333,760.9],[-1.597286,43.191347,760.7],[-1.597247,43.19133,760.5],[-1.597201,43.191341,760.4],[-1.597149,43.191356,760.2],[-1.597109,43.191365,760.0],[-1.597071,43.191369,759.9],[-1.597018,43.191368,759.6],[-1.596969,43.19137,759.4],[-1.596916,43.191369,759.2],[-1.596866,43.191373,759.0],[-1.596812,43.191378,758.8],[-1.596762,43.191372,758.7],[-1.596732,43.19135,758.5],[-1.596687,43.191334,758.4],[-1.596642,43.191333,758.3],[-1.596603,43.191341,758.2],[-1.596565,43.191354,758.1],[-1.59652,43.191367,758.1],[-1.596481,43.191374,758.0],[-1.596446,43.191383,758.0],[-1.596409,43.191379,758.0],[-1.596366,43.19138,758.1],[-1.596311,43.191399,758.1],[-1.596263,43.191414,758.1],[-1.596238,43.191436,758.1],[-1.596203,43.191457,758.1],[-1.596157,43.191473,758.1],[-1.596111,43.191468,758.2],[-1.596049,43.191475,758.3],[-1.595991,43.191481,758.5],[-1.595933,43.191491,758.7],[-1.595895,43.191498,758.8],[-1.595856,43.191503,758.9],[-1.595799,43.191503,759.0],[-1.595748,43.191506,759.1],[-1.595718,43.191524,759.2],[-1.595682,43.191532,759.3],[-1.595629,43.191541,759.4],[-1.59559,43.191533,759.5],[-1.59554,43.191536,759.6],[-1.595499,43.191537,759.7],[-1.595454,43.191533,759.7],[-1.595401,43.191514,759.7],[-1.595364,43.191514,759.6],[-1.595317,43.191526,759.9],[-1.595277,43.191532,760.1],[-1.595235,43.191523,760.2],[-1.595218,43.191499,760.3],[-1.595183,43.191489,760.3],[-1.595139,43.191493,760.4],[-1.595101,43.191485,760.4],[-1.59506,43.191467,760.5],[-1.595015,43.19146,760.6],[-1.594973,43.191455,760.7],[-1.59494,43.191438,760.8],[-1.594907,43.191402,760.9],[-1.594883,43.191377,760.9],[-1.594854,43.191359,760.9],[-1.594811,43.191334,760.9],[-1.594778,43.191313,760.9],[-1.594744,43.191294,760.9],[-1.594711,43.191275,760.8],[-1.594672,43.191268,760.7],[-1.594639,43.191252,760.7],[-1.594599,43.191239,760.6],[-1.59456,43.191233,760.5],[-1.594522,43.191213,760.4],[-1.594478,43.191192,760.3],[-1.594456,43.191168,760.3],[-1.594408,43.191147,760.2],[-1.594375,43.191128,760.1],[-1.594342,43.191104,760.0],[-1.594291,43.191099,759.8],[-1.59424,43.191094,759.7],[-1.594201,43.191096,759.7],[-1.594165,43.191082,759.7],[-1.594127,43.191073,759.8],[-1.594087,43.191074,759.9],[-1.594045,43.191065,760.0],[-1.593992,43.191068,760.1],[-1.593938,43.191084,760.3],[-1.593872,43.191108,760.5],[-1.593822,43.191108,760.5],[-1.593775,43.191103,760.5],[-1.593731,43.191105,760.5],[-1.59369,43.19111,760.5],[-1.59366,43.191093,760.5],[-1.593608,43.191087,760.5],[-1.59356,43.191093,760.4],[-1.593518,43.191105,760.4],[-1.593476,43.191123,760.4],[-1.593426,43.191116,760.4],[-1.59339,43.191103,760.4],[-1.593369,43.191075,760.5],[-1.593323,43.191071,760.6],[-1.593277,43.191085,760.6],[-1.593222,43.191082,760.7],[-1.593173,43.191085,760.8],[-1.593136,43.191078,761.0],[-1.593098,43.191077,761.2],[-1.593061,43.191065,761.3],[-1.593027,43.191052,761.6],[-1.592988,43.191048,761.9],[-1.592952,43.191038,762.2],[-1.592905,43.191029,762.9],[-1.592854,43.191016,764.0],[-1.592813,43.191013,764.9],[-1.592774,43.191021,765.4],[-1.592735,43.191027,765.9],[-1.592695,43.191008,766.4],[-1.592643,43.190995,766.9],[-1.592606,43.191002,767.2],[-1.592583,43.191026,767.9],[-1.592542,43.19101,768.7],[-1.592498,43.190985,769.3],[-1.592456,43.190971,769.8],[-1.592414,43.190973,770.2],[-1.592363,43.19097,770.7],[-1.592315,43.190971,771.1],[-1.592272,43.190971,771.4],[-1.592221,43.190981,771.8],[-1.592183,43.191013,772.6],[-1.592129,43.191032,773.6],[-1.592089,43.191044,774.0],[-1.592047,43.191056,774.5],[-1.591987,43.191056,775.2],[-1.591952,43.191072,775.7],[-1.591912,43.191064,776.2],[-1.591877,43.191054,776.6],[-1.591837,43.191047,776.9],[-1.591795,43.191058,777.3],[-1.591757,43.191071,777.9],[-1.591736,43.191046,779.0],[-1.591698,43.191052,780.1],[-1.591659,43.191046,780.9],[-1.591624,43.191023,781.5],[-1.591587,43.191012,782.0],[-1.591545,43.191016,782.3],[-1.591493,43.191018,782.5],[-1.591426,43.191031,783.2],[-1.591387,43.191039,783.7],[-1.591351,43.191058,784.4],[-1.591315,43.191071,785.1],[-1.591278,43.19106,785.8],[-1.591237,43.191048,786.3],[-1.591209,43.191031,786.4],[-1.591171,43.191042,786.6],[-1.591136,43.191052,786.7],[-1.591102,43.191033,787.2],[-1.59106,43.191015,787.6],[-1.591049,43.190988,787.9],[-1.591039,43.190956,788.3],[-1.591012,43.190919,788.8],[-1.590977,43.190898,789.2],[-1.590945,43.190885,789.5],[-1.590912,43.190867,790.0],[-1.590867,43.190857,790.5],[-1.590839,43.190839,790.8],[-1.590815,43.190818,791.2],[-1.590771,43.190803,791.8],[-1.590731,43.190779,792.4],[-1.59069,43.190749,793.0],[-1.590655,43.190723,793.4],[-1.590611,43.190705,793.9],[-1.590568,43.19068,794.3],[-1.590533,43.190667,794.6],[-1.590499,43.190649,795.0],[-1.590473,43.190628,795.3],[-1.590438,43.190611,795.6],[-1.590395,43.190593,796.0],[-1.590362,43.190567,796.5],[-1.590333,43.190539,796.9],[-1.590303,43.190518,797.2],[-1.590273,43.190499,797.5],[-1.590237,43.190473,797.9],[-1.590196,43.190452,798.3],[-1.590145,43.190445,798.6],[-1.590098,43.190441,798.9],[-1.590051,43.190434,799.3],[-1.590013,43.190426,799.6],[-1.589963,43.190434,800.0],[-1.589914,43.190431,800.4],[-1.589876,43.190426,800.7],[-1.589829,43.19042,801.1],[-1.589787,43.190409,801.5],[-1.589756,43.190388,801.8],[-1.589722,43.190366,802.2],[-1.589689,43.190345,802.5],[-1.58964,43.190331,803.0],[-1.589601,43.190325,803.3],[-1.589556,43.190312,803.6],[-1.589509,43.190308,804.0],[-1.589455,43.190303,804.4],[-1.589417,43.190303,804.7],[-1.589374,43.190302,805.1],[-1.589339,43.190315,805.4],[-1.589288,43.190327,805.9],[-1.589251,43.190348,806.4],[-1.58922,43.190368,806.8],[-1.589181,43.190386,807.2],[-1.589152,43.190409,807.7],[-1.589118,43.190439,808.2],[-1.589093,43.19047,808.8],[-1.589084,43.190498,809.2],[-1.589068,43.190523,809.5],[-1.589053,43.190549,809.9],[-1.589048,43.190578,810.4],[-1.589028,43.19061,810.9],[-1.589019,43.190638,811.3],[-1.589015,43.190673,811.7],[-1.589034,43.190698,812.1],[-1.589064,43.190714,812.6],[-1.589105,43.19071,813.1],[-1.589119,43.190663,815.3],[-1.589112,43.190624,815.4],[-1.589131,43.190593,815.5],[-1.589145,43.190562,815.7],[-1.589179,43.190549,815.8],[-1.589216,43.190565,816.1],[-1.589255,43.190563,816.0],[-1.589302,43.190567,816.0],[-1.589348,43.190567,815.9],[-1.589393,43.190571,815.9],[-1.589439,43.190561,815.8],[-1.589484,43.190553,815.7],[-1.589517,43.190571,815.7],[-1.589487,43.190597,815.7],[-1.589441,43.190607,815.7],[-1.589395,43.190622,815.0],[-1.589355,43.190635,814.8],[-1.589322,43.190659,814.7],[-1.5893,43.190681,814.5],[-1.589308,43.190708,814.4],[-1.589324,43.190735,814.2],[-1.589305,43.190759,814.1],[-1.589311,43.190788,814.0],[-1.58935,43.190809,813.8],[-1.589314,43.190801,813.6],[-1.589364,43.19081,813.5],[-1.589402,43.19081,813.1],[-1.589429,43.190831,813.0],[-1.589457,43.190852,812.9],[-1.589467,43.190882,812.8],[-1.589508,43.190887,812.7],[-1.589537,43.190868,812.5],[-1.589576,43.190878,812.3],[-1.589618,43.19087,812.2],[-1.589653,43.190852,812.2],[-1.589689,43.190842,812.2],[-1.589716,43.190818,812.5],[-1.589733,43.190785,813.2],[-1.58975,43.190761,813.6],[-1.58975,43.19073,813.9],[-1.589728,43.190703,814.2],[-1.589716,43.190676,814.6],[-1.589705,43.190643,814.9],[-1.589678,43.190613,815.3],[-1.589623,43.190605,815.6],[-1.589583,43.19061,815.7],[-1.589545,43.19061,815.7],[-1.589504,43.19062,815.7],[-1.58946,43.190622,815.7],[-1.589418,43.190616,815.7],[-1.589459,43.190613,815.7],[-1.589502,43.190612,815.7],[-1.589516,43.190585,815.7],[-1.589482,43.19056,815.7],[-1.589439,43.190558,815.8],[-1.589388,43.190558,815.9],[-1.589348,43.190559,815.9],[-1.589302,43.190556,816.0],[-1.589258,43.190556,816.0],[-1.589219,43.190556,815.9],[-1.589173,43.190562,815.7],[-1.589147,43.190587,815.6],[-1.589119,43.190616,815.4],[-1.589104,43.19065,815.3],[-1.58909,43.190676,814.8],[-1.589045,43.190694,814.1],[-1.589022,43.190718,813.5],[-1.58904,43.190749,813.1],[-1.589032,43.190781,812.7],[-1.58902,43.190807,812.4],[-1.589014,43.190837,812.1],[-1.58903,43.190862,811.9],[-1.589062,43.190886,811.3],[-1.589088,43.190908,811.5],[-1.589123,43.19092,811.7],[-1.589087,43.190909,811.9],[-1.58906,43.19089,812.1],[-1.589041,43.19086,812.3],[-1.589042,43.190826,812.5],[-1.58903,43.190785,812.8],[-1.589031,43.190753,813.0],[-1.58904,43.19072,813.0],[-1.58902,43.190685,812.4],[-1.589004,43.190651,811.9],[-1.589016,43.190612,811.3],[-1.589023,43.190581,810.9],[-1.589034,43.190553,810.6],[-1.589045,43.190518,810.0],[-1.589065,43.190484,809.5],[-1.589081,43.190457,809.1],[-1.589104,43.190429,808.7],[-1.58913,43.190405,808.3],[-1.589158,43.190382,807.8],[-1.589197,43.190359,807.3],[-1.58924,43.190347,806.9],[-1.589283,43.190331,806.4],[-1.589322,43.190307,805.9],[-1.589365,43.190294,805.5],[-1.589405,43.190282,805.1],[-1.589428,43.190303,804.8],[-1.589466,43.190317,804.5],[-1.589519,43.190315,804.1],[-1.589562,43.190313,803.8],[-1.589608,43.190311,803.4],[-1.589654,43.190314,803.1],[-1.589708,43.190313,802.7],[-1.589758,43.190318,802.3],[-1.589805,43.190323,801.9],[-1.589847,43.190335,801.6],[-1.589886,43.190346,801.2],[-1.589922,43.190356,800.9],[-1.589958,43.190365,800.6],[-1.590007,43.190379,800.2],[-1.590048,43.190405,799.8],[-1.590083,43.190422,799.5],[-1.590118,43.190433,799.2],[-1.590183,43.190438,798.7],[-1.59022,43.190443,798.5],[-1.590264,43.190457,798.2],[-1.590302,43.190473,797.9],[-1.590337,43.190502,797.5],[-1.590377,43.190525,797.1],[-1.590415,43.190555,796.6],[-1.590458,43.190589,796.1],[-1.590491,43.190614,795.7],[-1.590532,43.190644,795.3],[-1.590589,43.190686,794.6],[-1.590637,43.190714,794.1],[-1.590674,43.190728,793.8],[-1.59071,43.190739,793.5],[-1.590759,43.190758,793.0],[-1.590799,43.190774,792.5],[-1.590776,43.190799,792.1],[-1.590761,43.190824,791.7],[-1.590745,43.190849,791.2],[-1.590778,43.190878,790.7],[-1.590822,43.1909,790.2],[-1.590869,43.19092,789.6],[-1.590916,43.190953,789.1],[-1.590965,43.190987,788.5],[-1.590993,43.191009,788.1],[-1.591023,43.191036,787.7],[-1.591052,43.191066,787.3],[-1.591071,43.191105,787.0],[-1.591029,43.191104,786.7],[-1.590982,43.191107,786.1],[-1.590941,43.19111,785.9],[-1.590893,43.191119,785.7],[-1.590855,43.191151,785.4],[-1.590824,43.191172,785.2],[-1.59079,43.191188,785.0],[-1.590749,43.191207,784.7],[-1.59071,43.191226,784.6],[-1.590667,43.191235,784.5],[-1.590621,43.19125,784.5],[-1.590581,43.191268,784.4],[-1.590538,43.191285,784.4],[-1.590499,43.191304,784.5],[-1.590445,43.191325,784.5],[-1.590395,43.191321,784.6],[-1.590371,43.1913,784.6],[-1.590331,43.191297,784.7],[-1.590289,43.191301,784.7],[-1.590251,43.19129,784.8],[-1.590219,43.191274,784.9],[-1.590178,43.191283,784.9],[-1.590127,43.19131,785.0],[-1.590092,43.19133,785.1],[-1.590046,43.191354,785.2],[-1.589996,43.191381,785.3],[-1.589941,43.191405,785.4],[-1.589903,43.191403,785.5],[-1.58986,43.191386,785.6],[-1.5898,43.191403,785.7],[-1.589764,43.191409,785.7],[-1.589732,43.191395,785.8],[-1.589696,43.191371,785.8],[-1.589664,43.191358,785.9],[-1.589627,43.191361,785.9],[-1.589591,43.191334,785.9],[-1.589548,43.191329,786.0],[-1.589508,43.191333,786.0],[-1.589484,43.191357,786.1],[-1.58948,43.191387,786.1],[-1.589434,43.191404,786.1],[-1.589396,43.191396,786.2],[-1.58934,43.1914,786.2],[-1.589296,43.191413,786.2],[-1.589231,43.191439,786.3],[-1.589191,43.191444,786.3],[-1.589129,43.191463,786.3],[-1.589093,43.191475,786.3],[-1.589037,43.191495,785.9],[-1.588997,43.191505,785.7],[-1.58897,43.191484,785.5],[-1.588931,43.191481,785.2],[-1.588899,43.191499,784.9],[-1.588851,43.191483,784.6],[-1.588811,43.191464,784.2],[-1.588766,43.191459,783.9],[-1.588718,43.191453,783.5],[-1.588664,43.191443,783.1],[-1.588629,43.19143,782.8],[-1.588594,43.191412,782.4],[-1.588566,43.191389,782.1],[-1.588531,43.191359,781.7],[-1.588487,43.191334,781.3],[-1.588456,43.191314,781.1],[-1.588407,43.19128,780.6],[-1.588383,43.191259,780.4],[-1.588351,43.191227,780.0],[-1.588342,43.191201,779.7],[-1.588301,43.191192,779.4],[-1.588264,43.191194,779.2],[-1.588228,43.191187,778.9],[-1.588186,43.191167,778.5],[-1.588133,43.191135,778.0],[-1.588105,43.191091,777.5],[-1.588079,43.191055,777.1],[-1.588052,43.191036,776.9],[-1.588004,43.191005,776.4],[-1.587962,43.190976,776.0],[-1.587935,43.190949,775.6],[-1.587902,43.190906,775.0],[-1.587864,43.190864,774.5],[-1.587828,43.190822,773.9],[-1.587815,43.190797,773.6],[-1.587795,43.190767,773.2],[-1.587775,43.190737,772.8],[-1.58775,43.190701,772.3],[-1.587719,43.190681,772.0],[-1.587673,43.190669,771.5],[-1.58764,43.190645,771.0],[-1.587656,43.19062,770.6],[-1.587653,43.190573,769.9],[-1.587642,43.190546,769.4],[-1.58762,43.190519,768.8],[-1.587594,43.190487,768.2],[-1.587579,43.190456,767.6],[-1.587589,43.19042,766.9],[-1.587587,43.19038,766.2],[-1.587608,43.190356,765.6],[-1.587628,43.190329,765.1],[-1.587619,43.190283,764.3],[-1.587616,43.190248,763.7],[-1.587617,43.190211,763.1],[-1.58761,43.190172,762.5],[-1.58761,43.190139,762.0],[-1.587607,43.19011,761.7],[-1.587613,43.190071,761.2],[-1.587638,43.190051,760.9],[-1.587642,43.190023,760.6],[-1.587631,43.189972,760.0],[-1.587617,43.18994,759.6],[-1.587606,43.189908,759.3],[-1.587594,43.189877,758.9],[-1.587583,43.189846,758.6],[-1.587573,43.189811,758.2],[-1.58757,43.189774,757.7],[-1.587567,43.189745,757.4],[-1.587552,43.189719,757.1],[-1.587533,43.189695,756.8],[-1.587496,43.189648,756.1],[-1.587464,43.189604,755.4],[-1.587453,43.189578,755.1],[-1.587485,43.18956,754.7],[-1.587505,43.189529,754.3],[-1.587502,43.189499,754.0],[-1.587506,43.189468,753.6],[-1.587492,43.189411,752.9],[-1.587492,43.189384,752.6],[-1.587513,43.189355,752.2],[-1.587541,43.189337,751.9],[-1.58758,43.189317,751.5],[-1.587609,43.189293,751.1],[-1.587643,43.18928,750.8],[-1.587656,43.189243,750.4],[-1.587677,43.189203,750.0],[-1.587716,43.189202,749.7],[-1.587713,43.189161,749.2],[-1.587702,43.189113,748.7],[-1.587696,43.189084,748.3],[-1.587693,43.189052,748.0],[-1.587692,43.189022,747.6],[-1.587697,43.188992,747.3],[-1.587715,43.188948,746.8],[-1.587734,43.188916,746.3],[-1.587765,43.188894,745.9],[-1.587765,43.188852,745.3],[-1.58777,43.188822,744.9],[-1.587772,43.188791,744.4],[-1.587777,43.188762,744.0],[-1.587778,43.188728,743.4],[-1.587786,43.188687,742.8],[-1.587778,43.188645,742.1],[-1.587767,43.188598,741.4],[-1.587765,43.188554,740.7],[-1.587763,43.188503,740.0],[-1.587749,43.188459,739.3],[-1.587714,43.188422,738.6],[-1.587696,43.18839,738.0],[-1.587712,43.188358,737.5],[-1.587734,43.188327,737.0],[-1.587743,43.188279,736.4],[-1.587729,43.18823,735.7],[-1.5877,43.188188,735.0],[-1.587704,43.188159,734.6],[-1.587718,43.188132,734.3],[-1.587731,43.188095,733.8],[-1.587736,43.188059,733.4],[-1.587735,43.188024,733.1],[-1.587761,43.187998,732.8],[-1.587798,43.187983,732.5],[-1.587843,43.187953,731.5],[-1.587898,43.18794,731.0],[-1.587963,43.187942,730.5],[-1.588021,43.187944,730.0],[-1.588081,43.187942,729.7],[-1.588133,43.187946,729.5],[-1.588186,43.18794,729.3],[-1.588241,43.187949,729.1],[-1.588282,43.187968,728.9],[-1.588345,43.187982,728.6],[-1.588417,43.187988,728.4],[-1.58849,43.187994,728.2],[-1.588527,43.188001,728.0],[-1.58859,43.188011,727.8],[-1.588638,43.188022,727.6],[-1.588679,43.188035,727.4],[-1.588722,43.188035,727.2],[-1.588776,43.188037,726.9],[-1.588822,43.188033,726.7],[-1.588859,43.188037,726.5],[-1.588898,43.188064,726.3],[-1.588936,43.188075,726.1],[-1.588993,43.188078,725.8],[-1.589032,43.188081,725.6],[-1.589064,43.188095,725.4],[-1.58908,43.188126,725.2],[-1.589102,43.188153,725.0],[-1.589144,43.188166,724.8],[-1.58918,43.188158,724.7],[-1.58922,43.188153,724.5],[-1.589272,43.188141,724.3],[-1.589322,43.188118,724.1],[-1.589369,43.188091,723.8],[-1.589408,43.188073,723.6],[-1.58945,43.188089,723.4],[-1.589484,43.188103,723.2],[-1.589518,43.188088,723.1],[-1.589567,43.188078,722.9],[-1.589615,43.188064,722.7],[-1.589665,43.188045,722.5],[-1.589718,43.188031,722.3],[-1.589759,43.18802,722.1],[-1.5898,43.188012,722.0],[-1.589848,43.188008,721.8],[-1.5899,43.188003,721.6],[-1.58995,43.187995,721.4],[-1.589994,43.187978,721.2],[-1.590034,43.187962,721.0],[-1.590073,43.187954,720.9],[-1.590111,43.187931,720.6],[-1.59015,43.187904,720.4],[-1.590144,43.187871,720.2],[-1.590099,43.187865,718.7],[-1.59005,43.187856,718.2],[-1.590019,43.187836,717.8],[-1.589989,43.187806,717.2],[-1.589955,43.187793,716.9],[-1.589926,43.187775,716.4],[-1.589884,43.18775,715.8],[-1.589841,43.187741,715.3],[-1.589812,43.187722,714.9],[-1.589782,43.187704,714.4],[-1.589747,43.187692,714.0],[-1.589711,43.187674,713.5],[-1.589675,43.18766,713.1],[-1.589646,43.187637,712.6],[-1.589618,43.187619,712.2],[-1.589579,43.187598,711.5],[-1.589558,43.187572,711.0],[-1.589528,43.18754,710.4],[-1.589507,43.187506,709.8],[-1.589486,43.18748,709.3],[-1.589488,43.187442,708.6],[-1.589514,43.187416,708.1],[-1.589506,43.187389,707.6],[-1.58948,43.187367,707.2],[-1.589468,43.187331,706.4],[-1.589438,43.187292,705.4],[-1.589412,43.187263,704.8],[-1.589387,43.187229,704.1],[-1.589365,43.187204,703.6],[-1.58934,43.187173,702.9],[-1.589307,43.187149,702.3],[-1.589255,43.187141,701.5],[-1.58923,43.187109,700.8],[-1.58922,43.187082,700.3],[-1.589183,43.187056,699.6],[-1.589147,43.187039,699.0],[-1.589114,43.187016,698.4],[-1.589089,43.186995,697.9],[-1.589093,43.18696,697.3],[-1.589076,43.186935,696.8],[-1.589045,43.186915,696.2],[-1.589022,43.186894,695.7],[-1.588991,43.18687,695.0],[-1.588973,43.186845,694.5],[-1.588962,43.186813,693.8],[-1.588938,43.18679,693.2],[-1.588921,43.186762,692.6],[-1.588886,43.186743,692.0],[-1.588846,43.186715,691.1],[-1.588833,43.186675,690.3],[-1.588816,43.186647,689.7],[-1.588768,43.186632,688.9],[-1.588741,43.186592,688.0],[-1.588705,43.186576,687.5],[-1.588681,43.186597,686.8],[-1.588645,43.186579,686.0],[-1.588629,43.186552,685.3],[-1.588613,43.186512,684.5],[-1.588554,43.186477,683.5],[-1.588518,43.186431,682.3],[-1.588485,43.186394,681.3],[-1.588456,43.186372,680.6],[-1.58841,43.186366,679.8],[-1.588371,43.186338,678.9],[-1.588328,43.186302,677.9],[-1.588294,43.186277,677.2],[-1.58824,43.186262,676.3],[-1.588205,43.18625,675.7],[-1.588118,43.186223,674.2],[-1.588071,43.186202,673.2],[-1.588026,43.186182,672.3],[-1.587989,43.186179,671.7],[-1.587946,43.18621,670.8],[-1.587901,43.186215,670.1],[-1.587865,43.186196,669.5],[-1.587831,43.186177,669.0],[-1.587805,43.186158,668.5],[-1.587769,43.186128,667.7],[-1.587729,43.186104,667.0],[-1.587672,43.1861,666.2],[-1.587621,43.186084,665.4],[-1.587586,43.186097,664.8],[-1.587551,43.18611,664.3],[-1.58751,43.186114,663.9],[-1.587461,43.186105,663.3],[-1.587419,43.186103,662.9],[-1.587378,43.186098,662.4],[-1.587321,43.186091,661.8],[-1.58727,43.186113,661.0],[-1.587227,43.186114,660.4],[-1.587151,43.186109,659.4],[-1.587102,43.18611,658.9],[-1.587061,43.186108,658.4],[-1.587012,43.186121,657.8],[-1.586975,43.186123,657.4],[-1.586943,43.186104,656.9],[-1.586897,43.186093,656.4],[-1.586858,43.186081,655.9],[-1.586813,43.186078,655.4],[-1.586755,43.186067,654.8],[-1.586709,43.186054,654.3],[-1.586652,43.186045,653.6],[-1.586614,43.186039,653.2],[-1.586572,43.186034,652.8],[-1.58653,43.186028,652.5],[-1.586487,43.186016,652.1],[-1.586427,43.185999,651.5],[-1.586383,43.185993,651.1],[-1.586337,43.185987,650.7],[-1.586274,43.185972,650.0],[-1.586238,43.185956,649.7],[-1.586199,43.185952,649.4],[-1.586146,43.185951,649.0],[-1.586103,43.185953,648.7],[-1.586043,43.185966,648.2],[-1.585974,43.185972,647.7],[-1.58593,43.185976,647.5],[-1.585893,43.18598,647.3],[-1.585843,43.185983,647.1],[-1.5858,43.185975,646.9],[-1.585768,43.185951,646.7],[-1.58572,43.185942,646.6],[-1.585698,43.185911,646.4],[-1.585678,43.185885,646.2],[-1.585632,43.185871,646.1],[-1.58559,43.185869,645.9],[-1.585547,43.185846,645.7],[-1.585518,43.185825,645.5],[-1.585481,43.185802,645.4],[-1.585438,43.185801,645.2],[-1.585388,43.185791,645.0],[-1.585339,43.185781,644.8],[-1.585301,43.185778,644.6],[-1.585248,43.185756,644.4],[-1.585196,43.185738,644.1],[-1.585162,43.185727,643.9],[-1.585123,43.185715,643.7],[-1.585084,43.185703,643.5],[-1.585037,43.185689,643.2],[-1.584985,43.185672,642.9],[-1.584931,43.185659,642.6],[-1.584871,43.185642,642.3],[-1.584828,43.185631,642.0],[-1.584802,43.185608,641.8],[-1.584755,43.185594,641.5],[-1.584717,43.185576,641.2],[-1.584691,43.185555,640.9],[-1.584659,43.185537,640.6],[-1.584616,43.185509,640.1],[-1.584568,43.185491,639.7],[-1.584529,43.185478,639.3],[-1.584481,43.185471,638.8],[-1.584437,43.185463,638.4],[-1.584393,43.185442,637.9],[-1.584366,43.185422,637.6],[-1.584333,43.185399,637.1],[-1.584298,43.185381,636.7],[-1.584272,43.185358,636.3],[-1.584233,43.185344,635.9],[-1.584194,43.18533,635.5],[-1.584164,43.185306,635.2],[-1.584147,43.18527,634.7],[-1.584123,43.185236,634.3],[-1.584085,43.185201,633.8],[-1.584068,43.185175,633.5],[-1.584032,43.185141,633.1],[-1.584,43.185116,632.7],[-1.583971,43.185088,632.4],[-1.583979,43.185047,631.9],[-1.583965,43.185005,631.6],[-1.583947,43.184974,631.3],[-1.583934,43.184944,631.0],[-1.583909,43.184913,630.6],[-1.583889,43.184873,630.1],[-1.583877,43.184824,629.6],[-1.583872,43.184789,629.1],[-1.58387,43.184758,628.7],[-1.583868,43.184722,628.3],[-1.583869,43.184688,627.8],[-1.583854,43.184658,627.3],[-1.583845,43.184626,626.8],[-1.583833,43.184597,626.3],[-1.583813,43.184562,625.9],[-1.583788,43.184526,625.4],[-1.583767,43.184504,625.0],[-1.583752,43.184464,624.3],[-1.58374,43.184422,623.8],[-1.583712,43.184393,623.3],[-1.583701,43.184362,622.9],[-1.583687,43.184333,622.4],[-1.583662,43.184309,622.0],[-1.583636,43.184274,621.5],[-1.583612,43.184244,621.1],[-1.583581,43.184219,620.8],[-1.583529,43.184213,620.4],[-1.583478,43.184193,619.9],[-1.583434,43.184182,619.6],[-1.583397,43.184173,619.3],[-1.583357,43.184146,618.9],[-1.583336,43.18412,618.6],[-1.5833,43.184105,618.3],[-1.583267,43.18409,618.0],[-1.583215,43.184067,617.6],[-1.583176,43.184044,617.2],[-1.583123,43.184024,616.8],[-1.58308,43.184008,616.4],[-1.583044,43.183999,616.2],[-1.583011,43.183982,615.9],[-1.582976,43.183967,615.6],[-1.582946,43.183939,615.2],[-1.582919,43.18391,614.8],[-1.582898,43.183883,614.5],[-1.582859,43.183861,614.2],[-1.58282,43.183844,613.8],[-1.582775,43.183823,613.3],[-1.58273,43.183809,613.0],[-1.582688,43.183786,612.5],[-1.582654,43.183763,612.1],[-1.582627,43.183729,611.7],[-1.582601,43.183708,611.3],[-1.58256,43.183707,610.9],[-1.582518,43.183691,610.5],[-1.582482,43.183661,609.9],[-1.582442,43.183646,609.5],[-1.582429,43.183621,609.2],[-1.582391,43.183608,609.0],[-1.582354,43.183594,608.7],[-1.582315,43.183576,608.5],[-1.582263,43.183573,608.2],[-1.582218,43.183589,607.8],[-1.582178,43.183612,607.5],[-1.582125,43.183632,607.1],[-1.582086,43.183646,606.8],[-1.582043,43.183669,606.3],[-1.582007,43.183689,605.8],[-1.581966,43.183712,605.2],[-1.581931,43.183737,604.6],[-1.581904,43.183761,604.0],[-1.581862,43.183762,603.4],[-1.581825,43.183769,602.9],[-1.58178,43.183746,602.1],[-1.581745,43.183733,601.6],[-1.5817,43.183727,601.0],[-1.581655,43.183725,600.5],[-1.581617,43.183715,600.1],[-1.58158,43.183707,599.8],[-1.581551,43.183677,599.4],[-1.581533,43.183653,599.1],[-1.58152,43.183617,598.7],[-1.581505,43.183588,598.3],[-1.581483,43.183555,597.9],[-1.58147,43.183528,597.6],[-1.581442,43.183504,597.3],[-1.581416,43.183473,596.9],[-1.581401,43.183435,596.4],[-1.581393,43.183401,595.9],[-1.581385,43.183374,595.6],[-1.581386,43.183345,595.2],[-1.581348,43.183308,594.6],[-1.581347,43.183278,594.2],[-1.581325,43.183255,593.8],[-1.581302,43.183221,593.2],[-1.581269,43.183209,592.8],[-1.581233,43.183192,592.2],[-1.581199,43.183171,591.7],[-1.581193,43.183142,591.0],[-1.581162,43.183125,590.5],[-1.581128,43.1831,589.7],[-1.581104,43.183072,589.1],[-1.581097,43.183044,588.7],[-1.581074,43.183014,588.1],[-1.58104,43.183003,587.5],[-1.581003,43.182998,586.9],[-1.580969,43.182984,586.3],[-1.580947,43.182955,585.6],[-1.580936,43.182925,584.9],[-1.580913,43.182902,584.4],[-1.580892,43.182866,583.7],[-1.580865,43.182848,583.3],[-1.580848,43.182817,582.7],[-1.580825,43.182782,582.0],[-1.580798,43.182752,581.4],[-1.580771,43.182725,580.8],[-1.580754,43.182693,580.3],[-1.580715,43.182667,579.6],[-1.580681,43.182642,579.0],[-1.580635,43.182611,578.2],[-1.580585,43.182581,577.4],[-1.580534,43.182558,576.6],[-1.580503,43.182536,576.0],[-1.580492,43.18251,575.5],[-1.580467,43.182483,574.9],[-1.580446,43.182457,574.4],[-1.580434,43.182431,573.9],[-1.58042,43.182405,573.3],[-1.580395,43.182381,572.7],[-1.580366,43.182361,572.2],[-1.58032,43.182332,571.3],[-1.58029,43.182314,570.6],[-1.58025,43.182298,569.9],[-1.580227,43.182273,569.4],[-1.580216,43.182245,568.9],[-1.5802,43.182209,568.2],[-1.580179,43.182179,567.6],[-1.580139,43.182148,566.8],[-1.580134,43.18212,566.1],[-1.580116,43.182097,565.5],[-1.580096,43.182072,564.8],[-1.580061,43.182049,564.1],[-1.580027,43.182033,563.5],[-1.580005,43.182005,562.8],[-1.579972,43.18197,562.0],[-1.579941,43.181949,561.4],[-1.579907,43.181916,560.7],[-1.579878,43.181888,560.1],[-1.579854,43.181866,559.6],[-1.57983,43.181834,559.0],[-1.579814,43.181803,558.3],[-1.579787,43.181784,557.8],[-1.579748,43.181759,556.9],[-1.57972,43.181734,556.2],[-1.57971,43.181695,555.3],[-1.579679,43.18167,554.2],[-1.579654,43.181644,553.3],[-1.579619,43.181628,552.4],[-1.579588,43.181609,551.5],[-1.579543,43.181594,550.2],[-1.579506,43.181578,549.2],[-1.579463,43.181583,548.2],[-1.579435,43.181558,547.2],[-1.579415,43.181535,546.4],[-1.579395,43.181508,545.6],[-1.579349,43.18149,544.7],[-1.579312,43.181469,544.1],[-1.579284,43.181438,543.5],[-1.579273,43.181401,543.0],[-1.579252,43.181366,542.5],[-1.579228,43.181328,542.1],[-1.579224,43.18129,541.7],[-1.579199,43.181259,541.3],[-1.579159,43.18123,541.0],[-1.57912,43.181207,540.7],[-1.579089,43.181181,540.4],[-1.579058,43.181157,540.2],[-1.579021,43.181141,539.9],[-1.578981,43.181135,539.7],[-1.578942,43.181116,539.4],[-1.57891,43.181102,539.2],[-1.578863,43.181091,538.9],[-1.578818,43.181085,538.6],[-1.578784,43.181043,538.3],[-1.578757,43.181024,538.0],[-1.578716,43.181019,537.9],[-1.578685,43.180997,537.7],[-1.578659,43.180973,537.5],[-1.578635,43.180948,537.3],[-1.57861,43.180921,537.1],[-1.578577,43.180896,537.0],[-1.578546,43.180866,536.8],[-1.578543,43.180832,536.7],[-1.578535,43.180804,536.6],[-1.578522,43.18077,536.4],[-1.578525,43.180736,536.3],[-1.578525,43.180708,536.2],[-1.578531,43.180681,536.1],[-1.578525,43.180654,536.0],[-1.5785,43.180627,535.9],[-1.578458,43.180603,536.1],[-1.578408,43.180577,536.3],[-1.578402,43.180541,536.5],[-1.578399,43.180507,536.7],[-1.578374,43.18048,536.8],[-1.578328,43.180449,537.0],[-1.578301,43.180396,537.1],[-1.57829,43.180356,537.2],[-1.578269,43.180329,537.3],[-1.578249,43.180292,537.3],[-1.578243,43.180263,537.3],[-1.578247,43.180225,537.3],[-1.57823,43.180185,537.3],[-1.578213,43.180161,537.3],[-1.57818,43.180135,537.3],[-1.578152,43.180107,537.3],[-1.578128,43.18008,537.2],[-1.578092,43.180048,537.2],[-1.578043,43.180036,537.1],[-1.577988,43.180034,537.1],[-1.577951,43.180019,537.0],[-1.577917,43.179994,536.9],[-1.577882,43.179981,536.9],[-1.577837,43.179994,536.8],[-1.577805,43.180012,536.7],[-1.577801,43.180042,536.5],[-1.5778,43.180072,536.3],[-1.577772,43.180055,536.1]]}}]}