{"type":"FeatureCollection","features":[{"type":"Feature","properties":{"ruta_id":"33890503","nombre":"LAGO DE XOLDOKOGAINA y MANTTALE desde IBARDIN","blog_url":"https://www.rutasporelmonte.com/lago-de-xoldokogaina-desde-ibardin/"},"geometry":{"type":"LineString","coordinates":[[-1.686437,43.309811,370.438],[-1.687157,43.310008,370.47],[-1.687463,43.310561,369.717],[-1.687956,43.310735,368.308],[-1.688156,43.310963,372.926],[-1.688967,43.311202,378.796],[-1.688897,43.311887,381.171],[-1.688653,43.312202,376.492],[-1.688724,43.312459,371.993],[-1.68914,43.312526,364.248],[-1.690125,43.312367,351.493],[-1.69036,43.312502,361.726],[-1.690555,43.312869,353.859],[-1.691111,43.312965,363.203],[-1.690528,43.313925,359.423],[-1.69054,43.314406,353.408],[-1.69078,43.314818,356.198],[-1.69027,43.315447,358.588],[-1.689898,43.31621,361.963],[-1.689925,43.316747,358.484],[-1.690191,43.317098,354.055],[-1.69163,43.317572,348.39],[-1.691856,43.318045,356.575],[-1.692661,43.318639,353.758],[-1.693031,43.318643,357.638],[-1.693513,43.318369,366.17],[-1.695375,43.318998,354.217],[-1.697679,43.318794,345.908],[-1.698615,43.319101,343.966],[-1.699203,43.319554,337.376],[-1.699357,43.320452,333.841],[-1.699753,43.320866,330.682],[-1.700889,43.321191,326.423],[-1.701894,43.321223,328.048],[-1.704233,43.321818,318.463],[-1.705527,43.322505,314.216],[-1.70604,43.323187,305.259],[-1.706366,43.323109,301.503],[-1.706963,43.32212,296.523],[-1.707866,43.32138,295.808],[-1.707043,43.321993,301.148],[-1.706449,43.322932,310.468],[-1.706619,43.322732,306.953],[-1.707176,43.323304,300.154],[-1.708075,43.323151,299.235],[-1.708549,43.32251,300.05],[-1.70857,43.322798,298.735],[-1.709139,43.322381,307.858],[-1.709101,43.322178,313.711],[-1.70946,43.321572,307.221],[-1.70921,43.320442,299.303],[-1.710635,43.319945,310.208],[-1.711022,43.31939,308.184],[-1.711485,43.319117,298.734],[-1.71236,43.31921,299.149],[-1.712536,43.319117,301.52],[-1.712495,43.318089,304.491],[-1.710964,43.31849,305.456],[-1.711836,43.317891,324.561],[-1.711556,43.317103,334.954],[-1.711905,43.316659,335.587],[-1.712533,43.31625,347.142],[-1.713331,43.315959,347.626],[-1.713834,43.316514,344.608],[-1.714374,43.316485,345.851],[-1.714894,43.316809,350.961],[-1.716765,43.317157,360.026],[-1.714869,43.315926,390.817],[-1.714389,43.315141,407.958],[-1.714316,43.31459,418.163],[-1.713932,43.314164,428.428],[-1.713627,43.313475,435.131],[-1.713323,43.312082,448.867],[-1.712643,43.311104,453.781],[-1.710844,43.310629,478.919],[-1.708765,43.31034,510.608],[-1.707006,43.309784,537.319],[-1.707294,43.309401,547.659],[-1.707529,43.308634,564.914],[-1.707373,43.307815,575.415],[-1.707014,43.307247,580.616],[-1.707324,43.306665,583.831],[-1.708297,43.305812,593.286],[-1.708694,43.305666,597.629],[-1.708347,43.305764,592.244],[-1.706324,43.307607,583.305],[-1.70518,43.308072,592.515],[-1.703619,43.309115,613.108],[-1.701243,43.309086,612.097],[-1.700213,43.30924,616.167],[-1.699624,43.309846,607.532],[-1.697608,43.311137,554.683],[-1.697558,43.311325,552.014],[-1.696898,43.31175,546.829],[-1.696443,43.311666,539.684],[-1.695994,43.311928,528.137],[-1.695009,43.311943,508.024],[-1.69387,43.311582,473.304],[-1.693113,43.312046,457.014],[-1.692944,43.311777,452.408],[-1.692268,43.311486,443.945],[-1.691369,43.311316,433.465],[-1.690962,43.311517,422.37],[-1.690526,43.311499,418.791],[-1.689671,43.311183,407.422],[-1.689546,43.310967,399.447],[-1.688075,43.310186,402.812],[-1.686977,43.309716,390.815],[-1.686677,43.309754,386.653]]}}]}