{"type":"FeatureCollection","features":[{"type":"Feature","properties":{"ruta_id":"34630995","nombre":"OJO de AITZULO desde ARAOTZ ruta circular","blog_url":"https://www.rutasporelmonte.com/ojo-de-aitzulo-desde-araotz/"},"geometry":{"type":"LineString","coordinates":[[-2.456018,42.991945,505.575],[-2.455998,42.992105,505.528],[-2.455603,42.992235,505.52],[-2.453609,42.991911,475.908],[-2.453189,42.992181,463.97],[-2.45453,42.992703,462.971],[-2.455253,42.992722,460.613],[-2.455398,42.992841,466.67],[-2.455325,42.992989,471.057],[-2.454132,42.993129,482.576],[-2.454116,42.993231,484.826],[-2.456115,42.993982,518.492],[-2.457468,42.994945,535.184],[-2.458334,42.995251,542.607],[-2.459244,42.995899,556.217],[-2.460001,42.996157,570.308],[-2.460679,42.997181,589.351],[-2.461812,42.99799,616.982],[-2.4618,42.999052,631.244],[-2.462837,42.998554,643.311],[-2.464475,42.998471,673.768],[-2.465268,42.99865,682.297],[-2.465846,42.99836,696.587],[-2.466204,42.998467,704.593],[-2.467038,42.998363,711.429],[-2.468253,42.997764,749.1],[-2.468294,42.998088,755.32],[-2.468578,42.998414,763.108],[-2.469479,42.998274,776.945],[-2.469698,42.998379,778.216],[-2.469762,42.998628,780.158],[-2.469542,42.999218,779.025],[-2.467752,43.001325,787.052],[-2.466638,43.002477,782.311],[-2.465244,43.003506,792.841],[-2.465141,43.003847,799.817],[-2.46533,43.003967,801.872],[-2.464869,43.004472,801.013],[-2.461799,43.006207,815.414],[-2.461274,43.007218,823.908],[-2.460194,43.007501,819.64],[-2.459703,43.007186,819.791],[-2.459138,43.007222,822.263],[-2.456457,43.008417,851.95],[-2.456263,43.009153,859.527],[-2.455606,43.009824,878.726],[-2.455461,43.010206,888.136],[-2.455827,43.0105,893.072],[-2.45614,43.011407,916.258],[-2.456439,43.011492,915.152],[-2.456155,43.011494,913.917],[-2.456182,43.011388,915.908],[-2.455771,43.011192,913.478],[-2.45544,43.011231,909.529],[-2.455047,43.01094,897.861],[-2.454914,43.010325,885.088],[-2.454183,43.010131,872.855],[-2.454098,43.00988,870.714],[-2.454235,43.009722,869.624],[-2.453964,43.009394,857.41],[-2.453466,43.009496,850.377],[-2.453359,43.00883,839.361],[-2.453038,43.008267,817.327],[-2.451654,43.007889,793.908],[-2.449891,43.008078,783.24],[-2.448972,43.008026,786.621],[-2.448502,43.007601,780.853],[-2.44791,43.007544,783.68],[-2.446939,43.006631,765.687],[-2.446167,43.004379,718.626],[-2.445814,43.003934,710.286],[-2.445318,43.002805,697.032],[-2.444449,43.001922,683.341],[-2.444011,43.001848,678.981],[-2.443608,43.002232,664.409],[-2.443297,43.002318,666.208],[-2.441673,43.002282,655.097],[-2.441732,43.002385,658.418],[-2.441356,43.002435,638.42],[-2.44147,43.002622,628.657],[-2.441214,43.002629,634.884],[-2.442284,43.000361,641.323],[-2.442271,42.999516,628.683],[-2.44205,42.998988,615.289],[-2.442326,42.998644,608.212],[-2.442381,42.998072,595.032],[-2.441995,42.997979,593.705],[-2.441794,42.997766,589.308],[-2.442569,42.99666,565.084],[-2.44326,42.996292,550.615],[-2.443993,42.994707,525.267],[-2.445414,42.994097,507.474],[-2.445643,42.993895,499.291],[-2.445647,42.993694,494.03],[-2.445954,42.993637,493.08],[-2.446306,42.993301,482.376],[-2.446718,42.993343,478.479],[-2.447561,42.993143,461.705],[-2.447905,42.993228,460.825],[-2.448275,42.993533,458.408],[-2.449398,42.993691,451.17],[-2.449817,42.993902,444.851],[-2.450013,42.993655,444.533],[-2.449673,42.993108,444.26],[-2.450029,42.992933,442.627],[-2.4519,42.99313,448.966],[-2.45251,42.99289,450.776],[-2.452639,42.99258,448.822],[-2.45354,42.991907,459.639],[-2.455662,42.992245,503.001],[-2.455998,42.992085,507.521],[-2.456063,42.991904,508.808]]}}]}