{"type":"FeatureCollection","features":[{"type":"Feature","properties":{"ruta_id":"35788829","nombre":"CUEVA de los CRISTINOS desde Larraona ruta circular","blog_url":"https://www.rutasporelmonte.com/cueva-de-los-cristinos-desde-larraona/"},"geometry":{"type":"LineString","coordinates":[[-2.25742,42.77857,771.722],[-2.25754,42.778513,771.762],[-2.257687,42.779054,771.708],[-2.257585,42.779582,811.708],[-2.256633,42.780269,817.155],[-2.256515,42.780623,824.797],[-2.256535,42.781607,830.619],[-2.256876,42.782006,838.54],[-2.256101,42.782148,845.18],[-2.255101,42.782014,856.75],[-2.254803,42.782182,865.154],[-2.256349,42.783513,900.511],[-2.257585,42.784035,916.928],[-2.257656,42.784426,927.289],[-2.258092,42.784959,934.617],[-2.258508,42.785154,941.708],[-2.260434,42.786826,983.935],[-2.26161,42.787522,996.717],[-2.261681,42.787709,991.739],[-2.261132,42.788055,1002.22],[-2.260635,42.788879,1002.59],[-2.260244,42.789207,1010.37],[-2.25901,42.7893,1014.984],[-2.258252,42.78861,1001.911],[-2.25675,42.788223,995.238],[-2.25608,42.788485,996.57],[-2.255492,42.789253,994.117],[-2.254626,42.789435,987.308],[-2.253247,42.79016,984.996],[-2.252289,42.790844,980.968],[-2.251565,42.791685,976.48],[-2.250292,42.792401,969.571],[-2.250064,42.792679,972.931],[-2.24966,42.793996,967.161],[-2.248845,42.794621,967.475],[-2.247956,42.795678,972.312],[-2.247935,42.796188,976.465],[-2.247679,42.796332,980.568],[-2.247268,42.796939,988.914],[-2.24716,42.797392,987.908],[-2.247342,42.797611,980.939],[-2.247245,42.79762,979.341],[-2.247555,42.797383,978.973],[-2.247275,42.797286,984.694],[-2.24726,42.796896,983.164],[-2.247958,42.796147,983.714],[-2.247922,42.795647,981.898],[-2.249593,42.793996,964.565],[-2.249903,42.792945,962.628],[-2.250168,42.79253,967.089],[-2.251544,42.791698,973.317],[-2.252211,42.790902,971.508],[-2.252951,42.790374,976.995],[-2.254423,42.789508,988.897],[-2.255509,42.789198,987.849],[-2.256036,42.788538,994.53],[-2.256706,42.78827,995.68],[-2.257912,42.788539,999.52],[-2.258921,42.788597,1005.854],[-2.259296,42.78848,1013.551],[-2.259638,42.788618,1008.659],[-2.260134,42.789161,1016.003],[-2.26038,42.789154,1017.623],[-2.261101,42.788105,1003.708],[-2.261586,42.787781,1003.468],[-2.261596,42.787632,1004.69],[-2.26121,42.787279,1001.332],[-2.260066,42.786517,985.233],[-2.257787,42.784602,943.923],[-2.257555,42.784,935.253],[-2.256369,42.783514,910.377],[-2.25475,42.782107,879.214],[-2.255121,42.781996,871.694],[-2.256248,42.782138,849.657],[-2.25677,42.781915,850.222],[-2.256473,42.781477,836.008],[-2.256459,42.780543,819.782],[-2.256822,42.780033,816.064],[-2.257206,42.779875,813.126],[-2.257406,42.779608,810.977],[-2.257652,42.779042,812.457],[-2.257539,42.778641,810.357]]}}]}