{"type":"FeatureCollection","features":[{"type":"Feature","properties":{"ruta_id":"37354068","nombre":"⛰️ MENDAUR - MENDIEDER - EKAITZA Ruta circular por el circo de Arantza desde el embalse","blog_url":"https://www.rutasporelmonte.com/mendaur-mendieder-y-ekaitza-ruta-circular/"},"geometry":{"type":"LineString","coordinates":[[-1.732368,43.152173,713.465],[-1.732136,43.152147,715.168],[-1.731521,43.153138,733.714],[-1.730884,43.153301,738.808],[-1.730521,43.15324,739.379],[-1.73028,43.152779,737.033],[-1.730006,43.152751,739.869],[-1.729902,43.153011,742.821],[-1.728109,43.154453,796.49],[-1.726868,43.154663,818.436],[-1.726325,43.155081,830.092],[-1.726555,43.155144,833.874],[-1.726466,43.155411,842.517],[-1.725452,43.155599,873.987],[-1.724838,43.15592,893.115],[-1.724379,43.156352,903.608],[-1.723897,43.157477,923.914],[-1.722288,43.157155,956.948],[-1.722372,43.156761,967.684],[-1.722203,43.156085,984.856],[-1.72231,43.155507,993.475],[-1.721881,43.154541,1014.791],[-1.72166,43.154648,1022.717],[-1.721348,43.155127,1035.559],[-1.720947,43.154709,1045.554],[-1.720885,43.154902,1049.656],[-1.720615,43.15473,1060.111],[-1.720069,43.155495,1070.608],[-1.719824,43.15501,1083.168],[-1.719332,43.155261,1088.052],[-1.719213,43.155504,1089.758],[-1.719572,43.155276,1088.91],[-1.719466,43.155228,1088.629],[-1.719548,43.155049,1087.675],[-1.719741,43.155102,1084.511],[-1.719825,43.154992,1083.153],[-1.719771,43.155264,1079.268],[-1.720074,43.155449,1072.742],[-1.720494,43.154698,1062.226],[-1.720905,43.154737,1048.508],[-1.721387,43.155063,1036.269],[-1.721647,43.154623,1022.543],[-1.721904,43.154612,1012.199],[-1.722297,43.155519,993.351],[-1.722159,43.156128,984.29],[-1.722275,43.156229,980.946],[-1.722351,43.157021,961.512],[-1.722206,43.157547,946.324],[-1.723002,43.1583,926.676],[-1.723558,43.158129,930.69],[-1.723755,43.15844,934.419],[-1.724647,43.158985,958.608],[-1.725132,43.15956,977.51],[-1.725247,43.159991,991.034],[-1.72573,43.160644,1021.75],[-1.726292,43.161102,1036.812],[-1.726165,43.161714,1044.841],[-1.726747,43.162038,1037.057],[-1.728559,43.161921,1016.523],[-1.730421,43.161524,1004.115],[-1.732862,43.160423,976.345],[-1.735239,43.159772,970.247],[-1.737062,43.158822,965.111],[-1.742673,43.15725,957.708],[-1.743715,43.156777,949.347],[-1.744115,43.156406,945.081],[-1.745471,43.155657,939.417],[-1.749161,43.154536,963.859],[-1.750465,43.154421,998.668],[-1.751083,43.154785,1006.964],[-1.751526,43.155386,1000.54],[-1.751834,43.155546,997.062],[-1.753853,43.156025,1006.454],[-1.752912,43.155714,1006.856],[-1.752207,43.155734,999.111],[-1.752261,43.155662,997.108],[-1.751508,43.155322,1001.518],[-1.750792,43.154508,1003.382],[-1.75034,43.154378,997.058],[-1.750138,43.153924,987.92],[-1.749502,43.153382,963.999],[-1.749098,43.152339,930.565],[-1.748595,43.152767,932.681],[-1.748481,43.15269,927.233],[-1.747966,43.152903,916.332],[-1.747814,43.153202,917.992],[-1.747585,43.153244,911.011],[-1.747325,43.15358,912.408],[-1.747075,43.153611,904.276],[-1.746163,43.153236,850.66],[-1.744309,43.153314,819.916],[-1.743501,43.1534,814.618],[-1.742997,43.153654,811.967],[-1.741534,43.153585,803.273],[-1.7406,43.154002,795.819],[-1.739821,43.15392,791.171],[-1.738423,43.154122,780.714],[-1.737711,43.15371,774.854],[-1.737061,43.153632,770.409],[-1.73666,43.153774,767.608],[-1.735951,43.153359,760.574],[-1.73551,43.152801,751.918],[-1.734689,43.152516,745.184],[-1.733882,43.152774,738.496],[-1.733754,43.15295,736.615],[-1.733799,43.153584,731.461],[-1.73365,43.153788,729.787],[-1.733351,43.153762,728.639],[-1.732905,43.152948,723.419],[-1.732705,43.152891,721.809],[-1.73238,43.152476,716.619],[-1.732412,43.152284,714.708]]}}]}