{"type":"FeatureCollection","features":[{"type":"Feature","properties":{"ruta_id":"37696129","nombre":"🌊 Cascada de XORROXIN ruta circular desde Erratzu","blog_url":"https://www.rutasporelmonte.com/cascada-de-xorroxin-circular-desde-erratzu/"},"geometry":{"type":"LineString","coordinates":[[-1.459347,43.183164,282.157],[-1.459186,43.183359,283.0],[-1.458972,43.183367,283.82],[-1.458886,43.183297,283.909],[-1.458682,43.183101,283.966],[-1.458478,43.182929,284.78],[-1.458296,43.182773,285.159],[-1.45821,43.182585,285.455],[-1.458006,43.18257,286.15],[-1.457555,43.182554,287.139],[-1.457191,43.182507,288.33],[-1.456826,43.182499,290.429],[-1.456633,43.182507,291.327],[-1.456397,43.182492,291.982],[-1.456182,43.182366,292.243],[-1.456182,43.182226,290.817],[-1.456193,43.182077,290.709],[-1.456246,43.181937,290.519],[-1.456236,43.181835,290.353],[-1.456128,43.181671,290.082],[-1.455935,43.181514,291.148],[-1.455764,43.181366,291.293],[-1.455474,43.181335,291.982],[-1.45527,43.18135,292.023],[-1.455013,43.181366,292.992],[-1.454862,43.181397,293.06],[-1.454755,43.181225,292.999],[-1.454626,43.180967,292.507],[-1.454498,43.180881,292.227],[-1.454465,43.180756,292.009],[-1.454476,43.180654,292.08],[-1.45454,43.180568,292.044],[-1.45454,43.18049,291.833],[-1.454433,43.180428,292.039],[-1.45438,43.180365,292.094],[-1.454476,43.18031,291.883],[-1.45453,43.180248,291.484],[-1.454583,43.180178,291.293],[-1.454626,43.180068,291.271],[-1.45468,43.179935,291.626],[-1.454605,43.179685,293.347],[-1.45454,43.179583,294.611],[-1.45454,43.179474,295.909],[-1.45454,43.179333,295.693],[-1.45454,43.179271,295.347],[-1.454422,43.179185,295.856],[-1.454197,43.179091,299.542],[-1.453993,43.178966,299.957],[-1.453811,43.178817,299.276],[-1.453629,43.178778,302.187],[-1.453478,43.178692,301.666],[-1.453339,43.178598,299.824],[-1.453253,43.178536,302.451],[-1.453151,43.178437,302.801],[-1.453038,43.178375,302.211],[-1.452883,43.178285,302.209],[-1.452824,43.178187,302.446],[-1.45277,43.178105,302.57],[-1.4527,43.178011,303.659],[-1.4527,43.177878,303.585],[-1.452663,43.177796,304.14],[-1.452652,43.177679,304.519],[-1.452652,43.177601,304.61],[-1.452663,43.177503,304.619],[-1.452631,43.177362,304.617],[-1.452604,43.177292,304.824],[-1.452577,43.177214,304.904],[-1.452604,43.17712,304.214],[-1.452636,43.177077,303.509],[-1.452652,43.177022,303.033],[-1.452658,43.176956,302.697],[-1.452658,43.176901,302.346],[-1.452652,43.176831,301.972],[-1.452658,43.17676,301.327],[-1.452658,43.176709,300.966],[-1.452609,43.17667,301.727],[-1.452529,43.176565,301.956],[-1.452438,43.176487,302.564],[-1.452341,43.176397,302.712],[-1.452245,43.176311,302.832],[-1.452143,43.176225,304.005],[-1.452073,43.176178,305.309],[-1.45203,43.176131,305.542],[-1.451998,43.176068,305.486],[-1.451992,43.176006,304.555],[-1.451949,43.175928,304.021],[-1.45189,43.175857,305.416],[-1.451842,43.175787,307.765],[-1.451746,43.175693,312.676],[-1.451703,43.175615,314.695],[-1.451681,43.175521,314.953],[-1.451697,43.175459,313.436],[-1.451724,43.175396,311.617],[-1.451724,43.17533,310.818],[-1.451719,43.175208,308.509],[-1.451713,43.175146,307.144],[-1.451756,43.175111,305.328],[-1.451848,43.175068,302.557],[-1.451944,43.175056,300.643],[-1.452035,43.175017,300.578],[-1.4521,43.174989,300.697],[-1.452186,43.174935,301.198],[-1.452239,43.174876,301.717],[-1.452277,43.174794,302.615],[-1.452314,43.174704,303.583],[-1.452325,43.174626,304.225],[-1.452346,43.17452,305.217],[-1.452352,43.17445,305.809],[-1.452368,43.174352,306.699],[-1.4524,43.174286,307.383],[-1.452464,43.174243,308.362],[-1.45254,43.1742,309.088],[-1.452641,43.174145,309.533],[-1.452781,43.174086,310.062],[-1.452958,43.174,310.423],[-1.453033,43.173942,310.792],[-1.453156,43.173887,311.43],[-1.453285,43.173824,311.845],[-1.453414,43.173754,312.047],[-1.453521,43.173672,312.011],[-1.453548,43.173637,312.009],[-1.453612,43.173562,312.275],[-1.453741,43.173457,312.889],[-1.453806,43.17339,312.948],[-1.453956,43.173269,313.114],[-1.45402,43.173207,313.249],[-1.454068,43.17316,313.438],[-1.454144,43.173101,313.859],[-1.454203,43.173035,314.078],[-1.454262,43.172976,314.156],[-1.454347,43.172917,314.349],[-1.45438,43.172859,314.502],[-1.454363,43.172765,314.722],[-1.454321,43.172671,314.409],[-1.454267,43.172644,314.135],[-1.454186,43.172566,313.489],[-1.454101,43.172515,312.848],[-1.453977,43.17244,311.674],[-1.453913,43.172397,310.749],[-1.453795,43.172347,309.438],[-1.453698,43.17228,308.829],[-1.453575,43.172241,308.948],[-1.453494,43.172198,309.146],[-1.453441,43.17219,309.163],[-1.453371,43.172179,309.344],[-1.453258,43.172179,310.218],[-1.453162,43.172198,311.109],[-1.453055,43.172237,311.797],[-1.453022,43.172186,313.471],[-1.453001,43.172073,315.52],[-1.452974,43.171999,317.556],[-1.452937,43.17194,319.771],[-1.452845,43.171858,323.45],[-1.452829,43.171733,324.191],[-1.45276,43.171659,326.85],[-1.452722,43.171553,328.858],[-1.452647,43.171487,332.788],[-1.452652,43.171373,332.624],[-1.452674,43.171318,330.726],[-1.45269,43.171256,329.209],[-1.452674,43.171201,329.329],[-1.452679,43.171135,328.343],[-1.452717,43.171057,325.972],[-1.452733,43.170963,325.188],[-1.452743,43.170865,324.843],[-1.452717,43.170802,325.642],[-1.452658,43.170701,327.613],[-1.452577,43.170662,329.362],[-1.452448,43.170587,332.03],[-1.452373,43.170537,334.318],[-1.452346,43.170482,336.498],[-1.452314,43.170427,338.617],[-1.452266,43.170372,340.909],[-1.45218,43.170318,343.392],[-1.452073,43.170267,345.256],[-1.45203,43.170216,346.025],[-1.452003,43.17011,347.331],[-1.451971,43.16997,348.756],[-1.45196,43.169919,348.835],[-1.451928,43.169845,349.136],[-1.451912,43.169782,349.395],[-1.451885,43.169692,349.873],[-1.451869,43.169641,350.179],[-1.451858,43.169575,350.505],[-1.451842,43.169446,351.125],[-1.451842,43.169407,351.309],[-1.451831,43.169258,352.258],[-1.451799,43.169164,353.122],[-1.451772,43.169086,353.271],[-1.451746,43.169008,353.337],[-1.451703,43.168898,353.562],[-1.451665,43.168836,353.641],[-1.45159,43.168801,354.172],[-1.451531,43.168746,354.411],[-1.451515,43.168664,354.489],[-1.451542,43.168574,354.045],[-1.451558,43.168472,354.547],[-1.451628,43.168386,353.611],[-1.451628,43.168343,353.809],[-1.451681,43.168285,353.145],[-1.451703,43.168202,353.429],[-1.451724,43.16807,354.178],[-1.451746,43.167929,354.314],[-1.451746,43.167827,354.719],[-1.451772,43.167753,354.568],[-1.451821,43.167698,353.969],[-1.45188,43.16762,353.458],[-1.451955,43.16755,352.776],[-1.451982,43.167475,352.131],[-1.452014,43.167417,350.761],[-1.452025,43.167319,349.007],[-1.452035,43.167256,347.909],[-1.452008,43.167198,347.544],[-1.451971,43.167123,347.158],[-1.451928,43.16703,346.567],[-1.451885,43.166967,346.433],[-1.451874,43.16692,346.228],[-1.451831,43.166885,347.057],[-1.451858,43.166822,346.428],[-1.451885,43.166775,345.797],[-1.451966,43.166725,344.015],[-1.452003,43.166693,343.473],[-1.452148,43.166627,341.885],[-1.452261,43.166592,340.113],[-1.452352,43.166611,338.109],[-1.452432,43.166615,336.378],[-1.452502,43.166599,334.792],[-1.452545,43.166541,333.961],[-1.452631,43.166416,332.277],[-1.452674,43.166294,332.312],[-1.452679,43.166193,333.091],[-1.452684,43.166091,333.852],[-1.452695,43.166017,334.111],[-1.452695,43.165935,334.639],[-1.4527,43.165872,334.974],[-1.452706,43.165794,335.056],[-1.452706,43.165731,335.021],[-1.452717,43.165677,334.709],[-1.452733,43.165634,334.378],[-1.452754,43.165567,333.642],[-1.452781,43.165462,333.941],[-1.452797,43.165423,334.027],[-1.452856,43.165407,332.842],[-1.452878,43.165364,332.781],[-1.45292,43.165333,331.992],[-1.453022,43.165305,329.611],[-1.453135,43.16529,328.499],[-1.453199,43.165294,327.993],[-1.453156,43.165258,328.665],[-1.453146,43.165153,330.221],[-1.453178,43.165051,331.109],[-1.453156,43.164969,333.04],[-1.453199,43.164867,334.854],[-1.453242,43.164785,336.193],[-1.453274,43.164691,337.889],[-1.453339,43.164578,339.624],[-1.453387,43.164551,340.093],[-1.453409,43.164476,341.934],[-1.453484,43.16439,343.093],[-1.4535,43.164312,343.751],[-1.45357,43.164164,344.567],[-1.45358,43.164113,345.081],[-1.453602,43.16407,345.219],[-1.453645,43.163988,345.709],[-1.453709,43.163925,345.987],[-1.453752,43.163839,346.461],[-1.453779,43.163741,347.04],[-1.453848,43.163604,346.836],[-1.45387,43.163534,347.261],[-1.453907,43.163448,347.57],[-1.453945,43.163362,347.731],[-1.453988,43.163292,347.73],[-1.454009,43.163167,348.738],[-1.454036,43.163073,349.161],[-1.454042,43.162991,350.021],[-1.454074,43.162932,350.013],[-1.454074,43.16285,351.009],[-1.454079,43.162799,351.627],[-1.454133,43.162674,350.531],[-1.45416,43.162525,350.16],[-1.454186,43.162439,350.666],[-1.454208,43.162345,351.771],[-1.454256,43.162236,352.88],[-1.454251,43.162134,354.121],[-1.454272,43.162064,354.53],[-1.454299,43.161986,354.858],[-1.454337,43.1619,354.945],[-1.454358,43.161829,355.447],[-1.45438,43.161735,356.011],[-1.454422,43.161634,356.309],[-1.454444,43.161595,356.385],[-1.454492,43.161524,356.139],[-1.45453,43.161438,356.618],[-1.454573,43.161364,356.654],[-1.454573,43.161297,357.439],[-1.454589,43.161219,357.648],[-1.454621,43.161137,356.939],[-1.454648,43.161071,356.918],[-1.454675,43.161,357.696],[-1.454728,43.160914,357.516],[-1.454771,43.160836,358.276],[-1.454798,43.160762,357.613],[-1.454777,43.160582,358.909],[-1.454734,43.160555,359.872],[-1.45453,43.160465,365.016],[-1.454422,43.160386,364.655],[-1.454235,43.160347,367.381],[-1.454133,43.160312,367.876],[-1.45395,43.160277,370.455],[-1.45373,43.160203,372.276],[-1.453629,43.160148,372.455],[-1.453484,43.160062,376.773],[-1.453387,43.159933,379.487],[-1.453366,43.159909,380.542],[-1.453323,43.159812,382.026],[-1.453317,43.159651,378.809],[-1.453409,43.159417,367.219],[-1.453468,43.159319,365.123],[-1.453564,43.159159,362.562],[-1.453639,43.159108,361.928],[-1.453698,43.159162,361.753],[-1.453688,43.159041,362.742],[-1.453736,43.158936,363.463],[-1.453784,43.158803,363.112],[-1.453784,43.158635,363.19],[-1.453779,43.158556,363.721],[-1.453773,43.158443,364.741],[-1.453779,43.158373,365.205],[-1.453773,43.158549,363.809],[-1.453773,43.158728,363.323],[-1.45373,43.158936,363.457],[-1.453666,43.159112,362.046],[-1.453602,43.159127,361.972],[-1.453516,43.159256,363.637],[-1.453414,43.159413,367.066],[-1.453344,43.159569,374.497],[-1.453323,43.159726,381.426],[-1.45335,43.159882,381.234],[-1.453414,43.160003,378.567],[-1.453537,43.160089,374.781],[-1.453725,43.160195,372.019],[-1.453859,43.16025,371.409],[-1.454052,43.1603,369.217],[-1.454256,43.160355,367.211],[-1.454401,43.160375,364.74],[-1.454594,43.160465,362.996],[-1.454691,43.160519,360.781],[-1.454766,43.160558,359.22],[-1.454809,43.160719,357.521],[-1.454782,43.160875,356.65],[-1.454712,43.160953,357.118],[-1.454632,43.161106,356.731],[-1.454583,43.16127,357.361],[-1.454498,43.161477,356.807],[-1.454406,43.161657,356.309],[-1.454304,43.161986,354.784],[-1.454256,43.162185,353.458],[-1.454235,43.162341,351.317],[-1.45416,43.162494,350.333],[-1.454122,43.162674,350.918],[-1.454063,43.162881,351.027],[-1.454052,43.163084,348.638],[-1.453993,43.163288,347.747],[-1.453886,43.163499,347.395],[-1.4538,43.16371,346.944],[-1.453688,43.163925,346.105],[-1.453618,43.164038,345.315],[-1.453511,43.164269,344.109],[-1.453473,43.16441,342.925],[-1.453376,43.164535,340.579],[-1.453253,43.164699,338.048],[-1.453178,43.16491,334.194],[-1.453135,43.16509,331.239],[-1.453151,43.165282,328.368],[-1.453446,43.165575,325.969],[-1.453607,43.165724,325.498],[-1.453822,43.165978,325.266],[-1.453822,43.165974,325.378],[-1.453822,43.165974,325.333],[-1.453894,43.166035,325.326],[-1.453958,43.166096,325.809],[-1.454026,43.166141,326.398],[-1.45409,43.166188,326.752],[-1.454168,43.166231,327.221],[-1.454227,43.166268,328.337],[-1.454294,43.166301,329.782],[-1.454347,43.166336,330.821],[-1.45439,43.16645,331.422],[-1.454433,43.166534,332.291],[-1.454498,43.166632,333.759],[-1.45454,43.166729,334.141],[-1.454618,43.166815,334.981],[-1.454734,43.166935,335.409],[-1.454806,43.167036,336.709],[-1.454841,43.167075,337.475],[-1.454895,43.167122,338.419],[-1.454935,43.167161,339.018],[-1.45498,43.167216,339.764],[-1.455023,43.167259,340.729],[-1.455058,43.1673,341.718],[-1.455093,43.167406,343.029],[-1.455141,43.167511,344.638],[-1.45519,43.167611,346.246],[-1.455233,43.167685,347.553],[-1.455289,43.167762,349.204],[-1.455321,43.167838,349.914],[-1.455361,43.167936,350.609],[-1.45542,43.167963,351.736],[-1.455485,43.167988,352.94],[-1.455557,43.168037,354.149],[-1.455597,43.168092,354.215],[-1.455552,43.168194,352.97],[-1.455541,43.168287,352.199],[-1.455557,43.168524,350.03],[-1.455549,43.168661,348.499],[-1.455573,43.168854,347.657],[-1.455589,43.168946,347.443],[-1.4556,43.16909,346.764],[-1.455605,43.169178,346.41],[-1.455616,43.169274,346.609],[-1.455638,43.169444,346.865],[-1.455656,43.16952,347.089],[-1.455702,43.169602,347.658],[-1.455702,43.169702,347.284],[-1.455718,43.169805,346.799],[-1.455707,43.169962,345.548],[-1.455713,43.170101,344.769],[-1.455713,43.17022,344.168],[-1.455721,43.170327,343.666],[-1.455734,43.170468,342.684],[-1.455739,43.170554,342.007],[-1.455758,43.17065,340.717],[-1.455798,43.170744,339.809],[-1.455847,43.170853,338.969],[-1.455954,43.171006,338.473],[-1.456026,43.171092,338.632],[-1.456067,43.171201,337.928],[-1.456142,43.171338,337.223],[-1.456195,43.171463,336.952],[-1.456233,43.171569,337.183],[-1.45623,43.171696,336.812],[-1.456249,43.171793,337.24],[-1.456241,43.171895,337.338],[-1.456241,43.172065,337.27],[-1.456254,43.172184,337.117],[-1.456262,43.172323,336.809],[-1.456273,43.172456,336.554],[-1.456405,43.172589,337.378],[-1.45637,43.172675,335.897],[-1.456485,43.172786,336.633],[-1.456603,43.172906,336.278],[-1.456662,43.172976,335.687],[-1.456721,43.17305,335.158],[-1.456794,43.173115,335.027],[-1.456871,43.1732,334.835],[-1.456941,43.173259,335.371],[-1.45703,43.173329,335.041],[-1.457089,43.173403,334.415],[-1.457158,43.173477,334.109],[-1.45725,43.173589,333.558],[-1.45748,43.173744,333.442],[-1.457673,43.174057,331.671],[-1.457963,43.174244,331.437],[-1.458145,43.174526,330.722],[-1.458392,43.174737,330.041],[-1.458564,43.174964,329.392],[-1.458821,43.175308,328.221],[-1.459004,43.175613,327.289],[-1.459154,43.17598,326.147],[-1.459293,43.176426,323.929],[-1.459368,43.176801,321.521],[-1.459208,43.177184,319.309],[-1.459057,43.17752,315.375],[-1.458853,43.177903,310.119],[-1.458639,43.178216,306.478],[-1.458263,43.178607,301.824],[-1.458027,43.178818,300.379],[-1.457834,43.178795,300.698],[-1.457598,43.178795,300.539],[-1.457405,43.178795,299.858],[-1.45704,43.178935,297.216],[-1.456783,43.179006,295.549],[-1.456654,43.179279,292.602],[-1.456633,43.179616,290.622],[-1.456493,43.179999,286.009],[-1.456364,43.180405,288.545],[-1.456268,43.180796,289.089],[-1.456118,43.180999,289.638],[-1.456493,43.181234,289.374],[-1.456836,43.181429,288.489],[-1.457158,43.181617,287.238],[-1.457587,43.181875,286.779],[-1.457888,43.182063,286.198],[-1.45807,43.182344,285.426],[-1.458274,43.182711,285.275],[-1.458607,43.183063,284.128],[-1.458886,43.183306,283.92],[-1.459079,43.18336,283.409],[-1.459143,43.183282,282.998],[-1.459197,43.18318,282.462]]}}]}