{"type":"FeatureCollection","features":[{"type":"Feature","properties":{"ruta_id":"38621025","nombre":"⛰️ AUZA - AUTZA (1305 m) ruta circular desde Venta de IZPEGI","blog_url":"https://www.rutasporelmonte.com/auza-ruta-circular-desde-izpegi/"},"geometry":{"type":"LineString","coordinates":[[-1.401752,43.1756,668.959],[-1.40199,43.17578,668.903],[-1.402009,43.175348,668.923],[-1.40176,43.17518,668.508],[-1.402097,43.175094,673.098],[-1.402398,43.174534,688.893],[-1.402747,43.174556,699.141],[-1.402862,43.174333,694.287],[-1.404003,43.173964,703.646],[-1.404467,43.173487,702.485],[-1.404782,43.172919,702.787],[-1.404771,43.171324,705.23],[-1.405189,43.170488,725.869],[-1.404228,43.169389,786.004],[-1.403861,43.169282,778.124],[-1.403574,43.168599,799.708],[-1.403161,43.168214,815.729],[-1.403203,43.16738,802.364],[-1.402978,43.166827,781.622],[-1.403215,43.16644,765.848],[-1.403313,43.165805,777.817],[-1.403773,43.165213,747.566],[-1.403734,43.164419,783.568],[-1.402721,43.163847,851.571],[-1.402801,43.163486,877.223],[-1.403387,43.162507,861.583],[-1.404132,43.161644,841.511],[-1.404169,43.160729,813.008],[-1.404806,43.160542,797.955],[-1.404938,43.160153,786.01],[-1.405693,43.159181,793.598],[-1.40641,43.15746,789.954],[-1.406901,43.156824,765.443],[-1.407523,43.155537,826.212],[-1.4092,43.154817,866.374],[-1.409043,43.154631,876.057],[-1.409078,43.154411,868.018],[-1.409315,43.154208,864.098],[-1.409287,43.153905,880.017],[-1.409535,43.153635,900.008],[-1.409859,43.153483,924.084],[-1.410361,43.153558,956.039],[-1.411616,43.152769,941.917],[-1.412071,43.152642,960.863],[-1.412499,43.152173,995.352],[-1.413278,43.151673,1044.331],[-1.413834,43.150912,1066.563],[-1.414574,43.150587,1086.496],[-1.414983,43.15012,1105.213],[-1.416075,43.149979,1131.943],[-1.416848,43.150195,1164.507],[-1.417126,43.150126,1171.608],[-1.417374,43.150858,1184.094],[-1.417392,43.152062,1194.259],[-1.417547,43.152527,1198.937],[-1.417778,43.152704,1205.383],[-1.418195,43.153507,1224.352],[-1.418585,43.153268,1243.461],[-1.419673,43.151786,1293.643],[-1.420359,43.151272,1300.466],[-1.420007,43.151258,1302.848],[-1.421555,43.151577,1292.661],[-1.420881,43.151516,1294.717],[-1.419654,43.151099,1300.108],[-1.419264,43.150494,1266.037],[-1.419033,43.150395,1262.882],[-1.418671,43.150462,1253.74],[-1.418101,43.150298,1240.286],[-1.417722,43.150463,1219.375],[-1.417332,43.149986,1206.974],[-1.416793,43.150148,1181.246],[-1.41655,43.149976,1167.269],[-1.416335,43.150169,1155.687],[-1.415809,43.14997,1139.042],[-1.414271,43.150103,1121.926],[-1.413454,43.15053,1102.108],[-1.41284,43.150441,1104.061],[-1.413187,43.150598,1105.816],[-1.413144,43.150874,1097.574],[-1.41346,43.150991,1086.33],[-1.413366,43.15163,1064.629],[-1.41211,43.152658,1022.538],[-1.411821,43.15268,1007.65],[-1.410314,43.153541,963.853],[-1.409486,43.153675,939.815],[-1.409564,43.153838,934.365],[-1.409318,43.153908,924.011],[-1.409291,43.154196,913.908],[-1.409062,43.154406,911.414],[-1.409165,43.154907,882.659],[-1.408953,43.154829,882.347],[-1.409009,43.155029,881.133],[-1.408815,43.155168,865.152],[-1.408211,43.155205,836.771],[-1.406805,43.155717,826.113],[-1.405297,43.155598,832.446],[-1.405379,43.155402,827.784],[-1.405285,43.155358,831.507],[-1.404774,43.155679,833.717],[-1.40361,43.155722,836.408],[-1.403938,43.155968,827.211],[-1.403803,43.15646,828.216],[-1.404239,43.156598,825.324],[-1.404509,43.15693,807.54],[-1.404266,43.15729,804.919],[-1.404714,43.158209,804.418],[-1.404847,43.159001,778.56],[-1.404697,43.159423,794.543],[-1.402988,43.16119,795.284],[-1.400985,43.16171,765.107],[-1.40064,43.161933,757.217],[-1.400461,43.162479,758.108],[-1.400097,43.163019,753.211],[-1.399707,43.163312,756.266],[-1.399527,43.163973,758.974],[-1.399158,43.164428,751.07],[-1.401022,43.165332,746.049],[-1.401554,43.165409,752.898],[-1.401797,43.165795,758.47],[-1.401322,43.16678,748.523],[-1.4013,43.167264,749.583],[-1.400387,43.16789,731.325],[-1.400827,43.168097,724.917],[-1.401072,43.168411,732.108],[-1.401032,43.168667,733.981],[-1.401286,43.168789,724.446],[-1.401438,43.16957,724.924],[-1.400964,43.170001,732.83],[-1.40084,43.170489,720.789],[-1.400449,43.17072,718.358],[-1.40043,43.170984,714.27],[-1.399731,43.171118,705.223],[-1.399382,43.171387,707.355],[-1.399402,43.171766,706.907],[-1.398508,43.172225,679.717],[-1.398471,43.172616,676.708],[-1.399494,43.17417,664.478],[-1.400348,43.17452,650.043],[-1.401426,43.174746,653.951],[-1.401725,43.175147,650.187],[-1.401712,43.175549,661.236]]}}]}