{"type":"FeatureCollection","features":[{"type":"Feature","properties":{"ruta_id":"38884439","nombre":"⛰️ ARATZ desde Beunda pasando por el TÚNEL DE SAN ADRIÁN","blog_url":"https://www.rutasporelmonte.com/aratz-por-tunel-de-san-adrian/"},"geometry":{"type":"LineString","coordinates":[[-2.272831,42.930611,886.246],[-2.27292,42.930804,886.288],[-2.272816,42.930621,886.216],[-2.274446,42.931109,872.708],[-2.275105,42.93097,878.427],[-2.275846,42.931279,870.282],[-2.27656,42.931379,861.512],[-2.277018,42.931023,886.282],[-2.277125,42.930429,896.058],[-2.278719,42.932109,914.968],[-2.279356,42.932342,944.287],[-2.28011,42.933048,941.723],[-2.282015,42.933597,959.621],[-2.282305,42.933591,962.141],[-2.282656,42.933348,966.005],[-2.283076,42.933661,978.908],[-2.283342,42.934159,969.865],[-2.284138,42.934262,981.34],[-2.285536,42.93494,980.48],[-2.286406,42.934949,1000.09],[-2.287032,42.935115,1000.216],[-2.287291,42.935327,998.556],[-2.28775,42.935344,998.125],[-2.288504,42.935781,989.861],[-2.289492,42.936103,973.391],[-2.290369,42.936024,984.881],[-2.291896,42.936319,958.819],[-2.293161,42.936035,951.408],[-2.295222,42.93617,922.952],[-2.296324,42.93598,915.217],[-2.296961,42.93561,910.567],[-2.297719,42.935568,903.887],[-2.29893,42.935671,893.973],[-2.300648,42.93604,882.163],[-2.301078,42.935841,891.692],[-2.301206,42.93548,876.728],[-2.30251,42.935374,899.181],[-2.304202,42.934748,892.761],[-2.304601,42.935037,889.717],[-2.304581,42.935195,888.208],[-2.305836,42.935816,910.891],[-2.305612,42.93593,919.086],[-2.305652,42.936022,918.546],[-2.30673,42.936373,930.696],[-2.306897,42.936534,937.722],[-2.307059,42.937399,947.292],[-2.309141,42.937625,972.361],[-2.310984,42.937513,989.427],[-2.311412,42.93705,987.636],[-2.31332,42.936016,1023.817],[-2.314593,42.935818,1033.118],[-2.315095,42.935446,1044.308],[-2.315347,42.935431,1055.056],[-2.315457,42.935207,1053.331],[-2.316186,42.935106,1040.021],[-2.317345,42.936178,1101.571],[-2.317914,42.936141,1097.697],[-2.318544,42.935741,1110.057],[-2.318807,42.935446,1118.876],[-2.318751,42.935059,1131.192],[-2.318995,42.934765,1126.083],[-2.31882,42.934404,1122.525],[-2.318925,42.934034,1129.817],[-2.318751,42.93357,1131.908],[-2.318527,42.9336,1127.591],[-2.318683,42.933384,1133.086],[-2.318614,42.933152,1138.126],[-2.318066,42.932134,1162.866],[-2.317391,42.931791,1176.762],[-2.316607,42.932116,1196.812],[-2.315583,42.931757,1214.191],[-2.31486,42.931373,1238.787],[-2.314319,42.930837,1259.393],[-2.312717,42.93003,1291.365],[-2.311362,42.928545,1319.321],[-2.31016,42.926629,1329.208],[-2.309444,42.926141,1334.892],[-2.308193,42.924681,1391.227],[-2.307904,42.92413,1418.887],[-2.307222,42.923524,1452.477],[-2.307053,42.923097,1469.773],[-2.306797,42.923033,1476.613],[-2.306418,42.922209,1461.822],[-2.305971,42.921661,1475.278],[-2.305337,42.921315,1483.453],[-2.304764,42.920707,1491.504],[-2.304676,42.920893,1489.114],[-2.304385,42.920649,1481.108],[-2.304208,42.920792,1480.748],[-2.304343,42.921279,1474.333],[-2.304122,42.921384,1466.143],[-2.304213,42.921591,1458.653],[-2.303888,42.922337,1428.559],[-2.304748,42.923297,1400.439],[-2.304779,42.924163,1380.368],[-2.30503,42.924733,1375.944],[-2.305765,42.925222,1359.361],[-2.306571,42.926156,1341.921],[-2.30658,42.926375,1344.013],[-2.306869,42.926569,1328.808],[-2.3075,42.926615,1328.919],[-2.307926,42.926567,1328.574],[-2.308446,42.926229,1338.354],[-2.308811,42.926359,1340.614],[-2.309863,42.926382,1328.01],[-2.310228,42.926614,1322.64],[-2.310243,42.926891,1322.819],[-2.310889,42.927922,1333.375],[-2.312894,42.930236,1282.478],[-2.313241,42.930302,1273.133],[-2.3137,42.930627,1261.526],[-2.314311,42.930754,1252.408],[-2.315085,42.931579,1222.63],[-2.315733,42.931845,1212.925],[-2.316622,42.93214,1196.075],[-2.316963,42.931897,1199.215],[-2.317407,42.931829,1181.981],[-2.318068,42.932156,1172.431],[-2.318619,42.932995,1142.14],[-2.318938,42.934262,1126.476],[-2.318915,42.934647,1117.184],[-2.319063,42.934827,1115.707],[-2.318822,42.935266,1105.217],[-2.318841,42.935522,1099.808],[-2.31818,42.936042,1093.131],[-2.317694,42.936161,1106.626],[-2.317278,42.93612,1096.636],[-2.316653,42.935779,1065.916],[-2.316294,42.935148,1084.132],[-2.316064,42.93504,1081.982],[-2.316147,42.934773,1065.951],[-2.315931,42.934724,1053.997],[-2.316543,42.93494,1041.958],[-2.315914,42.935005,1045.952],[-2.314787,42.935719,1037.117],[-2.313442,42.936077,1018.508],[-2.312978,42.936468,1043.958],[-2.311783,42.937006,1019.873],[-2.310915,42.9381,1004.813],[-2.309783,42.938278,1011.033],[-2.308828,42.938903,1016.899],[-2.307603,42.938324,978.719],[-2.307322,42.93805,968.458],[-2.307223,42.937478,953.134],[-2.306869,42.936993,945.925],[-2.306783,42.936391,936.726],[-2.305662,42.936058,916.508],[-2.305826,42.935896,913.408],[-2.304444,42.934972,876.925],[-2.303501,42.935255,880.14],[-2.303224,42.935157,874.95],[-2.301538,42.935523,875.32],[-2.301202,42.935494,873.016],[-2.300473,42.935081,859.836],[-2.29972,42.935289,854.515],[-2.297229,42.935056,867.361],[-2.296238,42.935279,855.335],[-2.295374,42.935245,855.486],[-2.294229,42.934761,848.714],[-2.293829,42.934313,849.908],[-2.293559,42.934257,847.966],[-2.292795,42.933662,838.761],[-2.292264,42.933488,839.361],[-2.290834,42.932526,842.141],[-2.289184,42.932616,848.087],[-2.288418,42.931888,850.377],[-2.287751,42.931635,848.816],[-2.286237,42.931716,841.942],[-2.283526,42.93051,812.459],[-2.282123,42.930135,823.803],[-2.281655,42.930234,826.623],[-2.281206,42.930124,831.908],[-2.280954,42.92972,836.038],[-2.280504,42.929546,840.863],[-2.277862,42.929553,852.833],[-2.277105,42.929234,855.563],[-2.276175,42.928435,859.269],[-2.275825,42.928599,862.169],[-2.275486,42.92904,859.558],[-2.276261,42.930459,852.064],[-2.276186,42.931066,835.469],[-2.275678,42.931204,853.304],[-2.275156,42.931046,862.424],[-2.274473,42.931097,869.008],[-2.272744,42.930634,877.069]]}}]}