{"type":"FeatureCollection","features":[{"type":"Feature","properties":{"ruta_id":"40027630","nombre":"🏞️ EMBALSES de LEURTZA ruta circular","blog_url":"https://www.rutasporelmonte.com/embalses-de-leurtza-paseo-por-sendero-circular/"},"geometry":{"type":"LineString","coordinates":[[-1.715517,43.071797,740.561],[-1.715337,43.071921,740.521],[-1.716423,43.070984,741.013],[-1.717024,43.07076,740.808],[-1.718769,43.068602,727.85],[-1.718884,43.068735,728.166],[-1.719371,43.068504,726.256],[-1.719954,43.067918,735.158],[-1.720109,43.067579,736.253],[-1.719891,43.067367,729.362],[-1.720164,43.067433,734.589],[-1.720819,43.066449,743.086],[-1.720621,43.066125,732.393],[-1.720347,43.065996,719.565],[-1.720383,43.065367,731.221],[-1.721492,43.063703,767.908],[-1.721585,43.063349,767.693],[-1.721099,43.063718,747.639],[-1.719859,43.064259,754.269],[-1.719163,43.065835,747.431],[-1.718549,43.066503,747.376],[-1.71807,43.066555,743.445],[-1.717824,43.06638,741.062],[-1.717469,43.065111,732.679],[-1.717093,43.065401,744.284],[-1.716628,43.066149,738.507],[-1.716278,43.066371,728.117],[-1.716102,43.066737,734.208],[-1.716138,43.067249,764.532],[-1.715891,43.067643,758.898],[-1.716455,43.06788,732.848],[-1.716945,43.068484,722.91],[-1.717971,43.068928,729.695],[-1.71795,43.069578,729.274],[-1.718019,43.068915,725.621],[-1.716957,43.068497,731.398],[-1.716322,43.06781,735.783],[-1.715892,43.067677,729.025],[-1.715566,43.067917,732.217],[-1.715671,43.067858,729.708],[-1.715,43.067923,746.292],[-1.714006,43.06729,748.298],[-1.712882,43.069028,750.368],[-1.711954,43.06991,748.97],[-1.712131,43.070177,751.275],[-1.711986,43.070695,749.794],[-1.711801,43.071026,748.061],[-1.711195,43.071427,749.978],[-1.710996,43.072053,746.479],[-1.711028,43.072504,742.805],[-1.711055,43.072411,737.825],[-1.711762,43.072551,718.508],[-1.712395,43.073122,707.371],[-1.713835,43.072289,724.167],[-1.714981,43.072121,715.977],[-1.715497,43.071858,715.559]]}}]}