{"type":"FeatureCollection","features":[{"type":"Feature","properties":{"ruta_id":"40314036","nombre":"⛰️ SAN MIGUEL de ARALAR desde UHARTE ARAKIL ruta circular","blog_url":"https://www.rutasporelmonte.com/san-miguel-de-aralar-ruta-desde-uharte-arakil/"},"geometry":{"type":"LineString","coordinates":[[-1.968616,42.923174,460.011],[-1.968541,42.923198,460.021],[-1.968473,42.923206,460.003],[-1.968403,42.923221,460.008],[-1.968336,42.923237,460.015],[-1.968275,42.923252,460.071],[-1.968207,42.923264,460.054],[-1.968143,42.923287,460.092],[-1.968073,42.923302,460.035],[-1.968016,42.923322,460.061],[-1.967954,42.923322,460.084],[-1.967883,42.923322,460.077],[-1.967821,42.923328,460.012],[-1.967754,42.923344,460.032],[-1.967687,42.923372,460.005],[-1.967633,42.923394,459.808],[-1.96757,42.92342,459.745],[-1.967513,42.923441,459.241],[-1.967429,42.923457,457.714],[-1.967361,42.923483,456.832],[-1.967303,42.923515,455.135],[-1.96725,42.923562,454.151],[-1.967193,42.923597,453.514],[-1.967146,42.923628,453.977],[-1.967079,42.92365,452.663],[-1.967008,42.923686,451.844],[-1.966951,42.92372,450.518],[-1.966903,42.923753,450.108],[-1.966856,42.923793,449.51],[-1.966809,42.923836,449.576],[-1.966759,42.923875,450.369],[-1.9667,42.923898,450.097],[-1.966652,42.923931,449.87],[-1.966598,42.923964,449.786],[-1.966536,42.923986,451.249],[-1.966474,42.924006,452.572],[-1.966413,42.92403,452.593],[-1.966356,42.924055,452.565],[-1.966301,42.924083,452.921],[-1.966233,42.924096,453.508],[-1.966172,42.924107,455.113],[-1.966112,42.924122,456.039],[-1.966049,42.924145,455.822],[-1.965971,42.924155,456.57],[-1.965904,42.924162,458.123],[-1.965836,42.924175,459.599],[-1.965773,42.924189,459.162],[-1.965694,42.924199,459.395],[-1.965633,42.924218,459.073],[-1.965575,42.924235,457.285],[-1.965512,42.924254,454.913],[-1.965446,42.924283,452.708],[-1.96539,42.924305,451.451],[-1.965326,42.924314,454.257],[-1.965263,42.924318,454.72],[-1.9652,42.924324,453.058],[-1.965115,42.924339,452.431],[-1.965048,42.924349,453.647],[-1.964966,42.924349,454.72],[-1.964891,42.924353,454.293],[-1.964825,42.924356,455.179],[-1.964758,42.924365,455.205],[-1.964692,42.924366,456.125],[-1.964619,42.924364,457.008],[-1.964557,42.924363,457.671],[-1.964478,42.924372,457.547],[-1.964407,42.924375,457.57],[-1.964345,42.924383,456.738],[-1.964266,42.92438,455.821],[-1.964198,42.924379,455.757],[-1.96413,42.924374,456.08],[-1.964065,42.924373,455.423],[-1.963999,42.924381,455.055],[-1.963937,42.924387,455.207],[-1.963878,42.9244,455.717],[-1.96381,42.924411,456.008],[-1.963748,42.92442,455.099],[-1.963683,42.924426,459.055],[-1.963615,42.924433,458.738],[-1.963615,42.924433,458.736],[-1.963548,42.924443,458.239],[-1.963486,42.924445,458.775],[-1.963417,42.924452,459.058],[-1.963343,42.924457,459.241],[-1.963274,42.924469,459.382],[-1.963211,42.924472,459.043],[-1.963147,42.924473,458.817],[-1.963066,42.924488,458.708],[-1.962993,42.92449,459.082],[-1.96292,42.924503,459.628],[-1.962845,42.924497,458.841],[-1.962783,42.924491,458.779],[-1.96272,42.924486,458.662],[-1.962651,42.924475,459.448],[-1.962586,42.924481,461.961],[-1.962509,42.92449,463.024],[-1.962447,42.924492,462.497],[-1.962373,42.924491,461.723],[-1.962305,42.924495,460.925],[-1.962229,42.92451,460.008],[-1.962152,42.924529,459.183],[-1.962066,42.924571,457.369],[-1.96201,42.924602,457.082],[-1.961943,42.924623,458.05],[-1.961889,42.924652,459.093],[-1.961836,42.924683,461.269],[-1.961774,42.924703,463.762],[-1.961706,42.924732,465.655],[-1.961655,42.924766,467.216],[-1.961617,42.924808,469.376],[-1.961561,42.924836,470.213],[-1.96151,42.924883,471.108],[-1.961448,42.924927,470.565],[-1.9614,42.924964,471.321],[-1.961346,42.924998,472.674],[-1.961298,42.925033,472.612],[-1.961261,42.925072,472.295],[-1.961222,42.925112,473.291],[-1.961185,42.925153,473.034],[-1.961144,42.925192,473.357],[-1.961096,42.92523,473.967],[-1.961039,42.92527,474.281],[-1.960992,42.925312,474.419],[-1.960934,42.925351,476.108],[-1.960886,42.925386,477.14],[-1.960846,42.925431,478.946],[-1.960804,42.925465,479.669],[-1.960749,42.925489,480.487],[-1.960684,42.925526,480.12],[-1.960624,42.925555,480.336],[-1.960565,42.925584,480.869],[-1.960503,42.925614,481.512],[-1.96044,42.925632,483.119],[-1.960379,42.925643,485.709],[-1.960312,42.925657,487.219],[-1.960244,42.925669,488.508],[-1.960173,42.92568,491.345],[-1.96011,42.925688,492.691],[-1.960041,42.9257,495.044],[-1.959968,42.925718,496.062],[-1.95991,42.925749,497.095],[-1.959853,42.925784,497.231],[-1.959793,42.925811,496.994],[-1.959732,42.925841,494.387],[-1.959673,42.925871,494.082],[-1.959622,42.925901,491.843],[-1.959585,42.925944,493.717],[-1.959538,42.925983,495.608],[-1.959498,42.926022,495.682],[-1.959455,42.926058,495.238],[-1.959412,42.926103,494.971],[-1.959358,42.926141,494.799],[-1.959302,42.926181,494.642],[-1.959264,42.926223,490.668],[-1.959217,42.926265,489.391],[-1.959171,42.926301,489.394],[-1.959115,42.926344,491.733],[-1.959075,42.926379,494.023],[-1.959019,42.926418,496.215],[-1.958969,42.926447,497.908],[-1.958921,42.926485,498.567],[-1.958872,42.926526,499.743],[-1.958833,42.926567,500.426],[-1.958793,42.926604,502.074],[-1.958788,42.926651,504.647],[-1.958774,42.926703,505.363],[-1.958739,42.926749,505.346],[-1.958715,42.926794,504.599],[-1.958715,42.926839,504.834],[-1.958688,42.926881,505.455],[-1.958654,42.926923,501.41],[-1.95862,42.926962,502.208],[-1.958581,42.927005,503.947],[-1.958546,42.927045,505.793],[-1.958502,42.927087,506.456],[-1.958468,42.927134,507.634],[-1.958427,42.927171,508.377],[-1.958384,42.927216,512.383],[-1.958354,42.927259,509.156],[-1.958324,42.927302,509.219],[-1.958296,42.927355,512.164],[-1.958266,42.927394,513.806],[-1.958224,42.927436,514.816],[-1.958185,42.927477,515.008],[-1.958169,42.927522,516.31],[-1.958154,42.927567,517.146],[-1.958157,42.927615,519.299],[-1.958157,42.927615,519.297],[-1.958133,42.927666,522.42],[-1.958126,42.927719,525.596],[-1.958097,42.927779,529.089],[-1.958065,42.927819,531.182],[-1.958049,42.927874,532.827],[-1.958042,42.92793,532.268],[-1.958016,42.927977,531.414],[-1.958017,42.928029,532.908],[-1.958048,42.928069,528.966],[-1.958095,42.928115,529.832],[-1.958128,42.928158,531.225],[-1.958133,42.928206,534.073],[-1.95807,42.928229,536.116],[-1.958059,42.928278,537.892],[-1.958097,42.928328,540.095],[-1.958122,42.928376,541.378],[-1.958158,42.928417,542.911],[-1.958192,42.928459,543.121],[-1.95822,42.928503,542.803],[-1.958233,42.928547,544.608],[-1.958236,42.928596,545.745],[-1.958275,42.928636,545.251],[-1.958306,42.928675,543.764],[-1.958335,42.928737,543.612],[-1.958402,42.928757,539.615],[-1.958464,42.928765,537.561],[-1.958466,42.92881,539.914],[-1.958496,42.928873,535.957],[-1.958514,42.928921,539.995],[-1.958529,42.928966,543.949],[-1.958581,42.929021,547.923],[-1.95862,42.92906,551.908],[-1.958677,42.929079,555.923],[-1.958742,42.929079,551.929],[-1.958808,42.92908,552.962],[-1.958791,42.929125,548.99],[-1.958773,42.929188,549.923],[-1.958762,42.929242,552.119],[-1.958769,42.92929,555.462],[-1.958813,42.929347,559.025],[-1.958872,42.929365,563.089],[-1.958942,42.929378,567.006],[-1.959001,42.929409,571.026],[-1.959076,42.929436,577.608],[-1.959156,42.929442,577.972],[-1.959215,42.929412,578.968],[-1.95927,42.92939,574.911],[-1.959342,42.929388,573.949],[-1.959399,42.929413,577.772],[-1.959468,42.92942,581.778],[-1.959536,42.929412,585.731],[-1.9596,42.9294,589.724],[-1.9596,42.929448,593.645],[-1.959588,42.929497,597.547],[-1.959554,42.929535,599.911],[-1.959545,42.929588,601.308],[-1.959529,42.929634,597.368],[-1.959514,42.929681,593.384],[-1.959516,42.929733,594.597],[-1.959506,42.929784,598.445],[-1.959507,42.92984,602.438],[-1.959494,42.929895,599.234],[-1.959487,42.929944,603.247],[-1.959486,42.929995,607.24],[-1.959481,42.930053,611.253],[-1.95947,42.930105,612.504],[-1.959451,42.930158,612.914],[-1.959433,42.930206,613.908],[-1.959487,42.930234,616.189],[-1.959547,42.930217,617.815],[-1.959604,42.930195,618.488],[-1.959664,42.930175,618.476],[-1.959717,42.930145,622.499],[-1.959787,42.930138,625.675],[-1.959852,42.930145,628.348],[-1.959848,42.930197,624.361],[-1.959852,42.930247,620.329],[-1.959857,42.930296,621.1],[-1.959834,42.93034,623.62],[-1.959903,42.930323,627.608],[-1.959939,42.930286,631.696],[-1.959979,42.930252,635.612],[-1.960029,42.930225,639.625],[-1.960091,42.930201,642.743],[-1.960149,42.930175,644.656],[-1.960174,42.930134,646.992],[-1.960242,42.930113,647.975],[-1.960296,42.930089,648.548],[-1.960341,42.930047,648.939],[-1.960402,42.930016,648.301],[-1.960439,42.929974,647.521],[-1.960491,42.929941,648.208],[-1.96055,42.929917,649.087],[-1.960606,42.929889,649.573],[-1.960665,42.929871,649.836],[-1.960692,42.92982,650.474],[-1.960721,42.92978,651.637],[-1.960777,42.929743,652.773],[-1.960828,42.929778,653.446],[-1.960826,42.929836,653.029],[-1.960823,42.92989,651.222],[-1.960811,42.929939,647.262],[-1.960827,42.929984,643.208],[-1.960832,42.930035,639.208],[-1.96082,42.93009,636.966],[-1.9608,42.930133,636.762],[-1.960774,42.930176,639.875],[-1.960748,42.93022,643.733],[-1.96069,42.93029,639.796],[-1.960696,42.93034,635.732],[-1.96067,42.930388,638.855],[-1.96063,42.930437,642.858],[-1.96062,42.930491,646.856],[-1.960622,42.93054,650.859],[-1.960603,42.930586,654.814],[-1.960567,42.930631,658.808],[-1.960529,42.930668,662.869],[-1.960496,42.930706,666.835],[-1.960443,42.930733,670.888],[-1.960415,42.930776,674.746],[-1.960409,42.930826,678.299],[-1.960384,42.930872,682.275],[-1.960354,42.930938,686.298],[-1.960348,42.930991,689.581],[-1.960337,42.931038,690.314],[-1.96034,42.931086,692.454],[-1.960394,42.931113,694.409],[-1.960453,42.931096,698.008],[-1.960506,42.931065,702.055],[-1.96056,42.931041,705.051],[-1.960608,42.931071,705.674],[-1.960579,42.931118,706.812],[-1.960542,42.931155,707.995],[-1.960541,42.931204,709.061],[-1.960494,42.931239,710.424],[-1.96046,42.931278,711.327],[-1.960451,42.931329,711.844],[-1.960437,42.931387,712.505],[-1.960423,42.931433,712.915],[-1.960391,42.931478,714.008],[-1.96033,42.931462,715.078],[-1.960257,42.93145,715.664],[-1.960147,42.931461,716.497],[-1.960105,42.931514,720.475],[-1.960128,42.93156,724.488],[-1.960182,42.931584,727.774],[-1.960234,42.931616,728.947],[-1.960285,42.931643,728.02],[-1.960354,42.931659,725.533],[-1.960413,42.931685,724.023],[-1.960467,42.931715,723.515],[-1.960529,42.93172,723.208],[-1.960583,42.931694,723.867],[-1.960642,42.931669,724.213],[-1.960706,42.931661,725.226],[-1.960743,42.931624,727.044],[-1.960786,42.93158,726.977],[-1.960823,42.931544,726.443],[-1.960887,42.931501,727.786],[-1.960946,42.931482,729.749],[-1.961006,42.931455,730.999],[-1.961066,42.93143,732.407],[-1.961119,42.931401,734.127],[-1.961167,42.931361,735.108],[-1.961216,42.931325,736.533],[-1.961275,42.931299,736.999],[-1.961331,42.931278,732.912],[-1.961392,42.931305,731.29],[-1.961385,42.931356,732.213],[-1.961374,42.931403,732.829],[-1.961348,42.93145,736.392],[-1.961353,42.931501,740.355],[-1.961364,42.931547,744.352],[-1.961342,42.931591,748.353],[-1.961288,42.931622,752.308],[-1.96132,42.931671,748.308],[-1.961382,42.931717,747.649],[-1.961448,42.931686,748.065],[-1.96151,42.931689,747.838],[-1.961573,42.93167,748.986],[-1.961615,42.931631,744.979],[-1.96168,42.931634,740.945],[-1.961678,42.931682,736.938],[-1.961647,42.931723,737.241],[-1.961678,42.931762,740.253],[-1.961675,42.931809,744.204],[-1.961708,42.931766,748.214],[-1.961766,42.931744,752.208],[-1.961817,42.93177,756.279],[-1.961815,42.931824,759.645],[-1.961791,42.931868,763.648],[-1.961847,42.931894,767.296],[-1.961907,42.931874,769.419],[-1.961956,42.931843,771.115],[-1.96202,42.931839,772.978],[-1.962018,42.931888,768.911],[-1.962016,42.931935,764.974],[-1.962008,42.931982,760.956],[-1.961976,42.932025,756.921],[-1.961927,42.93206,752.908],[-1.961871,42.932088,753.251],[-1.961821,42.932121,749.287],[-1.961769,42.932147,745.23],[-1.961711,42.932175,742.218],[-1.96164,42.93221,738.261],[-1.961585,42.93224,742.227],[-1.961535,42.932275,738.29],[-1.961464,42.932287,740.883],[-1.961392,42.932294,744.822],[-1.961329,42.932304,748.862],[-1.961261,42.932327,752.808],[-1.9612,42.932349,756.808],[-1.96113,42.93237,760.826],[-1.961056,42.93239,764.842],[-1.960984,42.932398,768.885],[-1.96092,42.9324,772.833],[-1.960846,42.932401,776.826],[-1.960785,42.932413,772.812],[-1.960721,42.932443,768.825],[-1.960695,42.932484,764.898],[-1.960637,42.932507,766.425],[-1.960561,42.932521,770.426],[-1.960502,42.932543,774.408],[-1.960442,42.932557,778.408],[-1.960373,42.932558,782.446],[-1.96031,42.932577,786.152],[-1.960258,42.932603,790.115],[-1.960192,42.932603,794.173],[-1.960114,42.932605,795.546],[-1.960045,42.932617,797.292],[-1.959977,42.932621,799.085],[-1.959909,42.932634,801.388],[-1.959842,42.93265,803.197],[-1.959784,42.932668,805.023],[-1.95972,42.932661,807.325],[-1.959654,42.932677,808.308],[-1.959596,42.932714,808.183],[-1.959551,42.932747,809.289],[-1.959485,42.932749,811.462],[-1.959407,42.932749,807.46],[-1.959389,42.932796,803.493],[-1.959357,42.932836,807.489],[-1.959318,42.932881,811.462],[-1.959349,42.932936,807.475],[-1.959367,42.932988,803.459],[-1.959382,42.933048,799.403],[-1.959398,42.933094,799.523],[-1.95944,42.933127,803.508],[-1.959499,42.933154,807.569],[-1.959561,42.933139,811.515],[-1.95962,42.933125,814.868],[-1.959681,42.933117,816.836],[-1.959743,42.933116,819.669],[-1.959798,42.933138,821.325],[-1.959846,42.933176,821.568],[-1.959915,42.93319,823.681],[-1.95998,42.93321,826.167],[-1.960048,42.933232,827.681],[-1.960109,42.933242,828.519],[-1.960184,42.933219,831.808],[-1.960251,42.933217,834.64],[-1.960308,42.933246,835.116],[-1.960349,42.933281,835.059],[-1.960325,42.933338,833.787],[-1.960321,42.933389,834.91],[-1.960335,42.933435,835.256],[-1.960293,42.933488,833.449],[-1.960326,42.933527,831.142],[-1.960355,42.933573,830.588],[-1.960403,42.933617,829.824],[-1.960458,42.933639,831.826],[-1.960516,42.933674,833.408],[-1.960566,42.933714,834.362],[-1.960595,42.933759,834.178],[-1.960603,42.933808,834.441],[-1.960621,42.933853,835.489],[-1.960626,42.933901,836.092],[-1.960636,42.933948,835.178],[-1.960647,42.933996,834.661],[-1.960644,42.934047,835.934],[-1.960645,42.934095,836.721],[-1.960651,42.934146,835.641],[-1.960638,42.934193,835.305],[-1.960636,42.934239,835.108],[-1.960651,42.934287,835.866],[-1.960667,42.934335,836.242],[-1.960704,42.934372,839.375],[-1.960724,42.934424,840.723],[-1.960727,42.934472,842.086],[-1.960759,42.93452,842.882],[-1.960793,42.934558,843.385],[-1.960821,42.934604,844.088],[-1.960887,42.934615,846.466],[-1.960951,42.934638,848.229],[-1.961021,42.934658,848.921],[-1.961082,42.934692,849.308],[-1.961118,42.934738,850.06],[-1.961156,42.934778,850.026],[-1.961204,42.934811,851.299],[-1.961253,42.934842,851.177],[-1.961309,42.934876,851.58],[-1.961352,42.934916,851.756],[-1.961395,42.934963,852.279],[-1.961443,42.934998,853.322],[-1.961512,42.935026,854.056],[-1.961564,42.935064,854.859],[-1.961605,42.935101,855.714],[-1.961653,42.93513,856.208],[-1.961705,42.935176,857.369],[-1.961758,42.935216,858.015],[-1.961817,42.935251,858.828],[-1.96187,42.935283,860.146],[-1.961901,42.935332,860.949],[-1.961945,42.935373,861.415],[-1.961972,42.935424,861.728],[-1.962017,42.935469,861.951],[-1.962075,42.935504,862.077],[-1.962113,42.93554,862.561],[-1.962157,42.935575,863.227],[-1.96222,42.935602,863.208],[-1.96227,42.935632,863.241],[-1.962321,42.93566,863.277],[-1.962357,42.935697,864.05],[-1.962402,42.935736,864.598],[-1.962456,42.935766,865.621],[-1.962466,42.935815,867.137],[-1.962469,42.935862,868.46],[-1.962479,42.935909,869.633],[-1.962499,42.935952,870.717],[-1.962478,42.935999,871.487],[-1.962467,42.936049,873.415],[-1.962482,42.936097,874.608],[-1.962494,42.93615,875.365],[-1.962484,42.936205,876.551],[-1.962496,42.936253,877.624],[-1.962515,42.936305,877.582],[-1.962537,42.936354,877.065],[-1.96253,42.936403,877.541],[-1.962515,42.936455,878.274],[-1.962518,42.936503,879.827],[-1.962511,42.936559,880.891],[-1.96252,42.936608,881.481],[-1.962518,42.936655,882.219],[-1.962535,42.936699,883.508],[-1.962511,42.936744,883.933],[-1.962451,42.936722,884.559],[-1.962404,42.936691,883.322],[-1.96234,42.936663,883.03],[-1.962287,42.936639,883.623],[-1.962226,42.936617,884.889],[-1.962173,42.936583,886.722],[-1.962139,42.936533,888.225],[-1.962083,42.936496,889.921],[-1.962026,42.936468,890.541],[-1.961966,42.936441,891.705],[-1.961936,42.936401,892.008],[-1.961888,42.936367,892.626],[-1.96185,42.93633,892.212],[-1.961812,42.936294,891.975],[-1.961767,42.93625,892.113],[-1.961714,42.936216,892.656],[-1.961659,42.936181,892.532],[-1.961601,42.93615,893.715],[-1.961537,42.93613,895.258],[-1.961478,42.936093,896.117],[-1.961428,42.936057,899.487],[-1.961381,42.936017,901.415],[-1.961326,42.935987,902.608],[-1.961255,42.935973,904.165],[-1.9612,42.935996,905.881],[-1.961135,42.935992,906.864],[-1.96107,42.935971,907.042],[-1.961008,42.935939,906.335],[-1.960939,42.935917,905.931],[-1.960873,42.935908,904.984],[-1.960815,42.93593,905.127],[-1.960822,42.93598,906.086],[-1.960852,42.936025,907.36],[-1.960895,42.936058,908.526],[-1.960922,42.936101,910.008],[-1.960964,42.936147,911.722],[-1.960987,42.9362,913.158],[-1.961012,42.936248,914.461],[-1.96105,42.936288,915.299],[-1.961093,42.936337,916.192],[-1.961142,42.936381,916.628],[-1.961154,42.936433,916.961],[-1.961174,42.936477,917.924],[-1.961213,42.93652,918.925],[-1.961253,42.936558,920.326],[-1.96127,42.936605,920.308],[-1.961282,42.936651,919.908],[-1.961305,42.936704,920.186],[-1.961315,42.936749,919.862],[-1.961339,42.936792,920.435],[-1.961367,42.936839,920.433],[-1.961388,42.936888,921.696],[-1.961421,42.936932,922.722],[-1.961466,42.936968,922.255],[-1.961505,42.937022,921.168],[-1.961529,42.937066,920.842],[-1.961563,42.93711,920.622],[-1.961615,42.937136,922.114],[-1.961665,42.937177,922.208],[-1.96171,42.937216,922.758],[-1.961741,42.937255,923.874],[-1.961779,42.937293,924.857],[-1.961829,42.937327,926.625],[-1.961876,42.937372,927.788],[-1.961908,42.937417,923.734],[-1.961939,42.937456,919.767],[-1.961954,42.937503,915.77],[-1.961966,42.937549,911.745],[-1.961996,42.937601,907.747],[-1.962032,42.937649,903.711],[-1.962073,42.937695,902.808],[-1.962132,42.937729,906.858],[-1.962174,42.937765,910.844],[-1.962229,42.937811,914.887],[-1.962269,42.937851,918.815],[-1.96232,42.937878,922.818],[-1.962368,42.937914,925.864],[-1.962436,42.937938,928.887],[-1.962481,42.93797,931.04],[-1.962515,42.938013,932.368],[-1.962556,42.938049,933.942],[-1.962604,42.938094,934.926],[-1.962644,42.938133,935.108],[-1.962693,42.938165,936.08],[-1.962729,42.938213,936.996],[-1.962763,42.938262,937.579],[-1.962813,42.938302,938.277],[-1.962874,42.938336,939.48],[-1.962914,42.938375,941.396],[-1.96296,42.938422,941.759],[-1.96301,42.938456,941.942],[-1.963059,42.938496,942.011],[-1.963095,42.938539,942.521],[-1.96314,42.938571,943.203],[-1.963135,42.938619,943.608],[-1.963198,42.938647,945.035],[-1.963238,42.938684,946.771],[-1.963245,42.938732,948.554],[-1.963236,42.938786,950.052],[-1.963241,42.938849,951.355],[-1.963272,42.9389,952.561],[-1.9633,42.938947,954.034],[-1.963322,42.938995,954.987],[-1.963321,42.939041,957.062],[-1.963346,42.939084,959.183],[-1.963395,42.939119,958.811],[-1.963436,42.939161,958.608],[-1.96349,42.939184,962.17],[-1.963497,42.93923,963.496],[-1.963452,42.939271,965.099],[-1.963473,42.939315,967.967],[-1.963456,42.939365,969.39],[-1.963494,42.939413,970.996],[-1.963554,42.939444,971.959],[-1.963607,42.939478,973.332],[-1.963665,42.939506,974.148],[-1.963722,42.93954,975.061],[-1.963776,42.939574,975.517],[-1.963832,42.939595,975.808],[-1.963898,42.939601,976.828],[-1.963953,42.939624,977.834],[-1.963999,42.939656,979.257],[-1.964043,42.939706,980.455],[-1.964083,42.939745,981.158],[-1.964126,42.939784,981.144],[-1.964164,42.939828,981.557],[-1.964182,42.939874,981.09],[-1.964182,42.939926,981.539],[-1.96419,42.939979,983.001],[-1.964216,42.940024,983.921],[-1.964246,42.940072,983.608],[-1.964286,42.940107,983.097],[-1.964324,42.940144,983.953],[-1.964348,42.94019,984.436],[-1.964368,42.940233,985.194],[-1.964394,42.940284,985.137],[-1.964428,42.940329,984.763],[-1.964446,42.940382,986.176],[-1.964481,42.94042,986.539],[-1.964508,42.940465,987.694],[-1.964547,42.940502,988.657],[-1.964598,42.940541,989.222],[-1.964639,42.940574,991.608],[-1.964658,42.94064,992.223],[-1.964692,42.940679,993.449],[-1.964735,42.940718,995.362],[-1.964779,42.940749,997.23],[-1.964823,42.940782,997.693],[-1.964881,42.940817,997.459],[-1.964929,42.94085,997.772],[-1.964994,42.940873,998.785],[-1.965068,42.940891,1000.189],[-1.965126,42.94092,1001.306],[-1.96519,42.940936,1001.626],[-1.965257,42.940943,1002.208],[-1.965334,42.940946,1001.852],[-1.965397,42.940974,1001.958],[-1.965442,42.941006,1001.681],[-1.965505,42.941032,1001.049],[-1.965579,42.941039,1001.852],[-1.965641,42.941042,1002.748],[-1.965713,42.94104,1003.641],[-1.965789,42.941034,1005.084],[-1.965849,42.941044,1005.454],[-1.965918,42.941043,1007.356],[-1.965976,42.941067,1007.611],[-1.966043,42.941078,1008.608],[-1.966107,42.941103,1008.479],[-1.966171,42.94113,1009.125],[-1.966232,42.941152,1009.528],[-1.96628,42.94118,1009.736],[-1.966343,42.941177,1011.049],[-1.966407,42.941171,1012.645],[-1.966483,42.941178,1013.238],[-1.966538,42.941198,1013.941],[-1.966588,42.941228,1014.346],[-1.966635,42.941258,1015.488],[-1.966691,42.941278,1016.016],[-1.966753,42.941298,1017.208],[-1.966806,42.941323,1018.378],[-1.966857,42.941367,1019.464],[-1.966902,42.941398,1020.467],[-1.966948,42.94143,1021.835],[-1.967003,42.941467,1022.748],[-1.967056,42.941506,1024.084],[-1.967107,42.941544,1024.877],[-1.967169,42.941566,1025.39],[-1.967227,42.941586,1026.065],[-1.96729,42.941611,1026.468],[-1.967352,42.941645,1026.214],[-1.967395,42.941691,1026.108],[-1.967445,42.941718,1026.42],[-1.967507,42.941744,1028.226],[-1.967448,42.941758,1029.779],[-1.967388,42.941744,1029.467],[-1.967319,42.941731,1029.21],[-1.967253,42.941721,1029.556],[-1.96718,42.94171,1029.759],[-1.967118,42.941701,1029.482],[-1.967057,42.941689,1029.637],[-1.966984,42.94171,1031.349],[-1.966909,42.941714,1031.513],[-1.966845,42.941713,1031.608],[-1.966784,42.941706,1032.197],[-1.96671,42.941702,1033.663],[-1.966648,42.941698,1034.946],[-1.966577,42.94169,1036.144],[-1.96651,42.941678,1036.827],[-1.96644,42.941689,1038.453],[-1.966369,42.941706,1039.076],[-1.966305,42.941713,1040.199],[-1.966236,42.941711,1040.477],[-1.966164,42.941717,1041.061],[-1.966097,42.941715,1041.727],[-1.966034,42.941716,1042.108],[-1.965962,42.941733,1043.651],[-1.965895,42.941751,1044.927],[-1.965831,42.941751,1046.17],[-1.965756,42.941753,1047.228],[-1.965694,42.941752,1047.951],[-1.96562,42.941759,1049.147],[-1.965557,42.941778,1050.24],[-1.965487,42.941787,1050.923],[-1.96542,42.941799,1051.716],[-1.965353,42.941795,1051.476],[-1.965285,42.941795,1051.213],[-1.965206,42.941792,1052.708],[-1.965132,42.941788,1052.815],[-1.965068,42.941783,1054.191],[-1.965003,42.94179,1054.554],[-1.964932,42.941804,1055.122],[-1.964875,42.94182,1056.395],[-1.964815,42.941831,1056.231],[-1.964742,42.941832,1056.534],[-1.964671,42.941829,1056.347],[-1.964599,42.941828,1056.279],[-1.964534,42.941842,1057.705],[-1.964467,42.94186,1059.025],[-1.964404,42.94189,1059.808],[-1.964349,42.941912,1060.341],[-1.964279,42.941932,1060.267],[-1.964214,42.941939,1060.12],[-1.964144,42.941974,1061.348],[-1.964092,42.942013,1062.811],[-1.964036,42.942045,1063.797],[-1.96408,42.942084,1064.25],[-1.964154,42.94209,1063.343],[-1.964223,42.942099,1064.484],[-1.964294,42.942118,1065.407],[-1.964358,42.942138,1066.017],[-1.964419,42.942149,1067.608],[-1.964488,42.942151,1068.522],[-1.964544,42.942173,1068.748],[-1.96461,42.942184,1070.071],[-1.964672,42.942185,1071.679],[-1.964736,42.942187,1072.992],[-1.964802,42.942203,1074.118],[-1.964865,42.942218,1074.881],[-1.964938,42.942236,1075.634],[-1.964995,42.942265,1076.594],[-1.965062,42.942275,1077.457],[-1.965125,42.942278,1077.222],[-1.965193,42.942287,1076.308],[-1.965264,42.942301,1076.143],[-1.965339,42.942312,1076.469],[-1.965399,42.942343,1077.032],[-1.965467,42.942354,1077.35],[-1.965538,42.942365,1077.953],[-1.965608,42.942386,1077.939],[-1.965677,42.94239,1078.352],[-1.965746,42.94239,1078.935],[-1.965809,42.94241,1079.366],[-1.965895,42.942411,1080.329],[-1.965965,42.942428,1081.721],[-1.966035,42.942455,1083.308],[-1.9661,42.942463,1083.91],[-1.966163,42.942466,1084.376],[-1.966231,42.942468,1084.589],[-1.966237,42.942514,1084.217],[-1.966167,42.942515,1084.03],[-1.9661,42.942531,1084.326],[-1.966026,42.942543,1085.349],[-1.96595,42.942548,1085.942],[-1.965879,42.942562,1086.314],[-1.965815,42.942578,1086.954],[-1.965744,42.942572,1087.309],[-1.965676,42.942566,1086.708],[-1.965612,42.942562,1087.235],[-1.965543,42.942561,1087.921],[-1.965478,42.942556,1089.544],[-1.965415,42.94256,1091.342],[-1.965345,42.942557,1092.865],[-1.965273,42.942565,1094.561],[-1.965208,42.942571,1095.154],[-1.965143,42.942575,1095.967],[-1.965082,42.942587,1097.253],[-1.965012,42.942603,1097.604],[-1.964944,42.942615,1098.214],[-1.964877,42.942624,1099.008],[-1.964816,42.942635,1098.719],[-1.964753,42.942635,1098.585],[-1.964683,42.942646,1098.878],[-1.964619,42.942658,1099.086],[-1.964548,42.942662,1099.539],[-1.964475,42.942677,1099.855],[-1.964521,42.942717,1101.848],[-1.964521,42.942717,1101.811],[-1.964535,42.942762,1102.865],[-1.964576,42.942797,1103.868],[-1.964637,42.942824,1104.014],[-1.964702,42.942831,1104.908],[-1.964763,42.942846,1106.36],[-1.964832,42.942867,1106.336],[-1.964905,42.942882,1106.799],[-1.964973,42.942893,1107.387],[-1.965049,42.942896,1107.79],[-1.965089,42.942933,1107.586],[-1.965088,42.942982,1107.069],[-1.965105,42.943032,1107.592],[-1.965156,42.943079,1108.283],[-1.965215,42.943117,1109.025],[-1.965267,42.943148,1109.117],[-1.965339,42.943175,1110.408],[-1.965393,42.943206,1111.662],[-1.965438,42.943254,1111.918],[-1.965471,42.943292,1111.721],[-1.965506,42.943335,1112.019],[-1.96557,42.943358,1111.842],[-1.965625,42.94339,1112.958],[-1.965663,42.94343,1113.911],[-1.965693,42.94347,1114.554],[-1.965746,42.943497,1116.557],[-1.965745,42.943551,1117.7],[-1.965722,42.943593,1118.82],[-1.965699,42.943648,1119.908],[-1.965682,42.943695,1120.149],[-1.965673,42.943744,1120.215],[-1.96571,42.943783,1120.798],[-1.965696,42.943835,1121.056],[-1.965716,42.94388,1121.639],[-1.965742,42.943935,1123.555],[-1.965751,42.94399,1124.318],[-1.965743,42.944037,1125.611],[-1.965749,42.944086,1127.229],[-1.965758,42.944132,1127.7],[-1.965754,42.944181,1128.02],[-1.965757,42.944242,1124.008],[-1.965743,42.944294,1120.036],[-1.965716,42.944337,1116.042],[-1.965709,42.94439,1112.015],[-1.965688,42.944436,1108.043],[-1.965659,42.944485,1104.036],[-1.96565,42.944531,1100.052],[-1.965628,42.944595,1101.845],[-1.965631,42.94464,1104.958],[-1.965654,42.944693,1104.713],[-1.965683,42.944738,1108.743],[-1.965706,42.944787,1112.707],[-1.965706,42.944837,1116.708],[-1.965731,42.944882,1120.775],[-1.965774,42.944917,1124.711],[-1.965723,42.94495,1128.794],[-1.965788,42.944976,1132.762],[-1.965834,42.945013,1136.735],[-1.965869,42.945055,1140.771],[-1.96592,42.945086,1144.744],[-1.965975,42.945117,1147.877],[-1.966015,42.945161,1149.331],[-1.966057,42.945195,1149.861],[-1.966089,42.94524,1151.307],[-1.966101,42.945297,1151.808],[-1.966038,42.945321,1151.397],[-1.965977,42.945328,1151.833],[-1.965913,42.945344,1152.146],[-1.965851,42.945354,1153.574],[-1.965775,42.945343,1155.137],[-1.965724,42.945313,1157.793],[-1.96566,42.945297,1158.826],[-1.965596,42.945295,1161.189],[-1.965534,42.945303,1162.128],[-1.965472,42.945316,1163.589],[-1.965407,42.945318,1165.117],[-1.965341,42.94532,1165.708],[-1.965269,42.945348,1166.076],[-1.965213,42.945384,1166.222],[-1.965178,42.945426,1166.785],[-1.965185,42.945472,1167.453],[-1.965209,42.945514,1167.426],[-1.965243,42.94556,1168.252],[-1.965277,42.945605,1169.525],[-1.965281,42.945666,1170.368],[-1.96532,42.945702,1172.016],[-1.965361,42.945747,1173.476],[-1.965408,42.945787,1174.613],[-1.965444,42.945825,1175.708],[-1.965471,42.945869,1176.085],[-1.965498,42.945918,1176.221],[-1.965513,42.945964,1176.754],[-1.96545,42.945986,1176.272],[-1.96538,42.945961,1175.585],[-1.965322,42.945934,1175.191],[-1.965254,42.945888,1174.864],[-1.965203,42.94586,1178.667],[-1.965139,42.945853,1181.383],[-1.965075,42.945859,1182.125],[-1.965006,42.945855,1182.217],[-1.964946,42.945838,1182.708],[-1.964885,42.945814,1184.262],[-1.964816,42.9458,1184.348],[-1.964733,42.945803,1185.621],[-1.964664,42.945804,1186.499],[-1.964597,42.945807,1186.962],[-1.964534,42.94581,1187.678],[-1.964473,42.945816,1188.891],[-1.964505,42.945863,1189.174],[-1.964572,42.945902,1189.379],[-1.964623,42.945927,1190.605],[-1.964675,42.945961,1191.025],[-1.964734,42.945999,1191.608],[-1.964787,42.946031,1192.821],[-1.964831,42.946063,1193.547],[-1.964889,42.946092,1194.74],[-1.964943,42.946114,1195.898],[-1.96498,42.946151,1196.971],[-1.965003,42.946193,1198.747],[-1.965013,42.946242,1199.87],[-1.965016,42.94629,1200.123],[-1.965035,42.946337,1200.799],[-1.96507,42.946387,1201.807],[-1.965099,42.946428,1202.127],[-1.965138,42.946465,1202.308],[-1.965186,42.946493,1203.233],[-1.965239,42.946526,1204.169],[-1.965268,42.946569,1205.532],[-1.96532,42.9466,1207.98],[-1.96538,42.946613,1210.623],[-1.96545,42.946625,1211.879],[-1.965513,42.946627,1213.732],[-1.965576,42.946622,1215.685],[-1.965636,42.946633,1216.855],[-1.965692,42.946661,1218.707],[-1.965737,42.946699,1222.617],[-1.965787,42.946731,1224.208],[-1.965831,42.946765,1225.589],[-1.965883,42.946796,1227.195],[-1.96594,42.946821,1228.178],[-1.965998,42.946845,1228.336],[-1.96606,42.946867,1228.839],[-1.966123,42.946881,1229.135],[-1.966179,42.94691,1229.338],[-1.966244,42.946942,1229.841],[-1.966302,42.946957,1230.152],[-1.966342,42.947002,1230.353],[-1.966376,42.947068,1229.608],[-1.966427,42.947095,1228.808],[-1.96638,42.947052,1227.919],[-1.966341,42.94701,1227.025],[-1.966317,42.946963,1227.228],[-1.966262,42.946936,1227.746],[-1.966209,42.94691,1227.639],[-1.966214,42.946865,1226.875],[-1.966255,42.946823,1226.738],[-1.966217,42.94686,1226.641],[-1.966153,42.946858,1226.287],[-1.966107,42.946824,1225.942],[-1.966043,42.946842,1226.526],[-1.965975,42.946836,1226.108],[-1.965928,42.946804,1225.542],[-1.965907,42.946757,1225.598],[-1.965946,42.94671,1226.311],[-1.966004,42.946691,1225.639],[-1.966086,42.946673,1226.032],[-1.966157,42.946649,1225.498],[-1.966155,42.946593,1224.791],[-1.966127,42.946635,1224.724],[-1.966085,42.946671,1224.311],[-1.966037,42.946703,1223.621],[-1.965982,42.946736,1223.603],[-1.965929,42.946769,1224.408],[-1.9659,42.946816,1224.975],[-1.965875,42.946857,1226.091],[-1.965811,42.946874,1226.724],[-1.965749,42.946882,1227.972],[-1.965701,42.946912,1229.835],[-1.965761,42.946931,1230.591],[-1.965786,42.946974,1230.524],[-1.965751,42.947011,1231.747],[-1.965739,42.947059,1232.832],[-1.965778,42.947016,1232.392],[-1.965817,42.946974,1232.011],[-1.96583,42.946925,1231.408],[-1.965841,42.94688,1231.057],[-1.965864,42.946836,1230.833],[-1.965862,42.946777,1231.596],[-1.965844,42.946733,1231.994],[-1.965837,42.946683,1231.377],[-1.965884,42.946652,1231.033],[-1.965822,42.946655,1229.696],[-1.965746,42.946661,1229.289],[-1.965683,42.946655,1228.955],[-1.965621,42.946637,1227.507],[-1.965549,42.946632,1225.917],[-1.965479,42.946623,1224.908],[-1.965417,42.946613,1223.589],[-1.965355,42.9466,1221.945],[-1.96529,42.946578,1221.328],[-1.965218,42.946522,1220.626],[-1.965155,42.946491,1218.229],[-1.965092,42.946466,1215.535],[-1.965044,42.946427,1213.528],[-1.964999,42.946385,1211.181],[-1.964969,42.94634,1208.584],[-1.964952,42.946296,1205.707],[-1.964932,42.946237,1203.217],[-1.964922,42.946181,1201.708],[-1.964909,42.946134,1200.832],[-1.964883,42.946077,1199.998],[-1.964865,42.946028,1198.981],[-1.964918,42.945986,1197.989],[-1.964927,42.945926,1196.912],[-1.964922,42.945866,1196.398],[-1.964903,42.94581,1196.761],[-1.964908,42.945763,1197.424],[-1.964934,42.945721,1195.815],[-1.964973,42.945685,1193.265],[-1.965047,42.945685,1190.111],[-1.965064,42.945624,1188.208],[-1.965103,42.945583,1185.555],[-1.96512,42.945532,1184.371],[-1.965149,42.945487,1182.884],[-1.965189,42.945449,1180.312],[-1.965235,42.945405,1178.885],[-1.965281,42.945371,1177.151],[-1.965353,42.945365,1175.354],[-1.965426,42.945362,1174.667],[-1.965503,42.945348,1174.287],[-1.965576,42.945331,1173.142],[-1.965635,42.945314,1171.726],[-1.965709,42.945306,1170.408],[-1.965775,42.945302,1169.232],[-1.965847,42.945331,1166.538],[-1.965909,42.945323,1163.761],[-1.965974,42.945315,1162.439],[-1.966028,42.945285,1161.292],[-1.966021,42.945226,1160.518],[-1.965984,42.945174,1160.141],[-1.965941,42.945129,1158.264],[-1.965916,42.945071,1156.743],[-1.965874,42.945012,1155.864],[-1.965836,42.944973,1154.51],[-1.965789,42.944933,1153.308],[-1.965742,42.944899,1151.458],[-1.965725,42.944851,1149.424],[-1.965704,42.944804,1149.497],[-1.965662,42.944757,1149.085],[-1.965636,42.944713,1148.088],[-1.965625,42.94466,1147.434],[-1.965639,42.944603,1145.467],[-1.965643,42.944555,1145.09],[-1.965648,42.944499,1144.865],[-1.96566,42.944448,1144.768],[-1.965669,42.944396,1144.214],[-1.96569,42.944343,1143.508],[-1.965706,42.9443,1141.51],[-1.965717,42.944245,1139.946],[-1.965712,42.944189,1137.769],[-1.965714,42.944137,1134.847],[-1.965713,42.944087,1130.85],[-1.965695,42.944023,1127.596],[-1.96569,42.943975,1125.579],[-1.965693,42.943917,1124.372],[-1.965699,42.943865,1122.864],[-1.965708,42.943803,1121.506],[-1.965711,42.943756,1121.116],[-1.965685,42.9437,1119.708],[-1.965696,42.943649,1119.67],[-1.965695,42.9436,1118.066],[-1.965685,42.943554,1117.869],[-1.965671,42.943505,1116.127],[-1.965647,42.943459,1115.51],[-1.965614,42.943408,1115.576],[-1.965573,42.943347,1114.379],[-1.965565,42.943295,1110.382],[-1.965603,42.943251,1106.374],[-1.96564,42.94321,1102.356],[-1.965664,42.943158,1098.321],[-1.965677,42.943106,1096.008],[-1.965716,42.943064,1096.251],[-1.965733,42.943018,1095.537],[-1.965705,42.942977,1095.51],[-1.965695,42.942925,1096.358],[-1.965653,42.942883,1096.091],[-1.965634,42.942837,1095.077],[-1.965642,42.942781,1095.61],[-1.965612,42.942735,1094.813],[-1.965612,42.942683,1091.912],[-1.965616,42.94263,1090.232],[-1.965631,42.942585,1089.205],[-1.965685,42.94255,1088.608],[-1.965748,42.942542,1088.625],[-1.965836,42.942537,1088.251],[-1.965914,42.942541,1088.494],[-1.965983,42.942544,1088.982],[-1.966056,42.942535,1088.865],[-1.966121,42.942527,1088.761],[-1.966187,42.942526,1087.964],[-1.966263,42.942532,1086.287],[-1.96634,42.942524,1086.038],[-1.966401,42.942519,1085.17],[-1.966472,42.942535,1085.317],[-1.966544,42.942522,1084.608],[-1.966608,42.942518,1084.277],[-1.966679,42.942517,1083.693],[-1.966741,42.942525,1083.226],[-1.966811,42.942523,1083.034],[-1.966875,42.942524,1082.967],[-1.966943,42.942518,1081.693],[-1.967018,42.942504,1080.856],[-1.967089,42.942487,1079.579],[-1.967149,42.94247,1078.326],[-1.967212,42.942456,1077.247],[-1.967273,42.94245,1074.511],[-1.967333,42.942431,1073.708],[-1.9674,42.942408,1074.086],[-1.967459,42.942391,1073.072],[-1.967546,42.942375,1072.425],[-1.967613,42.942375,1071.633],[-1.967683,42.94237,1070.746],[-1.96776,42.942349,1071.092],[-1.967843,42.942337,1070.855],[-1.967905,42.942331,1070.348],[-1.967967,42.942329,1068.448],[-1.968064,42.942319,1066.461],[-1.968128,42.942317,1065.217],[-1.968193,42.94232,1063.708],[-1.968261,42.94232,1062.088],[-1.968337,42.942319,1060.624],[-1.968419,42.942317,1059.717],[-1.968507,42.942314,1058.825],[-1.968587,42.942308,1058.768],[-1.968658,42.942313,1057.424],[-1.968723,42.942313,1056.657],[-1.968789,42.942312,1054.92],[-1.96884,42.942342,1053.141],[-1.968897,42.942369,1052.081],[-1.96895,42.942398,1050.609],[-1.969012,42.942416,1049.708],[-1.969088,42.942428,1049.248],[-1.969162,42.942449,1048.964],[-1.96926,42.94246,1049.187],[-1.969309,42.942491,1049.225],[-1.969318,42.942545,1049.378],[-1.969304,42.942497,1048.584],[-1.969359,42.942472,1046.827],[-1.969425,42.942462,1044.29],[-1.969478,42.942436,1041.428],[-1.969515,42.942392,1040.189],[-1.969576,42.942365,1038.517],[-1.969636,42.942337,1037.208],[-1.969706,42.942313,1036.046],[-1.96977,42.942291,1035.322],[-1.969833,42.94227,1034.995],[-1.969892,42.942238,1033.473],[-1.969935,42.942195,1032.526],[-1.969995,42.942167,1030.462],[-1.970063,42.942156,1028.795],[-1.970126,42.942142,1026.528],[-1.970198,42.942125,1025.225],[-1.970273,42.942111,1023.226],[-1.970348,42.942097,1021.208],[-1.970416,42.942087,1019.608],[-1.97049,42.942074,1018.696],[-1.970568,42.942063,1018.022],[-1.97063,42.942053,1016.955],[-1.9707,42.942057,1014.233],[-1.970767,42.942053,1012.676],[-1.970835,42.942047,1010.882],[-1.970902,42.942022,1008.945],[-1.970956,42.941998,1007.888],[-1.971014,42.941982,1006.319],[-1.971075,42.941991,1005.009],[-1.971143,42.941984,1003.819],[-1.971217,42.941959,1003.908],[-1.971273,42.941927,1004.085],[-1.971329,42.941906,1002.831],[-1.971403,42.941915,999.394],[-1.971467,42.94192,997.262],[-1.971539,42.941929,994.735],[-1.971605,42.941929,993.281],[-1.971671,42.941918,991.184],[-1.971746,42.941901,989.437],[-1.97181,42.941885,988.046],[-1.971877,42.941873,985.688],[-1.971946,42.94186,983.316],[-1.972018,42.941862,981.108],[-1.972084,42.941859,979.878],[-1.972168,42.941855,979.814],[-1.972231,42.941858,979.487],[-1.972294,42.941862,977.675],[-1.972365,42.941875,974.558],[-1.972429,42.941883,971.824],[-1.972506,42.94188,969.877],[-1.972582,42.941858,968.24],[-1.972647,42.941825,966.467],[-1.972696,42.941793,964.981],[-1.972743,42.941751,964.019],[-1.972806,42.941726,964.308],[-1.972875,42.941711,964.92],[-1.972938,42.941696,963.626],[-1.973002,42.94168,960.059],[-1.973077,42.941675,957.187],[-1.973144,42.941674,954.98],[-1.973219,42.941654,954.026],[-1.973281,42.941639,952.799],[-1.973343,42.941617,950.382],[-1.9734,42.941593,948.994],[-1.973453,42.941548,948.057],[-1.973489,42.94151,946.322],[-1.973545,42.941471,944.908],[-1.973601,42.941442,943.623],[-1.973686,42.941404,942.469],[-1.973774,42.941386,940.562],[-1.973845,42.941383,939.08],[-1.973929,42.941391,938.113],[-1.974001,42.941405,937.559],[-1.974089,42.941397,937.232],[-1.974161,42.941393,937.485],[-1.974246,42.941402,936.397],[-1.974321,42.941404,935.323],[-1.974386,42.941397,934.325],[-1.974463,42.941392,932.908],[-1.974539,42.941391,932.013],[-1.974614,42.941397,931.159],[-1.974689,42.941408,930.262],[-1.974751,42.941411,928.82],[-1.974822,42.941409,928.073],[-1.974952,42.941402,927.179],[-1.975036,42.941394,926.692],[-1.975141,42.941376,925.985],[-1.97519,42.941347,925.184],[-1.975258,42.94134,924.607],[-1.975343,42.941344,922.717],[-1.975433,42.941354,922.008],[-1.975517,42.941352,920.812],[-1.97558,42.941348,920.128],[-1.975654,42.941347,919.341],[-1.975724,42.941344,919.289],[-1.97585,42.941341,918.762],[-1.97594,42.94134,918.888],[-1.976064,42.941339,918.931],[-1.976153,42.94133,918.194],[-1.976232,42.941326,916.889],[-1.976325,42.941329,916.006],[-1.976388,42.941329,914.726],[-1.97645,42.941322,913.108],[-1.976527,42.941309,911.852],[-1.97662,42.941294,909.868],[-1.976695,42.94128,907.851],[-1.976788,42.94127,906.249],[-1.976872,42.941263,904.862],[-1.976936,42.94126,904.088],[-1.976999,42.941242,902.331],[-1.977055,42.941212,900.524],[-1.977115,42.941185,899.031],[-1.977176,42.941156,898.161],[-1.977232,42.941126,897.207],[-1.9773,42.941104,894.608],[-1.97736,42.941067,892.757],[-1.977417,42.941033,890.393],[-1.977476,42.941007,889.326],[-1.977531,42.940981,889.514],[-1.977591,42.940962,889.677],[-1.977564,42.941004,889.373],[-1.977505,42.941022,889.516],[-1.977452,42.941053,889.679],[-1.977388,42.941074,890.546],[-1.977331,42.94111,891.088],[-1.977275,42.941136,892.516],[-1.977225,42.941171,893.408],[-1.97722,42.941219,892.328],[-1.977277,42.941245,891.344],[-1.977345,42.941257,890.377],[-1.977418,42.941274,888.145],[-1.977465,42.941303,885.248],[-1.977527,42.941316,883.894],[-1.977603,42.9413,882.217],[-1.977672,42.941274,882.08],[-1.977732,42.941258,881.122],[-1.977801,42.941242,881.062],[-1.977874,42.941232,880.108],[-1.977928,42.941266,878.008],[-1.978009,42.941276,882.016],[-1.978082,42.941303,886.032],[-1.978145,42.941321,890.095],[-1.978216,42.941336,894.073],[-1.978278,42.94135,897.196],[-1.978374,42.941376,895.082],[-1.97844,42.94139,892.955],[-1.978509,42.9414,889.358],[-1.978579,42.941415,885.573],[-1.978648,42.941427,882.485],[-1.97876,42.94148,879.813],[-1.978844,42.941544,877.008],[-1.978891,42.941626,874.971],[-1.978904,42.941684,873.377],[-1.978964,42.941702,870.76],[-1.979024,42.941689,869.118],[-1.979109,42.941694,865.141],[-1.979183,42.941703,861.897],[-1.979249,42.941699,860.28],[-1.979332,42.941697,860.033],[-1.979405,42.941697,859.992],[-1.979484,42.94171,859.073],[-1.979546,42.941736,858.92],[-1.979604,42.941765,858.408],[-1.979683,42.941793,858.983],[-1.97977,42.941802,857.639],[-1.979833,42.941799,856.882],[-1.979948,42.941781,857.51],[-1.980023,42.941762,859.163],[-1.980091,42.941749,859.789],[-1.98022,42.941754,855.742],[-1.980294,42.941759,858.955],[-1.980294,42.941759,858.968],[-1.980357,42.941753,860.442],[-1.980435,42.941748,864.426],[-1.9805,42.941722,868.408],[-1.980554,42.941699,864.47],[-1.980619,42.941678,860.556],[-1.980631,42.941632,858.289],[-1.98066,42.941587,856.827],[-1.98075,42.941575,856.44],[-1.98082,42.941569,854.136],[-1.980879,42.941546,853.139],[-1.980996,42.941506,852.952],[-1.981056,42.941483,853.618],[-1.981112,42.941454,854.498],[-1.981174,42.941442,854.917],[-1.981239,42.941435,854.408],[-1.981302,42.941419,854.585],[-1.981362,42.941394,853.011],[-1.981424,42.941369,853.364],[-1.98148,42.941347,853.592],[-1.981542,42.94133,854.075],[-1.981622,42.94131,854.741],[-1.981675,42.941287,853.574],[-1.981716,42.94124,853.647],[-1.981735,42.941189,853.717],[-1.981776,42.941142,854.187],[-1.981815,42.941099,854.815],[-1.981837,42.941037,854.808],[-1.981838,42.940988,854.465],[-1.981806,42.940946,853.481],[-1.981743,42.94089,852.414],[-1.981662,42.940859,852.292],[-1.981614,42.940826,852.935],[-1.981558,42.940775,853.741],[-1.981496,42.94072,854.654],[-1.981452,42.940676,855.167],[-1.981405,42.940644,855.015],[-1.981349,42.940603,856.265],[-1.981284,42.940567,855.311],[-1.981236,42.940538,854.808],[-1.981184,42.940497,858.845],[-1.981136,42.940451,862.891],[-1.981068,42.940448,862.174],[-1.981007,42.940432,866.112],[-1.980965,42.940386,870.145],[-1.980908,42.940364,872.941],[-1.980849,42.940342,871.854],[-1.980739,42.940342,867.837],[-1.980674,42.940328,863.865],[-1.980599,42.940311,859.868],[-1.980532,42.940286,863.814],[-1.980478,42.940239,867.808],[-1.980434,42.940207,871.88],[-1.980369,42.940165,875.886],[-1.980312,42.94014,879.859],[-1.980251,42.940123,879.967],[-1.980185,42.94009,883.91],[-1.980124,42.940072,887.976],[-1.979965,42.940098,891.969],[-1.979918,42.940067,894.452],[-1.979811,42.940035,890.477],[-1.979737,42.940016,886.461],[-1.979658,42.939995,882.427],[-1.979587,42.939967,878.408],[-1.979523,42.939937,874.421],[-1.979448,42.939908,870.457],[-1.979389,42.939878,874.47],[-1.979344,42.939845,878.468],[-1.979299,42.939803,882.441],[-1.979251,42.93975,886.457],[-1.979203,42.939699,882.48],[-1.97916,42.939643,878.463],[-1.979114,42.939599,874.424],[-1.979006,42.939577,870.404],[-1.978939,42.939555,866.414],[-1.978878,42.939532,862.408],[-1.978807,42.939508,858.426],[-1.978742,42.939498,854.432],[-1.978677,42.939496,858.475],[-1.978613,42.939495,854.493],[-1.978546,42.939488,850.416],[-1.978483,42.93948,846.432],[-1.978415,42.939469,842.475],[-1.978356,42.939455,838.458],[-1.978294,42.939456,842.453],[-1.978233,42.93944,839.504],[-1.97818,42.939408,835.514],[-1.978121,42.939382,831.708],[-1.978048,42.939372,827.799],[-1.977961,42.939372,823.755],[-1.977896,42.939349,820.668],[-1.977859,42.939295,818.446],[-1.977879,42.939252,815.979],[-1.977936,42.939233,813.615],[-1.977988,42.939205,811.038],[-1.978047,42.939185,808.211],[-1.97812,42.939168,806.567],[-1.978174,42.939145,805.181],[-1.978232,42.93911,803.919],[-1.978277,42.939065,803.208],[-1.978354,42.939042,802.43],[-1.978429,42.939033,802.336],[-1.978485,42.939014,801.499],[-1.978532,42.938977,799.787],[-1.978581,42.938936,799.53],[-1.978621,42.938896,799.456],[-1.978688,42.938864,798.939],[-1.97875,42.938846,797.852],[-1.978807,42.938814,796.723],[-1.978846,42.938773,794.983],[-1.978906,42.938759,794.211],[-1.978973,42.938783,792.208],[-1.979034,42.938801,791.046],[-1.979085,42.938827,790.332],[-1.979147,42.93885,790.345],[-1.979233,42.938878,789.173],[-1.979303,42.938909,788.496],[-1.979361,42.93894,788.082],[-1.979424,42.938963,787.365],[-1.979494,42.938982,786.188],[-1.979554,42.938996,785.433],[-1.979605,42.939027,784.223],[-1.979673,42.939041,781.915],[-1.979755,42.939044,780.108],[-1.979844,42.939043,777.027],[-1.979908,42.939047,775.643],[-1.979993,42.939032,774.366],[-1.980058,42.939024,773.534],[-1.980125,42.939013,773.047],[-1.980189,42.939009,771.553],[-1.980258,42.939013,771.096],[-1.980344,42.939029,770.359],[-1.980408,42.93904,769.563],[-1.980474,42.939034,770.244],[-1.980536,42.939015,771.018],[-1.980603,42.939,770.708],[-1.980665,42.939006,769.72],[-1.980724,42.939021,768.346],[-1.980785,42.939029,766.739],[-1.980844,42.939005,764.567],[-1.980808,42.938962,762.04],[-1.980754,42.938926,758.116],[-1.980706,42.938884,756.669],[-1.980678,42.938841,756.532],[-1.980628,42.938798,754.848],[-1.980574,42.938763,753.861],[-1.980509,42.938754,752.817],[-1.980438,42.938744,751.808],[-1.980373,42.938711,747.818],[-1.980319,42.938682,743.814],[-1.980307,42.938635,739.857],[-1.980371,42.938622,736.015],[-1.980445,42.938643,732.588],[-1.980506,42.938655,731.664],[-1.980569,42.938653,731.557],[-1.980644,42.93864,731.43],[-1.980724,42.938628,727.414],[-1.980781,42.938652,723.454],[-1.980851,42.938672,719.409],[-1.980931,42.938679,718.208],[-1.981001,42.938683,716.775],[-1.981057,42.938701,716.271],[-1.98112,42.938711,716.734],[-1.981183,42.938723,718.642],[-1.981257,42.938744,719.775],[-1.981319,42.938762,721.211],[-1.981397,42.938773,724.944],[-1.981466,42.938773,728.327],[-1.981516,42.938805,728.386],[-1.981542,42.938757,729.16],[-1.98151,42.938707,728.426],[-1.981465,42.938664,725.608],[-1.981452,42.938616,723.952],[-1.981446,42.938566,721.748],[-1.981433,42.93851,720.091],[-1.981426,42.938431,717.849],[-1.981379,42.938366,714.952],[-1.98144,42.938337,711.978],[-1.981471,42.93829,710.951],[-1.981485,42.938244,710.714],[-1.981535,42.938215,711.432],[-1.981599,42.938238,711.492],[-1.981651,42.93827,709.011],[-1.981707,42.938291,707.208],[-1.981766,42.93833,706.117],[-1.981809,42.938364,705.083],[-1.981856,42.9384,702.896],[-1.981928,42.938423,701.944],[-1.981986,42.938457,700.937],[-1.982055,42.938488,699.143],[-1.98213,42.938509,697.286],[-1.982192,42.93853,696.119],[-1.982257,42.938565,695.868],[-1.982337,42.93859,695.242],[-1.982399,42.938575,694.926],[-1.98239,42.938529,693.908],[-1.98236,42.938484,693.34],[-1.982322,42.938447,691.766],[-1.982262,42.938416,691.219],[-1.982223,42.938367,692.987],[-1.982215,42.938322,693.91],[-1.982212,42.938274,694.116],[-1.982199,42.938219,693.439],[-1.982168,42.938179,691.042],[-1.982157,42.93813,688.477],[-1.982152,42.938081,686.861],[-1.982145,42.938023,685.427],[-1.982139,42.937968,684.208],[-1.98214,42.937916,683.531],[-1.982146,42.93786,682.347],[-1.982144,42.937813,681.28],[-1.982141,42.937763,680.118],[-1.982142,42.937716,678.691],[-1.982168,42.937672,676.547],[-1.98224,42.937685,675.35],[-1.982275,42.937752,673.493],[-1.982308,42.937792,671.456],[-1.982369,42.937809,670.259],[-1.982421,42.937868,669.914],[-1.982462,42.93791,666.908],[-1.982509,42.937946,665.159],[-1.982559,42.937985,664.885],[-1.982602,42.938018,664.638],[-1.982653,42.938043,664.146],[-1.982707,42.938069,664.229],[-1.982777,42.938083,660.285],[-1.982838,42.93812,656.268],[-1.982911,42.938168,652.221],[-1.982968,42.938198,648.285],[-1.983018,42.938235,644.289],[-1.983065,42.93828,641.517],[-1.983113,42.938323,640.708],[-1.983148,42.938364,639.492],[-1.983191,42.938402,639.468],[-1.983257,42.938417,641.061],[-1.983332,42.938434,642.869],[-1.9834,42.938466,643.552],[-1.983454,42.938494,644.768],[-1.983529,42.938493,640.721],[-1.983567,42.938457,636.794],[-1.983535,42.938408,633.497],[-1.983517,42.938361,637.423],[-1.983515,42.938313,638.225],[-1.983503,42.938256,634.208],[-1.98348,42.938201,630.253],[-1.983434,42.938158,626.259],[-1.983392,42.938104,622.262],[-1.983373,42.938061,618.23],[-1.983339,42.938015,614.283],[-1.98332,42.937962,611.189],[-1.983298,42.937909,612.462],[-1.98327,42.937867,614.845],[-1.983268,42.937821,616.686],[-1.983334,42.937833,618.56],[-1.9834,42.937866,619.626],[-1.98348,42.937886,619.908],[-1.983552,42.937912,615.962],[-1.98361,42.937936,611.968],[-1.983661,42.937963,607.941],[-1.983735,42.937998,603.989],[-1.983818,42.938014,601.732],[-1.983887,42.93803,601.298],[-1.983964,42.938056,601.331],[-1.984025,42.938094,602.514],[-1.984111,42.938116,604.071],[-1.984064,42.93806,601.741],[-1.984088,42.938011,599.115],[-1.984084,42.937955,598.808],[-1.984094,42.937902,597.871],[-1.984167,42.937896,596.417],[-1.984248,42.937907,594.08],[-1.984306,42.937927,592.578],[-1.984359,42.937953,590.821],[-1.984421,42.937972,588.247],[-1.984471,42.938001,585.46],[-1.984529,42.938018,583.343],[-1.984608,42.938045,580.957],[-1.98467,42.93807,577.8],[-1.984728,42.938087,576.42],[-1.98479,42.938084,575.108],[-1.984855,42.938039,575.149],[-1.984875,42.937989,575.555],[-1.984854,42.937934,576.278],[-1.984852,42.937888,577.066],[-1.984833,42.937832,575.519],[-1.984776,42.937786,574.295],[-1.984716,42.937741,572.678],[-1.984668,42.937704,570.461],[-1.984613,42.93767,569.111],[-1.984611,42.937623,568.321],[-1.984604,42.937562,566.603],[-1.984624,42.937517,566.408],[-1.984666,42.937456,565.935],[-1.984739,42.937438,564.891],[-1.98482,42.937455,564.954],[-1.98488,42.937471,565.482],[-1.984943,42.937492,565.755],[-1.985014,42.937512,565.151],[-1.985023,42.937459,563.144],[-1.985018,42.937407,560.337],[-1.984993,42.937362,558.295],[-1.98495,42.937327,554.649],[-1.984932,42.937279,553.223],[-1.984934,42.937223,552.008],[-1.984935,42.937175,550.513],[-1.984913,42.937122,549.229],[-1.984885,42.937074,546.442],[-1.984863,42.937029,545.53],[-1.984848,42.93698,541.843],[-1.984825,42.936932,538.839],[-1.984799,42.936888,537.482],[-1.984798,42.936841,534.965],[-1.984801,42.936795,533.447],[-1.984751,42.936755,532.529],[-1.984679,42.936722,532.421],[-1.984612,42.936696,532.708],[-1.984531,42.936669,533.338],[-1.984473,42.93665,534.164],[-1.984422,42.936621,535.467],[-1.984379,42.936586,536.615],[-1.98433,42.936548,537.348],[-1.984277,42.936522,537.764],[-1.984243,42.936474,539.567],[-1.984183,42.936434,540.63],[-1.984125,42.936408,540.584],[-1.984059,42.936385,540.407],[-1.984,42.936351,538.817],[-1.983953,42.93631,536.208],[-1.98391,42.936263,534.232],[-1.98386,42.936217,530.228],[-1.983806,42.936169,526.291],[-1.983764,42.936132,522.239],[-1.983715,42.936082,521.412],[-1.983675,42.936029,522.938],[-1.983652,42.935962,524.611],[-1.98363,42.935917,525.644],[-1.983601,42.935874,527.091],[-1.983565,42.935836,526.781],[-1.983525,42.935788,525.719],[-1.983492,42.935749,525.908],[-1.983473,42.935696,525.643],[-1.983456,42.935647,525.499],[-1.983437,42.935598,525.362],[-1.983424,42.935554,524.84],[-1.983396,42.935506,523.723],[-1.983384,42.935446,523.139],[-1.983373,42.935401,523.572],[-1.983362,42.935349,522.545],[-1.983313,42.935317,521.539],[-1.983251,42.935313,519.701],[-1.983181,42.935309,518.221],[-1.983028,42.935266,515.708],[-1.98296,42.935235,514.637],[-1.982907,42.935211,514.723],[-1.982866,42.935177,514.826],[-1.982839,42.935135,514.964],[-1.982799,42.935099,514.567],[-1.982767,42.935048,512.733],[-1.98274,42.935003,514.856],[-1.982719,42.934953,513.799],[-1.982731,42.934895,512.276],[-1.982735,42.934811,511.39],[-1.982732,42.934756,510.819],[-1.982717,42.934711,508.908],[-1.982694,42.934655,508.531],[-1.982665,42.934605,506.337],[-1.982621,42.934557,505.49],[-1.98258,42.934514,504.818],[-1.982537,42.934479,504.541],[-1.982486,42.934443,503.997],[-1.982415,42.934409,503.16],[-1.982351,42.934372,503.043],[-1.982304,42.934336,503.838],[-1.982255,42.934298,503.97],[-1.982219,42.934261,504.317],[-1.982206,42.934216,506.208],[-1.982169,42.934178,507.387],[-1.98212,42.934126,508.023],[-1.982076,42.934067,509.236],[-1.982001,42.934032,509.074],[-1.982001,42.934032,509.047],[-1.982001,42.934032,509.023],[-1.981933,42.934006,507.876],[-1.981871,42.933972,507.519],[-1.981825,42.933936,508.184],[-1.981774,42.933901,508.107],[-1.981714,42.933853,508.517],[-1.981671,42.93381,508.708],[-1.981632,42.933762,508.452],[-1.981596,42.933723,507.868],[-1.98154,42.933677,507.531],[-1.98149,42.933647,506.969],[-1.981442,42.933606,507.762],[-1.981403,42.933565,509.478],[-1.981345,42.933524,508.461],[-1.981285,42.933495,508.254],[-1.98125,42.933445,506.549],[-1.981222,42.933394,504.702],[-1.981192,42.933339,503.222],[-1.981184,42.933294,502.708],[-1.981182,42.933239,503.268],[-1.981164,42.933185,503.554],[-1.981159,42.933139,503.787],[-1.981133,42.933094,503.425],[-1.981111,42.933043,502.828],[-1.981119,42.932983,502.134],[-1.981127,42.932927,500.937],[-1.981127,42.932879,500.24],[-1.981128,42.932828,499.899],[-1.981127,42.93276,499.507],[-1.981128,42.932697,498.927],[-1.981133,42.932646,498.608],[-1.981146,42.932596,497.213],[-1.981149,42.932551,495.669],[-1.981149,42.932505,495.492],[-1.981151,42.93245,494.91],[-1.981142,42.9324,493.413],[-1.98114,42.932354,492.139],[-1.981136,42.932301,490.982],[-1.981132,42.932249,489.415],[-1.981133,42.932202,488.171],[-1.981131,42.932155,487.741],[-1.981122,42.932109,487.515],[-1.981117,42.932061,486.208],[-1.981119,42.932016,485.471],[-1.981122,42.93197,484.977],[-1.981127,42.931906,484.22],[-1.981134,42.931855,483.438],[-1.981132,42.931802,482.521],[-1.981106,42.93175,482.457],[-1.981075,42.93171,483.16],[-1.981006,42.93169,483.573],[-1.980945,42.931679,484.247],[-1.980875,42.931658,483.829],[-1.980815,42.931643,484.021],[-1.980748,42.931661,484.108],[-1.980684,42.931661,484.628],[-1.980603,42.931656,484.124],[-1.980519,42.931646,483.847],[-1.980454,42.931654,483.265],[-1.980384,42.931672,483.248],[-1.980317,42.931672,482.834],[-1.980233,42.931664,482.217],[-1.980163,42.931656,481.45],[-1.980099,42.931658,480.571],[-1.980024,42.931662,480.041],[-1.97995,42.931668,479.315],[-1.979877,42.931663,479.308],[-1.979802,42.931657,479.731],[-1.979737,42.93166,479.997],[-1.979601,42.931659,479.65],[-1.979522,42.931667,479.068],[-1.97942,42.931668,477.991],[-1.979348,42.931664,476.877],[-1.979255,42.931673,476.22],[-1.979188,42.931674,476.623],[-1.979051,42.93168,476.873],[-1.978923,42.931683,477.385],[-1.978844,42.93168,478.013],[-1.978754,42.93168,479.208],[-1.978603,42.93168,480.781],[-1.97854,42.931681,481.217],[-1.978449,42.931684,481.94],[-1.978361,42.931693,481.938],[-1.978291,42.931691,482.771],[-1.978224,42.931685,482.817],[-1.978148,42.931691,482.56],[-1.978084,42.931693,482.333],[-1.97802,42.931696,482.652],[-1.977948,42.931693,483.653],[-1.977886,42.931688,484.208],[-1.977823,42.93169,483.708],[-1.977765,42.931666,483.859],[-1.977694,42.931653,483.995],[-1.977624,42.931635,483.998],[-1.977535,42.931635,484.366],[-1.977447,42.931618,485.479],[-1.977374,42.931588,485.635],[-1.977318,42.931565,484.938],[-1.977259,42.931544,484.911],[-1.977197,42.931518,484.949],[-1.977124,42.931483,484.502],[-1.977062,42.931452,484.322],[-1.976965,42.931395,484.208],[-1.976915,42.931365,483.788],[-1.976843,42.931327,481.864],[-1.976788,42.931301,480.727],[-1.976731,42.931273,480.065],[-1.976672,42.931245,479.618],[-1.976614,42.931217,479.474],[-1.976542,42.93118,478.987],[-1.976474,42.931139,478.69],[-1.976427,42.931107,478.069],[-1.97638,42.931075,477.604],[-1.976309,42.93104,477.424],[-1.97625,42.931008,477.708],[-1.976177,42.930969,477.51],[-1.976115,42.930944,477.016],[-1.976059,42.930922,477.179],[-1.976001,42.930894,476.757],[-1.975942,42.930868,476.53],[-1.975875,42.930837,476.476],[-1.975803,42.930793,475.559],[-1.97575,42.930765,474.252],[-1.97569,42.930737,474.622],[-1.975627,42.930692,475.262],[-1.975579,42.930658,476.008],[-1.975529,42.930628,476.508],[-1.975483,42.930589,477.226],[-1.975434,42.93055,478.832],[-1.975384,42.930515,479.835],[-1.975328,42.93048,480.813],[-1.97529,42.930444,481.446],[-1.975237,42.930413,482.692],[-1.975171,42.930382,482.545],[-1.975111,42.930357,482.448],[-1.975048,42.930331,481.676],[-1.974995,42.930301,480.79],[-1.974959,42.930258,479.419],[-1.974915,42.930219,479.808],[-1.974868,42.93018,480.851],[-1.974825,42.930147,481.817],[-1.974776,42.930118,481.69],[-1.9747,42.930102,481.978],[-1.974647,42.930072,482.161],[-1.974591,42.930043,482.217],[-1.97454,42.930016,481.94],[-1.974485,42.929981,481.773],[-1.974442,42.929946,481.251],[-1.974394,42.929909,481.701],[-1.974349,42.929869,482.811],[-1.97429,42.929832,484.308],[-1.974232,42.929804,485.239],[-1.974177,42.929781,485.765],[-1.974125,42.929756,485.248],[-1.974065,42.929728,484.976],[-1.974011,42.92969,483.929],[-1.973947,42.929663,483.745],[-1.973887,42.929641,483.298],[-1.973839,42.929603,482.521],[-1.973809,42.929563,481.379],[-1.973762,42.929521,480.605],[-1.973717,42.929484,479.825],[-1.973675,42.929446,478.908],[-1.973619,42.929414,480.841],[-1.97356,42.92939,481.987],[-1.97351,42.929364,482.62],[-1.973446,42.929342,482.618],[-1.973385,42.929319,483.881],[-1.973321,42.929299,484.127],[-1.973253,42.929275,483.16],[-1.973196,42.929256,483.763],[-1.973143,42.929219,483.764],[-1.973092,42.929184,484.506],[-1.973047,42.929152,485.416],[-1.972996,42.929124,486.308],[-1.972937,42.929106,484.93],[-1.972867,42.929101,483.246],[-1.972799,42.929084,482.629],[-1.972741,42.929057,481.857],[-1.972685,42.929032,482.18],[-1.972629,42.929002,483.166],[-1.97257,42.928964,484.549],[-1.972515,42.928941,485.362],[-1.972448,42.92894,486.273],[-1.97239,42.928924,486.785],[-1.97233,42.928896,487.413],[-1.972277,42.928871,487.808],[-1.972222,42.928844,488.131],[-1.97217,42.928818,488.737],[-1.972102,42.928787,488.66],[-1.972064,42.928739,488.638],[-1.971999,42.928722,489.081],[-1.971954,42.928691,488.867],[-1.971908,42.928659,487.98],[-1.971871,42.928615,487.813],[-1.971828,42.928575,486.946],[-1.971777,42.928529,485.688],[-1.971714,42.928477,484.416],[-1.971675,42.928438,484.108],[-1.971638,42.928377,482.738],[-1.971633,42.928332,481.584],[-1.971662,42.928289,480.827],[-1.971689,42.928244,480.015],[-1.971752,42.928145,478.788],[-1.971796,42.928089,477.914],[-1.971868,42.928006,476.637],[-1.971915,42.927945,475.84],[-1.971961,42.92789,474.556],[-1.971996,42.92785,473.359],[-1.972041,42.927798,472.214],[-1.972099,42.927734,471.108],[-1.972158,42.927674,469.769],[-1.972199,42.927625,468.085],[-1.972233,42.927581,467.028],[-1.972294,42.92749,466.816],[-1.97235,42.927419,466.719],[-1.972389,42.927352,465.875],[-1.972435,42.927295,464.938],[-1.972473,42.927245,464.761],[-1.972531,42.927188,464.256],[-1.972579,42.927146,463.159],[-1.972605,42.9271,461.614],[-1.972646,42.927062,460.708],[-1.972684,42.927023,459.469],[-1.972709,42.926972,458.295],[-1.972758,42.926921,457.198],[-1.972805,42.926885,456.036],[-1.972845,42.926831,455.459],[-1.972835,42.926772,455.475],[-1.972802,42.926734,456.278],[-1.972746,42.926676,456.771],[-1.972675,42.926628,457.054],[-1.972609,42.926604,458.056],[-1.972551,42.926581,459.411],[-1.972512,42.92654,458.208],[-1.972462,42.926505,457.539],[-1.972397,42.926465,456.345],[-1.972328,42.92643,456.028],[-1.972271,42.9264,457.066],[-1.972208,42.926378,458.049],[-1.972142,42.926354,458.695],[-1.972084,42.926336,459.458],[-1.972032,42.926309,460.331],[-1.971976,42.926275,460.495],[-1.971924,42.926248,460.549],[-1.97185,42.92622,460.523],[-1.971787,42.9262,461.708],[-1.97173,42.926183,462.013],[-1.971669,42.926162,461.499],[-1.971622,42.926126,461.462],[-1.971556,42.926084,461.06],[-1.97149,42.92605,459.663],[-1.971433,42.926024,459.539],[-1.971376,42.925999,457.572],[-1.971317,42.925971,456.715],[-1.971256,42.925943,456.223],[-1.971187,42.925913,455.983],[-1.971127,42.925888,456.511],[-1.971065,42.925864,457.308],[-1.971015,42.925837,457.496],[-1.97094,42.925804,457.472],[-1.970882,42.925777,457.085],[-1.970821,42.92575,458.063],[-1.970758,42.925721,458.276],[-1.9707,42.925693,459.122],[-1.970642,42.925667,459.285],[-1.970588,42.925641,459.738],[-1.970541,42.925609,460.457],[-1.970476,42.925575,460.4],[-1.970405,42.925543,461.22],[-1.970326,42.925525,462.508],[-1.970264,42.925511,462.559],[-1.970209,42.925485,462.975],[-1.970154,42.925454,463.158],[-1.970097,42.925414,462.836],[-1.97006,42.925373,462.269],[-1.970037,42.925323,461.975],[-1.970052,42.925266,460.948],[-1.970072,42.925216,461.191],[-1.9701,42.92516,462.078],[-1.970118,42.925116,462.633],[-1.970134,42.925064,462.926],[-1.970149,42.925013,461.508],[-1.970161,42.924964,460.321],[-1.970149,42.924899,459.237],[-1.97016,42.924849,458.59],[-1.970174,42.924802,457.748],[-1.970186,42.924752,457.621],[-1.970199,42.924701,457.567],[-1.970213,42.924645,457.56],[-1.970223,42.924588,457.963],[-1.970231,42.924531,457.748],[-1.970233,42.924479,457.261],[-1.970224,42.924426,456.517],[-1.970212,42.924377,455.708],[-1.970195,42.924318,455.258],[-1.970174,42.924269,454.544],[-1.970149,42.924227,454.117],[-1.970124,42.924182,454.235],[-1.970109,42.924129,453.988],[-1.970105,42.924072,453.354],[-1.970109,42.924007,454.127],[-1.970123,42.923946,454.22],[-1.97014,42.92389,454.796],[-1.97016,42.923834,454.631],[-1.970179,42.923788,454.524],[-1.970201,42.923723,454.108],[-1.970215,42.923671,453.833],[-1.970214,42.92362,453.659],[-1.970189,42.923577,453.932],[-1.970144,42.923539,452.94],[-1.970081,42.92351,452.353],[-1.970015,42.923472,451.979],[-1.969961,42.923442,452.152],[-1.969904,42.923414,453.095],[-1.969838,42.92339,453.912],[-1.969783,42.923369,454.532],[-1.969718,42.923361,454.405],[-1.969652,42.923318,454.408],[-1.969581,42.923282,455.235],[-1.969503,42.92325,456.181],[-1.969444,42.923226,457.044],[-1.969386,42.923203,457.632],[-1.969341,42.923166,457.135],[-1.969301,42.923128,456.831],[-1.969258,42.923094,456.234],[-1.969198,42.923069,456.347],[-1.969136,42.923057,455.512],[-1.969065,42.92305,455.432],[-1.969002,42.923069,454.605],[-1.968933,42.923077,454.508],[-1.968876,42.923104,454.495],[-1.968821,42.923125,453.671],[-1.968752,42.923136,453.534],[-1.968686,42.923154,453.872],[-1.96863,42.92318,455.295]]}}]}