{"type":"FeatureCollection","features":[{"type":"Feature","properties":{"ruta_id":"40712194","nombre":"⛰️ AUSA GAZTELU desde LARRAITZ ruta circular","blog_url":"https://www.rutasporelmonte.com/ausa-gaztelu-desde-larraitz/"},"geometry":{"type":"LineString","coordinates":[[-2.09734,43.036012,447.756],[-2.097292,43.035973,447.759],[-2.097263,43.035928,447.714],[-2.09724,43.035884,447.708],[-2.097213,43.035841,447.749],[-2.097179,43.035801,447.785],[-2.097135,43.035756,447.782],[-2.0971,43.035718,447.716],[-2.097057,43.035676,447.757],[-2.097031,43.035628,447.746],[-2.096987,43.035586,447.734],[-2.096922,43.035547,447.799],[-2.096871,43.035502,447.732],[-2.096836,43.035451,447.792],[-2.096816,43.035406,447.711],[-2.096798,43.035363,448.608],[-2.09676,43.035326,451.197],[-2.096706,43.03529,453.493],[-2.096673,43.035243,449.45],[-2.096664,43.035195,447.244],[-2.096613,43.035163,449.135],[-2.096571,43.035115,451.864],[-2.096526,43.035076,453.052],[-2.096494,43.035037,454.137],[-2.096442,43.034992,457.658],[-2.096392,43.034957,453.652],[-2.096362,43.034908,449.617],[-2.096328,43.034858,451.708],[-2.096282,43.034817,454.299],[-2.096237,43.034775,456.515],[-2.096197,43.034727,452.582],[-2.096148,43.034683,448.586],[-2.096114,43.034645,450.367],[-2.096088,43.034594,452.646],[-2.096061,43.034541,448.684],[-2.096034,43.034491,444.619],[-2.096013,43.034449,440.637],[-2.095986,43.034406,436.649],[-2.095976,43.034354,438.413],[-2.095982,43.0343,442.408],[-2.096006,43.034255,446.427],[-2.096031,43.034213,450.413],[-2.096075,43.034176,454.44],[-2.096115,43.034142,458.454],[-2.096141,43.034093,454.425],[-2.096192,43.034039,451.544],[-2.09624,43.034,447.512],[-2.096276,43.033955,447.337],[-2.096332,43.033919,451.361],[-2.096381,43.033889,455.321],[-2.096435,43.033851,459.313],[-2.096484,43.033819,463.208],[-2.096541,43.033786,467.26],[-2.096604,43.033765,469.966],[-2.096664,43.033744,471.923],[-2.096727,43.033718,473.127],[-2.096776,43.033688,473.478],[-2.096841,43.033664,473.617],[-2.096892,43.033629,474.525],[-2.096949,43.0336,470.54],[-2.097007,43.033562,469.556],[-2.097029,43.033509,469.359],[-2.097042,43.033464,470.414],[-2.097043,43.033419,470.608],[-2.097038,43.033374,470.349],[-2.09706,43.03333,470.165],[-2.097103,43.033279,471.652],[-2.097156,43.033248,472.936],[-2.097224,43.03323,474.117],[-2.097302,43.033205,475.686],[-2.09736,43.033188,471.654],[-2.097421,43.033168,467.629],[-2.09747,43.033137,463.633],[-2.097529,43.033098,462.923],[-2.097574,43.033062,465.715],[-2.097622,43.033026,461.708],[-2.097665,43.032985,460.217],[-2.097715,43.032941,463.793],[-2.09778,43.032913,467.78],[-2.097836,43.03288,471.774],[-2.097875,43.032837,475.755],[-2.097925,43.032796,471.784],[-2.097962,43.032759,473.092],[-2.098017,43.032718,477.027],[-2.098077,43.032676,481.037],[-2.098115,43.032635,483.449],[-2.098106,43.032551,487.413],[-2.098168,43.03251,491.408],[-2.098215,43.032479,495.247],[-2.098254,43.032441,497.553],[-2.098291,43.032395,500.17],[-2.09835,43.032355,502.434],[-2.098399,43.03232,503.835],[-2.098451,43.032287,504.274],[-2.098513,43.032257,504.152],[-2.09858,43.032233,503.237],[-2.098636,43.032213,502.726],[-2.098669,43.032167,502.847],[-2.098716,43.032122,503.211],[-2.098758,43.032084,503.908],[-2.098801,43.032046,504.786],[-2.098844,43.032001,505.632],[-2.098886,43.031963,506.919],[-2.09894,43.031933,508.583],[-2.098992,43.031907,504.544],[-2.099045,43.031867,500.543],[-2.099095,43.03183,500.391],[-2.09914,43.031794,496.396],[-2.099196,43.031767,493.021],[-2.099262,43.031743,489.041],[-2.099315,43.031708,486.605],[-2.099359,43.031676,489.208],[-2.099422,43.031645,493.236],[-2.099484,43.031614,489.292],[-2.099548,43.031575,485.249],[-2.099605,43.031544,481.253],[-2.099652,43.03151,484.744],[-2.099723,43.031489,488.733],[-2.099795,43.031465,492.771],[-2.099863,43.031443,496.736],[-2.099917,43.031421,500.732],[-2.099972,43.031394,504.792],[-2.10002,43.031362,500.711],[-2.100075,43.031321,500.408],[-2.100134,43.031287,503.077],[-2.100189,43.031255,507.033],[-2.10024,43.031208,511.02],[-2.100292,43.03117,507.024],[-2.100335,43.031128,503.055],[-2.100367,43.031086,500.234],[-2.100389,43.031037,504.272],[-2.100408,43.03099,508.257],[-2.100413,43.030942,512.294],[-2.100416,43.03089,516.257],[-2.100439,43.030843,520.222],[-2.100459,43.030795,522.508],[-2.100477,43.030743,524.313],[-2.100496,43.0307,524.679],[-2.100571,43.0307,525.626],[-2.100643,43.030701,526.66],[-2.100701,43.030678,526.881],[-2.10076,43.030657,525.77],[-2.100834,43.030658,525.828],[-2.1009,43.03066,526.353],[-2.100972,43.030668,526.293],[-2.101085,43.030661,527.365],[-2.101137,43.030637,529.221],[-2.101193,43.030609,530.308],[-2.101242,43.030576,532.243],[-2.101298,43.03055,534.559],[-2.101368,43.030528,534.796],[-2.101426,43.030505,534.81],[-2.101476,43.030469,536.511],[-2.101515,43.030421,537.11],[-2.101554,43.030386,537.598],[-2.101613,43.030359,538.953],[-2.101666,43.030335,541.477],[-2.101724,43.030299,543.361],[-2.101769,43.030255,544.027],[-2.101826,43.030225,544.008],[-2.101879,43.030199,543.211],[-2.101939,43.03017,542.387],[-2.102019,43.030156,541.014],[-2.102092,43.03014,539.778],[-2.102092,43.03014,539.779],[-2.102162,43.030142,540.688],[-2.10223,43.030117,540.786],[-2.102298,43.0301,541.251],[-2.102374,43.030114,541.976],[-2.102437,43.030133,543.59],[-2.102501,43.030141,544.919],[-2.102567,43.03016,546.108],[-2.102636,43.030166,546.461],[-2.102702,43.030182,546.667],[-2.102767,43.030175,547.994],[-2.102829,43.030173,547.948],[-2.102896,43.030187,548.339],[-2.102964,43.030206,549.338],[-2.103042,43.03019,548.376],[-2.103106,43.030166,548.141],[-2.103169,43.030138,548.456],[-2.103227,43.030112,548.659],[-2.103281,43.03009,544.614],[-2.103341,43.03005,540.608],[-2.103394,43.03001,536.639],[-2.103448,43.029979,533.555],[-2.103492,43.029944,534.032],[-2.103529,43.029901,538.066],[-2.103564,43.029859,542.017],[-2.10357,43.029809,544.756],[-2.103558,43.029755,547.594],[-2.10354,43.029711,549.229],[-2.103511,43.029667,550.281],[-2.103474,43.029628,551.661],[-2.103428,43.029593,553.617],[-2.103426,43.029548,556.408],[-2.10342,43.0295,556.952],[-2.103414,43.029453,556.498],[-2.103452,43.029404,555.795],[-2.103475,43.029359,555.389],[-2.103496,43.029315,556.21],[-2.103487,43.02927,556.449],[-2.103515,43.029225,557.717],[-2.103564,43.029172,557.362],[-2.103605,43.029119,557.447],[-2.103641,43.029071,558.329],[-2.103675,43.029029,560.421],[-2.10372,43.028995,561.708],[-2.103756,43.028948,562.148],[-2.103788,43.028905,563.114],[-2.103821,43.02886,564.171],[-2.103868,43.028828,564.335],[-2.103924,43.028806,566.046],[-2.103985,43.028781,567.485],[-2.104043,43.028756,567.133],[-2.104086,43.028721,566.188],[-2.10413,43.028686,564.341],[-2.104183,43.028635,562.081],[-2.10423,43.028603,560.609],[-2.104273,43.028565,559.808],[-2.104319,43.028524,560.548],[-2.104362,43.028486,563.334],[-2.10442,43.028448,563.811],[-2.104455,43.028411,564.915],[-2.104511,43.028369,566.476],[-2.104561,43.028333,567.765],[-2.104618,43.028305,568.173],[-2.104682,43.028286,568.358],[-2.104738,43.028243,568.028],[-2.104812,43.028225,568.289],[-2.104875,43.028186,568.317],[-2.104918,43.028143,568.008],[-2.104946,43.028095,568.246],[-2.105001,43.028051,568.342],[-2.105067,43.02801,568.459],[-2.105119,43.027972,567.263],[-2.105172,43.027933,566.584],[-2.10524,43.027911,566.543],[-2.105298,43.02788,566.151],[-2.105364,43.02785,565.996],[-2.105426,43.027829,566.681],[-2.105491,43.027796,566.661],[-2.105552,43.027763,567.817],[-2.105598,43.027727,570.508],[-2.10566,43.02769,569.752],[-2.105715,43.027662,569.688],[-2.105781,43.027641,569.245],[-2.105837,43.027622,571.349],[-2.105903,43.027593,572.27],[-2.105976,43.027567,572.759],[-2.106028,43.027534,572.227],[-2.10608,43.027499,572.322],[-2.106128,43.027454,571.252],[-2.106179,43.027417,569.353],[-2.106229,43.02738,568.608],[-2.106287,43.027346,566.608],[-2.10634,43.027318,565.899],[-2.106379,43.027281,564.985],[-2.106429,43.027251,566.462],[-2.106484,43.027225,567.756],[-2.106531,43.027182,568.137],[-2.106572,43.027144,569.566],[-2.106625,43.027097,569.684],[-2.106681,43.027063,570.029],[-2.106746,43.027044,570.321],[-2.106798,43.027,570.941],[-2.106859,43.026963,572.405],[-2.106914,43.026938,573.708],[-2.106963,43.026909,575.326],[-2.107004,43.026861,577.112],[-2.107012,43.026804,579.019],[-2.107039,43.026762,579.723],[-2.107085,43.026715,579.754],[-2.107136,43.026687,579.383],[-2.107191,43.02665,579.151],[-2.107235,43.02661,580.276],[-2.107289,43.026566,580.865],[-2.107339,43.026528,580.068],[-2.107397,43.026496,578.714],[-2.107448,43.026466,578.308],[-2.107483,43.026416,577.75],[-2.107501,43.026363,578.926],[-2.107538,43.026324,578.833],[-2.107583,43.026284,579.237],[-2.107625,43.02624,579.468],[-2.107663,43.0262,581.157],[-2.107714,43.026173,582.165],[-2.10777,43.026138,583.96],[-2.107812,43.026105,584.686],[-2.107828,43.026062,584.66],[-2.107873,43.026013,583.026],[-2.107893,43.025965,581.208],[-2.107913,43.025916,580.962],[-2.10794,43.025871,579.978],[-2.107971,43.025821,581.375],[-2.107999,43.025764,584.269],[-2.107997,43.025713,587.57],[-2.10804,43.025672,587.549],[-2.108088,43.025634,586.327],[-2.108117,43.025588,585.622],[-2.108202,43.025525,588.019],[-2.108233,43.025476,588.209],[-2.108249,43.025431,588.719],[-2.108283,43.025384,589.008],[-2.108322,43.025337,589.265],[-2.108373,43.025283,589.391],[-2.10843,43.025237,589.088],[-2.10848,43.025205,588.482],[-2.10853,43.025174,588.453],[-2.108585,43.025132,588.042],[-2.108599,43.025074,587.01],[-2.108563,43.025003,586.475],[-2.108524,43.024961,587.231],[-2.108475,43.024919,587.761],[-2.108399,43.024895,588.807],[-2.108338,43.024863,589.908],[-2.108303,43.024813,590.997],[-2.10825,43.024778,591.553],[-2.108184,43.024747,591.97],[-2.108132,43.024716,592.174],[-2.108075,43.024694,591.445],[-2.108011,43.024678,591.824],[-2.107959,43.024653,591.242],[-2.107911,43.024622,590.167],[-2.107865,43.024591,589.843],[-2.107816,43.024547,589.664],[-2.107772,43.024515,589.91],[-2.107717,43.024486,590.908],[-2.107648,43.024462,592.798],[-2.107544,43.024432,593.834],[-2.107477,43.024413,595.251],[-2.107438,43.024365,594.195],[-2.107376,43.024331,595.086],[-2.107369,43.024272,596.435],[-2.107378,43.024215,596.883],[-2.107381,43.024155,597.868],[-2.107374,43.024108,597.627],[-2.107324,43.024069,597.568],[-2.107295,43.024026,597.414],[-2.107278,43.023975,596.208],[-2.107276,43.023922,595.996],[-2.107297,43.023871,595.722],[-2.107324,43.023828,596.059],[-2.107364,43.023781,596.653],[-2.107408,43.023735,595.314],[-2.107426,43.023669,595.313],[-2.107433,43.023621,595.371],[-2.107426,43.023572,595.716],[-2.107416,43.023522,594.395],[-2.107384,43.02347,594.349],[-2.107335,43.023432,594.323],[-2.107291,43.023401,594.708],[-2.107256,43.023354,594.553],[-2.107213,43.023322,594.859],[-2.107158,43.0233,595.046],[-2.107098,43.023272,595.94],[-2.107038,43.023251,595.671],[-2.106987,43.023224,595.45],[-2.106922,43.023202,595.748],[-2.106866,43.023179,596.343],[-2.106808,43.023159,594.748],[-2.106735,43.023152,593.761],[-2.106669,43.02314,594.717],[-2.106659,43.02309,595.308],[-2.106661,43.023036,596.188],[-2.106667,43.022939,596.284],[-2.1066,43.022959,597.081],[-2.106537,43.022984,598.365],[-2.106463,43.022995,600.366],[-2.106406,43.02297,601.175],[-2.10636,43.022936,601.623],[-2.106318,43.022891,602.798],[-2.10628,43.022834,603.862],[-2.106241,43.022786,604.083],[-2.106193,43.022757,604.511],[-2.106131,43.022751,604.408],[-2.106072,43.022735,604.41],[-2.106007,43.022726,604.896],[-2.105936,43.022725,604.623],[-2.105862,43.022708,602.187],[-2.105788,43.022692,599.868],[-2.105727,43.022662,598.837],[-2.105688,43.022623,599.095],[-2.105654,43.022586,601.16],[-2.105598,43.022563,603.254],[-2.105556,43.022518,604.056],[-2.105528,43.022467,604.111],[-2.105485,43.02243,603.808],[-2.105446,43.02238,603.699],[-2.105402,43.022341,603.145],[-2.105368,43.022292,604.892],[-2.105345,43.022239,605.836],[-2.105292,43.022205,606.827],[-2.105237,43.02216,607.496],[-2.105198,43.022114,610.264],[-2.10516,43.022075,613.159],[-2.105145,43.022024,614.051],[-2.105155,43.021977,614.901],[-2.10512,43.021933,614.711],[-2.105041,43.021927,615.808],[-2.10499,43.02189,616.869],[-2.104965,43.021846,618.635],[-2.104958,43.021784,618.932],[-2.104952,43.021739,619.196],[-2.104931,43.021692,620.437],[-2.104914,43.021649,621.666],[-2.104898,43.021601,621.934],[-2.10486,43.021559,625.319],[-2.104873,43.021508,627.359],[-2.104863,43.021453,628.903],[-2.104831,43.021411,629.123],[-2.104836,43.021359,628.808],[-2.104835,43.021291,629.029],[-2.104851,43.021241,628.755],[-2.104857,43.021188,630.122],[-2.104854,43.021137,631.436],[-2.104833,43.021038,632.657],[-2.104747,43.02088,634.146],[-2.104726,43.020835,637.864],[-2.104699,43.020788,638.849],[-2.104695,43.020739,641.098],[-2.104661,43.020681,642.315],[-2.104605,43.020652,643.526],[-2.104579,43.020604,645.008],[-2.104527,43.020562,645.943],[-2.104483,43.020528,645.289],[-2.104502,43.020483,642.426],[-2.104481,43.020432,640.38],[-2.104472,43.020383,638.791],[-2.104434,43.020339,636.12],[-2.104403,43.020294,635.318],[-2.10435,43.020266,634.043],[-2.104293,43.020229,632.041],[-2.104257,43.020176,632.081],[-2.10422,43.02013,633.609],[-2.104194,43.020084,636.208],[-2.104185,43.020033,637.358],[-2.104164,43.019986,637.694],[-2.104135,43.019941,637.481],[-2.104114,43.019893,637.715],[-2.104067,43.019843,637.116],[-2.104027,43.019808,636.745],[-2.104011,43.019751,636.933],[-2.104007,43.019698,637.848],[-2.103973,43.019656,638.386],[-2.103933,43.019621,637.06],[-2.103801,43.019544,636.226],[-2.103753,43.019494,636.508],[-2.103711,43.019445,637.922],[-2.10365,43.019397,639.968],[-2.103588,43.019363,641.595],[-2.103525,43.019339,642.999],[-2.103461,43.019317,643.73],[-2.103409,43.019281,645.019],[-2.10339,43.019234,646.247],[-2.103338,43.019203,646.522],[-2.103299,43.019158,647.122],[-2.103295,43.019111,647.562],[-2.103304,43.01906,645.708],[-2.103345,43.019008,644.208],[-2.103379,43.018966,644.146],[-2.103477,43.018885,642.452],[-2.103525,43.018856,642.269],[-2.103582,43.018825,642.163],[-2.103639,43.018805,642.424],[-2.103697,43.018782,642.643],[-2.103765,43.018747,640.761],[-2.103837,43.018714,639.636],[-2.103906,43.018681,639.321],[-2.103964,43.018648,640.341],[-2.104041,43.018641,641.705],[-2.104118,43.018639,641.408],[-2.104191,43.018611,640.076],[-2.104242,43.018576,637.622],[-2.104311,43.018547,636.969],[-2.104381,43.018522,637.393],[-2.104445,43.018518,637.994],[-2.104517,43.018519,638.383],[-2.104593,43.018495,638.971],[-2.104673,43.018481,639.756],[-2.104764,43.018473,639.058],[-2.104838,43.018449,635.052],[-2.104903,43.01843,631.817],[-2.104972,43.018421,631.108],[-2.105045,43.018431,633.549],[-2.105113,43.018435,636.585],[-2.105187,43.018441,639.592],[-2.10525,43.018448,643.366],[-2.105321,43.018441,645.617],[-2.105383,43.018411,645.456],[-2.105448,43.01839,646.194],[-2.105515,43.018397,645.329],[-2.105585,43.018402,646.486],[-2.105656,43.018391,642.46],[-2.105721,43.01837,640.326],[-2.105751,43.018327,640.208],[-2.10575,43.018282,641.822],[-2.10575,43.018229,640.738],[-2.105751,43.018171,641.325],[-2.105752,43.018122,642.079],[-2.105757,43.018064,642.83],[-2.105817,43.018051,642.119],[-2.105878,43.018044,641.367],[-2.105888,43.017944,638.852],[-2.105925,43.017904,637.358],[-2.106005,43.017818,636.852],[-2.106059,43.017783,636.517],[-2.106127,43.017753,637.108],[-2.106183,43.017726,637.129],[-2.10623,43.017692,635.995],[-2.106269,43.017655,635.672],[-2.10631,43.017612,635.896],[-2.106344,43.017574,635.577],[-2.106388,43.017528,634.546],[-2.106432,43.017493,633.124],[-2.106484,43.017452,632.359],[-2.106542,43.017422,633.016],[-2.106585,43.017387,633.076],[-2.106619,43.017349,634.213],[-2.106653,43.017308,635.708],[-2.106702,43.017268,638.255],[-2.10674,43.017222,639.791],[-2.106761,43.01718,641.098],[-2.106798,43.017142,643.082],[-2.106846,43.017113,644.293],[-2.106895,43.017083,644.922],[-2.106936,43.017042,644.98],[-2.106975,43.017005,645.375],[-2.107037,43.016963,646.457],[-2.107085,43.016933,647.8],[-2.107141,43.016908,647.52],[-2.107196,43.016877,647.708],[-2.107205,43.016824,648.699],[-2.107225,43.016774,648.485],[-2.107255,43.01673,649.582],[-2.107315,43.01672,649.366],[-2.107415,43.016709,648.437],[-2.107488,43.016708,650.336],[-2.107551,43.016698,651.474],[-2.107573,43.01665,653.339],[-2.107529,43.016609,649.353],[-2.107474,43.016586,649.604],[-2.107414,43.016567,651.814],[-2.107375,43.01653,654.708],[-2.107318,43.016558,656.859],[-2.107247,43.016562,658.985],[-2.107183,43.016542,661.032],[-2.107131,43.016511,663.026],[-2.107082,43.016479,665.087],[-2.10705,43.016431,666.676],[-2.107014,43.016387,668.854],[-2.106945,43.016377,669.759],[-2.10688,43.016361,670.685],[-2.106813,43.016334,671.289],[-2.10676,43.016295,672.717],[-2.106731,43.016239,675.208],[-2.106682,43.016209,677.512],[-2.106652,43.016168,678.598],[-2.106664,43.01612,678.395],[-2.10661,43.01606,679.899],[-2.106704,43.016014,679.92],[-2.106764,43.015974,678.879],[-2.106811,43.015939,677.327],[-2.106867,43.015913,676.492],[-2.106935,43.01591,677.515],[-2.106997,43.015887,678.165],[-2.107057,43.015864,678.511],[-2.107114,43.01583,678.708],[-2.107169,43.015793,680.835],[-2.107236,43.015796,682.581],[-2.107314,43.015801,683.938],[-2.107378,43.015781,684.372],[-2.107422,43.015745,685.073],[-2.107473,43.015714,689.042],[-2.107509,43.015675,689.82],[-2.107548,43.015638,689.145],[-2.107579,43.015593,688.377],[-2.107617,43.015546,687.861],[-2.107675,43.015512,687.127],[-2.107736,43.015501,685.908],[-2.107802,43.015529,685.231],[-2.10786,43.015561,683.217],[-2.107918,43.015591,682.444],[-2.107986,43.015599,678.438],[-2.108057,43.015585,675.169],[-2.108115,43.015555,675.168],[-2.108196,43.015546,676.316],[-2.108272,43.015539,677.071],[-2.108344,43.015522,679.454],[-2.1084,43.01549,680.556],[-2.108437,43.015448,680.711],[-2.108457,43.015405,681.608],[-2.108475,43.015351,681.869],[-2.108519,43.015301,683.175],[-2.10855,43.01526,685.952],[-2.108543,43.015213,684.416],[-2.108643,43.015237,688.427],[-2.10873,43.015247,689.986],[-2.108794,43.015275,691.244],[-2.108859,43.015269,692.879],[-2.108938,43.015275,692.566],[-2.109002,43.015287,693.529],[-2.10907,43.01532,693.721],[-2.109114,43.015366,694.608],[-2.109121,43.015416,696.04],[-2.109142,43.015482,697.666],[-2.109164,43.015529,699.443],[-2.109184,43.015572,699.367],[-2.109207,43.015615,699.688],[-2.109232,43.015656,699.047],[-2.109303,43.015658,695.085],[-2.109381,43.015661,691.05],[-2.109446,43.015671,687.078],[-2.109509,43.015723,691.033],[-2.109584,43.015735,693.026],[-2.109656,43.015729,693.808],[-2.109715,43.015709,693.121],[-2.109777,43.015685,692.717],[-2.109832,43.01566,693.664],[-2.109885,43.015625,693.848],[-2.109938,43.015583,690.799],[-2.109988,43.015544,687.698],[-2.110015,43.015503,685.886],[-2.110056,43.015461,683.571],[-2.110077,43.015416,684.158],[-2.110122,43.015385,686.152],[-2.110188,43.015372,686.117],[-2.110234,43.015325,686.508],[-2.110267,43.015286,688.799],[-2.110289,43.015241,692.045],[-2.110348,43.015213,692.062],[-2.110416,43.015193,692.096],[-2.11049,43.015176,692.437],[-2.110568,43.015155,693.826],[-2.110617,43.015126,693.184],[-2.110683,43.015112,694.799],[-2.110721,43.01507,696.447],[-2.110743,43.015026,697.829],[-2.110777,43.014979,699.921],[-2.110815,43.01494,701.508],[-2.110877,43.014917,701.718],[-2.110939,43.014918,702.274],[-2.111007,43.014929,702.581],[-2.11107,43.014894,703.195],[-2.11112,43.014854,703.116],[-2.111155,43.014812,703.995],[-2.111188,43.01476,704.813],[-2.111209,43.014714,705.718],[-2.111254,43.014683,708.341],[-2.111273,43.014635,709.481],[-2.11134,43.014635,711.709],[-2.1114,43.014617,712.708],[-2.111469,43.014604,713.398],[-2.111535,43.014612,713.264],[-2.111598,43.014608,715.671],[-2.111673,43.014595,719.055],[-2.11174,43.014604,720.366],[-2.111808,43.014621,721.945],[-2.11188,43.014627,724.843],[-2.111939,43.014602,728.298],[-2.112002,43.014599,729.887],[-2.112074,43.014585,730.042],[-2.112159,43.014594,731.326],[-2.112221,43.014609,727.308],[-2.11228,43.014594,725.752],[-2.112344,43.014594,729.178],[-2.112413,43.014599,733.175],[-2.112477,43.014627,737.179],[-2.112543,43.014637,740.81],[-2.112605,43.014634,743.099],[-2.112725,43.014617,743.517],[-2.112784,43.014632,747.432],[-2.112851,43.014616,750.928],[-2.112891,43.014579,753.089],[-2.112961,43.014591,752.717],[-2.113028,43.014594,752.908],[-2.113094,43.014593,751.886],[-2.113147,43.014566,747.862],[-2.11316,43.014514,743.819],[-2.113196,43.014467,739.883],[-2.113222,43.014423,735.824],[-2.113256,43.014385,731.863],[-2.1133,43.014337,727.851],[-2.113343,43.014296,723.866],[-2.113388,43.014265,719.889],[-2.113447,43.014238,715.806],[-2.113495,43.014206,718.026],[-2.113544,43.014178,722.008],[-2.113595,43.014129,726.062],[-2.113627,43.014084,730.028],[-2.113669,43.014041,733.745],[-2.113753,43.014011,735.979],[-2.113785,43.013971,739.93],[-2.113817,43.013931,743.239],[-2.113851,43.01389,747.247],[-2.113889,43.013848,750.042],[-2.113936,43.013808,752.954],[-2.113965,43.013761,748.956],[-2.114023,43.013743,744.911],[-2.114103,43.013749,745.408],[-2.114153,43.013779,746.199],[-2.114201,43.013813,748.525],[-2.114246,43.013847,751.672],[-2.114288,43.013884,747.646],[-2.114348,43.013916,743.657],[-2.114392,43.01395,739.686],[-2.114426,43.013992,741.074],[-2.114482,43.014021,745.099],[-2.11453,43.014058,749.012],[-2.114566,43.0141,753.032],[-2.114589,43.014142,757.005],[-2.114602,43.014189,761.008],[-2.114644,43.014222,765.025],[-2.11466,43.014268,761.031],[-2.114724,43.014272,765.048],[-2.114791,43.01429,769.092],[-2.114852,43.014301,773.033],[-2.114906,43.014328,777.082],[-2.11496,43.01436,781.01],[-2.115009,43.014387,785.045],[-2.115061,43.014415,789.049],[-2.115128,43.014413,793.002],[-2.115189,43.014434,797.022],[-2.115253,43.014455,801.008],[-2.115308,43.014489,805.018],[-2.115373,43.014511,809.044],[-2.115428,43.014537,813.041],[-2.115495,43.014534,817.045],[-2.115559,43.014552,821.036],[-2.115577,43.014614,825.055],[-2.115615,43.014655,829.093],[-2.115581,43.0147,833.058],[-2.115615,43.014739,837.082],[-2.115684,43.014739,841.043],[-2.115671,43.014784,845.017],[-2.115657,43.014831,849.008],[-2.115656,43.014879,853.092],[-2.115706,43.014916,857.088],[-2.115679,43.014966,861.095],[-2.115659,43.015013,865.079],[-2.115634,43.015059,869.04],[-2.115591,43.0151,873.079],[-2.115575,43.015146,877.047],[-2.115535,43.015184,881.082],[-2.115517,43.015228,885.013],[-2.115484,43.015269,889.043],[-2.11546,43.015313,893.007],[-2.11544,43.01536,897.008],[-2.115448,43.01541,901.015],[-2.115462,43.015456,903.531],[-2.11547,43.015504,905.028],[-2.115483,43.015563,907.552],[-2.115479,43.015615,907.473],[-2.11547,43.015689,903.442],[-2.11551,43.015651,899.46],[-2.115554,43.015617,895.485],[-2.1156,43.015582,891.453],[-2.115687,43.01557,887.404],[-2.115794,43.015549,891.414],[-2.11586,43.015543,895.408],[-2.115934,43.01554,899.459],[-2.115999,43.015537,903.475],[-2.11606,43.015529,907.482],[-2.116059,43.015576,911.486],[-2.115994,43.015586,915.427],[-2.116004,43.015631,919.446],[-2.116071,43.01563,923.444],[-2.116097,43.015586,927.469],[-2.116081,43.015542,931.424],[-2.116083,43.015589,935.404],[-2.116035,43.015622,939.314],[-2.116001,43.015564,942.508],[-2.115966,43.015526,942.846],[-2.115878,43.015521,938.872],[-2.115816,43.015527,937.059],[-2.115749,43.01553,935.143],[-2.115712,43.015567,931.174],[-2.115648,43.01555,927.143],[-2.11558,43.015544,923.151],[-2.115559,43.015499,919.126],[-2.115583,43.015457,915.172],[-2.115628,43.015423,911.113],[-2.115639,43.015374,907.114],[-2.115642,43.015319,904.008],[-2.115655,43.015262,904.131],[-2.115652,43.015214,903.857],[-2.115651,43.015165,902.494],[-2.115588,43.015168,901.248],[-2.11552,43.015181,900.579],[-2.115441,43.015191,900.138],[-2.115443,43.015144,899.446],[-2.11549,43.015105,898.281],[-2.115537,43.015052,894.296],[-2.115575,43.015016,890.231],[-2.115602,43.014965,886.224],[-2.115618,43.014915,882.208],[-2.115637,43.014867,881.183],[-2.115656,43.014818,878.819],[-2.115692,43.014781,877.416],[-2.115693,43.014732,876.68],[-2.115652,43.014688,873.761],[-2.115619,43.01465,871.69],[-2.115593,43.014604,875.158],[-2.11556,43.014556,872.423],[-2.115503,43.014518,869.694],[-2.11545,43.014481,865.957],[-2.115373,43.014454,862.522],[-2.115301,43.014436,860.908],[-2.115239,43.014419,859.163],[-2.115164,43.014426,857.279],[-2.115097,43.014429,856.176],[-2.115035,43.0144,854.29],[-2.114991,43.014367,851.571],[-2.114947,43.014332,849.19],[-2.114877,43.014306,847.248],[-2.114815,43.014283,844.933],[-2.114743,43.014269,842.399],[-2.114686,43.01424,840.707],[-2.114665,43.014194,838.627],[-2.114596,43.014178,835.308],[-2.114522,43.014153,832.563],[-2.114468,43.014114,830.899],[-2.114421,43.01408,828.646],[-2.114375,43.014047,826.52],[-2.114361,43.013991,825.661],[-2.114334,43.013947,824.33],[-2.114259,43.013965,823.528],[-2.114204,43.013933,821.023],[-2.114116,43.013879,817.923],[-2.114066,43.013848,815.683],[-2.114018,43.013807,813.011],[-2.113982,43.013768,811.908],[-2.113946,43.013723,810.416],[-2.113916,43.013675,809.532],[-2.113915,43.013628,809.089],[-2.113913,43.013572,807.923],[-2.113915,43.013509,807.274],[-2.113903,43.01346,806.433],[-2.113888,43.013413,806.331],[-2.113864,43.01337,805.966],[-2.113854,43.013321,806.074],[-2.11384,43.013265,805.356],[-2.11381,43.013224,804.921],[-2.113771,43.013186,805.008],[-2.113757,43.013135,805.171],[-2.113772,43.013081,805.697],[-2.113701,43.013078,807.574],[-2.113627,43.013084,808.698],[-2.113566,43.013063,810.129],[-2.113503,43.013055,811.088],[-2.113441,43.013078,811.576],[-2.113373,43.013103,811.871],[-2.113368,43.013057,811.237],[-2.113352,43.013005,811.649],[-2.113335,43.012954,813.113],[-2.113275,43.012922,814.408],[-2.113216,43.012906,816.037],[-2.113165,43.012867,818.173],[-2.113114,43.012833,819.07],[-2.113076,43.012792,818.724],[-2.113033,43.012748,817.795],[-2.112995,43.012708,817.134],[-2.112967,43.012667,817.222],[-2.112955,43.012616,818.097],[-2.112951,43.012563,819.734],[-2.112941,43.012518,823.755],[-2.112939,43.01246,826.31],[-2.112962,43.012417,827.508],[-2.112888,43.012398,827.827],[-2.112818,43.012393,828.043],[-2.112762,43.012365,828.92],[-2.112709,43.012337,829.824],[-2.112663,43.012305,831.685],[-2.112637,43.01226,833.174],[-2.112599,43.012224,834.092],[-2.112563,43.012185,836.187],[-2.112533,43.012143,836.671],[-2.112497,43.012097,838.141],[-2.112469,43.012051,839.015],[-2.112408,43.012059,839.508],[-2.112374,43.012017,839.061],[-2.112338,43.011973,839.127],[-2.112295,43.011934,840.484],[-2.112257,43.011898,842.498],[-2.112211,43.011864,843.619],[-2.112171,43.011825,844.738],[-2.112121,43.011796,845.426],[-2.112063,43.011773,847.061],[-2.112017,43.011737,849.298],[-2.111989,43.011689,852.115],[-2.111943,43.011654,854.626],[-2.111897,43.011623,856.108],[-2.111864,43.011581,857.823],[-2.111792,43.01156,858.889],[-2.111723,43.011571,859.436],[-2.111673,43.011608,860.21],[-2.111632,43.011651,861.121],[-2.111597,43.011691,861.64],[-2.111544,43.011714,865.698],[-2.11148,43.011737,869.683],[-2.111423,43.011766,873.621],[-2.111364,43.011745,870.741],[-2.111319,43.011689,868.205],[-2.11125,43.011685,867.508],[-2.11118,43.011684,869.536],[-2.111119,43.01167,872.312],[-2.111053,43.011678,874.079],[-2.110987,43.011678,875.023],[-2.110924,43.011668,876.074],[-2.110858,43.011654,877.893],[-2.110789,43.011651,880.161],[-2.110719,43.011658,880.746],[-2.11066,43.011632,881.859],[-2.110586,43.011628,885.303],[-2.110522,43.011633,887.023],[-2.110442,43.011661,888.408],[-2.110369,43.011689,888.839],[-2.110394,43.011647,889.995],[-2.110437,43.01161,890.132],[-2.110495,43.011576,890.626],[-2.110547,43.01154,889.787],[-2.110557,43.01149,890.056],[-2.110616,43.011464,889.494],[-2.110659,43.011427,888.279],[-2.110711,43.011391,887.113],[-2.110773,43.011366,886.843],[-2.110846,43.011331,887.807],[-2.110896,43.011301,889.208],[-2.110959,43.011278,890.935],[-2.111021,43.01125,891.961],[-2.111062,43.011216,892.538],[-2.111103,43.011169,892.912],[-2.111143,43.011123,892.783],[-2.111172,43.011059,893.862],[-2.111102,43.011042,897.38],[-2.111031,43.011033,900.215],[-2.110956,43.01104,902.364],[-2.110888,43.011046,904.406],[-2.110819,43.01105,905.616],[-2.110756,43.01107,906.308],[-2.110685,43.011064,907.19],[-2.110616,43.011056,907.656],[-2.110551,43.011044,911.643],[-2.110486,43.011052,915.617],[-2.110423,43.011044,916.778],[-2.110359,43.011043,917.067],[-2.110295,43.011035,917.625],[-2.110235,43.011047,918.71],[-2.110162,43.011069,920.684],[-2.110109,43.011094,922.107],[-2.110039,43.011106,923.817],[-2.109979,43.011092,924.408],[-2.109916,43.011091,925.222],[-2.109844,43.011101,928.158],[-2.109779,43.011094,929.835],[-2.109718,43.011112,930.439],[-2.109654,43.011115,930.42],[-2.109617,43.011077,930.479],[-2.109657,43.011037,931.237],[-2.109702,43.011005,932.942],[-2.109765,43.010979,934.321],[-2.109821,43.01095,935.541],[-2.109873,43.010917,936.205],[-2.109919,43.010886,938.208],[-2.109951,43.010845,939.056],[-2.109981,43.010801,940.772],[-2.11003,43.010767,941.789],[-2.110074,43.010726,943.583],[-2.110117,43.010687,945.044],[-2.110148,43.010641,946.323],[-2.110173,43.010598,947.561],[-2.110217,43.010564,949.456],[-2.110269,43.010531,950.918],[-2.110314,43.010495,951.898],[-2.110319,43.010448,952.817],[-2.11026,43.010428,953.008],[-2.110244,43.010377,952.375],[-2.110214,43.010334,951.131],[-2.11018,43.010289,951.288],[-2.110159,43.010242,951.222],[-2.110176,43.010195,952.453],[-2.110193,43.010151,953.922],[-2.110121,43.01016,955.24],[-2.110056,43.010174,956.425],[-2.109988,43.010188,957.188],[-2.109921,43.010199,956.724],[-2.109842,43.010204,956.526],[-2.109781,43.010211,957.208],[-2.109717,43.010235,958.052],[-2.109662,43.010256,958.988],[-2.109604,43.010276,959.455],[-2.10954,43.010288,960.199],[-2.109476,43.010304,960.97],[-2.109415,43.010334,961.449],[-2.109358,43.010364,961.737],[-2.109308,43.010395,961.932],[-2.109258,43.010429,962.095],[-2.109209,43.010457,962.549],[-2.109158,43.010487,963.623],[-2.109103,43.010515,963.808],[-2.109047,43.010539,964.793],[-2.108999,43.010568,965.399],[-2.108947,43.010597,965.216],[-2.10888,43.01062,965.61],[-2.10882,43.010649,966.291],[-2.108763,43.010669,967.03],[-2.108697,43.010686,967.178],[-2.108629,43.010688,965.923],[-2.108558,43.01071,966.016],[-2.108494,43.010724,966.176],[-2.108426,43.010735,967.713],[-2.108362,43.010744,968.308],[-2.108289,43.010757,968.245],[-2.108225,43.010767,967.841],[-2.108161,43.01076,967.598],[-2.1081,43.010753,967.772],[-2.108039,43.010761,967.423],[-2.107974,43.010785,968.082],[-2.107901,43.010783,968.07],[-2.107828,43.010789,968.075],[-2.10776,43.0108,968.446],[-2.10769,43.010827,969.088],[-2.107621,43.010848,969.816],[-2.107556,43.010858,971.108],[-2.107499,43.010876,971.548],[-2.107437,43.010879,971.714],[-2.107375,43.010881,972.691],[-2.107312,43.010892,974.425],[-2.107242,43.010925,975.986],[-2.107173,43.010948,976.895],[-2.107104,43.010973,978.173],[-2.107042,43.010991,978.918],[-2.106971,43.010999,978.612],[-2.106893,43.011025,978.032],[-2.106832,43.01104,978.005],[-2.106771,43.011048,977.608],[-2.106705,43.011051,977.455],[-2.106652,43.011083,976.961],[-2.106595,43.011123,976.238],[-2.106535,43.011149,976.282],[-2.106475,43.011168,976.293],[-2.106402,43.011161,976.682],[-2.106336,43.011176,977.27],[-2.106267,43.011164,978.435],[-2.106202,43.011155,979.135],[-2.106135,43.011175,979.586],[-2.106077,43.011198,979.814],[-2.106026,43.011223,980.008],[-2.106021,43.011269,979.737],[-2.10599,43.011315,978.313],[-2.105913,43.011333,979.15],[-2.105845,43.011341,978.814],[-2.105762,43.011346,979.045],[-2.105696,43.011356,979.554],[-2.105629,43.011371,980.692],[-2.105561,43.011387,980.987],[-2.105492,43.011405,981.563],[-2.105444,43.011433,982.644],[-2.105392,43.011463,984.118],[-2.105331,43.011485,984.608],[-2.105274,43.011504,985.31],[-2.105213,43.01152,986.136],[-2.105157,43.011541,986.643],[-2.105096,43.011558,986.537],[-2.105037,43.011576,986.048],[-2.104964,43.011588,986.597],[-2.104882,43.011614,986.015],[-2.104831,43.011647,986.98],[-2.104775,43.011673,987.469],[-2.104715,43.011698,986.904],[-2.104652,43.011737,986.224],[-2.104581,43.011758,986.608],[-2.104522,43.011782,986.48],[-2.104467,43.011806,985.536],[-2.10443,43.011849,985.033],[-2.104386,43.011885,985.167],[-2.104335,43.011914,985.158],[-2.104275,43.01195,985.147],[-2.104223,43.011983,985.155],[-2.10416,43.012021,985.92],[-2.104102,43.012053,986.418],[-2.104052,43.012082,987.198],[-2.103998,43.012108,987.517],[-2.10394,43.012132,988.508],[-2.103882,43.012154,989.595],[-2.103826,43.012176,990.571],[-2.103768,43.012205,991.138],[-2.1037,43.012235,991.572],[-2.103637,43.012258,991.743],[-2.10358,43.012281,992.222],[-2.103514,43.012298,991.32],[-2.103447,43.012318,990.885],[-2.103379,43.012338,989.755],[-2.103312,43.012358,989.407],[-2.103251,43.01238,989.217],[-2.10318,43.012407,989.508],[-2.103124,43.012432,990.149],[-2.103066,43.012457,989.625],[-2.102999,43.012474,989.752],[-2.102941,43.012459,989.866],[-2.102874,43.012496,989.877],[-2.102812,43.012527,989.816],[-2.10275,43.01256,990.264],[-2.10269,43.012574,989.759],[-2.102629,43.012583,989.848],[-2.102564,43.012593,990.261],[-2.102504,43.012607,990.117],[-2.102536,43.012588,996.908],[-2.102614,43.012559,998.168],[-2.102583,43.012517,998.814],[-2.102518,43.012527,999.611],[-2.10244,43.012533,1000.155],[-2.102369,43.01252,1000.016],[-2.102306,43.01251,999.975],[-2.102233,43.012515,999.943],[-2.102162,43.012523,1000.398],[-2.1021,43.012525,1000.521],[-2.102036,43.01251,1001.841],[-2.101969,43.012518,1002.205],[-2.1019,43.012509,1002.408],[-2.101839,43.012525,1002.976],[-2.101808,43.012568,1004.482],[-2.101753,43.012589,1006.149],[-2.101713,43.012629,1008.353],[-2.101644,43.012639,1010.864],[-2.101605,43.012674,1012.313],[-2.101551,43.012702,1014.021],[-2.101494,43.012727,1015.856],[-2.101438,43.012755,1018.971],[-2.101367,43.012766,1021.241],[-2.101304,43.012785,1025.215],[-2.101239,43.012796,1029.008],[-2.101173,43.012806,1029.731],[-2.10111,43.012811,1030.997],[-2.101069,43.012847,1034.034],[-2.101009,43.012858,1035.978],[-2.100954,43.012881,1035.819],[-2.100891,43.01289,1037.058],[-2.100833,43.012905,1037.746],[-2.100767,43.012896,1038.531],[-2.100715,43.01292,1039.097],[-2.100675,43.012959,1040.523],[-2.100655,43.013017,1042.625],[-2.100597,43.01304,1045.508],[-2.100537,43.013061,1048.013],[-2.100473,43.013045,1050.349],[-2.100408,43.013037,1052.936],[-2.100338,43.013053,1054.54],[-2.100287,43.013079,1056.611],[-2.100233,43.013105,1057.57],[-2.100172,43.01312,1058.478],[-2.100117,43.013143,1059.883],[-2.100056,43.013167,1061.438],[-2.099989,43.013185,1062.87],[-2.09993,43.013204,1064.017],[-2.099865,43.013213,1064.708],[-2.099801,43.013218,1065.577],[-2.09975,43.013247,1066.013],[-2.099679,43.013247,1067.13],[-2.099614,43.013266,1068.254],[-2.099559,43.013301,1068.075],[-2.099506,43.01333,1068.334],[-2.099453,43.013367,1068.942],[-2.099395,43.013406,1069.637],[-2.099341,43.013431,1070.477],[-2.099278,43.013465,1071.761],[-2.099234,43.013497,1072.527],[-2.099189,43.01354,1073.408],[-2.099136,43.01358,1073.531],[-2.0991,43.013617,1072.867],[-2.099065,43.013663,1072.894],[-2.099022,43.013698,1072.828],[-2.098969,43.013739,1073.619],[-2.098912,43.013771,1073.718],[-2.098874,43.013808,1073.746],[-2.098816,43.013844,1073.341],[-2.098756,43.013871,1073.141],[-2.098699,43.0139,1072.681],[-2.098633,43.013927,1071.509],[-2.098584,43.013956,1070.408],[-2.098541,43.013991,1070.218],[-2.098493,43.014019,1070.144],[-2.09843,43.014065,1070.021],[-2.098379,43.014095,1069.115],[-2.098297,43.014123,1069.416],[-2.098247,43.01416,1070.085],[-2.098203,43.014198,1070.743],[-2.098165,43.014256,1070.758],[-2.098106,43.014311,1070.736],[-2.098049,43.014359,1071.117],[-2.098005,43.014397,1071.818],[-2.097958,43.014435,1071.408],[-2.097896,43.014431,1071.647],[-2.097843,43.014454,1071.723],[-2.097785,43.014483,1072.21],[-2.097707,43.014509,1072.934],[-2.097653,43.01454,1073.725],[-2.097626,43.01459,1075.044],[-2.097584,43.014628,1074.652],[-2.097525,43.014645,1073.587],[-2.097471,43.014674,1072.536],[-2.097445,43.014724,1071.917],[-2.097389,43.014749,1071.118],[-2.097354,43.014789,1071.008],[-2.097309,43.014827,1071.447],[-2.097262,43.014864,1072.093],[-2.097212,43.014905,1071.21],[-2.097156,43.014934,1071.194],[-2.097109,43.014973,1071.075],[-2.097059,43.015002,1071.824],[-2.097015,43.015044,1072.322],[-2.096955,43.015061,1072.627],[-2.096902,43.015097,1072.861],[-2.096843,43.015126,1072.921],[-2.096779,43.015151,1073.813],[-2.096721,43.015171,1074.708],[-2.096662,43.015194,1075.67],[-2.096611,43.015227,1076.286],[-2.096562,43.015256,1076.563],[-2.096535,43.015297,1075.997],[-2.096526,43.015345,1075.118],[-2.096522,43.015393,1073.437],[-2.096515,43.015441,1071.265],[-2.096466,43.015501,1068.73],[-2.096449,43.015546,1067.251],[-2.096426,43.01559,1065.901],[-2.09641,43.015646,1064.311],[-2.096377,43.015692,1062.508],[-2.096335,43.015738,1060.619],[-2.096317,43.015788,1059.165],[-2.096303,43.015832,1057.452],[-2.096275,43.015891,1057.246],[-2.096246,43.015943,1057.567],[-2.09621,43.015982,1057.786],[-2.096189,43.01603,1055.864],[-2.096158,43.01607,1053.519],[-2.096158,43.016119,1051.772],[-2.096126,43.016162,1048.213],[-2.096112,43.016212,1044.914],[-2.096124,43.016263,1042.508],[-2.096121,43.016317,1040.321],[-2.096122,43.016377,1039.467],[-2.096132,43.016441,1038.464],[-2.096107,43.016484,1035.478],[-2.096102,43.01653,1032.869],[-2.096128,43.016582,1031.258],[-2.09615,43.016627,1029.546],[-2.096174,43.016679,1027.381],[-2.096219,43.016715,1024.441],[-2.096245,43.016759,1021.881],[-2.096269,43.016803,1018.709],[-2.096338,43.016798,1016.408],[-2.096405,43.016815,1015.458],[-2.096468,43.016823,1013.664],[-2.096533,43.016824,1012.531],[-2.096603,43.016812,1011.915],[-2.096677,43.016808,1011.576],[-2.09675,43.016809,1009.335],[-2.096811,43.016821,1007.213],[-2.096878,43.016824,1005.158],[-2.096941,43.016844,1002.731],[-2.096964,43.016894,1000.461],[-2.096956,43.016945,999.007],[-2.096956,43.016992,997.808],[-2.096995,43.017028,996.317],[-2.097014,43.017072,995.843],[-2.097031,43.017174,993.92],[-2.097031,43.017174,993.934],[-2.097031,43.017174,993.985],[-2.097031,43.017174,993.934],[-2.096972,43.017198,993.632],[-2.096899,43.017188,992.647],[-2.096841,43.017204,990.818],[-2.096817,43.017254,988.598],[-2.096801,43.017307,986.317],[-2.096828,43.017351,985.408],[-2.096766,43.017368,981.475],[-2.096765,43.017418,977.741],[-2.096832,43.01742,973.948],[-2.09684,43.017471,970.842],[-2.096776,43.017502,968.113],[-2.096724,43.017542,966.152],[-2.096679,43.017585,965.35],[-2.096634,43.017621,964.475],[-2.09662,43.017669,963.167],[-2.096567,43.017705,962.381],[-2.096531,43.017742,961.419],[-2.096521,43.017787,960.108],[-2.096503,43.017836,958.97],[-2.09653,43.017885,957.896],[-2.096526,43.017932,957.173],[-2.096485,43.017966,956.327],[-2.096445,43.018007,954.618],[-2.096394,43.018037,952.027],[-2.096349,43.018083,949.665],[-2.096345,43.01813,947.04],[-2.096313,43.018179,945.095],[-2.096281,43.01822,943.049],[-2.096231,43.018268,941.023],[-2.096182,43.018311,939.008],[-2.096127,43.018339,937.083],[-2.096069,43.018368,935.839],[-2.096027,43.018403,935.116],[-2.095987,43.018449,935.56],[-2.095943,43.018485,935.361],[-2.095887,43.018532,935.26],[-2.095837,43.018571,934.788],[-2.095778,43.018614,934.053],[-2.095714,43.018648,933.627],[-2.095672,43.018686,932.268],[-2.095601,43.018725,932.114],[-2.095533,43.018745,932.108],[-2.09546,43.018761,932.186],[-2.095405,43.018786,931.382],[-2.095413,43.018834,928.419],[-2.095445,43.018892,926.753],[-2.095491,43.01893,924.984],[-2.095537,43.018971,923.023],[-2.09555,43.019023,921.511],[-2.095502,43.019063,920.296],[-2.095453,43.019111,919.089],[-2.095453,43.019165,918.306],[-2.095495,43.019206,917.526],[-2.095568,43.019212,916.608],[-2.095609,43.019258,914.952],[-2.095651,43.019303,912.348],[-2.095691,43.019341,911.125],[-2.095761,43.019371,910.049],[-2.095822,43.019391,908.94],[-2.09589,43.019411,908.379],[-2.095961,43.019441,908.317],[-2.096025,43.019479,907.962],[-2.096086,43.019494,905.783],[-2.096146,43.019504,903.225],[-2.096198,43.019533,900.117],[-2.096241,43.019569,897.408],[-2.09629,43.019608,895.412],[-2.096334,43.019652,893.878],[-2.096368,43.01969,893.255],[-2.096409,43.019726,892.929],[-2.096473,43.019739,892.36],[-2.09653,43.019762,891.549],[-2.09661,43.019794,890.697],[-2.096674,43.019822,890.192],[-2.096745,43.019889,894.152],[-2.096785,43.019931,896.653],[-2.096826,43.019981,896.508],[-2.096867,43.020016,894.408],[-2.096923,43.020045,892.089],[-2.096969,43.020082,889.765],[-2.09701,43.020126,888.332],[-2.097024,43.02018,887.976],[-2.097078,43.020211,888.197],[-2.097104,43.020254,886.296],[-2.097176,43.020249,882.794],[-2.097255,43.02026,880.269],[-2.097328,43.020256,878.379],[-2.097407,43.020251,874.405],[-2.097488,43.020255,871.625],[-2.09755,43.020264,871.108],[-2.097611,43.020277,875.191],[-2.097671,43.020289,879.167],[-2.097738,43.020297,883.134],[-2.09781,43.020294,882.018],[-2.097883,43.020288,879.019],[-2.097962,43.020286,876.048],[-2.098045,43.020279,873.426],[-2.098133,43.020272,871.891],[-2.098221,43.020262,869.729],[-2.098304,43.02026,867.6],[-2.098375,43.020264,864.72],[-2.09844,43.020266,863.408],[-2.098504,43.020264,861.816],[-2.098567,43.020265,860.882],[-2.098638,43.020274,859.079],[-2.098707,43.020281,856.793],[-2.098774,43.020278,856.114],[-2.098847,43.020276,856.273],[-2.098934,43.020273,857.091],[-2.098994,43.020262,857.196],[-2.099065,43.020255,856.841],[-2.099118,43.020281,855.481],[-2.099167,43.020334,854.209],[-2.099188,43.020378,853.108],[-2.099199,43.020437,852.488],[-2.099227,43.020489,852.054],[-2.099223,43.020541,850.671],[-2.099207,43.020609,849.755],[-2.099225,43.020671,849.266],[-2.099281,43.020751,848.935],[-2.099326,43.020807,848.333],[-2.099368,43.020849,847.598],[-2.099402,43.020892,847.458],[-2.099464,43.020903,847.052],[-2.09952,43.020937,846.717],[-2.099582,43.02094,846.508],[-2.099611,43.02098,844.479],[-2.099658,43.021028,842.715],[-2.099681,43.021079,840.962],[-2.099684,43.021132,839.436],[-2.099688,43.021194,838.197],[-2.099688,43.02125,836.516],[-2.099698,43.021313,834.824],[-2.099718,43.021356,833.479],[-2.099733,43.0214,831.785],[-2.099751,43.021444,831.589],[-2.099771,43.021487,831.017],[-2.099795,43.021537,829.908],[-2.099808,43.02159,828.072],[-2.099811,43.021638,825.358],[-2.099831,43.021686,823.395],[-2.099869,43.021724,821.759],[-2.099917,43.021766,820.78],[-2.099957,43.02181,820.599],[-2.099992,43.021852,820.437],[-2.100038,43.021899,819.992],[-2.100078,43.021939,819.281],[-2.100114,43.021981,818.461],[-2.100157,43.02203,817.917],[-2.100214,43.022074,817.208],[-2.100266,43.022122,816.482],[-2.100303,43.022176,815.188],[-2.100321,43.022225,814.315],[-2.100325,43.022278,813.459],[-2.100346,43.022322,812.96],[-2.10037,43.022364,812.699],[-2.100418,43.022409,810.817],[-2.100465,43.022449,809.342],[-2.100498,43.022488,808.479],[-2.100513,43.022533,806.705],[-2.100554,43.022573,805.325],[-2.100587,43.022618,805.208],[-2.100629,43.022651,805.251],[-2.100672,43.022692,804.887],[-2.100708,43.022734,803.794],[-2.100726,43.022778,801.568],[-2.100753,43.022824,800.289],[-2.100787,43.022875,799.048],[-2.100798,43.022921,797.976],[-2.100816,43.022972,796.411],[-2.100861,43.023005,795.539],[-2.100893,43.023054,794.601],[-2.100924,43.023106,794.821],[-2.10095,43.023154,794.508],[-2.100973,43.023196,793.537],[-2.101009,43.023244,792.543],[-2.101049,43.023291,790.77],[-2.10108,43.023331,788.464],[-2.101116,43.023369,786.665],[-2.101174,43.02342,784.784],[-2.101221,43.023457,783.262],[-2.101271,43.023496,782.737],[-2.101328,43.023526,780.078],[-2.101409,43.023542,777.633],[-2.101477,43.023558,773.626],[-2.101545,43.023575,769.608],[-2.101619,43.023601,773.671],[-2.10169,43.023632,777.637],[-2.101749,43.023661,781.634],[-2.101804,43.023688,785.618],[-2.101864,43.023715,787.789],[-2.10192,43.02374,787.028],[-2.101983,43.023765,783.876],[-2.102061,43.023787,787.831],[-2.102139,43.02382,791.884],[-2.102202,43.023848,795.807],[-2.102276,43.023881,799.817],[-2.102343,43.023916,803.808],[-2.102405,43.023945,803.542],[-2.102467,43.023964,802.578],[-2.102539,43.023984,798.565],[-2.102615,43.024008,794.599],[-2.102675,43.024031,790.57],[-2.102733,43.024053,786.559],[-2.102794,43.024086,782.557],[-2.102866,43.024123,778.532],[-2.102922,43.024146,774.583],[-2.102994,43.024185,770.525],[-2.10305,43.024227,774.517],[-2.103089,43.024263,778.508],[-2.103132,43.024314,782.592],[-2.103184,43.024346,786.538],[-2.103233,43.024378,790.585],[-2.103296,43.02442,792.789],[-2.103344,43.024454,788.75],[-2.103402,43.024488,784.739],[-2.103452,43.024518,780.737],[-2.103499,43.024547,776.782],[-2.103537,43.024582,772.749],[-2.103571,43.024625,768.702],[-2.103596,43.024672,764.722],[-2.103642,43.024731,760.708],[-2.103679,43.02477,757.628],[-2.103729,43.024819,761.694],[-2.103768,43.024854,765.621],[-2.103851,43.024868,769.665],[-2.103914,43.024873,765.686],[-2.103971,43.024843,761.695],[-2.104035,43.02486,757.623],[-2.1041,43.024896,753.638],[-2.10417,43.024908,757.631],[-2.104236,43.024934,761.661],[-2.104304,43.024963,765.607],[-2.104373,43.024982,767.808],[-2.104433,43.024995,765.127],[-2.104477,43.025039,761.143],[-2.10455,43.025082,757.13],[-2.104601,43.025113,753.154],[-2.104655,43.025139,749.135],[-2.10472,43.025159,745.124],[-2.104791,43.025187,741.142],[-2.104878,43.025211,737.147],[-2.104935,43.025228,733.553],[-2.105008,43.025243,731.704],[-2.104981,43.025287,728.214],[-2.104926,43.025327,726.508],[-2.104887,43.02537,725.159],[-2.104863,43.025424,724.755],[-2.104821,43.025464,724.452],[-2.104778,43.025505,724.676],[-2.104764,43.025567,724.357],[-2.10474,43.02561,723.756],[-2.104691,43.025641,722.694],[-2.104664,43.025683,721.529],[-2.104634,43.025731,720.929],[-2.10461,43.025778,720.1],[-2.104591,43.025828,717.22],[-2.104618,43.025873,715.508],[-2.104648,43.025913,714.166],[-2.104602,43.025967,712.052],[-2.104553,43.026004,710.039],[-2.104512,43.026045,706.043],[-2.104452,43.026085,702.074],[-2.104416,43.026126,698.493],[-2.104363,43.026163,697.881],[-2.104318,43.026205,699.916],[-2.10427,43.026241,701.173],[-2.104236,43.02629,701.885],[-2.104183,43.026321,701.013],[-2.104215,43.026362,698.508],[-2.104281,43.026358,696.241],[-2.104362,43.02634,694.867],[-2.104433,43.02632,693.634],[-2.104506,43.026303,691.798],[-2.104593,43.026289,689.379],[-2.104656,43.02628,687.188],[-2.104719,43.026277,683.446],[-2.104781,43.026281,680.881],[-2.104843,43.026272,679.678],[-2.104908,43.026264,678.133],[-2.10498,43.026244,676.026],[-2.105044,43.026206,674.708],[-2.105109,43.026182,671.911],[-2.105189,43.026157,669.027],[-2.10527,43.026145,668.114],[-2.105327,43.026118,667.298],[-2.105382,43.026096,666.689],[-2.105462,43.026088,663.968],[-2.105528,43.026072,661.116],[-2.105586,43.026055,658.221],[-2.105661,43.026069,654.942],[-2.105738,43.026095,652.122],[-2.105799,43.02611,649.214],[-2.105872,43.026109,647.108],[-2.105931,43.026092,646.618],[-2.106003,43.026074,644.744],[-2.106015,43.026128,643.261],[-2.105992,43.026173,641.935],[-2.105941,43.026218,641.136],[-2.105882,43.026241,640.695],[-2.105833,43.026275,639.533],[-2.105788,43.026318,639.218],[-2.10577,43.026367,638.694],[-2.105738,43.026422,637.957],[-2.105688,43.026449,636.322],[-2.105621,43.026469,634.908],[-2.105557,43.026493,632.553],[-2.105498,43.026514,631.099],[-2.105408,43.026564,629.356],[-2.105347,43.026602,627.95],[-2.10525,43.026653,626.761],[-2.105193,43.026682,625.65],[-2.105128,43.026716,625.748],[-2.105052,43.02675,625.843],[-2.104995,43.026782,625.456],[-2.104932,43.026818,624.059],[-2.104863,43.026857,622.814],[-2.104791,43.026889,622.108],[-2.10473,43.02693,620.999],[-2.104665,43.026969,620.245],[-2.104615,43.027006,619.412],[-2.104575,43.027046,618.536],[-2.104529,43.027102,616.027],[-2.104475,43.027158,614.556],[-2.104438,43.027201,613.684],[-2.104398,43.027248,611.599],[-2.104356,43.027289,609.897],[-2.104313,43.027331,609.223],[-2.104276,43.027374,607.625],[-2.104246,43.027421,607.508],[-2.104216,43.027468,606.683],[-2.10418,43.027514,606.169],[-2.104145,43.027556,606.256],[-2.10409,43.027621,602.25],[-2.104049,43.027675,599.861],[-2.104002,43.027722,599.62],[-2.10394,43.027762,600.358],[-2.103893,43.027798,601.183],[-2.10385,43.027847,600.416],[-2.103811,43.027892,598.876],[-2.103779,43.027942,597.813],[-2.103735,43.027991,596.808],[-2.103688,43.028028,593.435],[-2.103646,43.028074,591.421],[-2.103614,43.028124,589.858],[-2.103585,43.02818,588.882],[-2.103551,43.028248,587.493],[-2.10352,43.028305,586.692],[-2.103486,43.028347,585.75],[-2.103436,43.028394,584.435],[-2.10342,43.028455,583.643],[-2.103414,43.0285,581.964],[-2.103397,43.02856,580.51],[-2.103384,43.028608,579.708],[-2.10336,43.028659,579.618],[-2.103334,43.028702,579.514],[-2.103311,43.028763,580.331],[-2.103299,43.028821,579.625],[-2.10328,43.028877,579.266],[-2.10327,43.028925,578.945],[-2.103274,43.028972,578.383],[-2.103272,43.029031,577.248],[-2.103244,43.029078,576.156],[-2.103223,43.029137,575.159],[-2.103201,43.02918,575.314],[-2.103186,43.029236,574.608],[-2.103176,43.029294,573.839],[-2.103146,43.02935,573.375],[-2.103107,43.029395,572.622],[-2.103074,43.029437,571.446],[-2.103053,43.029499,569.587],[-2.103049,43.029552,567.936],[-2.10305,43.029605,566.244],[-2.103049,43.029657,564.439],[-2.103043,43.029702,562.596],[-2.103026,43.029753,561.031],[-2.103002,43.029801,559.724],[-2.102987,43.029849,562.508],[-2.102965,43.02993,563.433],[-2.10292,43.029979,561.529],[-2.102861,43.030002,559.686],[-2.102777,43.030002,558.04],[-2.102706,43.029977,556.361],[-2.102634,43.029958,555.77],[-2.102555,43.029956,554.148],[-2.102469,43.029967,553.133],[-2.10239,43.029985,552.531],[-2.10233,43.029996,552.261],[-2.102255,43.030007,550.807],[-2.102194,43.030015,550.408],[-2.102146,43.030048,549.757],[-2.102119,43.030094,549.773],[-2.102092,43.030135,550.14],[-2.102031,43.030173,547.544],[-2.101971,43.030213,545.645],[-2.101912,43.030259,544.894],[-2.101851,43.030285,543.532],[-2.101779,43.030324,543.917],[-2.101732,43.030359,543.867],[-2.101611,43.030463,543.781],[-2.101577,43.030501,542.919],[-2.101515,43.030541,542.008],[-2.101456,43.030563,541.54],[-2.101391,43.030599,540.496],[-2.101322,43.030628,538.573],[-2.101261,43.030649,534.587],[-2.101194,43.030638,530.518],[-2.10113,43.03063,526.567],[-2.10107,43.030644,522.615],[-2.101009,43.030661,522.62],[-2.100934,43.030679,524.684],[-2.100849,43.030693,527.807],[-2.100773,43.03069,530.117],[-2.100709,43.030695,530.308],[-2.100636,43.030707,530.412],[-2.100566,43.030719,530.578],[-2.100511,43.030766,530.565],[-2.100467,43.03083,530.199],[-2.100459,43.030912,529.51],[-2.100453,43.030962,529.139],[-2.100436,43.03101,528.147],[-2.100413,43.031092,526.732],[-2.10038,43.031152,525.559],[-2.100338,43.031191,524.803],[-2.100288,43.031228,523.623],[-2.100233,43.031266,522.508],[-2.10018,43.031301,521.479],[-2.100131,43.031339,520.355],[-2.100079,43.031378,519.382],[-2.100018,43.03142,517.516],[-2.099966,43.031455,516.897],[-2.09991,43.031487,516.886],[-2.099858,43.031522,516.884],[-2.099792,43.031568,514.429],[-2.099733,43.031593,513.069],[-2.099664,43.031615,511.704],[-2.099597,43.031638,510.924],[-2.099535,43.03166,510.008],[-2.09947,43.031674,509.12],[-2.099405,43.031706,509.826],[-2.099359,43.031739,509.423],[-2.099359,43.031791,509.647],[-2.099325,43.031833,505.678],[-2.099249,43.031849,501.647],[-2.099187,43.031863,497.625],[-2.099129,43.031881,493.76],[-2.099057,43.031911,496.663],[-2.099001,43.03195,499.144],[-2.098962,43.031987,500.618],[-2.098923,43.03204,501.108],[-2.098899,43.032087,501.42],[-2.098853,43.032121,500.816],[-2.098808,43.032163,499.683],[-2.098754,43.032198,498.547],[-2.098692,43.032238,498.298],[-2.098632,43.032279,498.087],[-2.098565,43.032316,497.985],[-2.098503,43.03235,497.41],[-2.098451,43.032392,497.517],[-2.098394,43.032427,497.687],[-2.098332,43.032457,498.415],[-2.098271,43.032486,498.508],[-2.098217,43.032526,497.895],[-2.098157,43.032565,497.461],[-2.098109,43.032595,497.198],[-2.098078,43.032643,495.742],[-2.09804,43.032699,494.913],[-2.098003,43.032752,494.442],[-2.097947,43.032816,493.77],[-2.097905,43.032854,492.525],[-2.097859,43.032895,491.098],[-2.09781,43.032936,489.715],[-2.097714,43.033012,488.126],[-2.097612,43.033073,486.708],[-2.09754,43.033111,485.523],[-2.097482,43.033132,485.259],[-2.097406,43.03315,484.686],[-2.097331,43.033167,483.84],[-2.097256,43.033181,482.561],[-2.097183,43.033196,480.99],[-2.097117,43.033218,479.668],[-2.097071,43.033257,478.853],[-2.097056,43.033307,479.133],[-2.097053,43.033366,479.323],[-2.097051,43.03343,479.015],[-2.097036,43.033494,479.208],[-2.097012,43.033553,478.557],[-2.096978,43.033603,478.153],[-2.096925,43.033656,478.31],[-2.096866,43.033704,478.034],[-2.096823,43.033738,478.675],[-2.096772,43.03377,478.234],[-2.096712,43.033805,477.922],[-2.096629,43.033851,477.327],[-2.096578,43.033887,476.656],[-2.096521,43.033918,476.259],[-2.09644,43.033951,475.514],[-2.096369,43.033974,474.708],[-2.09631,43.034002,473.419],[-2.096267,43.034038,471.415],[-2.096195,43.034069,470.282],[-2.096129,43.034096,469.526],[-2.096087,43.03414,468.757],[-2.095972,43.034385,466.626],[-2.095957,43.034435,464.184],[-2.09597,43.03448,463.029],[-2.095995,43.034522,462.467],[-2.096017,43.034565,462.481],[-2.096059,43.03461,461.619],[-2.0961,43.03466,460.708],[-2.09613,43.034718,460.29],[-2.096162,43.034762,459.976],[-2.096214,43.034801,459.353],[-2.096271,43.034834,459.397],[-2.096329,43.034872,458.918],[-2.09637,43.034918,458.717],[-2.096401,43.03496,459.415],[-2.096442,43.035002,459.42],[-2.096471,43.035065,459.881],[-2.096496,43.035107,459.661],[-2.096529,43.035167,459.117],[-2.096573,43.035212,459.208],[-2.096598,43.035255,457.382],[-2.096639,43.035291,456.528],[-2.096686,43.035321,456.035],[-2.096733,43.035352,456.149],[-2.096771,43.035398,456.28],[-2.096793,43.035452,455.069],[-2.096822,43.035506,454.347],[-2.096855,43.035561,453.992],[-2.096873,43.035606,452.926],[-2.096917,43.035645,452.747],[-2.096957,43.035681,452.611],[-2.09706,43.035739,448.608],[-2.097097,43.035777,444.976],[-2.097126,43.035824,443.182],[-2.097175,43.035877,440.459],[-2.097197,43.035933,438.813],[-2.097226,43.035979,439.024],[-2.097266,43.036027,438.763],[-2.097353,43.036043,439.741]]}}]}