{"type":"FeatureCollection","features":[{"type":"Feature","properties":{"ruta_id":"41779743","nombre":"🏞️ CRUZ de CASTELLAR y PASO del OSO desde MONASTERIO de LEYRE ruta circular","blog_url":"https://www.rutasporelmonte.com/cruz-de-castellar-y-paso-del-oso-desde-monasterio-de-leyre/"},"geometry":{"type":"LineString","coordinates":[[-1.170784,42.636088,820.582],[-1.170833,42.636125,820.543],[-1.17088,42.636154,820.517],[-1.170934,42.636184,820.508],[-1.171,42.636211,820.542],[-1.171042,42.636244,820.539],[-1.171092,42.636272,820.565],[-1.171066,42.636317,820.515],[-1.171002,42.636327,820.587],[-1.170932,42.636329,820.565],[-1.170868,42.636348,820.522],[-1.170796,42.636362,820.541],[-1.170727,42.636365,820.542],[-1.170663,42.636377,820.522],[-1.170608,42.636413,820.514],[-1.17055,42.636445,820.708],[-1.170504,42.636477,820.458],[-1.17051,42.636531,820.665],[-1.170536,42.636579,821.591],[-1.170536,42.636579,821.591],[-1.170536,42.636579,821.523],[-1.170536,42.636579,821.581],[-1.170536,42.636579,821.588],[-1.170558,42.636625,822.537],[-1.170526,42.636673,823.161],[-1.170492,42.636726,823.521],[-1.170435,42.636763,823.713],[-1.170435,42.636763,823.708],[-1.170411,42.636808,824.28],[-1.170416,42.636859,824.167],[-1.170428,42.636904,824.113],[-1.170447,42.636957,824.583],[-1.170446,42.637005,825.565],[-1.170458,42.637059,826.513],[-1.170457,42.637106,828.39],[-1.170439,42.637161,829.859],[-1.17042,42.637208,831.981],[-1.170398,42.637256,834.061],[-1.170365,42.637295,835.217],[-1.170377,42.637349,836.308],[-1.170346,42.637401,836.672],[-1.170305,42.63745,836.839],[-1.170297,42.637498,836.935],[-1.170278,42.637546,835.095],[-1.170245,42.637595,833.477],[-1.170216,42.637646,832.945],[-1.170184,42.637689,831.032],[-1.170184,42.637736,832.241],[-1.170178,42.637784,834.115],[-1.170139,42.637821,835.365],[-1.170121,42.637876,838.411],[-1.170135,42.637928,839.508],[-1.170111,42.637978,840.125],[-1.170094,42.638028,840.972],[-1.170053,42.638062,841.878],[-1.170029,42.638108,842.748],[-1.170031,42.638153,844.57],[-1.169997,42.638194,846.028],[-1.169953,42.638227,848.125],[-1.169926,42.63827,848.164],[-1.169894,42.638309,848.138],[-1.169842,42.638338,847.77],[-1.169783,42.638365,848.317],[-1.169732,42.638405,849.808],[-1.169734,42.638456,850.717],[-1.169757,42.638501,850.944],[-1.169713,42.638555,851.88],[-1.169714,42.638603,853.91],[-1.169665,42.638642,856.492],[-1.169649,42.638695,857.93],[-1.169603,42.638732,860.037],[-1.169547,42.638751,861.346],[-1.169505,42.638793,862.167],[-1.169485,42.638838,860.681],[-1.16948,42.638895,861.719],[-1.169428,42.638925,864.708],[-1.169367,42.638913,867.31],[-1.169293,42.638941,868.537],[-1.169231,42.638954,870.483],[-1.169169,42.63897,872.323],[-1.169107,42.638965,873.575],[-1.169039,42.638996,874.213],[-1.168985,42.639027,873.83],[-1.168944,42.639072,873.639],[-1.168906,42.639113,873.526],[-1.168896,42.639165,872.647],[-1.168889,42.63921,872.111],[-1.16886,42.639257,872.608],[-1.168798,42.639293,874.166],[-1.168742,42.639271,875.423],[-1.168709,42.639324,875.069],[-1.168709,42.639374,875.559],[-1.168699,42.639421,876.631],[-1.168661,42.639465,878.139],[-1.168596,42.639496,879.056],[-1.168554,42.639537,879.515],[-1.168534,42.639583,881.481],[-1.168484,42.639612,882.661],[-1.168434,42.639645,883.717],[-1.1684,42.639694,885.208],[-1.168345,42.639731,886.532],[-1.168306,42.639781,887.739],[-1.168273,42.639824,888.815],[-1.168229,42.639857,889.995],[-1.168179,42.639901,891.667],[-1.168179,42.639901,891.655],[-1.16814,42.639944,892.872],[-1.168093,42.639987,894.331],[-1.168034,42.640006,896.031],[-1.168001,42.640045,897.861],[-1.167974,42.64009,898.907],[-1.167948,42.640131,899.608],[-1.167905,42.640169,900.447],[-1.167845,42.640179,900.134],[-1.167816,42.640226,901.17],[-1.167784,42.640266,902.55],[-1.167767,42.640315,902.572],[-1.167767,42.640361,902.57],[-1.167735,42.640407,902.557],[-1.167674,42.640415,903.736],[-1.167648,42.640463,904.896],[-1.167695,42.6405,906.331],[-1.167741,42.640531,908.024],[-1.167775,42.640575,909.008],[-1.167762,42.64062,909.223],[-1.16773,42.640668,910.52],[-1.167784,42.640698,914.536],[-1.167825,42.64074,916.526],[-1.167865,42.640777,918.928],[-1.167913,42.64082,920.346],[-1.167957,42.640866,922.863],[-1.168025,42.640895,924.382],[-1.168043,42.640942,924.816],[-1.168052,42.640987,927.576],[-1.16804,42.641032,927.913],[-1.168022,42.64108,929.308],[-1.168042,42.641126,931.485],[-1.16807,42.641167,933.012],[-1.168139,42.641199,935.628],[-1.168081,42.641216,937.648],[-1.16809,42.641267,938.09],[-1.16812,42.641313,939.458],[-1.168105,42.641359,940.775],[-1.168096,42.641407,940.324],[-1.168142,42.641442,940.832],[-1.168186,42.641477,944.392],[-1.168209,42.641529,945.611],[-1.168194,42.641574,946.408],[-1.168176,42.641618,947.387],[-1.168164,42.641676,949.414],[-1.168115,42.641723,951.59],[-1.168063,42.641696,955.54],[-1.167993,42.64169,958.772],[-1.167927,42.641673,962.62],[-1.167864,42.641682,965.467],[-1.167803,42.641705,965.986],[-1.167739,42.641713,965.448],[-1.16768,42.641744,965.961],[-1.167631,42.641774,965.817],[-1.167579,42.641799,966.108],[-1.167526,42.641825,966.328],[-1.167532,42.641872,966.455],[-1.167591,42.641884,966.141],[-1.167654,42.641867,965.151],[-1.167723,42.641848,964.973],[-1.167791,42.641855,962.881],[-1.167863,42.641838,960.398],[-1.167924,42.641852,959.667],[-1.167971,42.641813,958.029],[-1.168005,42.641769,957.4],[-1.167992,42.641715,956.72],[-1.167968,42.641769,953.508],[-1.167929,42.64181,952.836],[-1.167969,42.641864,954.083],[-1.168016,42.641904,954.759],[-1.168064,42.641933,956.789],[-1.16814,42.641972,958.781],[-1.1682,42.642012,959.919],[-1.168269,42.642025,961.416],[-1.168335,42.642034,963.985],[-1.168371,42.642085,967.066],[-1.168386,42.642139,968.929],[-1.168372,42.642188,969.621],[-1.168437,42.642201,969.208],[-1.168519,42.642203,969.87],[-1.168587,42.642202,970.557],[-1.16866,42.642211,971.713],[-1.168702,42.642261,971.253],[-1.168764,42.6423,971.725],[-1.168788,42.642348,972.063],[-1.168793,42.642416,972.23],[-1.168786,42.642461,975.529],[-1.168817,42.642415,977.978],[-1.168838,42.642458,981.333],[-1.168887,42.642487,985.026],[-1.168935,42.642522,989.008],[-1.168978,42.642569,990.821],[-1.169049,42.642573,993.198],[-1.169108,42.642557,995.334],[-1.169146,42.642598,997.044],[-1.169211,42.642619,998.466],[-1.169263,42.642643,1000.534],[-1.169278,42.642688,1001.361],[-1.169332,42.64271,1001.03],[-1.169363,42.642754,1000.478],[-1.169381,42.642801,1002.533],[-1.1694,42.642846,1003.726],[-1.169458,42.642876,1003.208],[-1.169398,42.642908,1006.581],[-1.16936,42.642957,1009.738],[-1.16932,42.642999,1013.254],[-1.16926,42.643023,1009.224],[-1.169208,42.643055,1012.926],[-1.169144,42.643067,1016.934],[-1.169096,42.643109,1020.371],[-1.169046,42.64315,1024.09],[-1.168974,42.643153,1027.088],[-1.16892,42.643126,1029.224],[-1.168858,42.643148,1028.926],[-1.16882,42.643185,1028.308],[-1.168762,42.643213,1029.642],[-1.168719,42.643258,1031.679],[-1.168658,42.64325,1031.645],[-1.1686,42.643288,1031.275],[-1.168593,42.643342,1031.427],[-1.168562,42.643389,1029.535],[-1.168515,42.643422,1025.542],[-1.168447,42.643414,1023.631],[-1.168449,42.64346,1027.647],[-1.168518,42.643479,1031.629],[-1.16855,42.643527,1035.621],[-1.168575,42.643578,1038.008],[-1.168632,42.643607,1042.028],[-1.168679,42.643641,1046.075],[-1.168729,42.643683,1049.941],[-1.168781,42.643709,1053.021],[-1.168829,42.643742,1049.063],[-1.168902,42.643745,1050.171],[-1.168961,42.643776,1051.998],[-1.168988,42.643816,1053.847],[-1.16903,42.643855,1056.132],[-1.169094,42.643869,1058.392],[-1.169158,42.643886,1061.611],[-1.169227,42.6439,1064.408],[-1.169282,42.643874,1066.177],[-1.169353,42.64387,1067.574],[-1.169426,42.643883,1070.35],[-1.169495,42.643887,1072.02],[-1.169566,42.643871,1074.252],[-1.169628,42.643865,1075.59],[-1.169698,42.643873,1077.967],[-1.169778,42.643893,1078.966],[-1.16985,42.643913,1080.784],[-1.169893,42.643945,1081.407],[-1.16995,42.643962,1082.217],[-1.170013,42.643957,1083.908],[-1.170076,42.643965,1086.592],[-1.170081,42.644017,1086.919],[-1.170125,42.64398,1088.765],[-1.170185,42.643999,1089.475],[-1.170251,42.643974,1090.647],[-1.170313,42.643942,1093.335],[-1.170364,42.643909,1096.182],[-1.170412,42.643867,1099.471],[-1.170464,42.643836,1101.044],[-1.170483,42.643787,1101.505],[-1.170531,42.643754,1101.015],[-1.170568,42.643708,1100.308],[-1.170629,42.643707,1100.368],[-1.170678,42.643672,1100.795],[-1.170712,42.643631,1102.991],[-1.170751,42.64359,1105.451],[-1.170795,42.64355,1107.313],[-1.170855,42.643515,1109.311],[-1.170913,42.643498,1110.998],[-1.170973,42.643509,1111.447],[-1.171022,42.643477,1112.572],[-1.170961,42.643479,1113.613],[-1.171024,42.643464,1114.214],[-1.171088,42.643439,1115.408],[-1.171153,42.643423,1116.511],[-1.171229,42.643407,1116.838],[-1.171312,42.643411,1117.084],[-1.171378,42.643407,1117.544],[-1.171449,42.643406,1118.296],[-1.17151,42.643393,1118.664],[-1.171577,42.64339,1119.791],[-1.171649,42.64337,1121.58],[-1.171719,42.643372,1122.688],[-1.171785,42.643358,1122.124],[-1.17185,42.643344,1121.426],[-1.171917,42.643313,1121.808],[-1.171959,42.643272,1122.482],[-1.172,42.643227,1123.299],[-1.172057,42.643189,1125.785],[-1.172109,42.643147,1128.455],[-1.172108,42.64309,1131.217],[-1.172166,42.64306,1134.575],[-1.172218,42.643022,1135.762],[-1.172273,42.642998,1136.091],[-1.172326,42.642972,1136.278],[-1.172374,42.64294,1135.933],[-1.172441,42.642919,1135.326],[-1.172495,42.642891,1136.208],[-1.172473,42.642847,1137.961],[-1.172519,42.642815,1138.518],[-1.172544,42.642772,1138.524],[-1.172571,42.642723,1139.354],[-1.172604,42.642677,1141.046],[-1.172602,42.642628,1144.024],[-1.172642,42.642585,1146.271],[-1.172677,42.642547,1148.79],[-1.172723,42.642511,1150.244],[-1.172762,42.642476,1151.905],[-1.172759,42.642429,1152.115],[-1.172792,42.64239,1154.608],[-1.172847,42.642353,1156.128],[-1.172908,42.642344,1157.415],[-1.172967,42.64232,1157.851],[-1.173009,42.642285,1158.881],[-1.173041,42.642246,1160.663],[-1.173097,42.642225,1162.591],[-1.173169,42.642203,1163.678],[-1.173214,42.642165,1165.157],[-1.17326,42.642135,1165.641],[-1.173323,42.642119,1166.381],[-1.173394,42.6421,1167.909],[-1.173332,42.642104,1168.908],[-1.173276,42.642135,1169.928],[-1.173218,42.642157,1170.535],[-1.173198,42.642202,1171.351],[-1.173177,42.642249,1171.011],[-1.173192,42.642297,1170.863],[-1.173227,42.642342,1166.811],[-1.173245,42.642392,1162.868],[-1.173253,42.642443,1159.597],[-1.173256,42.642498,1161.171],[-1.173258,42.642544,1164.541],[-1.173258,42.642595,1167.315],[-1.173263,42.642643,1170.208],[-1.173256,42.642692,1171.511],[-1.173223,42.642739,1171.988],[-1.17318,42.642778,1172.144],[-1.173196,42.642842,1169.014],[-1.173186,42.642895,1169.256],[-1.173179,42.642948,1172.164],[-1.173185,42.642999,1175.031],[-1.173181,42.643045,1176.09],[-1.173166,42.643089,1177.459],[-1.173147,42.643143,1179.003],[-1.173163,42.643197,1180.823],[-1.17315,42.643252,1181.908],[-1.173144,42.643299,1181.799],[-1.173136,42.643347,1181.296],[-1.173125,42.6434,1181.322],[-1.173095,42.643444,1177.392],[-1.173071,42.643487,1181.354],[-1.173019,42.643515,1185.332],[-1.172961,42.643536,1189.339],[-1.172917,42.643573,1191.858],[-1.172881,42.64361,1194.145],[-1.172846,42.643659,1194.347],[-1.172828,42.643706,1194.411],[-1.17279,42.643756,1195.708],[-1.172741,42.643789,1196.148],[-1.172719,42.643845,1196.375],[-1.172709,42.643905,1196.481],[-1.172725,42.643957,1196.981],[-1.172684,42.643994,1198.413],[-1.172641,42.644027,1200.111],[-1.172593,42.644064,1201.568],[-1.172562,42.644109,1203.117],[-1.172564,42.644158,1203.759],[-1.172553,42.644203,1205.703],[-1.172552,42.644254,1207.323],[-1.172503,42.644297,1208.608],[-1.172499,42.644348,1211.489],[-1.172508,42.644396,1213.176],[-1.172523,42.644443,1214.942],[-1.172541,42.644487,1216.822],[-1.172525,42.644532,1218.774],[-1.172521,42.644588,1219.562],[-1.172509,42.644632,1220.459],[-1.172532,42.644685,1220.558],[-1.172503,42.644726,1221.054],[-1.172474,42.644767,1223.756],[-1.172521,42.644796,1224.911],[-1.1725,42.644842,1226.008],[-1.172503,42.64489,1226.789],[-1.17252,42.644953,1227.976],[-1.1725,42.645,1229.482],[-1.172481,42.645045,1229.982],[-1.172446,42.645102,1231.044],[-1.172452,42.645152,1231.392],[-1.17245,42.645202,1231.929],[-1.172436,42.64525,1232.618],[-1.172394,42.645285,1233.053],[-1.1724,42.645335,1233.304],[-1.172465,42.645345,1232.714],[-1.172533,42.64533,1235.508],[-1.172595,42.645312,1237.679],[-1.172637,42.645346,1241.626],[-1.172644,42.645393,1245.382],[-1.172678,42.645433,1247.572],[-1.17273,42.645457,1249.674],[-1.172781,42.645486,1245.682],[-1.172832,42.64553,1249.649],[-1.172862,42.645572,1253.678],[-1.172888,42.645622,1257.665],[-1.172947,42.645633,1261.668],[-1.17299,42.645686,1265.614],[-1.172943,42.645715,1269.308],[-1.172921,42.64576,1270.73],[-1.172917,42.645808,1271.997],[-1.172869,42.645843,1272.643],[-1.172843,42.645885,1273.423],[-1.172828,42.645929,1273.545],[-1.172786,42.64597,1273.653],[-1.172764,42.646013,1273.26],[-1.172707,42.646037,1273.069],[-1.172648,42.646053,1273.315],[-1.172573,42.646054,1271.565],[-1.172509,42.646055,1270.811],[-1.172442,42.646051,1270.008],[-1.172387,42.646024,1269.575],[-1.17232,42.646027,1265.512],[-1.172247,42.64602,1263.248],[-1.172195,42.645988,1262.228],[-1.172128,42.645969,1262.48],[-1.172073,42.645945,1263.768],[-1.172019,42.645976,1259.755],[-1.171949,42.645985,1257.384],[-1.171884,42.645984,1258.387],[-1.171828,42.645949,1254.342],[-1.171785,42.645914,1256.526],[-1.171719,42.645922,1258.608],[-1.171666,42.645948,1259.952],[-1.171604,42.645962,1262.359],[-1.171572,42.646012,1263.715],[-1.171549,42.646056,1266.165],[-1.171556,42.646101,1262.177],[-1.171509,42.646138,1263.255],[-1.171456,42.646164,1262.682],[-1.171402,42.64619,1263.571],[-1.171336,42.646209,1264.424],[-1.171287,42.646237,1265.804],[-1.17122,42.646249,1265.814],[-1.171157,42.646244,1265.408],[-1.171101,42.646268,1265.296],[-1.17102,42.646268,1265.173],[-1.170966,42.646295,1265.489],[-1.170912,42.646319,1264.889],[-1.170831,42.646318,1264.051],[-1.170765,42.64632,1262.329],[-1.170697,42.646336,1262.586],[-1.170638,42.646349,1262.235],[-1.170561,42.646348,1260.887],[-1.170503,42.646377,1259.642],[-1.170484,42.646425,1260.126],[-1.170468,42.646483,1260.408],[-1.170396,42.646505,1260.252],[-1.170338,42.646526,1260.129],[-1.170268,42.646522,1262.855],[-1.170202,42.646513,1263.635],[-1.170127,42.646511,1265.787],[-1.170073,42.646537,1266.265],[-1.170011,42.646551,1266.122],[-1.169941,42.646542,1265.231],[-1.169885,42.646568,1265.165],[-1.169824,42.646584,1264.268],[-1.169781,42.646616,1263.714],[-1.169718,42.646628,1262.208],[-1.169668,42.646672,1261.73],[-1.169599,42.646685,1260.657],[-1.169527,42.646699,1259.163],[-1.169463,42.646721,1257.073],[-1.169403,42.646739,1257.425],[-1.169356,42.646686,1257.243],[-1.169294,42.646719,1257.14],[-1.169255,42.646759,1258.269],[-1.169195,42.646787,1258.126],[-1.169139,42.646756,1257.247],[-1.169097,42.64672,1256.311],[-1.169036,42.64672,1258.108],[-1.168989,42.646689,1257.646],[-1.168918,42.646706,1257.723],[-1.168854,42.64671,1259.069],[-1.168775,42.646713,1259.099],[-1.168711,42.646708,1259.461],[-1.168647,42.646696,1258.829],[-1.168588,42.646719,1258.556],[-1.168553,42.646774,1259.165],[-1.168485,42.646775,1260.741],[-1.168461,42.64673,1262.081],[-1.168384,42.646743,1262.409],[-1.168327,42.646726,1263.008],[-1.168261,42.646733,1263.898],[-1.168199,42.646709,1264.725],[-1.168146,42.646742,1264.881],[-1.168117,42.646784,1260.811],[-1.168051,42.646792,1262.953],[-1.167982,42.646805,1264.171],[-1.167917,42.646799,1266.038],[-1.167863,42.646822,1267.657],[-1.167798,42.646822,1265.711],[-1.167732,42.64684,1265.821],[-1.167662,42.646833,1265.503],[-1.167584,42.646819,1264.908],[-1.167486,42.64684,1264.995],[-1.167401,42.646859,1265.782],[-1.16733,42.646829,1266.258],[-1.167269,42.64682,1264.138],[-1.167206,42.646817,1265.66],[-1.167131,42.646816,1267.768],[-1.167081,42.646857,1269.885],[-1.167035,42.646894,1270.264],[-1.166959,42.646893,1270.984],[-1.16689,42.646902,1271.707],[-1.166827,42.64691,1272.217],[-1.166794,42.64695,1273.308],[-1.166812,42.646998,1274.042],[-1.166819,42.647046,1274.419],[-1.166757,42.647033,1273.495],[-1.166695,42.647039,1271.675],[-1.166637,42.647008,1272.557],[-1.166611,42.646963,1273.525],[-1.166544,42.646966,1274.152],[-1.166486,42.646996,1272.811],[-1.166444,42.647036,1271.234],[-1.166386,42.647065,1267.255],[-1.166324,42.647074,1265.11],[-1.166257,42.647055,1264.608],[-1.166197,42.647021,1265.537],[-1.166117,42.647009,1264.834],[-1.166072,42.646962,1264.44],[-1.16602,42.646934,1263.42],[-1.165982,42.646897,1264.832],[-1.165915,42.646896,1266.07],[-1.165859,42.646878,1266.757],[-1.165807,42.646854,1268.376],[-1.165742,42.646823,1270.174],[-1.165677,42.646831,1271.656],[-1.165614,42.646813,1272.521],[-1.165552,42.646797,1272.608],[-1.165479,42.646807,1271.921],[-1.165415,42.64681,1272.318],[-1.165344,42.64682,1274.944],[-1.165297,42.646853,1277.794],[-1.165242,42.646878,1275.486],[-1.165181,42.646899,1277.284],[-1.165116,42.646905,1279.971],[-1.165053,42.646891,1283.19],[-1.16499,42.646887,1286.664],[-1.164932,42.64687,1289.506],[-1.164893,42.646834,1292.816],[-1.164829,42.646835,1294.408],[-1.164767,42.646819,1297.86],[-1.164698,42.646821,1298.627],[-1.16464,42.646838,1299.953],[-1.164582,42.646858,1301.523],[-1.164519,42.646856,1303.655],[-1.164486,42.646894,1305.313],[-1.164457,42.646937,1306.37],[-1.164408,42.646968,1307.329],[-1.164425,42.647012,1307.529],[-1.164365,42.646995,1305.6],[-1.164425,42.646963,1304.52],[-1.164357,42.646921,1305.008],[-1.164297,42.646905,1305.336],[-1.164235,42.646912,1305.163],[-1.164179,42.646931,1305.049],[-1.1641,42.64693,1304.929],[-1.164028,42.646937,1306.981],[-1.163976,42.646965,1308.149],[-1.163917,42.646941,1307.656],[-1.16387,42.646909,1306.525],[-1.163804,42.646894,1302.552],[-1.163731,42.646879,1299.053],[-1.163666,42.646865,1296.108],[-1.16363,42.646826,1292.108],[-1.163567,42.646819,1291.619],[-1.163501,42.646832,1292.156],[-1.163431,42.646814,1295.282],[-1.163378,42.64678,1299.192],[-1.163317,42.646768,1302.294],[-1.163249,42.646736,1305.362],[-1.163185,42.646708,1308.739],[-1.16313,42.646683,1312.018],[-1.163069,42.646645,1314.082],[-1.163033,42.646602,1315.643],[-1.16299,42.646566,1316.117],[-1.162944,42.646521,1317.208],[-1.162874,42.646499,1318.782],[-1.162802,42.646501,1319.699],[-1.162736,42.646506,1320.955],[-1.16267,42.646517,1322.535],[-1.162609,42.646536,1323.967],[-1.16255,42.64652,1325.185],[-1.162572,42.646465,1327.052],[-1.162514,42.646442,1328.611],[-1.162448,42.646405,1328.719],[-1.162387,42.646362,1327.609],[-1.162313,42.646364,1328.519],[-1.162285,42.646319,1329.508],[-1.162287,42.646259,1329.735],[-1.162283,42.646214,1331.032],[-1.162295,42.646169,1332.268],[-1.162265,42.646122,1333.738],[-1.162226,42.646069,1334.66],[-1.162186,42.646025,1335.548],[-1.162186,42.645976,1336.565],[-1.162159,42.645935,1336.774],[-1.162137,42.645891,1336.879],[-1.162074,42.645901,1336.905],[-1.162136,42.645896,1336.525],[-1.16212,42.645942,1335.908],[-1.162144,42.645989,1335.151],[-1.162188,42.646035,1333.418],[-1.162212,42.64608,1333.294],[-1.162235,42.646122,1333.124],[-1.162256,42.646168,1332.686],[-1.162266,42.646217,1330.764],[-1.162291,42.646259,1330.481],[-1.162329,42.6463,1330.28],[-1.162385,42.646331,1329.739],[-1.162455,42.646355,1329.001],[-1.162515,42.646371,1329.421],[-1.162567,42.646405,1328.408],[-1.162528,42.646443,1327.417],[-1.162462,42.646448,1326.084],[-1.162398,42.646469,1326.06],[-1.162331,42.646491,1326.82],[-1.162258,42.646519,1328.532],[-1.162199,42.646534,1329.97],[-1.16214,42.646557,1330.747],[-1.162068,42.646572,1329.696],[-1.162006,42.646591,1330.136],[-1.161939,42.646592,1329.617],[-1.161887,42.646621,1328.518],[-1.161845,42.646667,1327.808],[-1.161787,42.646647,1328.277],[-1.161722,42.646629,1328.434],[-1.161654,42.646644,1325.74],[-1.161647,42.646694,1322.53],[-1.16163,42.64675,1320.292],[-1.161574,42.646776,1317.61],[-1.161547,42.646822,1314.037],[-1.16152,42.646863,1311.556],[-1.161506,42.646909,1310.871],[-1.161486,42.646958,1311.241],[-1.161457,42.647008,1311.415],[-1.161402,42.647032,1309.508],[-1.161326,42.647054,1305.591],[-1.161299,42.647101,1301.598],[-1.161281,42.647146,1300.094],[-1.161268,42.647194,1300.324],[-1.161295,42.647245,1300.586],[-1.161292,42.647294,1301.494],[-1.161274,42.647338,1300.761],[-1.161204,42.647371,1301.11],[-1.161163,42.647418,1300.982],[-1.161128,42.647465,1301.243],[-1.161075,42.647515,1301.017],[-1.161027,42.647547,1300.908],[-1.161003,42.647592,1299.222],[-1.160953,42.647629,1297.869],[-1.160955,42.64768,1296.625],[-1.160957,42.647725,1296.735],[-1.160912,42.64776,1296.357],[-1.160853,42.647814,1296.975],[-1.160818,42.647859,1296.042],[-1.160767,42.647891,1295.551],[-1.160722,42.647921,1295.642],[-1.160673,42.647955,1295.322],[-1.160626,42.647993,1294.714],[-1.160554,42.64803,1294.308],[-1.160501,42.648055,1294.538],[-1.160463,42.648114,1295.895],[-1.160424,42.648152,1296.661],[-1.160372,42.648187,1297.181],[-1.160314,42.64821,1297.013],[-1.160247,42.648245,1295.371],[-1.160188,42.648265,1294.798],[-1.16013,42.648294,1294.367],[-1.160054,42.648324,1294.175],[-1.159987,42.64831,1294.028],[-1.15992,42.648283,1294.32],[-1.159854,42.648286,1293.708],[-1.159808,42.648247,1291.391],[-1.15978,42.6482,1289.538],[-1.159703,42.648193,1288.424],[-1.159651,42.648218,1287.754],[-1.159576,42.648232,1286.166],[-1.159506,42.648225,1283.194],[-1.159435,42.648231,1282.961],[-1.159373,42.648239,1283.23],[-1.159307,42.648235,1283.034],[-1.159244,42.648224,1282.955],[-1.159175,42.648214,1282.81],[-1.159108,42.648228,1283.608],[-1.159045,42.648236,1284.977],[-1.15898,42.648242,1286.594],[-1.158919,42.648269,1286.28],[-1.158855,42.648248,1285.29],[-1.158808,42.64828,1283.052],[-1.158771,42.64832,1281.77],[-1.158702,42.648344,1279.777],[-1.158638,42.648358,1278.176],[-1.158623,42.648402,1277.562],[-1.158677,42.648449,1277.683],[-1.158644,42.648499,1276.411],[-1.158578,42.648551,1276.508],[-1.15853,42.64858,1274.66],[-1.158485,42.648617,1272.247],[-1.158433,42.648647,1271.283],[-1.158373,42.648664,1271.423],[-1.158312,42.648634,1271.555],[-1.158263,42.648599,1272.063],[-1.158189,42.648589,1272.73],[-1.158128,42.648571,1273.939],[-1.158062,42.648561,1274.697],[-1.157991,42.648543,1275.023],[-1.157929,42.648534,1274.925],[-1.157909,42.648481,1275.208],[-1.15784,42.648473,1275.013],[-1.15776,42.64847,1275.33],[-1.157683,42.648466,1275.186],[-1.157603,42.648468,1275.466],[-1.15754,42.648448,1276.028],[-1.157489,42.64842,1276.356],[-1.157433,42.648386,1276.173],[-1.157393,42.648345,1276.872],[-1.157347,42.648292,1277.669],[-1.1573,42.64824,1278.504],[-1.157262,42.648197,1279.424],[-1.157258,42.648151,1280.408],[-1.157247,42.648097,1279.03],[-1.157196,42.648061,1278.577],[-1.157147,42.648026,1277.463],[-1.157098,42.647999,1276.073],[-1.15702,42.647966,1275.545],[-1.15697,42.647939,1275.643],[-1.156896,42.64791,1276.15],[-1.156829,42.647898,1276.439],[-1.156762,42.647884,1277.058],[-1.156692,42.647891,1277.352],[-1.156628,42.647883,1277.917],[-1.156555,42.64789,1278.708],[-1.15649,42.647911,1278.859],[-1.156426,42.647922,1278.086],[-1.156356,42.647918,1278.322],[-1.156298,42.647941,1276.922],[-1.156205,42.647947,1276.974],[-1.156121,42.647961,1278.112],[-1.156045,42.647975,1277.289],[-1.155968,42.647989,1276.718],[-1.155906,42.647995,1276.086],[-1.155845,42.648004,1275.66],[-1.155783,42.648005,1276.926],[-1.155712,42.648016,1277.708],[-1.155635,42.648027,1277.072],[-1.155568,42.64804,1276.239],[-1.155494,42.648062,1275.775],[-1.155446,42.648091,1275.425],[-1.155378,42.648114,1275.667],[-1.155309,42.648143,1275.735],[-1.155246,42.648155,1275.492],[-1.155202,42.648203,1275.661],[-1.155168,42.648247,1275.722],[-1.15511,42.648263,1275.462],[-1.155067,42.648305,1275.608],[-1.155026,42.64835,1276.108],[-1.154997,42.64839,1277.256],[-1.154943,42.648422,1277.913],[-1.154889,42.648459,1278.359],[-1.154842,42.648498,1278.969],[-1.154795,42.648529,1279.371],[-1.154737,42.648575,1279.939],[-1.154692,42.648613,1280.766],[-1.154643,42.648641,1280.475],[-1.154589,42.648668,1279.846],[-1.154539,42.648694,1279.888],[-1.154489,42.648723,1279.416],[-1.15444,42.648753,1279.608],[-1.154385,42.648789,1280.138],[-1.154336,42.648819,1280.415],[-1.154306,42.648864,1279.841],[-1.154266,42.648901,1279.461],[-1.154203,42.648932,1279.233],[-1.15415,42.648964,1279.581],[-1.154084,42.648965,1280.158],[-1.154024,42.648935,1279.647],[-1.15396,42.648921,1280.112],[-1.153895,42.648907,1280.432],[-1.153829,42.648918,1281.005],[-1.153769,42.648931,1281.008],[-1.153703,42.648947,1281.435],[-1.153631,42.648961,1281.612],[-1.153568,42.648987,1282.918],[-1.153536,42.649027,1283.768],[-1.15348,42.64905,1284.65],[-1.153425,42.649079,1284.758],[-1.153387,42.649125,1285.225],[-1.153322,42.649152,1284.794],[-1.153324,42.649105,1285.671],[-1.153323,42.649058,1285.741],[-1.153273,42.649023,1286.215],[-1.153224,42.648993,1288.108],[-1.153192,42.648954,1290.091],[-1.153145,42.648923,1291.268],[-1.153093,42.648949,1291.564],[-1.153027,42.648954,1293.334],[-1.152957,42.648953,1294.846],[-1.152882,42.648948,1296.584],[-1.152807,42.648951,1295.161],[-1.152766,42.648987,1294.72],[-1.152705,42.649021,1296.049],[-1.152648,42.649053,1296.802],[-1.152573,42.649076,1297.722],[-1.152506,42.649107,1297.408],[-1.152454,42.649138,1298.058],[-1.152392,42.649141,1299.285],[-1.15233,42.649149,1301.151],[-1.152263,42.649147,1301.851],[-1.152197,42.649146,1302.233],[-1.152134,42.649146,1302.511],[-1.152073,42.649157,1302.758],[-1.151995,42.64916,1302.837],[-1.151923,42.649168,1302.147],[-1.151857,42.649143,1302.929],[-1.151786,42.649129,1304.221],[-1.151717,42.649113,1301.408],[-1.151653,42.649074,1301.338],[-1.151589,42.649053,1302.415],[-1.151548,42.649017,1305.521],[-1.151499,42.648977,1306.581],[-1.151437,42.648985,1306.373],[-1.151371,42.648971,1305.441],[-1.151306,42.648962,1304.998],[-1.151249,42.648933,1303.457],[-1.151178,42.648925,1302.185],[-1.151137,42.648891,1303.389],[-1.151098,42.648848,1304.017],[-1.151044,42.648819,1304.408],[-1.150992,42.648792,1304.722],[-1.150929,42.648772,1306.129],[-1.15086,42.648753,1305.755],[-1.150797,42.648732,1305.965],[-1.150745,42.648694,1302.457],[-1.150672,42.648683,1301.125],[-1.150603,42.64865,1301.112],[-1.150543,42.648618,1301.131],[-1.150489,42.648578,1301.176],[-1.150428,42.648559,1301.59],[-1.150363,42.648536,1302.119],[-1.150286,42.648522,1302.508],[-1.150229,42.648501,1299.151],[-1.150161,42.648481,1300.368],[-1.1501,42.64846,1301.494],[-1.150024,42.648444,1302.134],[-1.149936,42.648422,1302.126],[-1.149853,42.64841,1301.734],[-1.14979,42.648413,1297.721],[-1.149724,42.648415,1297.56],[-1.149647,42.648387,1299.446],[-1.149584,42.648363,1301.388],[-1.149506,42.64836,1301.216],[-1.149444,42.648372,1302.008],[-1.14939,42.648334,1303.748],[-1.149339,42.648303,1305.545],[-1.149265,42.648308,1307.481],[-1.149193,42.648316,1308.181],[-1.149115,42.648322,1309.373],[-1.149044,42.648316,1308.881],[-1.149005,42.64828,1308.938],[-1.148923,42.648277,1309.847],[-1.148853,42.648284,1310.767],[-1.148788,42.648278,1310.581],[-1.148723,42.648269,1310.819],[-1.148652,42.648254,1312.608],[-1.14859,42.648256,1314.59],[-1.148535,42.64823,1310.897],[-1.148482,42.648267,1311.053],[-1.148428,42.648299,1312.343],[-1.148352,42.648301,1314.355],[-1.148281,42.648314,1315.593],[-1.148203,42.64832,1316.28],[-1.148126,42.648327,1312.219],[-1.148049,42.64832,1310.612],[-1.147978,42.648321,1308.532],[-1.147915,42.648338,1310.405],[-1.14785,42.648337,1309.108],[-1.147781,42.648337,1305.115],[-1.147696,42.64833,1301.132],[-1.147628,42.648337,1303.928],[-1.147567,42.648327,1307.958],[-1.147503,42.648353,1311.92],[-1.147453,42.648382,1315.998],[-1.147393,42.648392,1319.945],[-1.147324,42.648379,1323.934],[-1.14726,42.648371,1327.264],[-1.147181,42.648358,1330.806],[-1.147125,42.64839,1333.416],[-1.147064,42.648382,1335.708],[-1.146999,42.648375,1334.71],[-1.146946,42.648403,1330.787],[-1.146886,42.64838,1326.733],[-1.146818,42.648371,1322.993],[-1.146757,42.648361,1323.475],[-1.146685,42.648362,1326.143],[-1.146619,42.648375,1330.11],[-1.146574,42.648337,1334.119],[-1.146516,42.648309,1337.777],[-1.146482,42.648269,1340.761],[-1.14642,42.648288,1342.927],[-1.146369,42.64825,1345.008],[-1.146302,42.64824,1346.391],[-1.146241,42.648217,1346.378],[-1.146176,42.648184,1346.334],[-1.146118,42.64817,1346.344],[-1.146055,42.648168,1346.716],[-1.145982,42.648169,1342.764],[-1.145909,42.648154,1339.731],[-1.145836,42.648128,1341.56],[-1.145771,42.648114,1343.824],[-1.145705,42.648118,1345.204],[-1.145627,42.648096,1345.614],[-1.145565,42.648091,1346.308],[-1.145534,42.64805,1347.126],[-1.14547,42.648036,1346.463],[-1.145394,42.648041,1347.219],[-1.145322,42.648021,1348.539],[-1.14524,42.648011,1349.341],[-1.145154,42.648014,1349.479],[-1.145084,42.648015,1350.646],[-1.145008,42.648025,1352.545],[-1.144935,42.648014,1356.557],[-1.144881,42.647991,1360.5],[-1.144822,42.647971,1362.12],[-1.144759,42.647956,1364.608],[-1.144698,42.647943,1366.129],[-1.144638,42.647925,1366.256],[-1.144572,42.647919,1365.142],[-1.144515,42.647888,1364.042],[-1.144456,42.647863,1363.464],[-1.144378,42.647847,1361.442],[-1.144307,42.647847,1360.249],[-1.144243,42.647855,1358.328],[-1.144241,42.647808,1355.235],[-1.144286,42.647775,1352.986],[-1.144251,42.647729,1348.914],[-1.144195,42.647704,1346.308],[-1.144128,42.647705,1342.377],[-1.144068,42.647715,1346.354],[-1.144126,42.647735,1347.26],[-1.144199,42.647749,1347.35],[-1.144269,42.647773,1351.312],[-1.144331,42.647791,1354.68],[-1.144392,42.647783,1358.287],[-1.144456,42.647802,1360.386],[-1.144507,42.647828,1361.274],[-1.144546,42.647875,1361.756],[-1.144606,42.647884,1363.221],[-1.144662,42.647911,1363.308],[-1.144723,42.647925,1363.481],[-1.144792,42.647935,1359.438],[-1.144852,42.647959,1355.424],[-1.144911,42.648004,1351.474],[-1.144977,42.64803,1347.436],[-1.145048,42.648026,1347.024],[-1.145115,42.648038,1348.821],[-1.145177,42.648041,1350.31],[-1.14524,42.648038,1352.074],[-1.145288,42.648073,1354.656],[-1.145357,42.648076,1355.421],[-1.145419,42.648061,1355.508],[-1.145483,42.648062,1356.361],[-1.14554,42.64808,1357.618],[-1.145601,42.648106,1358.864],[-1.145663,42.648094,1361.584],[-1.145721,42.648068,1362.786],[-1.145794,42.648082,1362.644],[-1.145852,42.648099,1362.641],[-1.145904,42.648124,1363.88],[-1.145954,42.64815,1364.595],[-1.146017,42.648155,1364.149],[-1.146078,42.648175,1362.723],[-1.14614,42.648177,1362.208],[-1.146204,42.648175,1361.113],[-1.146283,42.648192,1360.92],[-1.14635,42.648205,1359.236],[-1.146422,42.64821,1358.646],[-1.146489,42.648214,1358.218],[-1.146554,42.648233,1358.846],[-1.146619,42.648229,1357.983],[-1.146682,42.648234,1355.872],[-1.146763,42.648254,1354.149],[-1.146815,42.648283,1353.102],[-1.146886,42.648294,1351.722],[-1.146943,42.648311,1350.508],[-1.147008,42.648338,1348.288],[-1.147095,42.648324,1347.635],[-1.14715,42.648346,1345.631],[-1.147206,42.64832,1343.631],[-1.147277,42.648333,1342.043],[-1.147345,42.648339,1341.061],[-1.147406,42.648345,1337.098],[-1.147467,42.648334,1333.097],[-1.147526,42.648299,1329.011],[-1.147582,42.648276,1325.021],[-1.147643,42.64829,1321.003],[-1.147704,42.648281,1318.408],[-1.147771,42.648269,1314.495],[-1.147837,42.648295,1318.442],[-1.147883,42.648325,1320.998],[-1.147939,42.648306,1322.068],[-1.148004,42.648328,1320.68],[-1.148089,42.648361,1319.488],[-1.14815,42.64836,1317.965],[-1.148212,42.648337,1314.274],[-1.148266,42.648306,1312.054],[-1.148303,42.648264,1310.356],[-1.148352,42.64822,1310.911],[-1.148422,42.648237,1312.408],[-1.148469,42.64827,1308.479],[-1.148539,42.648293,1304.426],[-1.148604,42.648295,1300.552],[-1.148657,42.648261,1303.832],[-1.148717,42.648273,1305.074],[-1.148796,42.648262,1306.512],[-1.148871,42.64826,1308.299],[-1.148946,42.648242,1309.658],[-1.149008,42.648239,1310.533],[-1.149079,42.648276,1311.423],[-1.149094,42.648323,1311.515],[-1.149163,42.648343,1310.408],[-1.149223,42.648329,1310.127],[-1.149284,42.648319,1309.944],[-1.149352,42.6483,1309.83],[-1.149416,42.648304,1309.75],[-1.149472,42.64834,1308.962],[-1.149517,42.648372,1307.21],[-1.14958,42.648395,1305.497],[-1.149638,42.648422,1305.196],[-1.1497,42.648438,1301.196],[-1.149772,42.648422,1301.731],[-1.149837,42.648418,1302.124],[-1.149903,42.648426,1302.308],[-1.149969,42.648427,1302.833],[-1.150022,42.648458,1301.96],[-1.150092,42.648478,1301.446],[-1.150149,42.648512,1302.336],[-1.150229,42.648507,1302.428],[-1.150297,42.6485,1304.126],[-1.150355,42.648515,1302.783],[-1.150417,42.648521,1303.142],[-1.150485,42.648535,1302.123],[-1.150554,42.648555,1302.783],[-1.150604,42.648592,1303.111],[-1.150643,42.648632,1303.308],[-1.150715,42.648662,1304.656],[-1.150773,42.648692,1305.483],[-1.150842,42.648725,1305.929],[-1.150903,42.648741,1306.219],[-1.150929,42.648785,1307.651],[-1.150964,42.648829,1307.219],[-1.151044,42.648854,1307.466],[-1.1511,42.648873,1307.985],[-1.151173,42.648892,1309.093],[-1.151232,42.64891,1308.965],[-1.151295,42.648938,1310.021],[-1.151354,42.648962,1311.508],[-1.151421,42.648977,1312.473],[-1.151469,42.649011,1312.93],[-1.151537,42.64904,1308.976],[-1.151596,42.649053,1308.416],[-1.151662,42.649071,1308.178],[-1.151732,42.649094,1309.176],[-1.151798,42.649113,1307.763],[-1.151866,42.649124,1306.122],[-1.151922,42.649146,1306.361],[-1.151978,42.649169,1305.621],[-1.152067,42.649149,1304.813],[-1.152124,42.649172,1304.308],[-1.152185,42.649154,1304.49],[-1.152255,42.649168,1304.557],[-1.152319,42.649166,1305.343],[-1.152395,42.649158,1305.813],[-1.152464,42.649138,1305.355],[-1.152529,42.64912,1305.893],[-1.152563,42.64908,1304.99],[-1.15263,42.649043,1304.479],[-1.152684,42.649019,1305.395],[-1.152753,42.649014,1306.249],[-1.152812,42.648984,1306.023],[-1.152852,42.648945,1303.508],[-1.15292,42.648937,1301.623],[-1.152973,42.64891,1300.48],[-1.153029,42.648884,1299.336],[-1.153098,42.648882,1297.876],[-1.153172,42.648872,1296.568],[-1.153227,42.648847,1293.766],[-1.15329,42.648825,1292.493],[-1.153374,42.648805,1290.812],[-1.153434,42.648796,1288.787],[-1.153495,42.648786,1287.442],[-1.15357,42.648777,1287.426],[-1.153628,42.648757,1287.408],[-1.153683,42.648725,1287.812],[-1.153757,42.648714,1288.019],[-1.153833,42.648713,1288.115],[-1.153904,42.648713,1289.015],[-1.153958,42.648685,1289.557],[-1.154019,42.648667,1290.245],[-1.154081,42.648645,1290.262],[-1.154146,42.648641,1289.431],[-1.154215,42.648648,1288.131],[-1.154282,42.648638,1287.361],[-1.154349,42.648633,1286.407],[-1.154409,42.648614,1285.508],[-1.154467,42.6486,1283.847],[-1.15453,42.648581,1282.414],[-1.1546,42.648574,1281.17],[-1.154667,42.64856,1280.33],[-1.154731,42.648548,1278.632],[-1.154787,42.648527,1279.66],[-1.154819,42.648483,1279.417],[-1.154872,42.648441,1278.966],[-1.154917,42.6484,1278.619],[-1.154989,42.648374,1278.409],[-1.15504,42.648336,1277.919],[-1.155082,42.648295,1278.008],[-1.155124,42.648259,1278.185],[-1.155173,42.64823,1280.512],[-1.15524,42.648193,1280.478],[-1.155304,42.648163,1279.958],[-1.155367,42.64814,1279.21],[-1.155477,42.648107,1278.868],[-1.155538,42.648083,1278.695],[-1.155605,42.648062,1278.544],[-1.155672,42.64804,1278.024],[-1.155728,42.648016,1277.304],[-1.155785,42.647997,1276.514],[-1.155867,42.647981,1274.808],[-1.155928,42.64797,1273.496],[-1.156,42.647969,1273.413],[-1.156064,42.647962,1273.429],[-1.156142,42.647953,1273.899],[-1.156213,42.647953,1273.691],[-1.156286,42.647947,1274.349],[-1.156348,42.647934,1273.946],[-1.156419,42.64793,1273.325],[-1.156494,42.647941,1273.738],[-1.156557,42.647936,1273.67],[-1.156624,42.647918,1273.517],[-1.156702,42.647921,1273.008],[-1.156775,42.647907,1271.517],[-1.156807,42.647866,1271.484],[-1.156778,42.64782,1273.03],[-1.156773,42.647766,1274.38],[-1.156766,42.647717,1275.182],[-1.156765,42.647664,1274.86],[-1.156774,42.647618,1274.687],[-1.156785,42.647571,1272.976],[-1.156816,42.647529,1271.561],[-1.156771,42.647497,1270.621],[-1.156714,42.647466,1266.613],[-1.156655,42.64745,1262.608],[-1.15665,42.647404,1258.61],[-1.156591,42.647389,1254.667],[-1.156535,42.647364,1257.373],[-1.15649,42.647329,1258.583],[-1.156559,42.647316,1260.495],[-1.156639,42.647312,1263.683],[-1.156704,42.647314,1264.74],[-1.156764,42.647296,1260.759],[-1.1567,42.647284,1256.774],[-1.156633,42.647269,1252.756],[-1.156574,42.647258,1253.021],[-1.156512,42.647257,1251.208],[-1.156451,42.647216,1251.781],[-1.156385,42.647216,1252.468],[-1.156318,42.647213,1253.244],[-1.15627,42.647185,1253.714],[-1.156208,42.647163,1253.636],[-1.156161,42.647127,1253.584],[-1.156102,42.6471,1252.351],[-1.156049,42.647068,1251.61],[-1.155986,42.647059,1249.267],[-1.155935,42.647031,1245.281],[-1.155891,42.646999,1243.319],[-1.155906,42.64695,1242.608],[-1.155976,42.646946,1238.67],[-1.15601,42.646987,1237.847],[-1.156055,42.64695,1237.743],[-1.15611,42.646927,1237.683],[-1.156165,42.646902,1237.695],[-1.156195,42.646942,1236.463],[-1.156269,42.646919,1235.32],[-1.156331,42.646935,1232.689],[-1.156399,42.646931,1232.238],[-1.156458,42.646917,1232.47],[-1.156521,42.646893,1231.317],[-1.156586,42.646897,1230.208],[-1.156652,42.646898,1228.447],[-1.156714,42.646901,1226.944],[-1.156775,42.646922,1226.09],[-1.156825,42.646955,1224.38],[-1.156895,42.646932,1221.722],[-1.156947,42.6469,1220.57],[-1.157011,42.646897,1219.497],[-1.157081,42.646888,1219.196],[-1.15715,42.646901,1219.369],[-1.157216,42.646907,1219.004],[-1.157281,42.646906,1219.224],[-1.157349,42.646927,1218.908],[-1.157389,42.646966,1216.71],[-1.157457,42.646988,1213.437],[-1.157513,42.647014,1209.473],[-1.157581,42.647014,1207.413],[-1.157636,42.647038,1204.665],[-1.157699,42.647063,1202.993],[-1.157775,42.647066,1201.14],[-1.157851,42.647053,1200.419],[-1.157918,42.64705,1200.078],[-1.157974,42.647026,1198.633],[-1.158042,42.647014,1197.726],[-1.158106,42.647013,1196.808],[-1.158155,42.646985,1193.841],[-1.158219,42.646972,1190.868],[-1.158276,42.646954,1188.694],[-1.158332,42.646922,1186.524],[-1.158403,42.646907,1184.496],[-1.158445,42.646869,1183.234],[-1.158467,42.64682,1182.951],[-1.158522,42.646791,1183.11],[-1.158585,42.646768,1182.428],[-1.158618,42.646721,1181.689],[-1.158673,42.646687,1181.117],[-1.15867,42.646638,1180.808],[-1.158603,42.646621,1182.226],[-1.158548,42.646669,1183.133],[-1.158482,42.64667,1179.169],[-1.15841,42.646678,1176.449],[-1.158344,42.646663,1175.251],[-1.15836,42.646618,1172.589],[-1.158418,42.646588,1168.986],[-1.158466,42.646551,1165.125],[-1.158495,42.646506,1162.098],[-1.158555,42.646458,1160.215],[-1.158594,42.646422,1159.926],[-1.158662,42.646394,1158.908],[-1.158727,42.646373,1159.943],[-1.158748,42.646323,1159.77],[-1.158815,42.646304,1159.276],[-1.15888,42.646268,1157.766],[-1.158928,42.646225,1157.628],[-1.158973,42.646194,1158.346],[-1.158973,42.646144,1158.713],[-1.15904,42.646128,1159.822],[-1.159103,42.646122,1160.478],[-1.159154,42.646097,1160.033],[-1.159201,42.646067,1160.226],[-1.159224,42.646019,1160.308],[-1.159268,42.645979,1160.871],[-1.159326,42.645925,1162.318],[-1.159384,42.645906,1159.234],[-1.159448,42.6459,1155.774],[-1.159486,42.645861,1152.046],[-1.159495,42.64581,1150.254],[-1.159526,42.645767,1147.571],[-1.159488,42.645731,1145.56],[-1.159544,42.64571,1141.568],[-1.159558,42.645661,1137.542],[-1.159499,42.645629,1134.326],[-1.159519,42.645582,1132.008],[-1.159576,42.64555,1132.66],[-1.159607,42.645495,1132.627],[-1.159668,42.64547,1130.693],[-1.159663,42.645416,1128.653],[-1.159725,42.645402,1124.675],[-1.159777,42.645371,1120.643],[-1.159824,42.64534,1119.08],[-1.159855,42.645295,1119.639],[-1.159896,42.645251,1120.454],[-1.159918,42.645208,1120.956],[-1.159957,42.645168,1116.911],[-1.159984,42.645124,1112.908],[-1.15998,42.645069,1108.979],[-1.160022,42.645033,1108.896],[-1.160075,42.645004,1110.322],[-1.160119,42.64497,1106.372],[-1.160165,42.644931,1102.354],[-1.160221,42.644894,1099.612],[-1.160276,42.644864,1102.059],[-1.160343,42.644858,1106.048],[-1.160377,42.644811,1110.045],[-1.160443,42.64478,1113.447],[-1.160496,42.644743,1116.711],[-1.160549,42.644709,1119.508],[-1.160624,42.644664,1120.038],[-1.160699,42.644648,1119.945],[-1.160749,42.644615,1119.821],[-1.160814,42.644612,1118.611],[-1.160893,42.644585,1117.533],[-1.160948,42.644545,1116.471],[-1.16101,42.644539,1115.338],[-1.161084,42.644544,1115.997],[-1.161112,42.644481,1114.223],[-1.161134,42.644431,1112.883],[-1.161144,42.644383,1111.211],[-1.161189,42.644342,1111.008],[-1.16124,42.644296,1112.536],[-1.161274,42.644251,1112.273],[-1.161302,42.64421,1110.869],[-1.161269,42.644172,1109.619],[-1.161279,42.644124,1108.141],[-1.161301,42.644082,1107.659],[-1.161266,42.644041,1106.116],[-1.161274,42.643994,1104.045],[-1.16132,42.643945,1101.554],[-1.161288,42.643902,1101.656],[-1.161257,42.643857,1100.111],[-1.161256,42.643811,1098.808],[-1.161246,42.643765,1096.819],[-1.161239,42.643719,1094.426],[-1.161186,42.643686,1092.612],[-1.16114,42.643649,1089.972],[-1.161144,42.643604,1088.354],[-1.161184,42.643565,1087.362],[-1.1612,42.64352,1085.939],[-1.16124,42.64348,1084.738],[-1.161275,42.643434,1082.867],[-1.161321,42.643399,1079.681],[-1.161357,42.643353,1078.119],[-1.161414,42.643336,1078.008],[-1.161466,42.643303,1078.35],[-1.161538,42.643292,1077.787],[-1.161601,42.643286,1078.573],[-1.161649,42.643257,1079.873],[-1.161714,42.64326,1078.695],[-1.161774,42.643247,1077.193],[-1.161834,42.643274,1075.81],[-1.161881,42.64323,1074.699],[-1.161931,42.643196,1073.992],[-1.161952,42.643148,1072.773],[-1.162018,42.643111,1072.02],[-1.162059,42.643077,1071.208],[-1.162111,42.643046,1069.563],[-1.16217,42.64302,1067.78],[-1.162235,42.64301,1066.276],[-1.162315,42.64299,1064.546],[-1.162386,42.64297,1060.558],[-1.162456,42.643002,1056.556],[-1.162518,42.643009,1055.913],[-1.162583,42.643007,1058.772],[-1.162661,42.643012,1060.879],[-1.162734,42.643,1062.505],[-1.162798,42.643013,1062.725],[-1.162862,42.643007,1062.408],[-1.162948,42.643022,1061.861],[-1.162977,42.643068,1059.968],[-1.16304,42.643075,1059.154],[-1.163098,42.643055,1059.034],[-1.163179,42.643042,1059.076],[-1.163216,42.643083,1057.824],[-1.163271,42.643059,1056.771],[-1.163347,42.643031,1056.84],[-1.163411,42.643032,1055.734],[-1.163487,42.643024,1053.455],[-1.163549,42.643043,1050.41],[-1.163621,42.643037,1048.208],[-1.163681,42.643025,1046.967],[-1.163745,42.643018,1043.784],[-1.163806,42.64301,1039.73],[-1.163843,42.642973,1036.65],[-1.163914,42.642967,1035.962],[-1.163988,42.642958,1035.18],[-1.164053,42.642957,1034.227],[-1.164115,42.642948,1035.356],[-1.16419,42.642913,1031.372],[-1.164251,42.642898,1027.313],[-1.164312,42.642905,1026.714],[-1.164395,42.642901,1026.408],[-1.164453,42.642886,1025.861],[-1.164484,42.642927,1025.098],[-1.164535,42.642894,1024.984],[-1.16459,42.642854,1023.314],[-1.164653,42.642843,1020.776],[-1.164719,42.642839,1020.824],[-1.164753,42.642801,1020.441],[-1.164829,42.642784,1020.25],[-1.164896,42.642774,1021.375],[-1.164957,42.642757,1020.728],[-1.16503,42.642745,1020.02],[-1.165099,42.642748,1018.808],[-1.165177,42.642733,1017.371],[-1.165229,42.642707,1016.418],[-1.165281,42.64266,1017.454],[-1.165336,42.642625,1019.634],[-1.165387,42.64259,1019.356],[-1.165405,42.642543,1015.384],[-1.165467,42.642521,1011.371],[-1.165525,42.642488,1009.91],[-1.165574,42.64246,1008.353],[-1.165604,42.642416,1004.904],[-1.165597,42.642347,1000.914],[-1.165654,42.642319,998.908],[-1.165727,42.642301,999.379],[-1.165786,42.642271,999.916],[-1.165849,42.642247,999.982],[-1.165919,42.642246,998.712],[-1.16599,42.642238,998.444],[-1.166056,42.642221,997.862],[-1.166119,42.642212,996.249],[-1.166181,42.64222,996.928],[-1.16625,42.642241,997.368],[-1.166303,42.642286,996.342],[-1.166366,42.642285,992.326],[-1.166426,42.642234,988.308],[-1.16647,42.642191,984.34],[-1.166514,42.642158,986.547],[-1.166528,42.642111,987.833],[-1.166582,42.642078,987.843],[-1.166628,42.642042,987.825],[-1.166659,42.641993,988.293],[-1.166698,42.641951,987.68],[-1.166751,42.641928,988.199],[-1.166801,42.641899,984.136],[-1.166854,42.641871,980.117],[-1.166896,42.641834,976.118],[-1.166961,42.641844,978.008],[-1.167013,42.64187,977.957],[-1.167045,42.641831,979.144],[-1.167095,42.641782,980.24],[-1.167157,42.641766,980.92],[-1.167218,42.641795,980.932],[-1.167283,42.641812,978.92],[-1.167342,42.641831,977.757],[-1.167427,42.641843,976.696],[-1.167473,42.641804,974.344],[-1.167517,42.641772,972.105],[-1.167582,42.641749,969.215],[-1.167636,42.641727,968.308],[-1.167709,42.641702,967.728],[-1.167784,42.641681,966.695],[-1.167855,42.641675,965.151],[-1.167922,42.64168,964.291],[-1.167983,42.641682,962.593],[-1.168027,42.641646,961.971],[-1.168051,42.641597,962.738],[-1.168088,42.641555,960.897],[-1.168097,42.641509,956.986],[-1.168115,42.641466,952.96],[-1.168122,42.641415,950.126],[-1.168093,42.641367,948.808],[-1.168116,42.641318,947.672],[-1.168112,42.641271,947.329],[-1.168086,42.641227,944.355],[-1.168046,42.641191,942.175],[-1.168066,42.641148,939.697],[-1.168072,42.641102,938.545],[-1.168067,42.641053,937.492],[-1.168091,42.640999,936.091],[-1.168124,42.640957,932.041],[-1.168071,42.640928,931.181],[-1.168023,42.640893,929.409],[-1.167957,42.640865,926.408],[-1.167896,42.640844,925.018],[-1.167842,42.64082,921.015],[-1.167804,42.640775,920.121],[-1.167807,42.640727,920.021],[-1.167846,42.640688,920.383],[-1.167808,42.640639,920.931],[-1.16775,42.640621,921.318],[-1.167747,42.64057,923.137],[-1.167742,42.640521,924.213],[-1.167691,42.640493,923.743],[-1.167644,42.640462,921.407],[-1.167627,42.640415,919.608],[-1.167655,42.640371,916.165],[-1.167699,42.640334,914.012],[-1.167676,42.640277,913.118],[-1.167714,42.640236,911.878],[-1.167739,42.640185,911.09],[-1.167753,42.640134,909.778],[-1.167801,42.640093,908.165],[-1.167826,42.640043,906.874],[-1.167879,42.640009,904.473],[-1.167884,42.639956,903.885],[-1.167877,42.639908,903.413],[-1.167943,42.639932,902.808],[-1.168018,42.639926,902.421],[-1.168052,42.639885,903.458],[-1.168092,42.639846,903.614],[-1.168151,42.639815,903.354],[-1.168217,42.639805,902.796],[-1.16825,42.639761,902.894],[-1.168292,42.639718,901.631],[-1.16832,42.639673,901.31],[-1.168381,42.639644,901.164],[-1.168436,42.639624,899.806],[-1.168464,42.639579,899.016],[-1.168485,42.639524,898.508],[-1.168524,42.639489,895.81],[-1.168585,42.639472,892.687],[-1.168626,42.63942,888.673],[-1.168626,42.639366,885.923],[-1.168616,42.639316,886.365],[-1.168684,42.639325,883.333],[-1.168733,42.639291,881.19],[-1.168766,42.639243,879.839],[-1.168766,42.639194,879.417],[-1.168788,42.639141,878.087],[-1.168833,42.639086,878.315],[-1.168881,42.639044,877.308],[-1.16893,42.639005,877.975],[-1.168974,42.638972,873.942],[-1.169037,42.638967,871.538],[-1.169091,42.638999,871.228],[-1.169127,42.63896,871.06],[-1.169161,42.638921,869.748],[-1.169213,42.638877,869.395],[-1.16928,42.638883,865.544],[-1.169332,42.63886,865.653],[-1.169332,42.638806,865.704],[-1.169399,42.638813,865.314],[-1.169418,42.638765,865.108],[-1.16947,42.638725,867.089],[-1.169516,42.638691,868.516],[-1.169579,42.638684,864.622],[-1.169644,42.638668,862.792],[-1.169697,42.638695,862.334],[-1.169713,42.638647,862.172],[-1.169732,42.638598,860.469],[-1.169754,42.638553,858.628],[-1.16979,42.638506,857.924],[-1.169817,42.638461,854.704],[-1.16985,42.638415,852.414],[-1.169869,42.638368,853.008],[-1.169882,42.63832,852.656],[-1.16992,42.638284,851.913],[-1.169969,42.638252,853.569],[-1.169974,42.6382,853.749],[-1.169968,42.638153,853.421],[-1.170007,42.638106,851.679],[-1.170031,42.638055,850.976],[-1.170061,42.638006,850.525],[-1.170084,42.637958,849.136],[-1.170096,42.637906,848.217],[-1.170121,42.637863,847.718],[-1.17015,42.637817,845.808],[-1.170144,42.637761,845.977],[-1.17013,42.63771,846.764],[-1.170128,42.637658,846.07],[-1.170156,42.637617,845.66],[-1.170188,42.637568,843.352],[-1.170191,42.637519,841.13],[-1.170204,42.637456,840.237],[-1.170251,42.637405,839.756],[-1.170293,42.63736,839.895],[-1.170314,42.637317,838.649],[-1.170331,42.637273,837.923],[-1.170349,42.63722,837.108],[-1.170382,42.637174,837.463],[-1.170403,42.637125,836.04],[-1.170404,42.637077,835.266],[-1.17036,42.637032,835.586],[-1.170345,42.636985,835.348],[-1.170344,42.636938,834.426],[-1.170342,42.636883,833.893],[-1.170349,42.636833,833.932],[-1.170394,42.636789,833.197],[-1.17044,42.636752,831.823],[-1.170471,42.636707,829.425],[-1.170501,42.636638,828.008],[-1.170512,42.636593,826.853],[-1.170539,42.63655,824.91],[-1.170581,42.636511,823.716],[-1.170612,42.636465,823.446],[-1.170632,42.636418,824.078],[-1.170685,42.636383,824.046],[-1.17071,42.636332,824.463],[-1.170749,42.636295,824.262],[-1.170819,42.636287,823.798],[-1.170881,42.636295,821.815],[-1.170943,42.636281,820.726],[-1.170977,42.636242,820.008],[-1.170974,42.636186,819.673],[-1.170911,42.636168,819.03]]}}]}