{"type":"FeatureCollection","features":[{"type":"Feature","properties":{"ruta_id":"44178315","nombre":"CASCADA de GAVARNIE invernal","blog_url":"https://www.rutasporelmonte.com/circo-y-cascada-de-gavarnie-invernal/"},"geometry":{"type":"LineString","coordinates":[[-0.011094,42.735272,1420.995],[-0.011161,42.735287,1420.949],[-0.011181,42.73533,1420.923],[-0.011218,42.735293,1420.908],[-0.01117,42.735323,1420.973],[-0.011144,42.735367,1420.933],[-0.011077,42.735362,1420.95],[-0.011033,42.735317,1420.966],[-0.010973,42.735294,1420.987],[-0.010948,42.73525,1420.912],[-0.01088,42.735248,1420.96],[-0.010824,42.735206,1420.994],[-0.010778,42.735174,1420.959],[-0.010731,42.735138,1420.903],[-0.010682,42.73511,1420.923],[-0.010629,42.735086,1420.908],[-0.010577,42.735059,1421.319],[-0.010525,42.735032,1420.839],[-0.010461,42.735006,1418.946],[-0.010406,42.734982,1417.372],[-0.010348,42.734954,1415.673],[-0.010289,42.734928,1415.048],[-0.010232,42.734898,1414.686],[-0.01019,42.734856,1415.22],[-0.010145,42.734817,1416.382],[-0.010138,42.73477,1419.043],[-0.010105,42.73472,1420.617],[-0.010081,42.734668,1421.208],[-0.010074,42.734619,1421.912],[-0.010037,42.734573,1422.722],[-0.010001,42.73453,1422.819],[-0.00996,42.734496,1422.595],[-0.009927,42.734454,1423.196],[-0.009898,42.734399,1422.361],[-0.009852,42.734351,1421.489],[-0.009838,42.734307,1420.523],[-0.009825,42.734256,1420.382],[-0.009821,42.734202,1419.843],[-0.009801,42.734158,1419.517],[-0.009775,42.73411,1420.108],[-0.009745,42.734061,1420.532],[-0.009704,42.734013,1419.512],[-0.009663,42.733979,1419.349],[-0.009621,42.733937,1420.445],[-0.00958,42.733902,1421.176],[-0.009534,42.733858,1421.191],[-0.009471,42.733874,1420.349],[-0.009406,42.733871,1420.273],[-0.009343,42.73387,1419.884],[-0.009291,42.733841,1419.907],[-0.009261,42.733801,1420.817],[-0.009232,42.733761,1421.308],[-0.009194,42.73372,1422.032],[-0.009144,42.733679,1422.812],[-0.009111,42.733628,1423.799],[-0.009088,42.733582,1423.425],[-0.009088,42.733532,1423.676],[-0.009098,42.733478,1423.741],[-0.009116,42.733424,1423.849],[-0.009144,42.733369,1423.543],[-0.009176,42.733324,1423.344],[-0.00923,42.733281,1423.605],[-0.00929,42.733246,1424.215],[-0.009348,42.733211,1424.508],[-0.009405,42.733171,1425.198],[-0.009473,42.733147,1425.928],[-0.009535,42.733117,1427.235],[-0.009598,42.733097,1427.641],[-0.009653,42.733064,1427.862],[-0.009679,42.733023,1428.717],[-0.009671,42.732972,1430.185],[-0.009669,42.732921,1429.769],[-0.009671,42.732869,1429.136],[-0.009679,42.732822,1429.517],[-0.009659,42.732775,1429.018],[-0.009646,42.732721,1428.708],[-0.009627,42.732673,1428.597],[-0.009614,42.732629,1427.247],[-0.009611,42.732582,1426.454],[-0.009602,42.732527,1426.31],[-0.009601,42.732477,1426.321],[-0.009578,42.732425,1426.796],[-0.009554,42.732372,1426.974],[-0.009521,42.732311,1426.638],[-0.009504,42.732267,1425.699],[-0.009477,42.732225,1424.607],[-0.009452,42.732183,1424.027],[-0.009438,42.732139,1422.808],[-0.009454,42.732085,1420.173],[-0.009415,42.732034,1418.933],[-0.009386,42.731983,1419.08],[-0.009359,42.73193,1419.896],[-0.009337,42.731887,1420.337],[-0.009318,42.731836,1420.692],[-0.009296,42.731789,1420.88],[-0.009275,42.731738,1421.764],[-0.009244,42.731696,1421.411],[-0.009228,42.731647,1421.221],[-0.009189,42.731603,1421.103],[-0.009144,42.731545,1421.008],[-0.009113,42.731502,1422.665],[-0.009093,42.731459,1422.765],[-0.009068,42.731417,1422.842],[-0.009037,42.731378,1423.788],[-0.009013,42.73133,1424.229],[-0.009006,42.731281,1424.184],[-0.008999,42.731226,1424.492],[-0.008986,42.731173,1423.866],[-0.008971,42.73112,1423.871],[-0.00896,42.731066,1422.241],[-0.008948,42.731007,1422.515],[-0.008931,42.730959,1422.308],[-0.008918,42.730909,1421.851],[-0.008921,42.730859,1422.711],[-0.008904,42.73081,1423.218],[-0.008905,42.730765,1422.744],[-0.008883,42.73072,1421.255],[-0.008851,42.730675,1421.11],[-0.008812,42.730627,1421.068],[-0.008785,42.730574,1421.012],[-0.008753,42.730529,1421.819],[-0.008714,42.730489,1421.909],[-0.008728,42.73044,1420.719],[-0.008697,42.730388,1421.608],[-0.008673,42.730338,1421.745],[-0.008644,42.730296,1422.225],[-0.008618,42.730249,1420.172],[-0.008586,42.7302,1418.428],[-0.008539,42.730148,1418.269],[-0.008498,42.730106,1418.154],[-0.008466,42.730054,1418.022],[-0.008446,42.73001,1418.846],[-0.008417,42.729956,1419.323],[-0.008388,42.729913,1420.083],[-0.008353,42.729873,1422.011],[-0.008316,42.729824,1422.008],[-0.008287,42.729774,1422.026],[-0.008262,42.729727,1422.426],[-0.008231,42.729679,1423.883],[-0.008213,42.729633,1424.319],[-0.008206,42.729584,1424.69],[-0.008208,42.729533,1426.425],[-0.00821,42.729485,1427.193],[-0.008203,42.729438,1427.977],[-0.008199,42.729392,1428.437],[-0.008212,42.729343,1428.749],[-0.008208,42.729291,1428.913],[-0.008201,42.729245,1428.608],[-0.008168,42.7292,1427.677],[-0.008155,42.729156,1427.497],[-0.008142,42.729112,1426.934],[-0.00814,42.729063,1426.67],[-0.008148,42.729001,1426.021],[-0.008116,42.728927,1425.236],[-0.008097,42.728882,1424.734],[-0.008074,42.728837,1424.488],[-0.008034,42.728775,1423.846],[-0.007996,42.728713,1423.588],[-0.008055,42.728742,1423.316],[-0.008076,42.728698,1422.808],[-0.008079,42.728653,1423.718],[-0.008094,42.728601,1425.418],[-0.008097,42.728544,1425.295],[-0.008102,42.728499,1425.541],[-0.008108,42.728448,1425.372],[-0.008107,42.728403,1425.237],[-0.008097,42.728357,1425.585],[-0.00809,42.728303,1426.989],[-0.008081,42.728241,1427.774],[-0.008055,42.728186,1428.656],[-0.008027,42.728146,1429.121],[-0.007994,42.728094,1430.208],[-0.007956,42.728041,1430.911],[-0.007927,42.727997,1432.111],[-0.007899,42.72795,1433.258],[-0.007881,42.7279,1433.934],[-0.007888,42.727841,1433.965],[-0.007883,42.727789,1433.97],[-0.007883,42.727744,1433.998],[-0.007892,42.727697,1431.562],[-0.007834,42.72768,1431.372],[-0.007767,42.727667,1431.613],[-0.007825,42.727629,1431.014],[-0.007872,42.727592,1431.008],[-0.007877,42.727528,1429.081],[-0.00787,42.727483,1428.271],[-0.007836,42.727435,1428.138],[-0.007785,42.7274,1426.974],[-0.007755,42.727349,1426.645],[-0.007732,42.727299,1426.48],[-0.007711,42.727251,1426.388],[-0.007706,42.7272,1426.632],[-0.007696,42.727142,1428.058],[-0.007674,42.727098,1429.252],[-0.007652,42.727052,1429.917],[-0.007649,42.727004,1429.908],[-0.007636,42.726956,1430.769],[-0.007625,42.72691,1430.059],[-0.007633,42.726859,1429.646],[-0.007629,42.726812,1430.142],[-0.007624,42.726761,1429.293],[-0.007616,42.72671,1428.758],[-0.007606,42.72666,1429.696],[-0.007614,42.726604,1430.16],[-0.007608,42.726554,1431.284],[-0.007611,42.726499,1431.907],[-0.007621,42.72645,1433.117],[-0.007613,42.726395,1433.808],[-0.007612,42.726335,1433.092],[-0.007607,42.726287,1432.532],[-0.007598,42.726236,1431.459],[-0.007604,42.726177,1431.225],[-0.007631,42.726136,1431.596],[-0.00764,42.726083,1433.711],[-0.007656,42.726038,1435.039],[-0.007677,42.725985,1435.823],[-0.007692,42.725938,1436.781],[-0.007708,42.72589,1437.261],[-0.007726,42.72584,1437.517],[-0.007761,42.725781,1437.308],[-0.007788,42.725731,1437.212],[-0.007812,42.725681,1436.762],[-0.007837,42.725634,1436.899],[-0.007873,42.725587,1436.935],[-0.007901,42.725546,1436.516],[-0.007926,42.725498,1436.711],[-0.007961,42.72545,1437.229],[-0.007994,42.725404,1437.193],[-0.008018,42.725361,1437.499],[-0.008062,42.725319,1438.007],[-0.008093,42.725272,1438.427],[-0.008115,42.725227,1438.608],[-0.008147,42.725175,1438.773],[-0.008176,42.725135,1438.443],[-0.008208,42.725086,1438.21],[-0.00823,42.725039,1438.576],[-0.008248,42.724996,1439.197],[-0.008272,42.724941,1439.482],[-0.008317,42.724908,1440.44],[-0.008342,42.724856,1442.244],[-0.008378,42.724813,1443.398],[-0.008406,42.724771,1443.915],[-0.008418,42.724723,1443.526],[-0.008425,42.724676,1442.908],[-0.008436,42.724624,1440.113],[-0.008456,42.724571,1440.023],[-0.008464,42.72452,1440.83],[-0.008468,42.724464,1440.936],[-0.008483,42.724408,1441.777],[-0.008496,42.724354,1441.082],[-0.008495,42.724304,1441.09],[-0.008483,42.724251,1441.464],[-0.008463,42.724208,1441.692],[-0.008446,42.724163,1438.173],[-0.008427,42.724107,1437.22],[-0.00842,42.72406,1436.308],[-0.008391,42.724016,1437.373],[-0.008372,42.723968,1437.963],[-0.008357,42.723924,1438.31],[-0.008327,42.72388,1438.556],[-0.008287,42.723839,1437.867],[-0.008235,42.723796,1438.222],[-0.008194,42.723756,1438.42],[-0.008152,42.72371,1437.764],[-0.008109,42.723668,1436.593],[-0.008093,42.72362,1436.265],[-0.008079,42.723569,1436.021],[-0.008066,42.723521,1435.908],[-0.008049,42.723477,1436.653],[-0.008034,42.723429,1436.683],[-0.008022,42.723378,1436.61],[-0.008011,42.723333,1436.646],[-0.008002,42.723273,1437.087],[-0.007997,42.723228,1436.882],[-0.008002,42.723168,1437.11],[-0.007992,42.723112,1438.944],[-0.007964,42.72307,1440.097],[-0.007927,42.723031,1439.823],[-0.007904,42.722986,1439.325],[-0.00788,42.722924,1439.808],[-0.007857,42.722879,1440.513],[-0.007829,42.722821,1442.133],[-0.007794,42.722767,1442.33],[-0.007773,42.722715,1441.216],[-0.007801,42.722667,1440.137],[-0.007847,42.722635,1439.112],[-0.007866,42.722585,1437.75],[-0.007874,42.722539,1438.094],[-0.007889,42.722488,1439.424],[-0.007902,42.722431,1441.004],[-0.007921,42.722373,1441.614],[-0.007946,42.722325,1441.608],[-0.007975,42.722274,1442.486],[-0.007996,42.722231,1443.716],[-0.008028,42.72218,1444.963],[-0.008059,42.722132,1445.699],[-0.008077,42.722075,1445.67],[-0.008101,42.722028,1445.615],[-0.008153,42.721991,1445.243],[-0.008207,42.721962,1443.447],[-0.008238,42.721917,1441.914],[-0.008195,42.721875,1443.054],[-0.008142,42.721842,1444.109],[-0.008101,42.721805,1444.708],[-0.008136,42.721767,1442.765],[-0.008191,42.721728,1441.985],[-0.008246,42.721702,1441.452],[-0.008302,42.72168,1441.158],[-0.008341,42.721629,1441.729],[-0.008402,42.721587,1441.724],[-0.008464,42.721561,1441.352],[-0.008533,42.721556,1441.126],[-0.008586,42.72152,1439.841],[-0.008634,42.721489,1440.281],[-0.008682,42.721449,1441.209],[-0.008702,42.721402,1441.808],[-0.008715,42.721342,1443.038],[-0.008723,42.721291,1442.568],[-0.008724,42.721245,1442.635],[-0.008716,42.7212,1443.181],[-0.008703,42.72115,1444.692],[-0.008687,42.721096,1445.987],[-0.008673,42.721038,1447.145],[-0.008662,42.720987,1447.819],[-0.008642,42.720936,1447.812],[-0.008629,42.72089,1447.432],[-0.008625,42.720841,1448.405],[-0.008593,42.720802,1448.608],[-0.008587,42.720753,1450.795],[-0.008565,42.720705,1452.455],[-0.008532,42.720653,1452.632],[-0.008498,42.720604,1448.768],[-0.00848,42.720553,1448.879],[-0.008447,42.720513,1449.654],[-0.008405,42.720479,1451.322],[-0.008363,42.720425,1454.716],[-0.008334,42.720384,1457.218],[-0.008292,42.720329,1459.198],[-0.008263,42.720286,1460.217],[-0.008241,42.720233,1461.308],[-0.008221,42.720187,1461.925],[-0.008161,42.720162,1462.775],[-0.008104,42.720137,1463.232],[-0.008038,42.720142,1463.558],[-0.007975,42.720144,1464.129],[-0.007936,42.720105,1464.484],[-0.007896,42.720061,1465.022],[-0.007858,42.720016,1466.616],[-0.007821,42.719971,1467.982],[-0.007803,42.719927,1468.743],[-0.007812,42.719879,1470.417],[-0.007786,42.719825,1466.408],[-0.007747,42.719788,1465.022],[-0.007714,42.71974,1467.472],[-0.007688,42.719699,1470.479],[-0.007679,42.719649,1473.865],[-0.007663,42.719598,1476.256],[-0.00766,42.719543,1478.521],[-0.007637,42.719499,1481.159],[-0.007592,42.719447,1483.453],[-0.007558,42.719405,1484.082],[-0.007547,42.719356,1484.843],[-0.007525,42.719313,1485.717],[-0.007499,42.719265,1486.608],[-0.007509,42.719215,1487.142],[-0.007507,42.719163,1485.892],[-0.00753,42.719116,1484.619],[-0.007549,42.719071,1483.945],[-0.007578,42.719021,1483.516],[-0.007622,42.718984,1484.491],[-0.007676,42.718951,1480.489],[-0.007672,42.718899,1479.433],[-0.00766,42.718848,1480.828],[-0.007657,42.718795,1482.489],[-0.007672,42.718751,1483.817],[-0.007678,42.7187,1485.008],[-0.007693,42.718647,1485.766],[-0.007712,42.718601,1486.146],[-0.00771,42.718552,1486.463],[-0.007702,42.718501,1486.659],[-0.007707,42.718443,1486.71],[-0.00769,42.718396,1487.285],[-0.007661,42.718353,1485.923],[-0.007665,42.718304,1485.157],[-0.007657,42.718254,1485.015],[-0.007627,42.718203,1484.665],[-0.007599,42.718151,1484.711],[-0.007583,42.7181,1480.708],[-0.007562,42.718057,1482.025],[-0.007521,42.718018,1483.265],[-0.007476,42.717975,1483.192],[-0.007424,42.71794,1479.188],[-0.007386,42.717899,1478.229],[-0.007343,42.717855,1478.514],[-0.007315,42.717815,1479.982],[-0.007304,42.717765,1481.126],[-0.007295,42.71772,1482.243],[-0.007284,42.717666,1483.364],[-0.007283,42.717615,1483.91],[-0.007263,42.71757,1483.908],[-0.00724,42.717513,1482.768],[-0.007206,42.717471,1480.878],[-0.00718,42.717416,1480.415],[-0.00717,42.717368,1480.281],[-0.007167,42.71732,1476.212],[-0.007152,42.717268,1475.727],[-0.007133,42.717221,1476.675],[-0.007101,42.717163,1478.389],[-0.007103,42.717105,1479.386],[-0.007112,42.717055,1479.16],[-0.007127,42.717008,1478.626],[-0.007125,42.716952,1476.708],[-0.007103,42.716899,1474.862],[-0.00707,42.716847,1473.672],[-0.007065,42.716795,1473.379],[-0.007084,42.716741,1469.335],[-0.007102,42.71669,1465.366],[-0.007163,42.716696,1463.581],[-0.007162,42.716651,1461.239],[-0.007192,42.716606,1465.293],[-0.007218,42.716557,1468.218],[-0.007229,42.716508,1464.298],[-0.007233,42.716453,1465.617],[-0.007261,42.716406,1468.508],[-0.007287,42.716358,1466.285],[-0.007296,42.716313,1470.275],[-0.007317,42.716264,1472.072],[-0.007329,42.716214,1468.098],[-0.007338,42.716163,1467.589],[-0.007344,42.716108,1469.234],[-0.007356,42.716061,1470.222],[-0.007363,42.716004,1471.276],[-0.007366,42.715951,1471.817],[-0.007379,42.715896,1472.287],[-0.007383,42.715843,1472.015],[-0.007385,42.71579,1471.908],[-0.007397,42.715743,1472.285],[-0.007399,42.715692,1473.255],[-0.0074,42.71564,1473.822],[-0.007397,42.715593,1475.458],[-0.007404,42.715541,1476.759],[-0.007405,42.715479,1472.764],[-0.007398,42.715418,1470.322],[-0.007407,42.715364,1472.196],[-0.007436,42.715316,1474.017],[-0.007442,42.715261,1475.987],[-0.007444,42.715207,1477.415],[-0.007447,42.715162,1478.308],[-0.007447,42.7151,1478.945],[-0.007424,42.715036,1474.985],[-0.007409,42.714977,1475.222],[-0.007405,42.714926,1475.828],[-0.007397,42.714873,1476.669],[-0.007392,42.714823,1477.554],[-0.007409,42.71478,1478.872],[-0.007477,42.714773,1479.636],[-0.007536,42.714757,1480.173],[-0.007596,42.714728,1480.485],[-0.007619,42.714771,1479.413],[-0.007649,42.714729,1479.208],[-0.007685,42.714672,1479.561],[-0.007699,42.714618,1475.551],[-0.007711,42.714555,1471.528],[-0.007702,42.714507,1471.764],[-0.007771,42.714495,1474.235],[-0.007784,42.714441,1475.74],[-0.007777,42.714378,1477.888],[-0.007768,42.714332,1479.522],[-0.00776,42.714283,1479.767],[-0.007752,42.714232,1479.881],[-0.007748,42.714185,1481.119],[-0.007767,42.71414,1482.308],[-0.007746,42.714087,1482.27],[-0.007742,42.714036,1481.78],[-0.007753,42.713992,1481.837],[-0.007768,42.713938,1481.513],[-0.007766,42.713893,1481.374],[-0.007757,42.71384,1482.059],[-0.007764,42.713786,1481.697],[-0.007769,42.713741,1481.841],[-0.007805,42.713699,1480.342],[-0.007794,42.713649,1479.822],[-0.007784,42.713591,1479.914],[-0.007775,42.713533,1479.608],[-0.007779,42.713481,1479.888],[-0.007764,42.713431,1479.528],[-0.007785,42.713374,1480.125],[-0.007816,42.713334,1479.761],[-0.007835,42.713284,1479.432],[-0.007819,42.713233,1479.687],[-0.007811,42.713186,1480.115],[-0.007802,42.71314,1480.879],[-0.007805,42.713089,1480.447],[-0.007812,42.713039,1480.229],[-0.007817,42.712981,1480.121],[-0.007814,42.712926,1480.008],[-0.007807,42.712875,1476.088],[-0.007809,42.712824,1476.088],[-0.007807,42.712769,1478.445],[-0.007803,42.712712,1480.281],[-0.0078,42.712653,1481.762],[-0.007804,42.712604,1482.637],[-0.007817,42.712556,1483.125],[-0.007825,42.712508,1483.429],[-0.007826,42.712463,1482.815],[-0.007843,42.712408,1478.865],[-0.007869,42.712361,1475.611],[-0.007892,42.712313,1476.508],[-0.007904,42.712262,1476.285],[-0.007926,42.712216,1476.855],[-0.007965,42.712172,1474.062],[-0.007991,42.712131,1475.528],[-0.007989,42.71208,1477.639],[-0.007994,42.712033,1479.334],[-0.00801,42.711989,1480.712],[-0.008025,42.711941,1482.396],[-0.008038,42.711885,1480.911],[-0.008056,42.711832,1482.121],[-0.008079,42.711786,1484.403],[-0.008089,42.711736,1485.808],[-0.008104,42.711684,1487.065],[-0.008134,42.711637,1487.775],[-0.008146,42.711592,1487.782],[-0.008163,42.711544,1488.568],[-0.008173,42.711497,1489.049],[-0.008194,42.711454,1485.034],[-0.008211,42.711405,1484.952],[-0.008219,42.711358,1485.696],[-0.008212,42.711309,1487.658],[-0.008208,42.711254,1488.852],[-0.008207,42.711206,1486.717],[-0.008198,42.711161,1488.708],[-0.008215,42.71111,1490.319],[-0.008226,42.711055,1489.239],[-0.008244,42.71099,1488.696],[-0.008237,42.710932,1489.032],[-0.008226,42.710887,1490.993],[-0.008186,42.710845,1490.848],[-0.008178,42.7108,1490.716],[-0.008177,42.710738,1490.77],[-0.008183,42.710684,1490.783],[-0.008187,42.710637,1489.925],[-0.008195,42.710586,1488.217],[-0.008201,42.710539,1487.608],[-0.008201,42.710492,1486.812],[-0.008184,42.710443,1485.932],[-0.008167,42.710383,1484.699],[-0.00816,42.710336,1480.675],[-0.008135,42.710294,1476.666],[-0.008105,42.710246,1476.641],[-0.008075,42.710202,1480.679],[-0.00805,42.710152,1484.263],[-0.008038,42.710103,1487.658],[-0.008051,42.710048,1490.852],[-0.008087,42.710009,1492.717],[-0.008119,42.709969,1492.708],[-0.008147,42.709914,1493.179],[-0.008176,42.709864,1493.769],[-0.00821,42.709817,1493.746],[-0.00824,42.709777,1492.982],[-0.008265,42.709732,1492.413],[-0.008279,42.709683,1493.358],[-0.008287,42.709634,1494.236],[-0.008283,42.709586,1494.89],[-0.008288,42.709539,1495.976],[-0.008311,42.709483,1497.89],[-0.008371,42.709471,1493.819],[-0.008416,42.709437,1489.808],[-0.008433,42.70939,1490.551],[-0.008434,42.709344,1492.941],[-0.008411,42.709287,1496.038],[-0.008389,42.709241,1498.254],[-0.008376,42.709191,1501.585],[-0.008379,42.709136,1505.12],[-0.008387,42.709084,1508.518],[-0.00841,42.709032,1508.962],[-0.008407,42.708984,1508.832],[-0.008404,42.708933,1509.992],[-0.008395,42.708887,1510.611],[-0.008372,42.708842,1509.808],[-0.00833,42.708806,1509.717],[-0.00831,42.708755,1510.157],[-0.00833,42.708711,1509.984],[-0.008378,42.708674,1509.03],[-0.008437,42.708641,1510.141],[-0.008466,42.708586,1511.546],[-0.00849,42.708534,1512.484],[-0.008532,42.708498,1513.758],[-0.008547,42.708449,1512.984],[-0.008582,42.708399,1510.007],[-0.008631,42.70836,1508.317],[-0.008705,42.708358,1507.308],[-0.008765,42.708349,1507.972],[-0.008829,42.70834,1508.282],[-0.008892,42.708332,1509.629],[-0.008962,42.708324,1511.295],[-0.009024,42.708327,1513.026],[-0.009087,42.708334,1514.961],[-0.009167,42.708333,1516.849],[-0.009237,42.708346,1516.813],[-0.009297,42.708357,1512.833],[-0.009359,42.708333,1509.223],[-0.009398,42.708296,1509.815],[-0.009441,42.708258,1513.808],[-0.00948,42.708221,1516.647],[-0.009504,42.708176,1519.547],[-0.009566,42.708148,1522.074],[-0.009629,42.708152,1525.17],[-0.009687,42.708135,1527.441],[-0.009735,42.708104,1528.486],[-0.009771,42.70806,1528.214],[-0.009812,42.708012,1528.158],[-0.009854,42.707968,1528.043],[-0.009921,42.707979,1528.864],[-0.009974,42.707954,1530.51],[-0.010032,42.707915,1531.508],[-0.010074,42.707872,1532.198],[-0.010126,42.707833,1532.918],[-0.010168,42.707791,1534.225],[-0.010225,42.707774,1535.031],[-0.010295,42.707771,1535.512],[-0.010348,42.707742,1532.677],[-0.010389,42.707704,1533.635],[-0.010458,42.707687,1535.429],[-0.01051,42.707658,1537.377],[-0.010568,42.707629,1538.461],[-0.010609,42.707586,1540.327],[-0.01063,42.707537,1542.608],[-0.010647,42.707485,1544.051],[-0.010681,42.707438,1544.851],[-0.010707,42.707388,1546.198],[-0.010729,42.707345,1547.314],[-0.010749,42.707299,1548.065],[-0.010756,42.707251,1548.46],[-0.010787,42.707206,1548.338],[-0.01085,42.707189,1548.282],[-0.010912,42.707153,1547.794],[-0.01093,42.707097,1547.857],[-0.010922,42.707046,1548.722],[-0.010878,42.707011,1550.408],[-0.010806,42.707011,1553.413],[-0.010751,42.706989,1556.473],[-0.010767,42.706943,1558.23],[-0.010784,42.706894,1559.356],[-0.010807,42.706845,1560.427],[-0.010811,42.706798,1561.082],[-0.010824,42.706752,1561.04],[-0.010817,42.706702,1562.254],[-0.01081,42.706648,1563.326],[-0.010812,42.706592,1559.347],[-0.010811,42.706533,1555.311],[-0.010794,42.706484,1553.208],[-0.010738,42.706455,1554.316],[-0.010664,42.706463,1558.386],[-0.010599,42.706468,1562.233],[-0.010532,42.706486,1564.969],[-0.01047,42.706506,1566.56],[-0.010405,42.706499,1568.345],[-0.010343,42.706481,1569.033],[-0.01027,42.706485,1569.847],[-0.010214,42.706506,1570.736],[-0.010155,42.706543,1571.617],[-0.010093,42.706566,1572.618],[-0.010033,42.706584,1573.208],[-0.009969,42.706602,1573.997],[-0.009899,42.706613,1575.917],[-0.009877,42.706569,1578.334],[-0.009877,42.706523,1579.04],[-0.009876,42.706478,1575.091],[-0.009864,42.706426,1571.056],[-0.009862,42.706367,1571.844],[-0.009877,42.70631,1573.138],[-0.009889,42.706259,1574.388],[-0.009891,42.706211,1575.824],[-0.009909,42.706166,1577.126],[-0.009936,42.706118,1578.308],[-0.009952,42.706067,1579.052],[-0.009962,42.706018,1579.822],[-0.00996,42.705969,1581.939],[-0.009915,42.705937,1584.855],[-0.009868,42.705905,1580.896],[-0.00983,42.705868,1582.511],[-0.009825,42.705821,1583.519],[-0.009842,42.705768,1584.183],[-0.009853,42.705711,1586.136],[-0.009859,42.705659,1588.117],[-0.009811,42.705628,1590.118],[-0.009765,42.705596,1591.308],[-0.0097,42.705573,1593.267],[-0.009645,42.705546,1595.197],[-0.009592,42.705508,1593.954],[-0.009539,42.705483,1592.08],[-0.009484,42.705513,1588.061],[-0.00942,42.705532,1584.076],[-0.00935,42.705525,1586.074],[-0.009285,42.705499,1586.818],[-0.009223,42.705484,1588.542],[-0.009155,42.705495,1589.922],[-0.00909,42.705484,1590.314],[-0.009032,42.705504,1591.408],[-0.008975,42.705532,1590.868],[-0.008912,42.705525,1588.948],[-0.008854,42.705492,1588.585],[-0.008804,42.705458,1589.541],[-0.008743,42.705439,1591.732],[-0.008682,42.705406,1593.857],[-0.008643,42.70535,1596.715],[-0.008606,42.705305,1598.889],[-0.008576,42.70526,1601.371],[-0.008573,42.705212,1597.341],[-0.008557,42.705166,1593.315],[-0.008567,42.705116,1589.308],[-0.008575,42.705067,1585.321],[-0.008583,42.70502,1582.481],[-0.008631,42.704977,1586.478],[-0.008635,42.704927,1586.724],[-0.008657,42.704858,1586.545],[-0.008669,42.704796,1587.26],[-0.008669,42.704735,1588.858],[-0.008669,42.704682,1589.092],[-0.008661,42.704636,1591.128],[-0.008693,42.704588,1592.489],[-0.00869,42.704535,1596.417],[-0.008654,42.704496,1597.608],[-0.008616,42.704456,1599.976],[-0.008579,42.704408,1600.556],[-0.008565,42.704358,1600.493],[-0.008545,42.704309,1596.499],[-0.008512,42.704256,1592.46],[-0.008461,42.70422,1588.455],[-0.008417,42.704165,1584.443],[-0.008412,42.704112,1580.417],[-0.008394,42.704062,1576.496],[-0.008417,42.704109,1575.631],[-0.008415,42.704167,1577.124],[-0.008419,42.704215,1581.108],[-0.008351,42.704202,1577.173],[-0.008293,42.704175,1574.053],[-0.008226,42.704152,1576.57],[-0.008173,42.704112,1580.446],[-0.008124,42.70408,1583.217],[-0.008079,42.704046,1583.742],[-0.008022,42.704016,1585.61],[-0.007969,42.703985,1589.664],[-0.008007,42.70395,1593.644],[-0.007981,42.703909,1597.505],[-0.007916,42.703873,1598.715],[-0.007886,42.703831,1600.208],[-0.007854,42.703787,1601.538],[-0.007821,42.703743,1601.518],[-0.007783,42.703706,1602.345],[-0.007773,42.703661,1600.871],[-0.007749,42.703615,1600.382],[-0.007724,42.703568,1601.257],[-0.007659,42.703525,1602.965],[-0.007623,42.703481,1604.389],[-0.007632,42.703433,1604.876],[-0.007631,42.703378,1606.39],[-0.007585,42.703348,1607.219],[-0.007523,42.703327,1607.708],[-0.007465,42.70331,1608.471],[-0.007412,42.703278,1608.861],[-0.007378,42.703241,1608.348],[-0.007364,42.703192,1608.464],[-0.00733,42.70315,1610.065],[-0.00732,42.703098,1611.43],[-0.007283,42.703061,1612.628],[-0.007235,42.703032,1611.392],[-0.007216,42.702983,1610.529],[-0.007185,42.702933,1609.6],[-0.007154,42.702889,1607.92],[-0.007117,42.702845,1606.908],[-0.007071,42.702815,1607.536],[-0.007031,42.702776,1609.186],[-0.006988,42.70274,1611.243],[-0.006959,42.702689,1612.189],[-0.006948,42.702633,1612.67],[-0.006932,42.702588,1613.335],[-0.006872,42.702569,1614.533],[-0.006804,42.702561,1615.287],[-0.006743,42.702531,1617.287],[-0.006704,42.702567,1621.242],[-0.006645,42.702537,1625.226],[-0.006595,42.702564,1625.208],[-0.006532,42.70255,1629.222],[-0.006522,42.7025,1630.092],[-0.006534,42.702455,1630.139],[-0.006572,42.702407,1630.685],[-0.006612,42.702366,1632.186],[-0.00663,42.702321,1631.421],[-0.006683,42.702296,1631.449],[-0.00671,42.702345,1635.483],[-0.006718,42.702392,1639.088],[-0.006747,42.702351,1641.924],[-0.006718,42.702301,1642.926],[-0.006671,42.702255,1641.908],[-0.006637,42.702212,1639.362],[-0.0066,42.702164,1638.152],[-0.006588,42.702108,1637.089],[-0.006575,42.702058,1636.355],[-0.006551,42.702009,1637.146],[-0.006514,42.701964,1634.851],[-0.006485,42.702005,1635.899],[-0.006428,42.702022,1637.643],[-0.006379,42.702052,1638.734],[-0.006317,42.702054,1638.655],[-0.006264,42.70203,1638.11],[-0.006228,42.701987,1640.608],[-0.006227,42.701939,1641.717],[-0.006224,42.701893,1643.217],[-0.006194,42.701848,1642.134],[-0.006135,42.701819,1642.22],[-0.006121,42.70187,1643.921],[-0.00617,42.701901,1646.136],[-0.006226,42.701922,1647.094],[-0.006275,42.701953,1646.828],[-0.006304,42.701998,1647.551],[-0.006331,42.70204,1649.901],[-0.006312,42.70199,1653.311],[-0.006293,42.702042,1657.308],[-0.006293,42.702042,1657.389],[-0.006294,42.701988,1659.429],[-0.006244,42.70196,1658.636],[-0.006183,42.701941,1656.522],[-0.006124,42.701953,1652.583],[-0.006086,42.701906,1650.588],[-0.006025,42.701901,1646.536],[-0.005985,42.701853,1644.11],[-0.005932,42.701821,1643.056],[-0.005886,42.701791,1644.459],[-0.005824,42.701781,1646.414],[-0.005767,42.701798,1647.608],[-0.005694,42.701793,1647.919],[-0.005632,42.701785,1648.529],[-0.005598,42.701834,1649.316],[-0.005555,42.701868,1650.682],[-0.005592,42.70192,1654.613],[-0.005513,42.701914,1657.488],[-0.005459,42.701876,1659.546],[-0.005399,42.70186,1661.55],[-0.00534,42.701832,1662.333],[-0.0053,42.701797,1660.823],[-0.005309,42.701743,1656.815],[-0.005307,42.701684,1653.108],[-0.005304,42.701636,1652.197],[-0.005238,42.701632,1649.127],[-0.005207,42.701586,1648.564],[-0.005177,42.701537,1647.31],[-0.00519,42.701486,1646.681],[-0.005178,42.701535,1645.866],[-0.005241,42.701538,1646.584],[-0.005307,42.701532,1650.558],[-0.00537,42.701526,1652.596],[-0.005322,42.70149,1650.931],[-0.005258,42.701481,1649.124],[-0.005193,42.701481,1651.608],[-0.005145,42.701444,1655.523],[-0.00508,42.701441,1651.953],[-0.005099,42.701395,1649.78],[-0.0051,42.701349,1649.646],[-0.005111,42.701296,1652.337],[-0.005114,42.701246,1654.712],[-0.005111,42.7012,1656.63],[-0.005107,42.701138,1656.984],[-0.00511,42.70108,1656.382],[-0.005107,42.701028,1655.943],[-0.005104,42.700978,1657.717],[-0.005106,42.700927,1660.008],[-0.005101,42.700875,1658.292],[-0.005126,42.700832,1659.572],[-0.00514,42.700785,1662.379],[-0.005146,42.700738,1665.645],[-0.005147,42.700693,1666.096],[-0.005165,42.700641,1667.091],[-0.005204,42.700602,1668.029],[-0.005228,42.700553,1670.293],[-0.005259,42.70051,1672.319],[-0.005299,42.700472,1676.309],[-0.005304,42.700417,1678.419],[-0.005324,42.700369,1679.208],[-0.005333,42.700307,1677.345],[-0.00534,42.700262,1676.285],[-0.005363,42.700219,1672.722],[-0.005419,42.700198,1670.618],[-0.005445,42.700153,1668.189],[-0.005466,42.700109,1665.874],[-0.005478,42.700061,1666.472],[-0.005503,42.700019,1666.886],[-0.005543,42.699976,1667.445],[-0.005595,42.699945,1667.047],[-0.005662,42.699921,1668.711],[-0.005678,42.69987,1670.108],[-0.005682,42.699822,1671.088],[-0.005724,42.699855,1674.748],[-0.005783,42.699871,1670.765],[-0.005848,42.699865,1670.981],[-0.005852,42.69982,1671.032],[-0.005895,42.699784,1674.727],[-0.005946,42.699747,1677.375],[-0.005977,42.699705,1677.799],[-0.006015,42.699664,1677.593],[-0.006064,42.699631,1678.665],[-0.006123,42.699616,1682.621],[-0.00615,42.699567,1686.508],[-0.006191,42.699525,1689.293],[-0.0062,42.699477,1690.433],[-0.006186,42.699428,1691.56],[-0.006238,42.699464,1690.216],[-0.006264,42.699508,1687.877],[-0.006321,42.699531,1683.822],[-0.00633,42.699484,1679.87],[-0.006308,42.699435,1675.864],[-0.006288,42.699385,1672.822],[-0.00627,42.69934,1674.662],[-0.006315,42.699372,1677.708],[-0.006377,42.699373,1677.508],[-0.006365,42.699319,1677.416],[-0.00631,42.699285,1676.946],[-0.006258,42.699311,1672.953],[-0.00626,42.69937,1668.959],[-0.00629,42.699448,1666.21],[-0.00623,42.699436,1670.235],[-0.006268,42.699396,1674.253],[-0.006245,42.699336,1670.257],[-0.006231,42.69928,1670.238],[-0.006224,42.699235,1671.47],[-0.006206,42.699189,1675.417],[-0.006157,42.69916,1675.308],[-0.006209,42.699122,1679.387],[-0.00626,42.699088,1683.377],[-0.0063,42.69905,1680.924],[-0.006359,42.699018,1683.84],[-0.006418,42.699003,1687.231],[-0.006453,42.699047,1690.476],[-0.006473,42.699003,1692.324],[-0.0065,42.698957,1688.328],[-0.006556,42.698937,1684.367],[-0.006619,42.698934,1683.181],[-0.006676,42.698917,1684.019],[-0.00675,42.698909,1686.908],[-0.006821,42.698895,1690.99],[-0.006883,42.698871,1692.61],[-0.006916,42.698833,1690.817],[-0.00695,42.698791,1688.973],[-0.006982,42.698746,1688.214],[-0.006994,42.698693,1688.649],[-0.007008,42.698635,1684.687],[-0.007052,42.698601,1680.611],[-0.00707,42.698549,1681.697],[-0.007056,42.698504,1683.423],[-0.007057,42.698454,1687.425],[-0.007059,42.698406,1683.408],[-0.007044,42.698358,1685.383],[-0.007023,42.698302,1689.223],[-0.007003,42.698259,1692.09],[-0.006984,42.698206,1693.716],[-0.006987,42.698152,1694.317],[-0.00694,42.698122,1695.122],[-0.006891,42.698088,1691.14],[-0.006903,42.698041,1692.044],[-0.006886,42.697982,1695.317],[-0.006867,42.697932,1698.987],[-0.006849,42.697881,1702.915],[-0.006895,42.697851,1706.908],[-0.006834,42.697813,1709.935],[-0.006786,42.697778,1711.725],[-0.006824,42.697737,1712.432],[-0.006877,42.69777,1712.828],[-0.006878,42.697716,1708.859],[-0.006856,42.697663,1704.844],[-0.006875,42.697615,1700.892],[-0.006906,42.697572,1696.896],[-0.006922,42.697527,1696.679],[-0.006927,42.697473,1700.605],[-0.006884,42.697414,1704.625],[-0.006848,42.697373,1708.608],[-0.006797,42.697335,1712.641],[-0.006756,42.697301,1716.691],[-0.006766,42.697256,1720.668],[-0.006827,42.697254,1716.674],[-0.006836,42.697206,1712.655],[-0.006839,42.697159,1708.69],[-0.006898,42.697141,1704.678],[-0.006959,42.697157,1708.642],[-0.006951,42.69711,1704.678],[-0.006941,42.697061,1700.633],[-0.006941,42.697006,1696.626],[-0.006902,42.696968,1694.508],[-0.006882,42.696916,1690.551],[-0.006851,42.696871,1686.561],[-0.006806,42.69684,1690.528],[-0.006807,42.696784,1689.694],[-0.0068,42.696723,1692.715],[-0.006802,42.696663,1696.23],[-0.006813,42.696607,1698.778],[-0.006824,42.696553,1702.762],[-0.006833,42.696505,1706.797],[-0.006842,42.696454,1710.723],[-0.006909,42.696449,1706.725],[-0.006988,42.696456,1702.708],[-0.007005,42.696411,1698.793],[-0.006996,42.696363,1694.743],[-0.006954,42.69633,1690.71],[-0.006905,42.696293,1689.096],[-0.006955,42.69632,1693.037],[-0.006922,42.696371,1697.032],[-0.006924,42.696423,1701.03],[-0.006917,42.696485,1705.074],[-0.006884,42.696532,1709.046],[-0.006848,42.69657,1713.088],[-0.006816,42.696624,1717.016],[-0.006798,42.696667,1721.008],[-0.006793,42.696714,1725.068],[-0.006811,42.696762,1726.028],[-0.006839,42.69681,1722.075],[-0.006846,42.696861,1718.081],[-0.00686,42.696907,1716.682],[-0.006887,42.69686,1712.647],[-0.006857,42.696819,1716.525],[-0.006919,42.696817,1720.589],[-0.00693,42.696866,1716.579],[-0.006918,42.696917,1712.505],[-0.006869,42.696948,1714.125],[-0.006851,42.696994,1717.408],[-0.006822,42.697039,1721.071],[-0.006816,42.697089,1722.071],[-0.006839,42.697138,1723.458],[-0.00687,42.697189,1725.094],[-0.006859,42.697241,1726.815],[-0.006895,42.69728,1726.71],[-0.006954,42.697307,1722.748],[-0.00697,42.697359,1718.772],[-0.00698,42.697407,1714.776],[-0.006982,42.697455,1712.29],[-0.006966,42.697508,1711.919],[-0.006966,42.697556,1712.508],[-0.006954,42.697613,1711.391],[-0.00693,42.697661,1710.251],[-0.0069,42.697705,1710.328],[-0.006882,42.697749,1712.844],[-0.006871,42.6978,1713.915],[-0.006875,42.697852,1713.32],[-0.006872,42.697901,1715.818],[-0.006887,42.697953,1716.552],[-0.006897,42.698002,1716.187],[-0.006901,42.698053,1712.142],[-0.006899,42.698099,1708.126],[-0.006878,42.698145,1704.108],[-0.006852,42.698197,1700.132],[-0.006823,42.698249,1696.122],[-0.006798,42.698298,1694.739],[-0.006772,42.698339,1693.815],[-0.006744,42.698379,1693.316],[-0.006692,42.698414,1690.661],[-0.006644,42.698448,1689.839],[-0.006619,42.69849,1690.123],[-0.006598,42.698536,1690.335],[-0.006565,42.698588,1690.086],[-0.006561,42.698642,1690.214],[-0.006549,42.698689,1689.908],[-0.006545,42.698744,1690.197],[-0.006521,42.698792,1690.227],[-0.006504,42.698852,1690.314],[-0.006477,42.698898,1686.34],[-0.006421,42.698917,1682.361],[-0.006375,42.698959,1678.376],[-0.006333,42.698996,1674.814],[-0.00628,42.69903,1673.548],[-0.006216,42.699055,1674.345],[-0.006173,42.699087,1673.647],[-0.00614,42.69914,1673.611],[-0.006105,42.699183,1674.008],[-0.006089,42.699229,1674.618],[-0.006099,42.699276,1675.088],[-0.006144,42.699307,1674.825],[-0.006123,42.699358,1670.841],[-0.006123,42.699407,1666.832],[-0.006139,42.699451,1662.887],[-0.006141,42.6995,1663.175],[-0.006126,42.699544,1665.719],[-0.006084,42.699587,1666.421],[-0.006063,42.699631,1666.441],[-0.005997,42.699653,1666.005],[-0.005947,42.699679,1666.208],[-0.005892,42.69971,1666.316],[-0.005833,42.699721,1665.616],[-0.005767,42.699743,1664.073],[-0.005713,42.69977,1664.289],[-0.00566,42.699806,1663.52],[-0.005606,42.699843,1659.535],[-0.005563,42.699887,1655.583],[-0.005573,42.699942,1656.327],[-0.005551,42.699997,1655.269],[-0.005489,42.700015,1655.704],[-0.005465,42.700058,1658.024],[-0.005475,42.700103,1662.008],[-0.005487,42.700161,1665.06],[-0.005484,42.700213,1667.24],[-0.005427,42.700234,1666.937],[-0.005367,42.700246,1665.163],[-0.005355,42.700292,1661.274],[-0.005316,42.700331,1660.949],[-0.005283,42.700381,1661.117],[-0.005254,42.700429,1660.041],[-0.005224,42.700479,1660.639],[-0.005181,42.700518,1660.501],[-0.005125,42.700537,1663.321],[-0.005086,42.700576,1665.008],[-0.005129,42.700611,1661.287],[-0.005131,42.70066,1662.917],[-0.00513,42.700712,1665.194],[-0.005137,42.700762,1663.62],[-0.005156,42.700809,1659.691],[-0.005183,42.700851,1659.156],[-0.005194,42.700902,1661.214],[-0.005199,42.700949,1663.798],[-0.005211,42.701002,1666.878],[-0.00524,42.701047,1669.833],[-0.005267,42.701089,1669.226],[-0.005311,42.70113,1667.708],[-0.005321,42.701177,1668.041],[-0.005318,42.701232,1670.631],[-0.005329,42.701281,1672.578],[-0.005331,42.701327,1668.534],[-0.005401,42.701333,1664.555],[-0.005357,42.701371,1662.14],[-0.005334,42.701417,1661.898],[-0.005347,42.701464,1660.462],[-0.005336,42.701511,1658.446],[-0.00532,42.701559,1659.288],[-0.005318,42.701608,1660.516],[-0.005368,42.701635,1659.308],[-0.005371,42.701686,1656.288],[-0.005418,42.701716,1655.158],[-0.005478,42.701734,1655.275],[-0.005547,42.701737,1652.961],[-0.005614,42.701743,1650.312],[-0.005673,42.70176,1647.187],[-0.005686,42.701806,1645.225],[-0.005735,42.701844,1643.759],[-0.005799,42.701851,1642.076],[-0.005868,42.701845,1641.09],[-0.005941,42.701845,1642.819],[-0.006003,42.701831,1643.508],[-0.006071,42.701847,1644.341],[-0.006128,42.701877,1644.471],[-0.006196,42.701884,1642.818],[-0.006268,42.70189,1642.764],[-0.006332,42.701886,1643.445],[-0.006395,42.701876,1642.28],[-0.006429,42.701919,1644.788],[-0.006476,42.701952,1646.222],[-0.006527,42.701981,1648.761],[-0.006592,42.701985,1648.221],[-0.006625,42.702033,1647.113],[-0.006672,42.702071,1648.408],[-0.006696,42.702121,1649.27],[-0.006713,42.702171,1652.55],[-0.006702,42.702224,1653.367],[-0.00668,42.702266,1653.413],[-0.006667,42.702314,1652.634],[-0.00668,42.702364,1652.569],[-0.006707,42.702407,1653.767],[-0.006666,42.702443,1654.041],[-0.006605,42.702462,1655.039],[-0.006614,42.702507,1651.001],[-0.006561,42.702531,1647.021],[-0.006495,42.702557,1644.408],[-0.006511,42.702604,1642.077],[-0.006522,42.702652,1640.287],[-0.006583,42.702682,1637.174],[-0.006666,42.702673,1635.22],[-0.006732,42.702679,1633.791],[-0.006793,42.702672,1632.416],[-0.006844,42.702644,1631.644],[-0.006779,42.70265,1629.978],[-0.006722,42.702687,1629.765],[-0.006661,42.702691,1630.068],[-0.006722,42.702703,1630.214],[-0.006783,42.702722,1629.108],[-0.00679,42.702676,1630.01],[-0.006733,42.702643,1632.25],[-0.006797,42.702661,1631.597],[-0.006861,42.702678,1628.743],[-0.006925,42.702676,1625.444],[-0.006944,42.702724,1623.449],[-0.006981,42.702761,1624.267],[-0.006983,42.702812,1625.591],[-0.007006,42.702858,1629.154],[-0.007046,42.702898,1631.656],[-0.007093,42.702937,1633.911],[-0.007131,42.702979,1635.308],[-0.007173,42.703016,1635.729],[-0.007203,42.703058,1635.289],[-0.007239,42.703095,1633.396],[-0.007254,42.703141,1632.192],[-0.007309,42.703165,1630.633],[-0.007373,42.70318,1630.568],[-0.007445,42.703199,1626.526],[-0.007478,42.703247,1622.59],[-0.007488,42.703301,1618.585],[-0.007483,42.703349,1616.089],[-0.007533,42.703385,1616.917],[-0.007592,42.70341,1618.308],[-0.007674,42.703421,1622.392],[-0.007753,42.703428,1626.372],[-0.007822,42.703438,1628.399],[-0.007865,42.703473,1629.575],[-0.007831,42.703511,1629.096],[-0.007793,42.703557,1629.191],[-0.007778,42.703607,1628.019],[-0.007796,42.703651,1626.593],[-0.007851,42.703676,1625.258],[-0.007909,42.70369,1625.252],[-0.007969,42.70372,1626.017],[-0.008009,42.703763,1625.708],[-0.00804,42.703807,1624.769],[-0.008071,42.703851,1623.729],[-0.008107,42.703903,1623.136],[-0.008136,42.703945,1622.742],[-0.008125,42.704,1622.993],[-0.008065,42.704013,1620.688],[-0.008058,42.704059,1619.616],[-0.008106,42.704092,1618.68],[-0.008158,42.70413,1617.661],[-0.008207,42.704159,1616.621],[-0.008263,42.704188,1616.813],[-0.008322,42.704218,1616.908],[-0.00838,42.704235,1617.07],[-0.008439,42.704267,1616.29],[-0.008497,42.704303,1614.977],[-0.00854,42.70434,1614.553],[-0.00859,42.704376,1614.764],[-0.008631,42.704423,1616.459],[-0.00864,42.704473,1620.427],[-0.008652,42.704521,1622.651],[-0.008682,42.704574,1623.568],[-0.008711,42.704616,1623.342],[-0.008744,42.704658,1619.326],[-0.008758,42.704705,1615.308],[-0.008756,42.704757,1611.31],[-0.00875,42.704807,1607.39],[-0.008739,42.704852,1603.357],[-0.008718,42.704914,1600.463],[-0.008711,42.704965,1602.284],[-0.008699,42.705021,1604.149],[-0.008675,42.705064,1607.617],[-0.00866,42.705124,1608.921],[-0.00864,42.705177,1610.174],[-0.008619,42.705225,1611.656],[-0.008593,42.705267,1612.521],[-0.008563,42.705311,1613.408],[-0.008582,42.705359,1612.411],[-0.008633,42.705387,1611.491],[-0.008697,42.705384,1610.028],[-0.008771,42.705413,1606.064],[-0.008833,42.705412,1602.075],[-0.008897,42.705424,1598.06],[-0.008966,42.705429,1595.278],[-0.009027,42.705427,1595.132],[-0.009098,42.705431,1595.087],[-0.009163,42.705445,1596.242],[-0.009229,42.705461,1598.126],[-0.009289,42.705477,1597.208],[-0.009357,42.705477,1596.782],[-0.009421,42.70548,1596.042],[-0.009481,42.705501,1596.429],[-0.009534,42.705526,1597.085],[-0.009601,42.705515,1593.076],[-0.009671,42.705503,1589.021],[-0.00974,42.705507,1585.079],[-0.009801,42.705527,1581.053],[-0.009846,42.705564,1580.211],[-0.009868,42.705623,1582.121],[-0.009889,42.705669,1584.803],[-0.009902,42.705722,1586.808],[-0.009911,42.705779,1589.245],[-0.009915,42.705827,1590.365],[-0.00992,42.705876,1591.332],[-0.009984,42.705985,1591.128],[-0.010009,42.70603,1591.079],[-0.01,42.706083,1590.174],[-0.009992,42.706165,1587.242],[-0.009976,42.706209,1585.876],[-0.009924,42.706236,1584.214],[-0.00991,42.706281,1582.854],[-0.009905,42.706334,1578.809],[-0.00988,42.706391,1574.808],[-0.009853,42.706443,1570.865],[-0.009827,42.706494,1566.845],[-0.009815,42.706547,1570.882],[-0.009823,42.706607,1574.878],[-0.009818,42.706653,1577.299],[-0.009826,42.706708,1578.624],[-0.009901,42.706707,1574.682],[-0.009964,42.706681,1570.626],[-0.010017,42.706648,1566.662],[-0.010074,42.706624,1562.683],[-0.010136,42.706601,1561.511],[-0.010192,42.706571,1562.808],[-0.010256,42.706547,1564.86],[-0.010318,42.706527,1567.26],[-0.010378,42.706503,1569.817],[-0.010442,42.706489,1570.623],[-0.010506,42.706481,1570.344],[-0.010566,42.706504,1570.519],[-0.010624,42.706519,1566.547],[-0.010677,42.706552,1562.591],[-0.01074,42.706575,1559.826],[-0.01079,42.706603,1559.847],[-0.01082,42.706643,1561.011],[-0.010833,42.706692,1564.108],[-0.010855,42.706734,1566.056],[-0.010873,42.70679,1566.786],[-0.010867,42.706838,1567.193],[-0.010862,42.706891,1567.419],[-0.010867,42.706947,1566.48],[-0.010865,42.706994,1567.855],[-0.010829,42.707037,1567.073],[-0.010855,42.707087,1565.797],[-0.010881,42.707128,1569.732],[-0.010909,42.707169,1570.592],[-0.010942,42.70721,1568.611],[-0.010951,42.707264,1569.108],[-0.010947,42.707319,1567.817],[-0.010926,42.707362,1567.427],[-0.010864,42.707358,1566.484],[-0.010809,42.707392,1564.62],[-0.010782,42.707448,1562.311],[-0.010756,42.707497,1562.556],[-0.010735,42.707549,1558.544],[-0.01069,42.707589,1554.588],[-0.010645,42.707636,1550.515],[-0.010626,42.707682,1554.565],[-0.010592,42.70772,1554.611],[-0.010531,42.707745,1550.608],[-0.010472,42.707783,1546.665],[-0.010392,42.707795,1542.665],[-0.010333,42.707808,1539.162],[-0.010265,42.707828,1537.038],[-0.010194,42.707842,1535.379],[-0.01016,42.707888,1533.564],[-0.010131,42.707936,1531.612],[-0.010087,42.70797,1529.736],[-0.010027,42.708006,1526.574],[-0.009952,42.708009,1524.256],[-0.009881,42.708012,1522.021],[-0.009818,42.70804,1522.308],[-0.00977,42.708078,1522.561],[-0.009708,42.708117,1521.821],[-0.009661,42.708159,1522.248],[-0.009617,42.708195,1522.454],[-0.009566,42.70823,1520.995],[-0.009524,42.708269,1520.47],[-0.009483,42.708306,1524.448],[-0.009427,42.708326,1528.152],[-0.009374,42.708357,1530.322],[-0.009315,42.708396,1531.262],[-0.009241,42.708403,1530.608],[-0.009183,42.708387,1526.608],[-0.009107,42.708408,1522.696],[-0.009047,42.708422,1518.686],[-0.008991,42.708451,1517.483],[-0.008935,42.708473,1519.159],[-0.008863,42.70849,1522.11],[-0.008791,42.708503,1525.125],[-0.008728,42.708502,1527.323],[-0.008667,42.708511,1528.677],[-0.008604,42.708542,1529.486],[-0.008568,42.708584,1529.96],[-0.008528,42.708626,1527.826],[-0.008475,42.708666,1526.908],[-0.008429,42.7087,1526.072],[-0.008386,42.708733,1526.232],[-0.008362,42.708775,1522.279],[-0.008376,42.708822,1518.245],[-0.008404,42.708863,1516.376],[-0.008452,42.708901,1514.471],[-0.008484,42.708943,1514.989],[-0.008518,42.708988,1516.463],[-0.008523,42.709037,1516.523],[-0.008502,42.709093,1516.983],[-0.00849,42.709153,1516.411],[-0.008479,42.709211,1515.308],[-0.00846,42.709258,1513.416],[-0.008443,42.709311,1510.316],[-0.008425,42.709355,1507.683],[-0.008393,42.709397,1504.459],[-0.008365,42.709445,1501.77],[-0.008333,42.709494,1500.145],[-0.008305,42.709539,1499.573],[-0.00828,42.70959,1498.817],[-0.008259,42.709643,1497.621],[-0.008242,42.709688,1497.341],[-0.008227,42.709734,1497.105],[-0.008213,42.709788,1495.808],[-0.008183,42.709833,1491.836],[-0.008151,42.709874,1488.226],[-0.008127,42.709923,1485.233],[-0.008115,42.709969,1484.619],[-0.008109,42.710021,1483.95],[-0.008093,42.710083,1483.165],[-0.008077,42.710128,1479.153],[-0.008062,42.710172,1475.167],[-0.008056,42.710222,1471.855],[-0.008066,42.710277,1473.007],[-0.008082,42.71033,1474.517],[-0.008107,42.710373,1470.508],[-0.008129,42.710424,1469.889],[-0.008155,42.71047,1473.019],[-0.00818,42.71052,1476.996],[-0.008196,42.71057,1478.012],[-0.0082,42.710624,1478.333],[-0.008208,42.710674,1477.388],[-0.008221,42.710728,1476.346],[-0.008223,42.710779,1478.18],[-0.008226,42.710832,1479.246],[-0.008228,42.710878,1480.688],[-0.00823,42.710933,1482.716],[-0.00824,42.710981,1484.308],[-0.008258,42.711037,1485.758],[-0.008252,42.711087,1486.538],[-0.00824,42.711146,1488.695],[-0.00824,42.711199,1488.391],[-0.00824,42.711245,1488.192],[-0.008238,42.71129,1488.027],[-0.008244,42.711335,1486.345],[-0.008267,42.711377,1482.339],[-0.008315,42.711426,1479.317],[-0.00828,42.711389,1478.787],[-0.008264,42.711435,1478.715],[-0.008234,42.71148,1478.308],[-0.008227,42.711527,1479.395],[-0.008222,42.711578,1479.525],[-0.008194,42.71163,1478.412],[-0.008171,42.711687,1477.318],[-0.008152,42.711735,1475.939],[-0.008134,42.71178,1475.424],[-0.008104,42.71182,1474.732],[-0.008079,42.711869,1470.756],[-0.008074,42.711914,1469.995],[-0.008057,42.711972,1471.449],[-0.008046,42.71202,1473.123],[-0.008033,42.712071,1474.508],[-0.008017,42.71212,1476.683],[-0.008004,42.712164,1477.853],[-0.007988,42.712208,1479.33],[-0.007986,42.712254,1480.686],[-0.007963,42.71231,1480.237],[-0.007929,42.712359,1481.262],[-0.007907,42.712404,1482.69],[-0.007904,42.712459,1482.674],[-0.00786,42.712501,1480.679],[-0.007846,42.712553,1478.605],[-0.007833,42.712607,1477.025],[-0.007827,42.712657,1475.608],[-0.007827,42.712703,1476.071],[-0.007828,42.712751,1472.071],[-0.007817,42.712798,1468.018],[-0.007806,42.71285,1466.614],[-0.00781,42.712895,1466.275],[-0.007812,42.712957,1467.59],[-0.007813,42.713007,1469.148],[-0.007815,42.713055,1468.952],[-0.007814,42.713106,1467.662],[-0.007804,42.713152,1466.483],[-0.007817,42.713206,1464.911],[-0.00782,42.713259,1462.008],[-0.007838,42.71331,1459.51],[-0.007824,42.713361,1459.29],[-0.007815,42.713417,1457.877],[-0.007824,42.713463,1453.843],[-0.007814,42.713508,1449.834],[-0.007811,42.713568,1448.279],[-0.007804,42.713624,1448.827],[-0.007798,42.713676,1450.031],[-0.007801,42.713723,1450.374],[-0.007797,42.713777,1449.756],[-0.007796,42.713829,1449.321],[-0.007784,42.713874,1448.308],[-0.007772,42.713927,1448.551],[-0.007772,42.713973,1448.611],[-0.007761,42.71402,1449.968],[-0.00776,42.714071,1449.144],[-0.007742,42.714117,1451.475],[-0.007764,42.714161,1455.42],[-0.007776,42.714215,1459.288],[-0.007763,42.714269,1463.242],[-0.007785,42.714321,1467.221],[-0.00777,42.714371,1471.241],[-0.007745,42.714415,1473.105],[-0.007736,42.714465,1473.008],[-0.007733,42.714518,1471.896],[-0.007718,42.714587,1470.766],[-0.007713,42.714632,1470.823],[-0.007701,42.714688,1471.369],[-0.007666,42.714743,1469.66],[-0.007585,42.714748,1469.075],[-0.007523,42.714747,1470.283],[-0.007453,42.714757,1470.157],[-0.007409,42.714792,1470.586],[-0.007397,42.714838,1469.16],[-0.007399,42.714885,1467.126],[-0.007417,42.714936,1463.508],[-0.007435,42.714988,1459.522],[-0.007482,42.715028,1455.542],[-0.007483,42.715085,1455.329],[-0.007482,42.71514,1456.095],[-0.007468,42.715192,1458.086],[-0.007441,42.715235,1460.051],[-0.007432,42.715284,1460.849],[-0.007433,42.715332,1461.343],[-0.007427,42.715381,1460.836],[-0.007431,42.715427,1460.117],[-0.007433,42.71548,1459.718],[-0.007429,42.715531,1459.008],[-0.00742,42.715585,1458.667],[-0.007411,42.715638,1458.447],[-0.007371,42.715687,1457.924],[-0.007368,42.715738,1453.94],[-0.007369,42.715795,1449.931],[-0.007353,42.715839,1446.826],[-0.00735,42.715892,1445.394],[-0.007352,42.71594,1446.428],[-0.007341,42.715986,1447.585],[-0.007337,42.716031,1448.189],[-0.007329,42.716088,1448.917],[-0.007315,42.716139,1449.808],[-0.007305,42.716185,1450.752],[-0.007297,42.716232,1450.982],[-0.007256,42.716268,1449.889],[-0.007234,42.716319,1449.155],[-0.007236,42.716372,1449.146],[-0.007246,42.716425,1449.111],[-0.007258,42.71648,1445.159],[-0.007246,42.716526,1447.953],[-0.007216,42.716565,1451.675],[-0.007201,42.71661,1453.828],[-0.007184,42.716655,1455.92],[-0.00716,42.716702,1457.208],[-0.007136,42.716746,1458.081],[-0.007101,42.716787,1458.921],[-0.007105,42.716832,1459.428],[-0.00709,42.716884,1460.524],[-0.007104,42.716934,1461.255],[-0.007125,42.716983,1461.25],[-0.007193,42.717003,1460.458],[-0.007231,42.717056,1460.722],[-0.007244,42.717101,1461.782],[-0.007205,42.717138,1461.143],[-0.007184,42.717189,1459.117],[-0.007174,42.717239,1457.508],[-0.007155,42.71729,1457.082],[-0.007144,42.717335,1459.172],[-0.007158,42.717388,1461.929],[-0.007175,42.717439,1463.625],[-0.007209,42.717488,1466.616],[-0.007267,42.717503,1468.451],[-0.007278,42.717554,1470.379],[-0.007285,42.717607,1470.643],[-0.007289,42.717668,1470.422],[-0.007309,42.717725,1470.762],[-0.007341,42.717771,1473.708],[-0.007395,42.717811,1475.108],[-0.007441,42.717851,1477.526],[-0.007463,42.717898,1476.216],[-0.007506,42.717938,1475.823],[-0.007528,42.717982,1479.839],[-0.007555,42.718025,1483.81],[-0.007609,42.718058,1486.425],[-0.007643,42.718098,1487.543],[-0.007662,42.718149,1487.037],[-0.007681,42.718194,1485.574],[-0.00769,42.718247,1481.856],[-0.007696,42.718293,1481.221],[-0.007697,42.71835,1482.408],[-0.007697,42.718401,1485.961],[-0.007691,42.718451,1487.281],[-0.007698,42.718497,1486.048],[-0.007719,42.718542,1485.764],[-0.007732,42.718595,1486.745],[-0.007737,42.718647,1482.71],[-0.007756,42.718696,1478.738],[-0.007771,42.718746,1474.942],[-0.00776,42.71879,1474.628],[-0.007733,42.718837,1475.289],[-0.007696,42.718886,1475.617],[-0.007656,42.718923,1475.808],[-0.007598,42.718966,1475.996],[-0.00754,42.719004,1475.666],[-0.007517,42.719046,1475.423],[-0.007527,42.719095,1476.539],[-0.007524,42.719144,1476.07],[-0.007537,42.719198,1474.175],[-0.007567,42.719243,1474.953],[-0.007585,42.719291,1475.887],[-0.007609,42.719333,1475.945],[-0.007646,42.719381,1471.947],[-0.007677,42.719432,1467.911],[-0.007693,42.719486,1468.008],[-0.007743,42.719516,1472.018],[-0.007755,42.719566,1475.778],[-0.007758,42.719619,1476.395],[-0.007777,42.719667,1477.131],[-0.007821,42.719715,1477.612],[-0.007861,42.71976,1477.157],[-0.007897,42.719806,1476.895],[-0.007879,42.719855,1476.269],[-0.007853,42.719908,1475.053],[-0.007859,42.719963,1473.104],[-0.007877,42.720012,1472.814],[-0.007919,42.72006,1470.208],[-0.007962,42.720094,1469.429],[-0.008031,42.720123,1466.959],[-0.008103,42.720145,1462.966],[-0.008171,42.720149,1458.972],[-0.008235,42.720158,1456.243],[-0.008287,42.720182,1455.468],[-0.008329,42.720216,1455.346],[-0.008347,42.720265,1454.17],[-0.008356,42.720316,1453.829],[-0.008388,42.720357,1452.4],[-0.008435,42.72039,1449.62],[-0.008453,42.720436,1448.708],[-0.008488,42.720484,1448.626],[-0.008524,42.720524,1448.966],[-0.008546,42.72058,1448.383],[-0.008552,42.720634,1447.919],[-0.008565,42.720679,1448.58],[-0.008581,42.720733,1448.055],[-0.008594,42.720781,1448.163],[-0.008614,42.720828,1449.837],[-0.008629,42.720881,1452.469],[-0.008637,42.720926,1448.404],[-0.00865,42.720972,1445.624],[-0.008663,42.72102,1446.708],[-0.008672,42.721069,1449.07],[-0.0087,42.721117,1450.86],[-0.00872,42.721169,1453.127],[-0.008736,42.721217,1455.333],[-0.008758,42.72127,1455.894],[-0.008795,42.721322,1457.319],[-0.008812,42.72137,1456.647],[-0.008801,42.721419,1455.851],[-0.008763,42.721455,1454.935],[-0.008713,42.721484,1453.686],[-0.008652,42.721517,1449.614],[-0.008592,42.721537,1445.608],[-0.008518,42.721532,1444.857],[-0.008462,42.721553,1445.997],[-0.008421,42.721587,1446.234],[-0.008359,42.721601,1447.63],[-0.008307,42.721628,1443.641],[-0.008269,42.721666,1442.466],[-0.008218,42.721713,1443.724],[-0.008176,42.721754,1445.388],[-0.008123,42.721778,1447.831],[-0.008133,42.721825,1448.561],[-0.00817,42.721872,1449.707],[-0.00822,42.721907,1451.608],[-0.008239,42.721963,1452.867],[-0.008227,42.72201,1453.997],[-0.008208,42.722057,1455.014],[-0.008179,42.722109,1455.64],[-0.008143,42.722156,1455.251],[-0.008082,42.722165,1454.176],[-0.008043,42.722206,1453.984],[-0.008017,42.722261,1452.638],[-0.007995,42.72232,1454.273],[-0.007982,42.722374,1455.285],[-0.007961,42.722427,1454.613],[-0.007936,42.722479,1455.008],[-0.007926,42.722529,1455.391],[-0.007917,42.72258,1455.541],[-0.007909,42.722632,1451.638],[-0.007902,42.722684,1450.914],[-0.007893,42.722736,1452.135],[-0.007889,42.722781,1454.43],[-0.007872,42.722833,1455.438],[-0.007885,42.722883,1454.812],[-0.007906,42.722928,1454.477],[-0.007925,42.722975,1453.461],[-0.007954,42.723027,1453.227],[-0.007969,42.72308,1453.108],[-0.007982,42.723126,1453.431],[-0.007998,42.72317,1454.011],[-0.008015,42.723218,1453.638],[-0.008014,42.723266,1453.794],[-0.008021,42.723322,1453.055],[-0.008038,42.723374,1451.89],[-0.008059,42.723427,1451.138],[-0.008079,42.723471,1450.352],[-0.00809,42.723519,1450.236],[-0.008096,42.723566,1449.717],[-0.00812,42.723609,1445.818],[-0.008152,42.723653,1445.108],[-0.008186,42.723701,1443.937],[-0.008216,42.723751,1444.847],[-0.008242,42.723799,1446.554],[-0.008283,42.723843,1447.18],[-0.008324,42.723889,1447.921],[-0.008359,42.723927,1448.886],[-0.008396,42.723978,1451.324],[-0.008426,42.724031,1452.018],[-0.008457,42.72407,1452.011],[-0.008475,42.724117,1450.421],[-0.008477,42.72417,1447.803],[-0.008485,42.724217,1444.708],[-0.008505,42.724272,1444.465],[-0.008509,42.724329,1440.475],[-0.008501,42.72438,1439.052],[-0.008504,42.724429,1439.028],[-0.008505,42.724481,1437.859],[-0.008488,42.724532,1439.114],[-0.00846,42.724573,1440.312],[-0.008437,42.724616,1441.466],[-0.008407,42.724663,1442.575],[-0.008393,42.724714,1441.928],[-0.008377,42.724764,1441.22],[-0.00836,42.724817,1440.408],[-0.008347,42.724863,1439.971],[-0.00831,42.724912,1440.091],[-0.008274,42.724955,1440.188],[-0.008242,42.724994,1440.564],[-0.008213,42.72504,1438.835],[-0.008185,42.72508,1437.02],[-0.008149,42.725118,1437.518],[-0.008119,42.725167,1433.532],[-0.00808,42.725216,1432.677],[-0.008038,42.725255,1432.961],[-0.007996,42.725297,1434.327],[-0.007961,42.725345,1436.308],[-0.007931,42.725388,1438.361],[-0.007909,42.725436,1440.391],[-0.007872,42.72549,1442.378],[-0.007845,42.725541,1444.364],[-0.007844,42.725592,1445.515],[-0.007839,42.725643,1446.62],[-0.007823,42.725703,1448.198],[-0.007805,42.725753,1448.682],[-0.007773,42.725802,1449.396],[-0.007754,42.725849,1450.531],[-0.007736,42.725893,1452.024],[-0.007714,42.725944,1452.508],[-0.007707,42.725989,1453.653],[-0.007701,42.726036,1454.753],[-0.00767,42.726104,1452.51],[-0.007634,42.726149,1450.466],[-0.007611,42.726196,1449.177],[-0.007601,42.726248,1447.122],[-0.007605,42.726302,1445.56],[-0.007625,42.726355,1443.894],[-0.007623,42.726408,1442.052],[-0.007628,42.726456,1439.353],[-0.007633,42.726505,1437.308],[-0.007637,42.726556,1435.708],[-0.00763,42.726609,1434.739],[-0.007623,42.726657,1434.149],[-0.007626,42.726703,1434.216],[-0.007641,42.726749,1433.472],[-0.007643,42.726805,1432.953],[-0.00765,42.72685,1433.458],[-0.007654,42.726899,1433.736],[-0.007668,42.726951,1432.79],[-0.007675,42.727,1432.944],[-0.007686,42.727048,1432.605],[-0.007712,42.727093,1432.415],[-0.007734,42.727138,1431.908],[-0.007742,42.727188,1431.228],[-0.007756,42.727236,1430.858],[-0.007764,42.727286,1430.555],[-0.007802,42.727336,1430.711],[-0.007822,42.727381,1430.472],[-0.007843,42.727425,1430.217],[-0.007882,42.727466,1430.915],[-0.007905,42.72751,1430.969],[-0.007909,42.727555,1430.167],[-0.007899,42.727602,1428.881],[-0.007883,42.727645,1428.019],[-0.007887,42.727698,1426.308],[-0.007885,42.727746,1425.75],[-0.007891,42.727801,1426.11],[-0.007902,42.727847,1426.827],[-0.007902,42.727897,1427.643],[-0.007916,42.727941,1428.514],[-0.007928,42.727995,1428.619],[-0.007957,42.728047,1429.177],[-0.007973,42.728101,1430.231],[-0.007995,42.728144,1431.717],[-0.008024,42.728194,1433.087],[-0.008049,42.728244,1435.015],[-0.008068,42.728293,1435.408],[-0.008083,42.728348,1436.475],[-0.008091,42.728396,1436.245],[-0.008092,42.728452,1435.752],[-0.008089,42.728498,1436.298],[-0.008086,42.728549,1436.919],[-0.00809,42.728603,1436.114],[-0.008093,42.728658,1437.642],[-0.0081,42.728703,1437.776],[-0.008106,42.728751,1437.876],[-0.008105,42.728799,1437.49],[-0.00811,42.728854,1438.019],[-0.008117,42.728906,1438.408],[-0.008127,42.728953,1437.851],[-0.008137,42.729008,1436.671],[-0.008138,42.729059,1437.568],[-0.00813,42.729111,1439.684],[-0.008156,42.729169,1441.355],[-0.008176,42.729214,1443.12],[-0.008181,42.729261,1443.448],[-0.00819,42.72932,1445.252],[-0.008192,42.729372,1445.141],[-0.008193,42.729425,1444.281],[-0.008199,42.729477,1441.309],[-0.008198,42.72953,1439.508],[-0.008203,42.729577,1438.048],[-0.008222,42.729621,1436.748],[-0.008248,42.72967,1436.335],[-0.008281,42.729718,1435.741],[-0.008306,42.729768,1435.312],[-0.008347,42.729817,1434.787],[-0.008372,42.729864,1433.925],[-0.008392,42.729915,1433.429],[-0.008423,42.729963,1433.916],[-0.008465,42.730008,1433.876],[-0.008495,42.73006,1433.313],[-0.008517,42.730102,1432.608],[-0.008559,42.730142,1432.225],[-0.008601,42.730184,1432.445],[-0.008632,42.730232,1432.552],[-0.008659,42.730283,1431.878],[-0.008655,42.730334,1430.669],[-0.008661,42.730382,1429.554],[-0.008675,42.730428,1429.632],[-0.008706,42.730473,1430.536],[-0.008724,42.730525,1431.082],[-0.008748,42.73057,1430.543],[-0.008749,42.73062,1429.417],[-0.008741,42.730671,1426.308],[-0.008749,42.730724,1424.592],[-0.008738,42.730776,1424.222],[-0.008753,42.730822,1423.699],[-0.008768,42.730871,1422.945],[-0.008792,42.730913,1422.526],[-0.008838,42.730958,1422.231],[-0.008854,42.731003,1422.879],[-0.008881,42.731048,1426.343],[-0.008905,42.7311,1428.486],[-0.008923,42.73115,1429.66],[-0.008945,42.731196,1430.326],[-0.008959,42.731249,1430.708],[-0.008958,42.731299,1431.072],[-0.008996,42.731341,1431.272],[-0.009018,42.731385,1431.389],[-0.009061,42.73143,1431.455],[-0.009097,42.731481,1431.446],[-0.009122,42.731529,1431.471],[-0.009138,42.731578,1431.489],[-0.00916,42.731621,1431.493],[-0.0092,42.731665,1431.466],[-0.009231,42.731714,1431.129],[-0.009256,42.731764,1430.921],[-0.009278,42.731809,1430.808],[-0.009296,42.731853,1430.77],[-0.009309,42.731903,1430.77],[-0.009358,42.731946,1430.727],[-0.009383,42.731998,1430.793],[-0.009404,42.732042,1430.794],[-0.009429,42.732096,1430.719],[-0.009427,42.732144,1430.717],[-0.009435,42.732196,1430.761],[-0.009455,42.732242,1430.712],[-0.009479,42.732289,1430.732],[-0.009504,42.732332,1430.705],[-0.009512,42.73238,1430.708],[-0.009535,42.732429,1430.715],[-0.009557,42.732472,1430.785],[-0.009584,42.732513,1430.712],[-0.0096,42.732562,1430.788],[-0.009611,42.732617,1430.769],[-0.009614,42.732666,1430.794],[-0.00962,42.732714,1430.712],[-0.009646,42.732771,1430.786],[-0.009649,42.732821,1430.781],[-0.009645,42.732874,1430.361],[-0.009654,42.732921,1430.017],[-0.009649,42.73297,1429.808],[-0.009625,42.733013,1429.712],[-0.009597,42.733061,1429.952],[-0.009536,42.733094,1430.059],[-0.009483,42.733119,1430.125],[-0.009421,42.73314,1430.166],[-0.009359,42.733154,1430.121],[-0.009293,42.733166,1430.129],[-0.009225,42.733183,1430.183],[-0.009179,42.733217,1430.168],[-0.009155,42.733264,1430.142],[-0.009121,42.733312,1430.126],[-0.009102,42.733359,1430.108],[-0.00909,42.733406,1430.15],[-0.009083,42.733455,1430.16],[-0.009077,42.733506,1430.197],[-0.009074,42.733555,1430.173],[-0.009088,42.733601,1430.174],[-0.009111,42.733651,1430.179],[-0.009163,42.73369,1430.157],[-0.009227,42.733723,1430.151],[-0.009283,42.73375,1430.175],[-0.009336,42.733786,1430.128],[-0.009396,42.733821,1430.12],[-0.009452,42.733854,1430.108],[-0.009512,42.733887,1430.151],[-0.009563,42.733924,1430.111],[-0.0096,42.733963,1430.178],[-0.009639,42.734009,1430.174],[-0.009687,42.734051,1430.185],[-0.009709,42.734097,1430.11],[-0.009744,42.734142,1430.128],[-0.00978,42.734186,1430.112],[-0.009805,42.734228,1430.121],[-0.009833,42.734272,1426.941],[-0.009859,42.734316,1425.005],[-0.009883,42.734366,1423.808],[-0.009914,42.734414,1423.176],[-0.009937,42.73446,1422.796],[-0.009966,42.734513,1422.413],[-0.009989,42.734557,1422.299],[-0.010004,42.734614,1422.11],[-0.010025,42.734668,1422.085],[-0.010044,42.734714,1422.353],[-0.010084,42.734762,1422.587],[-0.010121,42.734798,1422.629],[-0.010162,42.734836,1422.7],[-0.010219,42.734863,1422.72],[-0.010273,42.73489,1422.708],[-0.01033,42.734912,1422.716],[-0.010387,42.734939,1422.756],[-0.010457,42.73495,1422.743],[-0.010523,42.73497,1422.769],[-0.010588,42.734988,1422.73],[-0.01065,42.735007,1422.765],[-0.010713,42.735031,1422.773],[-0.010774,42.735056,1422.777],[-0.010838,42.735083,1422.734],[-0.010893,42.735105,1422.755],[-0.010947,42.735137,1422.71],[-0.011002,42.735163,1422.708],[-0.01106,42.735196,1422.717]]}}]}