{"type":"FeatureCollection","features":[{"type":"Feature","properties":{"ruta_id":"44208952","nombre":"PAGOETA desde AIA ruta circular","blog_url":"https://www.rutasporelmonte.com/pagoeta-desde-aia-ruta-circular/"},"geometry":{"type":"LineString","coordinates":[[-2.148105,43.23735,353.193],[-2.147925,43.23726,353.165],[-2.148869,43.236807,351.521],[-2.14912,43.236528,362.008],[-2.149513,43.236725,364.493],[-2.150235,43.23658,371.153],[-2.150122,43.235886,380.971],[-2.151555,43.234679,403.789],[-2.152152,43.234588,391.877],[-2.152356,43.234702,405.728],[-2.152487,43.234489,418.834],[-2.152758,43.234475,425.871],[-2.154853,43.234795,456.922],[-2.156364,43.235259,481.762],[-2.156955,43.235211,489.108],[-2.156266,43.234299,514.408],[-2.156316,43.233981,520.576],[-2.157179,43.23378,531.086],[-2.157693,43.233293,541.574],[-2.159666,43.232167,567.662],[-2.161068,43.232085,587.89],[-2.16144,43.232205,587.321],[-2.16211,43.232061,588.447],[-2.162416,43.232236,589.414],[-2.163482,43.231994,607.466],[-2.163797,43.232175,613.629],[-2.164478,43.232146,608.021],[-2.16514,43.23162,629.908],[-2.166048,43.23046,637.84],[-2.166875,43.230704,638.29],[-2.16752,43.231076,642.068],[-2.169059,43.231203,632.786],[-2.170322,43.230976,652.754],[-2.171846,43.230384,670.245],[-2.173181,43.230509,669.821],[-2.173421,43.230357,681.778],[-2.17322,43.230071,693.993],[-2.174347,43.229942,704.665],[-2.175478,43.23047,713.421],[-2.175973,43.231299,713.008],[-2.17594,43.231757,724.243],[-2.175974,43.231546,720.653],[-2.176147,43.231489,717.391],[-2.177539,43.231375,708.549],[-2.178257,43.231696,722.337],[-2.178401,43.231429,728.478],[-2.178307,43.230945,723.554],[-2.177465,43.230151,725.111],[-2.176334,43.229889,715.885],[-2.175031,43.22908,717.289],[-2.174822,43.229075,717.817],[-2.17447,43.228728,718.908],[-2.173153,43.228274,734.742],[-2.172271,43.227789,754.732],[-2.172123,43.227243,757.23],[-2.171643,43.226856,763.888],[-2.171607,43.226674,762.256],[-2.170045,43.227143,744.267],[-2.169535,43.226579,740.813],[-2.16816,43.226218,748.75],[-2.167858,43.225996,750.345],[-2.167206,43.225828,757.547],[-2.165925,43.225865,761.511],[-2.165609,43.22576,761.108],[-2.165827,43.226562,744.418],[-2.165426,43.227633,747.268],[-2.165052,43.227948,738.836],[-2.164991,43.228174,737.214],[-2.165127,43.228385,734.612],[-2.164405,43.2286,717.183],[-2.163832,43.229177,691.189],[-2.163936,43.22935,686.776],[-2.163838,43.229541,683.342],[-2.164349,43.229813,676.822],[-2.164262,43.230311,673.114],[-2.163713,43.230621,661.908],[-2.163388,43.230517,659.028],[-2.1616,43.231185,627.238],[-2.161457,43.231502,619.956],[-2.161219,43.231417,611.814],[-2.160472,43.23156,603.562],[-2.160727,43.231777,593.443],[-2.160623,43.232046,585.729],[-2.159643,43.232182,569.576],[-2.159202,43.232549,555.461],[-2.157788,43.233164,544.921],[-2.157272,43.233762,542.713],[-2.156238,43.233989,522.708],[-2.156388,43.234624,513.24],[-2.156888,43.235023,503.68],[-2.156886,43.235252,495.978],[-2.156278,43.235276,489.616],[-2.154158,43.234679,436.554],[-2.152556,43.234467,425.855],[-2.152259,43.234693,408.221],[-2.152082,43.23454,394.538],[-2.151992,43.234672,390.569],[-2.15136,43.234723,404.704],[-2.150054,43.235824,386.824],[-2.150247,43.236593,372.608],[-2.149476,43.236694,366.33],[-2.149107,43.236412,360.93],[-2.148429,43.236385,360.938],[-2.148374,43.236599,359.736],[-2.148627,43.236396,359.584],[-2.148407,43.236475,361.625],[-2.148469,43.236392,359.561],[-2.148661,43.236343,360.318],[-2.148832,43.236631,361.143],[-2.148084,43.237289,355.364]]}}]}