{"type":"FeatureCollection","features":[{"type":"Feature","properties":{"ruta_id":"44438263","nombre":"⛰️ ARTZAMENDI 926m desde ITXASSOU junto al PAS DU ROLAND","blog_url":"https://www.rutasporelmonte.com/artzamendi-926-m-ruta-desde-itxassou/"},"geometry":{"type":"LineString","coordinates":[[-1.401119,43.313537,96.993],[-1.402121,43.312947,97.265],[-1.404791,43.312308,115.421],[-1.405301,43.31178,113.208],[-1.405547,43.310795,120.423],[-1.405256,43.30938,134.343],[-1.405109,43.309294,131.523],[-1.404797,43.309327,143.782],[-1.404363,43.309061,162.847],[-1.404518,43.309273,171.771],[-1.404405,43.309516,168.955],[-1.40388,43.309931,175.262],[-1.403573,43.309997,167.637],[-1.403625,43.309262,179.749],[-1.403231,43.30901,183.113],[-1.403216,43.308667,191.508],[-1.402989,43.308103,202.627],[-1.402923,43.308205,205.937],[-1.402722,43.308016,205.997],[-1.40264,43.307535,218.366],[-1.403192,43.306912,228.871],[-1.404024,43.306335,258.255],[-1.404475,43.305702,272.949],[-1.404646,43.30456,303.676],[-1.4048,43.304308,297.067],[-1.404756,43.303887,310.981],[-1.40502,43.303757,315.119],[-1.405077,43.303212,328.808],[-1.40527,43.303018,336.59],[-1.405819,43.303091,341.76],[-1.406131,43.302962,344.97],[-1.405998,43.302245,379.439],[-1.406091,43.301836,398.864],[-1.405907,43.30161,410.538],[-1.405082,43.301333,432.762],[-1.404985,43.301111,436.399],[-1.404233,43.300625,460.885],[-1.403514,43.300761,475.189],[-1.403128,43.300655,495.117],[-1.40276,43.300819,508.408],[-1.40221,43.300062,537.772],[-1.402759,43.29943,559.262],[-1.402651,43.299127,556.972],[-1.403226,43.298691,572.811],[-1.403411,43.298178,578.916],[-1.403209,43.297527,599.47],[-1.403226,43.296542,619.894],[-1.403469,43.295855,630.871],[-1.403567,43.294977,647.745],[-1.403451,43.292856,678.347],[-1.403704,43.290419,726.911],[-1.403584,43.290049,738.408],[-1.403772,43.289808,744.318],[-1.403836,43.288988,786.668],[-1.404098,43.288661,804.838],[-1.403933,43.287733,854.887],[-1.404188,43.287301,877.662],[-1.404123,43.287182,882.656],[-1.405054,43.2864,917.89],[-1.405745,43.284931,950.587],[-1.406285,43.284332,959.331],[-1.406276,43.283692,965.861],[-1.407489,43.283544,968.407],[-1.407896,43.283366,972.508],[-1.408114,43.283015,974.047],[-1.408348,43.28306,973.717],[-1.408986,43.28261,967.237],[-1.409518,43.281991,967.966],[-1.409482,43.281769,961.631],[-1.409062,43.281724,961.555],[-1.408629,43.281875,962.869],[-1.409136,43.281741,959.196],[-1.409581,43.281855,965.556],[-1.409002,43.282603,956.959],[-1.408455,43.283016,965.414],[-1.407748,43.283353,965.008],[-1.407153,43.283417,962.089],[-1.406945,43.283307,962.329],[-1.406842,43.283518,962.739],[-1.406325,43.283729,966.148],[-1.406158,43.284638,954.213],[-1.405677,43.285139,946.157],[-1.405042,43.2864,914.421],[-1.404167,43.287088,889.218],[-1.404091,43.287224,884.125],[-1.404202,43.287355,882.826],[-1.403938,43.287591,871.508],[-1.404067,43.287707,866.908],[-1.403843,43.287873,857.826],[-1.404059,43.288443,829.226],[-1.404,43.288753,813.856],[-1.403737,43.289055,795.195],[-1.403799,43.289542,776.02],[-1.403453,43.290103,746.974],[-1.403574,43.290155,745.158],[-1.403671,43.290891,716.545],[-1.403514,43.291282,706.638],[-1.403546,43.292457,679.17],[-1.403408,43.292977,674.017],[-1.403547,43.294986,643.108],[-1.403487,43.295813,626.877],[-1.403224,43.296584,618.987],[-1.403198,43.297607,593.027],[-1.403436,43.298008,580.696],[-1.403228,43.298647,568.351],[-1.402579,43.299087,557.325],[-1.402472,43.29976,546.619],[-1.402199,43.30009,535.456],[-1.40259,43.300447,517.494],[-1.402687,43.300792,506.957],[-1.402915,43.300644,498.022],[-1.404171,43.300552,460.008],[-1.405462,43.30149,428.913],[-1.405853,43.301528,418.083],[-1.406049,43.301783,408.793],[-1.405946,43.302464,375.152],[-1.406132,43.302972,359.637],[-1.405107,43.30315,343.581],[-1.404992,43.303717,316.575],[-1.404757,43.303844,314.892],[-1.404798,43.304154,307.331],[-1.404283,43.306,268.461],[-1.403186,43.30685,240.107],[-1.402644,43.307593,222.908],[-1.402701,43.308019,207.687],[-1.402893,43.308082,202.667],[-1.403186,43.308993,188.177],[-1.403614,43.309218,179.396],[-1.403484,43.31007,168.871],[-1.404326,43.309502,156.835],[-1.404255,43.309035,146.579],[-1.404706,43.309266,131.426],[-1.405052,43.309249,123.471],[-1.405214,43.309329,123.941],[-1.405524,43.31032,137.215],[-1.405477,43.310833,134.708],[-1.405303,43.311653,120.711],[-1.4047,43.312378,109.441],[-1.402083,43.312862,110.961],[-1.401253,43.313405,107.23]]}}]}