{"type":"FeatureCollection","features":[{"type":"Feature","properties":{"ruta_id":"44686126","nombre":"CUEVA de SARASTARRI desde LIZARRUSTI por LAREO","blog_url":"https://www.rutasporelmonte.com/cueva-de-sarastarri-desde-lizarrusti/"},"geometry":{"type":"LineString","coordinates":[[-2.099858,42.960671,616.459],[-2.099837,42.960622,616.403],[-2.099821,42.960577,616.423],[-2.099795,42.960535,616.408],[-2.099762,42.960496,616.459],[-2.099726,42.960457,616.479],[-2.099777,42.960491,616.451],[-2.099747,42.960533,616.413],[-2.099732,42.960578,616.431],[-2.099793,42.960564,616.456],[-2.099856,42.96058,616.427],[-2.099897,42.960624,616.471],[-2.099955,42.960651,616.477],[-2.100026,42.96066,616.461],[-2.100084,42.960677,616.427],[-2.10014,42.960704,617.308],[-2.100179,42.96074,617.071],[-2.100162,42.960785,616.471],[-2.100206,42.960828,616.163],[-2.10026,42.960856,615.945],[-2.100321,42.960875,616.293],[-2.10038,42.960892,617.638],[-2.100454,42.960891,617.639],[-2.100454,42.960891,617.683],[-2.100454,42.960891,617.686],[-2.100499,42.960923,616.86],[-2.100541,42.960969,615.526],[-2.10056,42.961016,614.308],[-2.100517,42.961052,615.222],[-2.100566,42.961081,614.972],[-2.10063,42.96108,616.314],[-2.100696,42.961077,617.266],[-2.100756,42.961094,617.774],[-2.100825,42.961103,617.279],[-2.100897,42.961114,616.16],[-2.100955,42.961098,614.274],[-2.101012,42.961064,614.758],[-2.101082,42.961053,615.052],[-2.101146,42.961054,613.617],[-2.101212,42.961062,613.908],[-2.101256,42.961095,612.929],[-2.101336,42.961123,611.929],[-2.1014,42.961137,612.131],[-2.101331,42.961111,613.823],[-2.10127,42.961103,612.821],[-2.101204,42.961107,611.096],[-2.101141,42.961125,609.567],[-2.101068,42.961122,609.861],[-2.101007,42.961106,610.089],[-2.100936,42.961099,609.306],[-2.100871,42.961124,611.326],[-2.100809,42.961141,613.308],[-2.100743,42.96112,616.122],[-2.100685,42.961103,618.662],[-2.100625,42.961071,620.984],[-2.100554,42.961068,621.546],[-2.100489,42.961081,622.684],[-2.100413,42.961079,623.319],[-2.10035,42.961096,623.77],[-2.10028,42.9611,623.174],[-2.100215,42.961102,623.297],[-2.100279,42.961086,624.823],[-2.100342,42.961087,625.425],[-2.100421,42.961073,625.408],[-2.10048,42.961116,625.033],[-2.100521,42.961157,625.573],[-2.100573,42.961188,625.415],[-2.100619,42.961227,626.697],[-2.100681,42.961256,628.195],[-2.100714,42.961297,627.45],[-2.10077,42.96133,627.881],[-2.100807,42.961368,627.235],[-2.100866,42.961398,627.348],[-2.100922,42.961421,625.361],[-2.100979,42.961449,624.917],[-2.10105,42.961453,627.508],[-2.101114,42.961463,629.498],[-2.101173,42.961488,629.438],[-2.101227,42.961515,630.26],[-2.101289,42.961547,630.712],[-2.101298,42.961599,629.01],[-2.101345,42.961642,630.455],[-2.101402,42.961668,632.896],[-2.10146,42.961684,633.92],[-2.101514,42.961716,631.796],[-2.101573,42.961741,632.831],[-2.101632,42.961775,634.724],[-2.1017,42.961797,635.808],[-2.101768,42.961822,636.543],[-2.101825,42.961857,636.993],[-2.101848,42.9619,635.995],[-2.101876,42.961944,632.917],[-2.101936,42.961975,630.745],[-2.101985,42.962004,627.82],[-2.102039,42.962027,626.171],[-2.102094,42.962052,625.595],[-2.102161,42.962086,625.952],[-2.102229,42.962121,628.153],[-2.102285,42.962169,630.608],[-2.102332,42.962216,632.508],[-2.102372,42.962266,631.769],[-2.102434,42.962299,630.849],[-2.102499,42.96231,630.321],[-2.102567,42.962325,628.043],[-2.10263,42.962324,627.031],[-2.102692,42.962354,626.416],[-2.102745,42.96238,626.027],[-2.102794,42.962408,625.891],[-2.102841,42.962439,625.722],[-2.10291,42.962463,625.262],[-2.102987,42.962495,624.908],[-2.10306,42.962513,624.708],[-2.103131,42.962532,624.656],[-2.1032,42.962553,625.376],[-2.10326,42.962582,624.578],[-2.103305,42.962624,622.89],[-2.103356,42.962667,621.898],[-2.103409,42.962709,622.023],[-2.103467,42.962745,622.924],[-2.103534,42.962755,621.538],[-2.103603,42.962769,620.665],[-2.103655,42.962815,620.568],[-2.103692,42.962857,621.214],[-2.103742,42.962892,622.408],[-2.103818,42.962906,624.33],[-2.103889,42.962919,625.53],[-2.103927,42.962958,625.082],[-2.103957,42.963005,624.734],[-2.104008,42.963041,625.382],[-2.104084,42.963068,624.167],[-2.104161,42.963082,622.648],[-2.104223,42.96311,622.152],[-2.104269,42.963149,622.266],[-2.104304,42.963186,623.929],[-2.104349,42.963223,625.321],[-2.104413,42.96325,626.108],[-2.104476,42.963273,625.44],[-2.104511,42.96331,625.05],[-2.104584,42.963338,625.932],[-2.104675,42.96337,626.924],[-2.104738,42.963392,627.572],[-2.104804,42.963416,627.897],[-2.104871,42.963444,628.078],[-2.104923,42.963479,627.792],[-2.104991,42.963509,627.937],[-2.105034,42.963552,628.049],[-2.105095,42.963586,627.313],[-2.105166,42.963606,627.308],[-2.105233,42.963629,628.597],[-2.105296,42.963647,630.877],[-2.105356,42.963669,630.679],[-2.105418,42.963677,630.921],[-2.105475,42.963694,630.329],[-2.105538,42.963717,629.144],[-2.10559,42.963742,628.035],[-2.105644,42.963783,626.949],[-2.105682,42.963827,627.112],[-2.105689,42.963881,624.432],[-2.105673,42.963936,623.605],[-2.105674,42.963983,624.708],[-2.105672,42.964039,625.815],[-2.105684,42.964097,626.825],[-2.105698,42.964149,626.637],[-2.105681,42.964197,627.739],[-2.105655,42.964245,628.457],[-2.105669,42.964291,628.072],[-2.1057,42.964343,627.463],[-2.105749,42.964397,626.637],[-2.105795,42.964429,626.172],[-2.105847,42.964462,626.613],[-2.1059,42.964493,626.514],[-2.105909,42.964543,626.008],[-2.105988,42.964589,626.131],[-2.10603,42.964634,625.811],[-2.106095,42.964659,625.283],[-2.106164,42.964694,625.695],[-2.106208,42.964729,625.973],[-2.10627,42.964723,626.998],[-2.106346,42.964761,627.549],[-2.106409,42.964788,628.233],[-2.106474,42.964824,629.432],[-2.106525,42.964866,628.992],[-2.106565,42.964907,628.611],[-2.106593,42.96495,630.408],[-2.106645,42.964982,629.167],[-2.106642,42.965029,625.987],[-2.106627,42.965081,622.089],[-2.106654,42.965127,620.521],[-2.106696,42.965167,618.829],[-2.106707,42.965217,617.434],[-2.106761,42.965247,618.575],[-2.106837,42.965268,620.029],[-2.106898,42.965281,620.952],[-2.106937,42.965318,619.853],[-2.106969,42.965378,618.408],[-2.107027,42.965423,617.108],[-2.107077,42.965453,615.979],[-2.107134,42.965496,615.249],[-2.107177,42.965529,615.611],[-2.107244,42.965574,616.653],[-2.107304,42.965606,618.051],[-2.107352,42.965635,618.966],[-2.107409,42.96566,618.657],[-2.107473,42.965683,620.061],[-2.10752,42.965722,621.361],[-2.107577,42.965753,620.921],[-2.107602,42.965796,619.813],[-2.107631,42.965847,618.408],[-2.107642,42.965896,618.36],[-2.107663,42.965948,618.75],[-2.107687,42.965995,618.542],[-2.107719,42.966041,620.044],[-2.107749,42.966083,622.152],[-2.107797,42.966138,623.067],[-2.107789,42.966194,622.728],[-2.107791,42.966242,622.982],[-2.107793,42.966295,624.298],[-2.10776,42.966347,625.415],[-2.107763,42.966399,625.326],[-2.107738,42.966443,623.708],[-2.107709,42.966495,623.173],[-2.107676,42.966543,623.153],[-2.107652,42.966588,623.585],[-2.107632,42.966634,623.847],[-2.107637,42.966683,623.235],[-2.107675,42.966736,623.28],[-2.107698,42.966783,623.691],[-2.107712,42.966828,623.475],[-2.107714,42.966875,623.719],[-2.107735,42.966928,623.509],[-2.10777,42.966973,623.819],[-2.107804,42.967022,623.208],[-2.107831,42.967063,622.495],[-2.107864,42.967113,622.795],[-2.107916,42.967158,622.977],[-2.10797,42.967188,623.439],[-2.108025,42.967218,622.927],[-2.108076,42.967251,623.062],[-2.108135,42.967291,623.113],[-2.108186,42.967331,623.947],[-2.108237,42.967361,624.411],[-2.108295,42.967379,624.721],[-2.108361,42.967394,624.903],[-2.108396,42.967431,627.408],[-2.108433,42.967468,628.535],[-2.10844,42.967515,629.275],[-2.1084,42.967552,630.447],[-2.10836,42.967599,630.759],[-2.10832,42.967648,630.197],[-2.108267,42.967689,631.312],[-2.10828,42.967745,634.073],[-2.108299,42.9678,636.027],[-2.108287,42.967849,635.616],[-2.108242,42.967893,635.076],[-2.108234,42.967941,635.013],[-2.108246,42.967987,635.008],[-2.108248,42.968033,634.615],[-2.108214,42.968073,635.685],[-2.108179,42.96812,636.657],[-2.108196,42.968165,637.669],[-2.108163,42.968211,637.047],[-2.108207,42.968256,637.032],[-2.10827,42.968289,637.823],[-2.108291,42.968333,636.737],[-2.108344,42.968377,637.279],[-2.108357,42.968423,637.505],[-2.108375,42.968467,637.725],[-2.108366,42.968512,635.408],[-2.108294,42.968547,633.251],[-2.10824,42.968587,631.921],[-2.108174,42.968621,632.333],[-2.108127,42.96865,633.425],[-2.10809,42.968693,634.073],[-2.108043,42.968724,634.098],[-2.107981,42.968756,635.239],[-2.107968,42.968827,639.243],[-2.107965,42.968873,641.926],[-2.107946,42.968932,643.147],[-2.107879,42.968969,642.211],[-2.107837,42.969003,642.108],[-2.107803,42.969041,640.846],[-2.107787,42.969096,639.286],[-2.107782,42.969143,637.968],[-2.107774,42.969189,639.14],[-2.107741,42.969237,640.278],[-2.107717,42.96928,643.363],[-2.107701,42.969332,644.734],[-2.107669,42.969373,645.288],[-2.107642,42.969415,645.979],[-2.107582,42.969449,646.705],[-2.107556,42.969493,648.025],[-2.107554,42.969539,650.408],[-2.107543,42.969588,651.461],[-2.107562,42.969635,650.471],[-2.107581,42.969678,651.043],[-2.107575,42.969723,652.645],[-2.107553,42.969768,654.353],[-2.107517,42.969811,654.538],[-2.107518,42.969873,654.219],[-2.107535,42.969919,655.683],[-2.107536,42.969967,656.979],[-2.107538,42.970015,658.505],[-2.107532,42.970061,658.625],[-2.107543,42.970107,659.108],[-2.107593,42.970149,660.681],[-2.107655,42.970172,661.121],[-2.107708,42.970198,662.293],[-2.107735,42.970238,663.795],[-2.107776,42.970286,663.893],[-2.107844,42.9703,663.868],[-2.107851,42.970351,663.469],[-2.107851,42.970405,664.833],[-2.107839,42.970459,665.684],[-2.107776,42.970502,666.507],[-2.107722,42.970535,667.017],[-2.107713,42.970591,667.708],[-2.107733,42.970641,667.792],[-2.107728,42.970686,668.122],[-2.107772,42.970723,667.684],[-2.107782,42.970783,667.336],[-2.107767,42.970836,667.134],[-2.107724,42.970868,667.849],[-2.107719,42.97093,668.21],[-2.107711,42.970991,667.654],[-2.107716,42.971037,667.761],[-2.107772,42.971068,667.321],[-2.107789,42.971114,668.713],[-2.10776,42.971155,669.108],[-2.10774,42.971205,671.09],[-2.107718,42.97125,671.33],[-2.107722,42.971296,668.342],[-2.107763,42.971338,666.514],[-2.107755,42.971383,665.882],[-2.107788,42.971431,663.047],[-2.107841,42.971457,662.978],[-2.107898,42.971487,663.282],[-2.107964,42.971491,663.496],[-2.108028,42.971484,663.131],[-2.108096,42.971476,663.724],[-2.108159,42.971463,663.308],[-2.108221,42.971463,662.243],[-2.108282,42.971457,662.863],[-2.10835,42.971484,663.165],[-2.108417,42.971522,661.357],[-2.108475,42.971547,659.875],[-2.10852,42.97159,659.71],[-2.10852,42.971636,659.291],[-2.108519,42.971682,661.345],[-2.108515,42.971733,664.272],[-2.108509,42.971779,668.213],[-2.108527,42.971833,669.914],[-2.108562,42.971885,670.908],[-2.108602,42.971935,671.121],[-2.108651,42.971969,671.231],[-2.108686,42.972008,669.333],[-2.108749,42.972024,668.575],[-2.10883,42.972042,670.023],[-2.10889,42.972073,670.128],[-2.108942,42.972098,668.269],[-2.108993,42.972124,668.693],[-2.109046,42.972155,669.738],[-2.109097,42.972196,671.57],[-2.109135,42.972248,672.217],[-2.109171,42.972297,673.008],[-2.109189,42.972342,673.967],[-2.109195,42.972397,674.827],[-2.109217,42.972445,674.669],[-2.109243,42.972496,676.151],[-2.109256,42.972547,678.619],[-2.1093,42.972588,679.754],[-2.109342,42.972634,680.845],[-2.109382,42.97268,681.879],[-2.109422,42.972722,682.011],[-2.109441,42.972766,682.121],[-2.109486,42.972798,681.403],[-2.109546,42.972813,682.208],[-2.109594,42.972856,682.395],[-2.109614,42.9729,683.915],[-2.10963,42.972947,685.777],[-2.109627,42.972996,687.289],[-2.109641,42.973045,688.547],[-2.109674,42.973093,689.312],[-2.109709,42.973136,687.883],[-2.109741,42.973183,687.777],[-2.109796,42.973221,686.872],[-2.109845,42.973262,687.913],[-2.109848,42.973312,689.314],[-2.109888,42.97335,689.808],[-2.109956,42.973376,690.991],[-2.110009,42.973399,691.961],[-2.110067,42.973428,690.953],[-2.110099,42.973475,691.185],[-2.110135,42.97352,691.683],[-2.110178,42.97357,690.338],[-2.110212,42.973625,689.199],[-2.110223,42.973672,688.013],[-2.110252,42.973715,687.375],[-2.11028,42.973769,686.928],[-2.1103,42.973815,687.12],[-2.110336,42.973867,688.008],[-2.110331,42.973922,687.711],[-2.110359,42.973973,689.531],[-2.110358,42.97402,691.023],[-2.110374,42.974079,693.115],[-2.110391,42.974129,692.043],[-2.110393,42.974174,690.998],[-2.110394,42.974223,689.149],[-2.110416,42.974272,687.233],[-2.110454,42.97431,688.989],[-2.110525,42.974325,692.306],[-2.110588,42.974334,693.526],[-2.110651,42.974321,694.208],[-2.110712,42.974308,694.682],[-2.110674,42.974344,695.342],[-2.110737,42.974331,695.774],[-2.110806,42.974307,695.156],[-2.11084,42.974265,696.894],[-2.11091,42.974253,697.849],[-2.110973,42.974251,699.21],[-2.111042,42.974258,700.474],[-2.111107,42.974267,702.776],[-2.111169,42.974264,705.39],[-2.111231,42.974256,705.719],[-2.111297,42.974269,705.108],[-2.111367,42.974277,705.661],[-2.111431,42.974293,705.991],[-2.111491,42.974312,705.743],[-2.111556,42.974299,705.285],[-2.111608,42.974273,705.713],[-2.111678,42.974261,705.698],[-2.111741,42.974281,705.999],[-2.111802,42.974298,706.523],[-2.111868,42.974319,705.766],[-2.111926,42.974337,707.229],[-2.111991,42.974355,707.721],[-2.112035,42.974388,709.608],[-2.112094,42.974416,712.73],[-2.112158,42.974415,715.08],[-2.112234,42.974412,716.842],[-2.112297,42.974394,720.334],[-2.112347,42.974423,723.232],[-2.112411,42.974453,727.297],[-2.112481,42.974472,731.228],[-2.112554,42.974498,733.742],[-2.112607,42.974524,734.838],[-2.112669,42.974541,736.37],[-2.112739,42.974543,735.617],[-2.112809,42.974544,736.008],[-2.112863,42.974567,735.437],[-2.112924,42.974587,733.947],[-2.112983,42.974606,734.679],[-2.113047,42.974614,733.891],[-2.113116,42.974647,732.949],[-2.11317,42.974683,732.484],[-2.113204,42.974721,732.965],[-2.11319,42.974772,732.419],[-2.113141,42.974802,732.967],[-2.113083,42.974829,734.481],[-2.113053,42.974877,734.119],[-2.113092,42.97492,736.308],[-2.11308,42.974965,738.41],[-2.113067,42.975011,739.71],[-2.113073,42.975064,741.752],[-2.113103,42.975103,741.784],[-2.11315,42.975146,741.792],[-2.113205,42.975175,740.557],[-2.113275,42.975193,740.658],[-2.113324,42.975231,740.622],[-2.113382,42.97527,739.823],[-2.113445,42.97529,740.183],[-2.113527,42.975313,740.711],[-2.113603,42.975341,740.308],[-2.113658,42.975367,740.076],[-2.113644,42.975415,739.826],[-2.113672,42.975464,739.358],[-2.113687,42.975512,736.28],[-2.113744,42.975531,735.938],[-2.113724,42.975579,734.153],[-2.113717,42.975637,735.484],[-2.113717,42.975592,734.638],[-2.11366,42.975575,732.963],[-2.113659,42.975624,733.144],[-2.113641,42.975577,734.818],[-2.113708,42.975562,735.408],[-2.113768,42.975534,735.82],[-2.113821,42.975509,735.28],[-2.113874,42.975537,732.932],[-2.113927,42.975563,731.944],[-2.113979,42.975596,731.722],[-2.114028,42.975626,732.057],[-2.114083,42.975653,732.658],[-2.114145,42.975669,734.132],[-2.114207,42.975698,733.815],[-2.114272,42.975729,732.465],[-2.114332,42.975746,731.211],[-2.114392,42.97576,730.508],[-2.114449,42.975797,728.115],[-2.114521,42.975806,726.695],[-2.114588,42.975818,725.347],[-2.114648,42.975834,728.189],[-2.114716,42.975856,729.447],[-2.114815,42.975887,731.872],[-2.114884,42.975911,733.273],[-2.114954,42.975931,732.977],[-2.11501,42.975957,733.183],[-2.115064,42.975988,733.625],[-2.115111,42.976027,734.717],[-2.115132,42.976074,737.808],[-2.115186,42.976107,738.822],[-2.115253,42.976115,740.262],[-2.115326,42.97613,741.154],[-2.115407,42.976148,741.626],[-2.115481,42.976165,741.944],[-2.11554,42.97618,741.339],[-2.115609,42.976189,741.78],[-2.115679,42.976195,740.054],[-2.115727,42.976237,739.084],[-2.115758,42.976278,738.807],[-2.115818,42.976311,739.517],[-2.11585,42.976351,739.508],[-2.115884,42.97641,739.912],[-2.1159,42.976475,739.392],[-2.115907,42.976532,739.014],[-2.115906,42.976587,739.236],[-2.115883,42.976636,739.344],[-2.115856,42.976689,739.869],[-2.115823,42.976742,740.98],[-2.115817,42.976792,739.944],[-2.115813,42.976837,739.356],[-2.115818,42.976886,738.659],[-2.115849,42.976928,738.614],[-2.115892,42.976961,737.408],[-2.115938,42.976998,737.129],[-2.115966,42.977042,736.569],[-2.115999,42.977093,735.341],[-2.116035,42.977138,734.663],[-2.116094,42.977156,735.021],[-2.116151,42.977174,734.016],[-2.116212,42.977182,733.097],[-2.116283,42.977195,731.651],[-2.116346,42.97721,729.293],[-2.116405,42.977238,729.365],[-2.116465,42.977265,730.221],[-2.116527,42.977298,731.108],[-2.116599,42.977325,730.933],[-2.116656,42.977362,733.223],[-2.116713,42.977404,735.475],[-2.116779,42.977424,737.147],[-2.11685,42.977438,737.335],[-2.116925,42.977446,736.62],[-2.117001,42.977453,735.081],[-2.11706,42.977477,733.675],[-2.117129,42.977513,733.614],[-2.117192,42.977524,733.254],[-2.117257,42.977544,733.409],[-2.117324,42.977558,733.508],[-2.117386,42.977575,734.455],[-2.117447,42.977591,733.725],[-2.117506,42.977606,734.977],[-2.117574,42.977617,734.829],[-2.117619,42.977651,735.147],[-2.11768,42.977677,734.922],[-2.117744,42.977694,735.273],[-2.117799,42.977717,735.457],[-2.117868,42.977717,737.551],[-2.11793,42.977735,740.801],[-2.117992,42.977749,742.411],[-2.117963,42.977792,742.908],[-2.117927,42.97785,743.619],[-2.117885,42.977885,745.659],[-2.117917,42.977931,744.431],[-2.117907,42.977982,743.753],[-2.117919,42.978034,743.381],[-2.117912,42.978087,742.696],[-2.117912,42.978137,742.657],[-2.117916,42.978199,742.661],[-2.11789,42.978249,743.019],[-2.117888,42.978294,740.809],[-2.117853,42.978334,741.119],[-2.117875,42.978392,739.708],[-2.117871,42.978438,739.625],[-2.117852,42.978499,740.045],[-2.117834,42.978565,740.667],[-2.117814,42.978614,741.099],[-2.117797,42.97866,741.637],[-2.117762,42.9787,740.422],[-2.117723,42.97874,738.943],[-2.117673,42.978767,738.847],[-2.117701,42.978724,738.394],[-2.117692,42.978769,738.057],[-2.117668,42.978819,738.222],[-2.117612,42.978855,737.908],[-2.117568,42.978894,738.113],[-2.117543,42.978938,738.623],[-2.117529,42.978982,738.575],[-2.11747,42.978999,738.137],[-2.1174,42.978999,738.295],[-2.117327,42.979008,737.91],[-2.11739,42.978988,738.541],[-2.117456,42.978975,736.985],[-2.117516,42.978961,736.721],[-2.117576,42.978941,737.441],[-2.117615,42.978985,736.205],[-2.117607,42.979036,735.508],[-2.11763,42.979078,735.186],[-2.117656,42.979119,734.866],[-2.117686,42.97916,735.858],[-2.117634,42.97919,737.49],[-2.117634,42.97919,737.478],[-2.117616,42.979234,737.433],[-2.117653,42.979273,738.624],[-2.117688,42.979318,738.968],[-2.11772,42.979358,739.992],[-2.117773,42.97939,741.773],[-2.117789,42.979434,744.42],[-2.117767,42.97948,745.208],[-2.117704,42.979497,744.933],[-2.117644,42.979526,746.763],[-2.11759,42.979552,747.475],[-2.117557,42.979591,749.437],[-2.117504,42.979616,750.255],[-2.117439,42.979632,751.14],[-2.117367,42.97964,751.231],[-2.117306,42.979657,751.735],[-2.117257,42.979685,753.292],[-2.117198,42.979711,755.373],[-2.117143,42.979745,758.62],[-2.117074,42.979756,761.808],[-2.117013,42.979768,763.313],[-2.116939,42.979768,764.673],[-2.116875,42.979772,763.495],[-2.116813,42.979773,764.387],[-2.116753,42.979796,764.825],[-2.11671,42.979829,765.14],[-2.116689,42.979873,765.751],[-2.116678,42.979924,768.575],[-2.116648,42.979971,769.077],[-2.116602,42.980005,769.361],[-2.116582,42.98005,772.327],[-2.116527,42.980073,773.708],[-2.116481,42.980106,772.511],[-2.116436,42.980139,773.051],[-2.116378,42.980171,772.533],[-2.116337,42.980208,772.645],[-2.116266,42.980211,774.383],[-2.116197,42.980233,778.358],[-2.116134,42.980245,781.399],[-2.116074,42.980261,785.313],[-2.116068,42.980308,785.515],[-2.116089,42.980356,785.665],[-2.116152,42.980364,788.111],[-2.116219,42.980371,791.208],[-2.116264,42.980416,793.485],[-2.11632,42.980455,794.385],[-2.11638,42.980476,794.567],[-2.116442,42.98048,794.629],[-2.116501,42.980506,794.767],[-2.116572,42.980525,795.932],[-2.116635,42.980536,797.013],[-2.116695,42.980555,797.767],[-2.116764,42.980586,796.149],[-2.116821,42.980612,795.902],[-2.116894,42.980614,796.222],[-2.116972,42.980615,796.808],[-2.117045,42.980618,796.828],[-2.117107,42.980627,797.218],[-2.117169,42.980641,797.82],[-2.11724,42.980648,799.042],[-2.117299,42.980665,801.39],[-2.117355,42.980691,801.535],[-2.11741,42.980714,800.836],[-2.117465,42.980739,803.29],[-2.117515,42.980765,803.493],[-2.117568,42.980794,805.565],[-2.11764,42.980774,809.221],[-2.117702,42.980794,811.408],[-2.117758,42.98082,811.993],[-2.117798,42.980862,813.063],[-2.117862,42.980886,814.975],[-2.117924,42.980913,815.617],[-2.117975,42.980943,818.025],[-2.118022,42.980983,819.11],[-2.118078,42.981003,820.111],[-2.11814,42.981005,821.115],[-2.118206,42.981027,821.338],[-2.118263,42.981046,821.87],[-2.118328,42.981051,825.317],[-2.118395,42.981054,828.608],[-2.118462,42.981064,831.087],[-2.11852,42.981079,831.687],[-2.118579,42.981092,832.869],[-2.118633,42.981118,834.761],[-2.118689,42.981154,835.839],[-2.118762,42.981168,836.514],[-2.118839,42.981181,836.165],[-2.118906,42.9812,836.359],[-2.118967,42.981191,836.851],[-2.119036,42.9812,837.901],[-2.119096,42.981217,838.211],[-2.119161,42.981238,835.208],[-2.119226,42.981239,834.279],[-2.119295,42.981255,833.659],[-2.119365,42.981247,834.021],[-2.119442,42.981254,833.933],[-2.119507,42.981272,834.671],[-2.119563,42.981296,834.226],[-2.119632,42.981307,835.267],[-2.119706,42.981309,835.431],[-2.119792,42.981316,835.946],[-2.119864,42.981297,835.088],[-2.119928,42.981276,834.516],[-2.119994,42.981265,834.608],[-2.12007,42.981282,834.648],[-2.120134,42.98129,836.248],[-2.120179,42.981329,838.01],[-2.12025,42.981329,840.352],[-2.120318,42.98134,842.56],[-2.12038,42.98133,844.675],[-2.120444,42.981318,845.566],[-2.120508,42.98132,844.83],[-2.120554,42.981359,846.857],[-2.120621,42.98136,850.8],[-2.120645,42.981404,854.02],[-2.1207,42.981427,855.908],[-2.120766,42.981452,855.849],[-2.120828,42.98146,855.449],[-2.120877,42.981488,852.321],[-2.12086,42.981531,854.123],[-2.120875,42.981579,855.651],[-2.120934,42.981607,858.986],[-2.12097,42.981655,862.947],[-2.120988,42.981698,866.171],[-2.121006,42.981744,869.699],[-2.121071,42.981733,873.607],[-2.121144,42.981742,877.627],[-2.121212,42.981744,880.508],[-2.121285,42.981756,884.593],[-2.121355,42.981768,885.433],[-2.121428,42.981757,884.435],[-2.121493,42.981751,883.437],[-2.121548,42.981775,881.215],[-2.121603,42.981797,878.75],[-2.121662,42.981827,878.451],[-2.121722,42.98185,876.645],[-2.121781,42.981873,877.185],[-2.121815,42.981912,877.489],[-2.121855,42.981952,878.017],[-2.121907,42.981983,879.608],[-2.121974,42.982004,880.582],[-2.12203,42.982046,881.562],[-2.122092,42.982062,884.564],[-2.12216,42.982056,886.786],[-2.122223,42.982053,888.084],[-2.122281,42.982069,888.019],[-2.122341,42.982082,888.86],[-2.122406,42.982101,889.764],[-2.12247,42.982111,891.438],[-2.122543,42.982116,890.47],[-2.122601,42.982145,891.017],[-2.122659,42.982173,890.608],[-2.122728,42.982188,891.577],[-2.122789,42.982212,892.577],[-2.122847,42.982247,893.199],[-2.122903,42.982271,891.821],[-2.122962,42.982303,892.619],[-2.123009,42.982336,891.924],[-2.123072,42.982335,889.945],[-2.12314,42.982338,889.129],[-2.123208,42.982349,889.068],[-2.123271,42.982378,890.142],[-2.12333,42.982411,889.626],[-2.123391,42.982428,888.908],[-2.123461,42.982443,887.79],[-2.123517,42.982473,887.47],[-2.123574,42.982497,887.622],[-2.123628,42.982531,886.194],[-2.123696,42.982547,886.422],[-2.123757,42.98253,886.297],[-2.123825,42.982551,884.188],[-2.123879,42.982581,882.862],[-2.123936,42.982618,882.845],[-2.123989,42.982648,882.447],[-2.12405,42.982679,882.611],[-2.124062,42.982731,884.308],[-2.124111,42.982758,882.598],[-2.124175,42.982779,881.038],[-2.124241,42.982787,882.11],[-2.124306,42.982798,885.652],[-2.124368,42.982811,888.93],[-2.124423,42.982844,892.965],[-2.124456,42.982883,896.936],[-2.124503,42.982914,900.11],[-2.124562,42.982937,901.669],[-2.124624,42.982934,902.104],[-2.12458,42.982967,903.624],[-2.124531,42.982999,904.508],[-2.124479,42.983031,907.46],[-2.124451,42.983076,911.43],[-2.124412,42.983116,914.072],[-2.124369,42.983152,915.194],[-2.1243,42.983153,914.612],[-2.124239,42.983149,914.757],[-2.124182,42.983127,913.658],[-2.124271,42.983152,916.142],[-2.124207,42.983117,920.163],[-2.124271,42.983128,923.644],[-2.124333,42.983119,927.318],[-2.124375,42.983081,928.308],[-2.124443,42.983065,925.32],[-2.124505,42.983054,922.33],[-2.124558,42.98303,919.332],[-2.124629,42.983015,917.974],[-2.12469,42.982995,915.592],[-2.124743,42.982968,913.647],[-2.124805,42.982978,914.558],[-2.124868,42.983009,916.232],[-2.124895,42.98305,916.823],[-2.124946,42.983088,918.083],[-2.12501,42.9831,920.311],[-2.125076,42.983108,920.508],[-2.125118,42.98315,920.636],[-2.125136,42.983199,920.766],[-2.125168,42.983242,921.518],[-2.125204,42.983283,924.47],[-2.125274,42.98328,924.978],[-2.125346,42.983273,924.453],[-2.12542,42.98326,925.774],[-2.125493,42.983267,923.338],[-2.125561,42.983269,922.318],[-2.125625,42.983269,922.998],[-2.125697,42.983262,923.217],[-2.125754,42.98324,921.408],[-2.12582,42.983238,920.725],[-2.125883,42.98324,919.195],[-2.125939,42.983262,918.547],[-2.126009,42.98327,916.689],[-2.126063,42.983304,916.267],[-2.126116,42.983334,916.092],[-2.12619,42.983343,914.313],[-2.126267,42.983355,912.177],[-2.126336,42.983365,911.289],[-2.126391,42.983399,908.606],[-2.126455,42.983408,907.526],[-2.12651,42.983435,907.208],[-2.126541,42.983477,909.012],[-2.126589,42.983511,909.722],[-2.126637,42.983553,909.774],[-2.126699,42.983568,910.526],[-2.126762,42.983583,912.294],[-2.126827,42.983615,915.239],[-2.126891,42.983633,918.26],[-2.126921,42.983673,920.014],[-2.126954,42.983713,920.394],[-2.127011,42.983735,922.557],[-2.127076,42.983735,923.822],[-2.127146,42.983744,925.008],[-2.127195,42.983773,924.163],[-2.127251,42.983793,922.073],[-2.127309,42.983848,921.995],[-2.127356,42.983884,922.797],[-2.127419,42.983889,923.255],[-2.127478,42.983906,923.59],[-2.12755,42.983909,923.751],[-2.127627,42.983931,923.865],[-2.127689,42.983955,922.324],[-2.127747,42.983975,922.204],[-2.127809,42.983983,923.314],[-2.12788,42.984008,922.808],[-2.127922,42.984047,920.536],[-2.127954,42.984088,923.576],[-2.127986,42.984127,925.328],[-2.127963,42.984171,928.88],[-2.127896,42.984192,934.768],[-2.127896,42.984192,934.753],[-2.127887,42.98424,936.834],[-2.127869,42.984294,939.378],[-2.127854,42.984338,943.282],[-2.127816,42.984377,946.343],[-2.127775,42.984416,948.217],[-2.127744,42.98446,952.208],[-2.127749,42.984506,955.752],[-2.127742,42.984555,957.892],[-2.127756,42.984601,959.974],[-2.127703,42.984637,961.536],[-2.12765,42.984665,962.554],[-2.127597,42.98469,962.799],[-2.127597,42.98469,962.77],[-2.127546,42.984725,961.694],[-2.127491,42.984751,960.946],[-2.12746,42.984791,960.588],[-2.127415,42.98483,961.916],[-2.127349,42.984848,961.908],[-2.127282,42.984877,963.158],[-2.127246,42.984915,963.868],[-2.127283,42.984952,964.65],[-2.127291,42.984997,967.962],[-2.127251,42.98504,963.95],[-2.127192,42.985057,965.585],[-2.127152,42.985108,965.646],[-2.127186,42.985147,968.19],[-2.127233,42.985177,971.274],[-2.127272,42.985214,974.756],[-2.127297,42.985257,976.821],[-2.12726,42.985294,978.408],[-2.127207,42.985328,980.611],[-2.127236,42.98537,982.771],[-2.127298,42.985364,983.273],[-2.127321,42.985318,982.335],[-2.127383,42.985317,981.343],[-2.127368,42.985265,979.518],[-2.127424,42.985246,976.499],[-2.127487,42.985235,975.433],[-2.127473,42.985189,973.696],[-2.127412,42.985198,971.331],[-2.127343,42.985195,970.724],[-2.127275,42.985192,971.608],[-2.127223,42.985165,974.133],[-2.127254,42.985123,975.683],[-2.127295,42.985089,975.775],[-2.127274,42.98504,972.617],[-2.127283,42.984995,970.315],[-2.127331,42.98496,967.71],[-2.127311,42.984912,964.291],[-2.127325,42.984858,960.985],[-2.127374,42.984822,958.991],[-2.12744,42.984807,957.781],[-2.127464,42.984762,956.219],[-2.127521,42.984734,955.708],[-2.127591,42.984709,955.033],[-2.127649,42.984676,954.253],[-2.127663,42.98463,953.755],[-2.127708,42.984599,953.097],[-2.127768,42.984576,951.035],[-2.127836,42.984566,949.41],[-2.127889,42.984543,945.641],[-2.127952,42.984524,943.385],[-2.127996,42.984492,941.522],[-2.127966,42.984452,939.262],[-2.127902,42.984429,937.408],[-2.127911,42.984381,939.508],[-2.127894,42.984337,940.476],[-2.127832,42.984298,940.976],[-2.127861,42.98425,941.638],[-2.12793,42.984267,939.67],[-2.127994,42.984232,937.258],[-2.128029,42.98418,935.463],[-2.128067,42.984123,935.984],[-2.128003,42.984084,935.028],[-2.127935,42.984065,933.775],[-2.127885,42.984022,933.728],[-2.127822,42.984018,932.52],[-2.127761,42.984008,930.208],[-2.127697,42.984009,928.821],[-2.127641,42.983977,928.871],[-2.127566,42.983977,930.053],[-2.127504,42.983969,930.355],[-2.127431,42.983947,929.723],[-2.127372,42.983931,928.998],[-2.127368,42.983877,928.039],[-2.127321,42.983837,929.133],[-2.12726,42.98381,928.919],[-2.127187,42.983797,928.009],[-2.127116,42.983792,927.519],[-2.127048,42.983762,926.808],[-2.126978,42.983753,926.415],[-2.126917,42.983744,924.535],[-2.126864,42.983705,921.497],[-2.126814,42.983665,919.559],[-2.126756,42.983633,918.837],[-2.126688,42.983613,918.412],[-2.126666,42.983569,917.743],[-2.126696,42.983524,916.557],[-2.126676,42.983479,915.088],[-2.12665,42.983431,912.924],[-2.126589,42.983409,910.426],[-2.126545,42.983375,910.908],[-2.126467,42.983382,910.092],[-2.126401,42.983394,909.552],[-2.126333,42.983378,909.614],[-2.126256,42.983356,909.656],[-2.126196,42.983346,910.434],[-2.126175,42.983291,911.729],[-2.126107,42.98327,911.35],[-2.126042,42.983267,910.254],[-2.12597,42.983269,910.431],[-2.125894,42.983287,906.961],[-2.125832,42.983306,902.907],[-2.125765,42.983309,900.408],[-2.125695,42.98331,898.927],[-2.12562,42.98331,902.977],[-2.125559,42.9833,903.229],[-2.125492,42.98332,903.491],[-2.125424,42.983333,903.199],[-2.125361,42.983343,902.544],[-2.125296,42.983342,902.295],[-2.125234,42.983331,903.629],[-2.125177,42.983311,906.452],[-2.12515,42.983269,908.553],[-2.125149,42.983213,909.808],[-2.125099,42.983179,910.208],[-2.125044,42.983139,910.839],[-2.124993,42.983103,910.459],[-2.124938,42.983062,910.191],[-2.124878,42.983038,909.933],[-2.124815,42.983029,910.661],[-2.124768,42.982997,910.686],[-2.124731,42.982955,910.247],[-2.124681,42.982926,910.441],[-2.124624,42.982892,910.524],[-2.12456,42.982906,909.404],[-2.124498,42.982903,906.714],[-2.124432,42.982907,904.708],[-2.124353,42.98289,900.756],[-2.124299,42.982865,896.726],[-2.124224,42.982848,893.538],[-2.124181,42.982811,892.86],[-2.124134,42.982764,890.478],[-2.124086,42.98273,890.913],[-2.124016,42.982725,891.654],[-2.123958,42.982695,891.658],[-2.123902,42.982672,891.667],[-2.123858,42.982632,891.681],[-2.123816,42.982585,890.419],[-2.12376,42.982554,888.108],[-2.123694,42.982538,889.96],[-2.123643,42.982504,890.63],[-2.123585,42.982482,891.862],[-2.123515,42.982478,891.334],[-2.123453,42.982464,889.822],[-2.123379,42.982443,888.517],[-2.123312,42.982431,888.928],[-2.123257,42.982407,888.412],[-2.123201,42.982382,889.344],[-2.123142,42.982366,890.605],[-2.12308,42.982337,888.615],[-2.123027,42.982311,888.608],[-2.122969,42.98228,889.068],[-2.122889,42.982232,888.818],[-2.122833,42.982214,889.51],[-2.122781,42.982238,889.912],[-2.122705,42.982228,889.46],[-2.122637,42.982219,888.395],[-2.122576,42.982227,887.296],[-2.1225,42.98223,884.67],[-2.122429,42.98222,883.882],[-2.122361,42.982195,883.743],[-2.12231,42.98216,884.917],[-2.122279,42.98212,884.808],[-2.122231,42.982091,885.982],[-2.122149,42.982078,887.052],[-2.122079,42.982062,888.034],[-2.122042,42.982023,889.436],[-2.121997,42.981985,889.974],[-2.121945,42.981957,889.059],[-2.12188,42.981933,888.03],[-2.121825,42.981907,885.494],[-2.121748,42.981904,882.359],[-2.121689,42.981891,880.003],[-2.121613,42.98189,877.023],[-2.121556,42.981867,876.408],[-2.121513,42.981816,877.399],[-2.121446,42.98182,875.869],[-2.121389,42.981846,876.521],[-2.121331,42.981865,877.733],[-2.121269,42.981869,878.491],[-2.121218,42.981843,878.486],[-2.121157,42.981814,878.417],[-2.121108,42.981772,878.031],[-2.12106,42.981744,878.216],[-2.120991,42.981738,878.376],[-2.120933,42.981704,877.613],[-2.120879,42.981674,875.608],[-2.120881,42.981626,874.495],[-2.120911,42.981581,873.765],[-2.120866,42.981539,873.757],[-2.120807,42.981512,872.939],[-2.120766,42.981474,872.037],[-2.120716,42.981444,870.312],[-2.120671,42.981404,869.353],[-2.120629,42.981369,868.377],[-2.120573,42.981347,865.737],[-2.120502,42.981348,863.749],[-2.120432,42.981344,861.313],[-2.120377,42.981322,860.708],[-2.120302,42.981321,859.527],[-2.120243,42.981289,856.487],[-2.120193,42.981254,853.339],[-2.120127,42.981247,851.171],[-2.120065,42.981262,850.269],[-2.120002,42.981268,848.044],[-2.119927,42.981274,846.385],[-2.119863,42.981293,846.169],[-2.119798,42.981302,844.494],[-2.119731,42.981299,845.057],[-2.119681,42.981326,844.522],[-2.119613,42.981341,845.408],[-2.119544,42.981341,845.283],[-2.119485,42.981327,844.783],[-2.119412,42.98132,844.055],[-2.119345,42.981321,844.857],[-2.119274,42.981317,844.985],[-2.119232,42.981284,844.57],[-2.11917,42.981258,845.141],[-2.1191,42.98125,845.815],[-2.119058,42.981216,845.839],[-2.118999,42.981204,844.601],[-2.118922,42.98121,844.721],[-2.118855,42.981218,844.808],[-2.118789,42.981211,842.867],[-2.118723,42.981193,842.887],[-2.118671,42.981168,841.689],[-2.118608,42.981153,839.771],[-2.118536,42.981161,837.849],[-2.118463,42.981161,837.844],[-2.118394,42.981151,837.815],[-2.11835,42.981116,837.439],[-2.118303,42.981079,837.285],[-2.118256,42.981046,835.189],[-2.118208,42.981016,833.417],[-2.118141,42.981028,831.208],[-2.118081,42.981045,829.542],[-2.118011,42.981028,827.382],[-2.117944,42.981006,825.684],[-2.117885,42.980982,822.626],[-2.117841,42.98095,820.854],[-2.117802,42.980913,820.529],[-2.117751,42.980884,819.52],[-2.117683,42.980855,818.984],[-2.117621,42.980835,819.381],[-2.117561,42.980847,819.261],[-2.117511,42.980808,817.917],[-2.117453,42.980782,815.508],[-2.117392,42.980749,813.342],[-2.117345,42.980719,811.642],[-2.117288,42.98069,810.684],[-2.117221,42.980656,810.866],[-2.117159,42.980643,809.734],[-2.117099,42.980628,811.089],[-2.117037,42.980617,810.27],[-2.11696,42.980617,808.194],[-2.116904,42.980591,806.924],[-2.116842,42.98058,805.804],[-2.116786,42.980599,803.514],[-2.116722,42.980584,800.108],[-2.116648,42.980573,798.136],[-2.116592,42.980549,798.136],[-2.116563,42.980508,800.188],[-2.116503,42.980487,800.19],[-2.11644,42.980463,799.368],[-2.116371,42.980439,799.233],[-2.116302,42.980429,798.074],[-2.116248,42.980402,798.138],[-2.116198,42.98036,797.732],[-2.116141,42.98034,797.592],[-2.116075,42.980322,795.011],[-2.116121,42.980292,791.008],[-2.116148,42.980246,787.037],[-2.116203,42.980218,783.997],[-2.116257,42.980174,782.029],[-2.116309,42.980148,780.531],[-2.116369,42.980121,778.419],[-2.116432,42.980104,776.364],[-2.11648,42.980074,774.795],[-2.116492,42.980029,773.789],[-2.116496,42.979976,770.377],[-2.116512,42.979921,767.961],[-2.116581,42.979894,766.027],[-2.116636,42.97986,765.708],[-2.116684,42.979824,765.521],[-2.116738,42.979798,763.871],[-2.116796,42.979821,760.083],[-2.116864,42.979825,757.745],[-2.116926,42.979822,757.183],[-2.11697,42.979777,758.448],[-2.117029,42.979726,757.279],[-2.117078,42.979676,757.723],[-2.117134,42.979694,754.451],[-2.117197,42.979696,750.401],[-2.117263,42.979679,747.611],[-2.11733,42.979653,745.108],[-2.11738,42.979623,743.679],[-2.117449,42.979622,741.539],[-2.117529,42.979618,741.861],[-2.117593,42.979598,740.873],[-2.117595,42.97955,739.051],[-2.117628,42.979504,737.556],[-2.117652,42.979461,737.897],[-2.11766,42.979413,736.811],[-2.117667,42.979365,735.873],[-2.117639,42.979313,734.085],[-2.117619,42.979264,731.713],[-2.117587,42.979217,730.308],[-2.117564,42.979174,727.971],[-2.117551,42.979121,727.681],[-2.117549,42.979073,727.883],[-2.117496,42.979041,729.125],[-2.117443,42.979012,730.763],[-2.117414,42.978965,732.148],[-2.117487,42.978928,732.969],[-2.117544,42.978902,733.823],[-2.117593,42.978867,735.158],[-2.117638,42.978831,735.952],[-2.117681,42.978797,736.417],[-2.117713,42.97874,737.508],[-2.117725,42.97869,738.269],[-2.11777,42.97865,738.639],[-2.117818,42.978605,737.261],[-2.117846,42.978554,736.493],[-2.117865,42.978509,735.911],[-2.117893,42.97846,736.036],[-2.117904,42.978408,736.137],[-2.117898,42.978358,735.391],[-2.117885,42.978304,734.862],[-2.117863,42.978251,734.983],[-2.117855,42.978204,736.611],[-2.117852,42.978155,736.808],[-2.11785,42.978109,736.93],[-2.117847,42.978062,736.61],[-2.11784,42.978006,737.642],[-2.117858,42.977953,738.284],[-2.11788,42.977911,738.272],[-2.117924,42.977875,739.027],[-2.117953,42.97783,739.538],[-2.117959,42.977781,739.422],[-2.117913,42.977734,737.784],[-2.117843,42.977734,737.107],[-2.117778,42.977752,736.317],[-2.117723,42.977731,736.608],[-2.11767,42.977699,737.622],[-2.117636,42.977661,738.292],[-2.117582,42.977619,738.634],[-2.117522,42.977597,738.026],[-2.117459,42.977573,738.194],[-2.117401,42.977552,737.759],[-2.117347,42.977528,738.35],[-2.117294,42.977499,736.644],[-2.117212,42.97746,736.822],[-2.117151,42.977462,736.962],[-2.117061,42.977437,738.208],[-2.117004,42.977416,739.008],[-2.116943,42.977405,740.346],[-2.116878,42.977377,742.376],[-2.116817,42.977363,743.518],[-2.116749,42.977365,745.09],[-2.116694,42.97732,744.318],[-2.116637,42.977284,745.123],[-2.11657,42.977267,745.234],[-2.1165,42.977279,744.488],[-2.116428,42.977292,742.793],[-2.11635,42.977298,742.565],[-2.116291,42.977274,742.021],[-2.116237,42.977245,741.308],[-2.116169,42.977202,740.943],[-2.116135,42.977162,740.263],[-2.116108,42.97712,738.695],[-2.116042,42.977095,737.637],[-2.11598,42.977069,738.665],[-2.115933,42.977029,740.49],[-2.115888,42.97699,742.381],[-2.11587,42.976946,743.825],[-2.115844,42.976902,746.363],[-2.115807,42.976865,749.044],[-2.115786,42.976816,751.418],[-2.115771,42.976767,752.508],[-2.11576,42.976709,752.72],[-2.115753,42.976658,751.23],[-2.115778,42.976608,748.372],[-2.11582,42.97656,745.854],[-2.11587,42.976514,742.322],[-2.115896,42.97647,741.467],[-2.115891,42.976409,740.978],[-2.115869,42.976365,739.862],[-2.115844,42.976309,739.974],[-2.115823,42.976261,740.056],[-2.115765,42.976234,740.021],[-2.115691,42.976205,739.608],[-2.115634,42.976186,739.471],[-2.115557,42.976178,740.981],[-2.115496,42.976167,741.823],[-2.115438,42.97614,741.145],[-2.115357,42.976138,740.383],[-2.115291,42.976123,740.248],[-2.115219,42.976085,739.889],[-2.115155,42.976052,739.523],[-2.115078,42.976027,738.957],[-2.115008,42.975998,739.0],[-2.114948,42.975964,739.02],[-2.114889,42.97594,739.808],[-2.114825,42.975937,740.719],[-2.114765,42.975918,740.419],[-2.114709,42.975888,741.471],[-2.114652,42.975864,742.023],[-2.114578,42.97583,742.491],[-2.114509,42.975805,741.846],[-2.114451,42.975785,742.397],[-2.114399,42.975762,742.621],[-2.11434,42.97575,742.428],[-2.114294,42.975781,743.189],[-2.114233,42.975749,743.117],[-2.114179,42.975716,743.108],[-2.114127,42.975674,743.186],[-2.114067,42.97564,743.186],[-2.114003,42.975619,743.198],[-2.113948,42.975588,743.52],[-2.113902,42.975558,743.718],[-2.113828,42.975524,743.853],[-2.113785,42.97549,743.934],[-2.113734,42.975451,743.698],[-2.113683,42.975417,743.021],[-2.113612,42.975404,740.641],[-2.113581,42.975363,739.205],[-2.113532,42.975317,738.708],[-2.113482,42.975286,738.496],[-2.113433,42.975252,737.836],[-2.113374,42.975237,738.388],[-2.113297,42.975228,738.67],[-2.113244,42.975196,738.878],[-2.113207,42.975159,737.723],[-2.113154,42.975122,737.024],[-2.113114,42.975075,736.248],[-2.11312,42.975018,735.773],[-2.11315,42.974978,735.485],[-2.113178,42.974933,736.813],[-2.113186,42.974882,740.108],[-2.113149,42.974844,741.731],[-2.113156,42.974788,743.081],[-2.113136,42.974745,743.093],[-2.113093,42.974704,742.685],[-2.113055,42.974666,742.853],[-2.112997,42.974681,743.378],[-2.112946,42.974655,745.649],[-2.112895,42.974604,746.653],[-2.112863,42.974558,744.866],[-2.112825,42.974503,744.129],[-2.112752,42.97449,741.321],[-2.112688,42.974491,740.008],[-2.112618,42.974486,738.49],[-2.112559,42.97446,736.71],[-2.112488,42.974454,735.772],[-2.11242,42.974428,735.144],[-2.112352,42.974382,734.712],[-2.112307,42.974349,734.137],[-2.112261,42.974319,733.768],[-2.112194,42.974323,731.962],[-2.112129,42.974345,730.022],[-2.11207,42.974361,728.562],[-2.112008,42.974334,727.208],[-2.111954,42.974297,726.808],[-2.111909,42.974253,726.246],[-2.111865,42.974218,727.826],[-2.111793,42.974203,728.068],[-2.111731,42.974202,728.57],[-2.111672,42.974218,727.628],[-2.111601,42.974199,725.573],[-2.111563,42.974162,725.484],[-2.111519,42.974118,724.978],[-2.111465,42.974085,723.852],[-2.111399,42.974073,722.053],[-2.111352,42.974043,723.708],[-2.111287,42.974019,723.908],[-2.111229,42.973988,724.879],[-2.11117,42.973959,726.289],[-2.111081,42.973957,727.041],[-2.111019,42.973983,727.563],[-2.110962,42.974022,727.871],[-2.110914,42.974065,728.066],[-2.110886,42.974109,727.787],[-2.110891,42.974154,727.521],[-2.110877,42.974203,726.256],[-2.110869,42.974259,727.059],[-2.110871,42.974314,727.114],[-2.110871,42.974362,727.208],[-2.110846,42.974411,724.499],[-2.110781,42.974441,720.759],[-2.110713,42.974456,717.391],[-2.110642,42.974463,715.353],[-2.110578,42.974458,711.391],[-2.110528,42.974427,707.336],[-2.110494,42.974369,704.187],[-2.110466,42.974316,700.661],[-2.110472,42.974268,698.117],[-2.110481,42.974215,696.287],[-2.11047,42.974158,694.315],[-2.110459,42.974103,692.708],[-2.110457,42.974053,691.865],[-2.11045,42.974007,691.655],[-2.110421,42.973963,690.757],[-2.110392,42.973918,690.259],[-2.110345,42.973867,690.387],[-2.110307,42.97383,690.362],[-2.110251,42.973785,689.553],[-2.110177,42.973775,689.047],[-2.110149,42.973734,688.715],[-2.110119,42.973681,688.165],[-2.110093,42.973628,688.211],[-2.110145,42.973653,687.408],[-2.11013,42.973604,686.925],[-2.110115,42.973555,686.695],[-2.110071,42.973508,686.047],[-2.110025,42.973465,685.389],[-2.109983,42.973432,684.197],[-2.109926,42.973384,683.032],[-2.109888,42.973344,682.783],[-2.109917,42.9733,680.557],[-2.109911,42.973252,679.674],[-2.109872,42.973213,678.756],[-2.10984,42.97316,678.921],[-2.109821,42.973114,677.008],[-2.109793,42.973069,675.591],[-2.109767,42.973021,673.851],[-2.109729,42.972967,672.863],[-2.109694,42.972916,671.885],[-2.109675,42.972868,672.463],[-2.109645,42.972811,670.818],[-2.109577,42.972762,670.229],[-2.109506,42.972733,669.873],[-2.109433,42.972703,670.024],[-2.109363,42.972665,670.504],[-2.109321,42.972628,670.014],[-2.109286,42.972575,671.308],[-2.10926,42.972525,671.726],[-2.109257,42.97248,671.516],[-2.109221,42.972439,672.688],[-2.109207,42.972386,673.33],[-2.109204,42.972339,674.168],[-2.109176,42.972289,671.493],[-2.109128,42.97223,670.644],[-2.109096,42.97219,670.538],[-2.10907,42.972144,670.879],[-2.109007,42.972146,670.205],[-2.108929,42.972149,671.425],[-2.108856,42.972148,672.908],[-2.108797,42.972114,673.051],[-2.108756,42.972079,673.551],[-2.108739,42.97203,673.073],[-2.108691,42.97199,673.975],[-2.108667,42.971944,675.263],[-2.108655,42.971893,674.848],[-2.108624,42.971847,674.249],[-2.108585,42.971808,674.243],[-2.108551,42.971766,674.226],[-2.1085,42.971729,674.647],[-2.108473,42.971684,675.211],[-2.108477,42.971629,676.008],[-2.10848,42.971581,674.526],[-2.108472,42.971528,672.436],[-2.108429,42.971469,671.588],[-2.108422,42.971424,671.42],[-2.108369,42.971399,672.138],[-2.108285,42.971406,671.333],[-2.108204,42.971407,671.654],[-2.10814,42.971416,669.428],[-2.108078,42.97142,668.145],[-2.108006,42.971415,667.347],[-2.107944,42.971419,666.811],[-2.107869,42.971392,665.708],[-2.107846,42.971341,664.688],[-2.107829,42.971293,664.818],[-2.107789,42.971258,663.72],[-2.107746,42.971204,663.092],[-2.107736,42.971141,662.61],[-2.107741,42.971094,662.095],[-2.10774,42.971033,661.226],[-2.107737,42.970982,660.71],[-2.107738,42.970937,661.211],[-2.107745,42.970891,662.321],[-2.10775,42.970843,663.403],[-2.107774,42.970797,664.008],[-2.107808,42.970744,664.495],[-2.107825,42.9707,665.425],[-2.107811,42.970653,665.637],[-2.107795,42.970596,664.989],[-2.10778,42.970545,664.587],[-2.107835,42.9705,664.342],[-2.107859,42.970458,664.243],[-2.10785,42.970405,663.797],[-2.107872,42.970362,663.483],[-2.107851,42.9703,662.425],[-2.107833,42.970246,661.817],[-2.107809,42.970198,662.608],[-2.107785,42.970149,663.542],[-2.107744,42.970115,662.412],[-2.107674,42.970084,659.854],[-2.107622,42.970043,657.816],[-2.107593,42.97,657.484],[-2.107564,42.969953,658.039],[-2.107544,42.969886,658.79],[-2.107514,42.969827,659.944],[-2.1075,42.969771,660.675],[-2.107514,42.969718,660.228],[-2.107544,42.969675,660.02],[-2.107593,42.969644,660.308],[-2.107643,42.969614,661.381],[-2.107659,42.96956,661.531],[-2.107666,42.969499,660.823],[-2.107666,42.969449,659.255],[-2.107678,42.969383,658.233],[-2.107691,42.969334,658.038],[-2.107719,42.969276,656.389],[-2.10775,42.969234,654.943],[-2.10781,42.969184,653.677],[-2.107862,42.969156,650.061],[-2.107925,42.969129,647.127],[-2.107986,42.969106,645.708],[-2.108051,42.969087,645.711],[-2.108078,42.969039,644.541],[-2.108121,42.968995,643.423],[-2.108172,42.968959,643.195],[-2.108218,42.968908,642.873],[-2.108218,42.968908,642.858],[-2.108276,42.968815,641.979],[-2.108306,42.96873,641.453],[-2.108287,42.968682,640.726],[-2.108292,42.968615,639.947],[-2.108301,42.968567,640.211],[-2.108312,42.968514,640.408],[-2.1083,42.968446,640.166],[-2.10828,42.9684,639.556],[-2.10827,42.968345,639.238],[-2.108271,42.968294,639.48],[-2.108245,42.968241,639.168],[-2.10823,42.968197,638.583],[-2.108218,42.968149,637.874],[-2.108217,42.968097,637.878],[-2.108239,42.968055,637.824],[-2.108291,42.968001,638.604],[-2.108337,42.967962,638.714],[-2.108386,42.967912,639.108],[-2.108386,42.96786,639.076],[-2.108373,42.96781,639.716],[-2.108372,42.967764,639.738],[-2.108533,42.967663,638.98],[-2.108566,42.967562,632.718],[-2.108566,42.967562,632.733],[-2.108566,42.967562,632.724],[-2.108534,42.967508,628.718],[-2.108488,42.967475,626.348],[-2.108436,42.967451,625.361],[-2.108371,42.967412,623.517],[-2.108297,42.967372,620.408],[-2.108238,42.967333,618.948],[-2.108206,42.967273,618.448],[-2.108124,42.967236,618.93],[-2.108099,42.96719,621.612],[-2.108037,42.96716,621.28],[-2.107981,42.96714,620.275],[-2.107928,42.967096,620.436],[-2.107901,42.967055,620.54],[-2.107869,42.967011,621.052],[-2.107801,42.966973,621.753],[-2.107758,42.966941,622.108],[-2.107716,42.966893,622.708],[-2.10769,42.966842,624.339],[-2.107667,42.966791,624.969],[-2.107643,42.966747,625.251],[-2.107638,42.966693,626.233],[-2.107661,42.966637,628.421],[-2.107702,42.966589,629.366],[-2.107712,42.966532,630.387],[-2.107737,42.96649,631.381],[-2.107765,42.966448,632.378],[-2.107795,42.966401,632.933],[-2.107826,42.96635,634.126],[-2.107832,42.966297,635.208],[-2.107808,42.966252,635.111],[-2.107767,42.966217,635.021],[-2.107745,42.966175,634.993],[-2.107728,42.966118,634.195],[-2.107698,42.966063,633.683],[-2.107701,42.966015,632.528],[-2.10766,42.965966,632.619],[-2.107662,42.96591,632.383],[-2.107652,42.965858,631.761],[-2.107629,42.965816,630.921],[-2.107595,42.965777,630.013],[-2.107537,42.965731,628.708],[-2.107491,42.965692,627.91],[-2.107422,42.965671,627.09],[-2.107367,42.965641,626.922],[-2.107318,42.965603,625.634],[-2.107264,42.965567,624.472],[-2.107212,42.965522,624.117],[-2.107173,42.96547,623.938],[-2.107191,42.965426,625.022],[-2.107161,42.965384,624.524],[-2.107092,42.965369,623.004],[-2.107034,42.965354,620.914],[-2.106987,42.965325,620.008],[-2.106937,42.965293,619.526],[-2.106908,42.965246,620.496],[-2.106901,42.965201,620.518],[-2.106842,42.965187,619.47],[-2.106775,42.965154,618.348],[-2.106725,42.965128,618.123],[-2.106668,42.965103,618.034],[-2.106624,42.965067,617.578],[-2.106581,42.965023,618.092],[-2.106531,42.96499,618.373],[-2.106468,42.964968,618.92],[-2.106414,42.964946,618.808],[-2.106364,42.964917,619.643],[-2.106324,42.964868,620.913],[-2.106279,42.964811,620.985],[-2.10624,42.964774,620.957],[-2.106168,42.964768,620.925],[-2.106105,42.964744,620.93],[-2.106044,42.964728,620.511],[-2.105994,42.964684,620.355],[-2.105964,42.964628,619.817],[-2.105926,42.964588,620.387],[-2.105874,42.964549,619.015],[-2.105817,42.964526,619.808],[-2.105766,42.964484,620.385],[-2.105756,42.964431,621.855],[-2.105743,42.964382,623.987],[-2.105729,42.964323,624.499],[-2.105722,42.964262,626.727],[-2.105701,42.9642,629.352],[-2.10569,42.964145,630.833],[-2.105671,42.964091,630.547],[-2.105647,42.96405,629.575],[-2.105639,42.963991,628.528],[-2.105663,42.963945,627.12],[-2.105631,42.963897,627.108],[-2.105626,42.963838,626.391],[-2.105584,42.963803,624.241],[-2.105521,42.963785,622.183],[-2.105451,42.963755,620.145],[-2.10539,42.963725,619.363],[-2.105349,42.963689,618.828],[-2.105308,42.963647,618.979],[-2.105256,42.963621,619.413],[-2.105189,42.963627,618.957],[-2.10512,42.963648,620.2],[-2.105111,42.963592,622.22],[-2.105065,42.96355,622.608],[-2.104999,42.963519,622.819],[-2.104941,42.963485,621.779],[-2.104872,42.963467,619.981],[-2.1048,42.963445,617.253],[-2.104729,42.963426,614.471],[-2.10466,42.963419,612.386],[-2.104613,42.96339,613.487],[-2.104544,42.963358,615.731],[-2.104508,42.963318,617.189],[-2.10444,42.963299,617.506],[-2.104378,42.963296,618.226],[-2.10431,42.963278,618.608],[-2.104246,42.963242,617.222],[-2.104183,42.963198,615.692],[-2.104111,42.963167,614.674],[-2.104052,42.963141,613.616],[-2.103994,42.963123,613.084],[-2.103938,42.9631,613.419],[-2.103887,42.963072,613.37],[-2.103837,42.963039,613.624],[-2.103781,42.963001,613.017],[-2.103735,42.962958,614.687],[-2.103689,42.962918,615.615],[-2.103642,42.962885,616.208],[-2.10361,42.962837,617.035],[-2.103577,42.962796,617.565],[-2.103528,42.962743,618.697],[-2.103483,42.962708,618.859],[-2.103411,42.962682,618.917],[-2.103349,42.962666,618.652],[-2.103274,42.962654,618.463],[-2.103209,42.962634,616.337],[-2.103143,42.962616,615.876],[-2.103107,42.962575,614.39],[-2.103047,42.96255,615.419],[-2.103006,42.962513,616.508],[-2.102967,42.962466,618.741],[-2.102908,42.962447,618.861],[-2.102853,42.962414,617.793],[-2.102786,42.962411,616.285],[-2.1027,42.962403,615.393],[-2.10263,42.962389,614.878],[-2.102572,42.962364,614.979],[-2.102517,42.962329,614.993],[-2.102448,42.962314,613.337],[-2.10238,42.96231,614.049],[-2.102312,42.962286,615.613],[-2.102267,42.962249,615.408],[-2.102223,42.962204,615.777],[-2.102167,42.962177,616.357],[-2.102116,42.962132,617.069],[-2.102072,42.962088,619.431],[-2.102035,42.962052,621.789],[-2.10201,42.962008,623.584],[-2.101964,42.961967,623.035],[-2.101909,42.961944,622.319],[-2.101847,42.961932,621.962],[-2.101785,42.961913,621.683],[-2.101736,42.961872,621.811],[-2.101686,42.961824,622.708],[-2.101637,42.961783,622.99],[-2.101582,42.961751,622.69],[-2.10153,42.961725,623.292],[-2.10147,42.961706,624.014],[-2.101404,42.961675,624.552],[-2.101348,42.961638,625.257],[-2.101304,42.961599,625.648],[-2.101257,42.961566,625.442],[-2.1012,42.961544,625.354],[-2.101148,42.96152,625.256],[-2.101086,42.9615,625.611],[-2.10102,42.961482,625.808],[-2.100945,42.961479,625.119],[-2.100892,42.96145,625.129],[-2.100852,42.961407,625.971],[-2.100818,42.961367,626.013],[-2.100784,42.961329,626.031],[-2.100722,42.961309,625.226],[-2.10067,42.961268,625.937],[-2.100629,42.961228,625.941],[-2.100596,42.961186,626.331],[-2.100572,42.961141,627.461],[-2.100562,42.961096,627.607],[-2.100502,42.961109,627.308],[-2.100477,42.961067,626.357],[-2.100515,42.961027,624.147],[-2.100537,42.960975,625.249],[-2.100544,42.960929,625.961],[-2.100479,42.960902,624.319],[-2.100415,42.960898,622.524],[-2.100376,42.960857,621.035],[-2.100347,42.960817,619.769],[-2.100283,42.960825,616.168],[-2.100222,42.960814,613.242],[-2.100208,42.960769,611.026],[-2.100204,42.960719,610.508],[-2.100146,42.960696,610.21],[-2.100082,42.960678,609.25],[-2.100016,42.960665,608.682],[-2.099958,42.960642,608.244]]}}]}