{"type":"FeatureCollection","features":[{"type":"Feature","properties":{"ruta_id":"44708314","nombre":"HENDAYA PLAYA - LAS GEMELAS - CASTILLO DE ABBADIE ruta circular","blog_url":"https://www.rutasporelmonte.com/las-gemelas-y-castillo-de-abbadie-desde-hendaya/"},"geometry":{"type":"LineString","coordinates":[[-1.776559,43.370597,46.087],[-1.776626,43.370594,46.042],[-1.776691,43.370614,46.026],[-1.776757,43.370597,46.008],[-1.776819,43.370584,46.022],[-1.776882,43.370564,46.072],[-1.77695,43.370551,46.085],[-1.777016,43.370545,46.038],[-1.777088,43.370535,46.066],[-1.777151,43.370526,46.031],[-1.777172,43.370475,46.099],[-1.777159,43.370423,46.052],[-1.777171,43.370475,46.033],[-1.777184,43.370523,46.023],[-1.777247,43.370525,46.015],[-1.777319,43.370524,46.408],[-1.777355,43.370573,45.447],[-1.777339,43.370619,44.417],[-1.777323,43.370668,43.02],[-1.777308,43.370718,42.623],[-1.777302,43.370766,43.141],[-1.777299,43.37082,43.886],[-1.777325,43.370868,44.624],[-1.777323,43.370917,44.377],[-1.777338,43.370969,45.383],[-1.777358,43.37102,45.525],[-1.777354,43.371068,45.617],[-1.777361,43.371122,45.308],[-1.777362,43.371179,45.532],[-1.777382,43.371225,45.262],[-1.777388,43.371282,45.415],[-1.777391,43.37134,44.718],[-1.777407,43.371403,44.326],[-1.777402,43.37146,44.181],[-1.777397,43.371518,42.429],[-1.777375,43.371565,42.642],[-1.777381,43.371619,43.591],[-1.7774,43.371664,44.081],[-1.777424,43.371707,45.519],[-1.777421,43.371753,44.808],[-1.777406,43.371808,43.223],[-1.777403,43.371859,42.223],[-1.777417,43.37191,41.236],[-1.777431,43.371956,41.049],[-1.777471,43.37201,40.517],[-1.777499,43.372066,39.892],[-1.777517,43.372117,40.24],[-1.777543,43.372163,41.213],[-1.77756,43.372212,42.614],[-1.777591,43.372257,44.254],[-1.777615,43.37231,45.609],[-1.777615,43.372364,46.408],[-1.777644,43.372411,46.585],[-1.777654,43.372461,47.015],[-1.777672,43.372505,46.938],[-1.777673,43.372554,46.411],[-1.777653,43.372614,46.569],[-1.77762,43.372653,46.694],[-1.777607,43.372702,47.032],[-1.777609,43.372751,47.735],[-1.777614,43.372796,48.538],[-1.777597,43.372849,49.47],[-1.777523,43.372866,49.917],[-1.777451,43.37287,49.408],[-1.777388,43.37287,49.187],[-1.77731,43.372884,48.517],[-1.777235,43.372892,48.21],[-1.777164,43.372903,48.093],[-1.777084,43.372906,47.961],[-1.777018,43.372919,47.896],[-1.776945,43.372931,47.814],[-1.77687,43.372947,48.217],[-1.776797,43.372946,49.245],[-1.776733,43.372949,49.847],[-1.776668,43.372939,49.811],[-1.776595,43.372948,49.808],[-1.776533,43.372957,50.698],[-1.776464,43.372967,50.718],[-1.776399,43.372983,50.321],[-1.776334,43.37299,50.184],[-1.776268,43.372998,50.032],[-1.776201,43.372992,51.117],[-1.776134,43.373007,51.015],[-1.776067,43.373028,50.978],[-1.776075,43.373077,50.533],[-1.776128,43.373103,50.623],[-1.776166,43.373138,47.915],[-1.776097,43.373155,46.308],[-1.776032,43.373182,45.397],[-1.775965,43.373204,44.797],[-1.775897,43.373223,44.76],[-1.775828,43.37325,44.343],[-1.775765,43.373266,43.771],[-1.775702,43.373296,42.956],[-1.775638,43.373303,42.824],[-1.775567,43.373303,42.837],[-1.775504,43.373311,42.013],[-1.775437,43.373315,41.943],[-1.775401,43.373355,41.807],[-1.775344,43.373384,42.208],[-1.775293,43.373411,42.075],[-1.775223,43.373441,41.575],[-1.775152,43.373459,40.858],[-1.775083,43.373466,40.891],[-1.775031,43.373502,40.469],[-1.774991,43.373556,39.884],[-1.774932,43.373592,39.472],[-1.774865,43.373613,39.215],[-1.774802,43.373621,40.366],[-1.774724,43.373627,41.329],[-1.774663,43.373635,41.921],[-1.77459,43.373651,42.308],[-1.774529,43.37367,42.59],[-1.77446,43.373703,43.03],[-1.774399,43.373718,43.313],[-1.774322,43.373743,43.936],[-1.774261,43.373758,43.514],[-1.774172,43.373773,43.229],[-1.774095,43.37376,42.667],[-1.774023,43.373768,42.32],[-1.773953,43.37376,42.163],[-1.773885,43.373766,42.444],[-1.773811,43.373766,42.218],[-1.77374,43.373775,41.308],[-1.773654,43.373767,40.34],[-1.773588,43.373769,40.56],[-1.773526,43.373764,41.863],[-1.773461,43.373768,42.666],[-1.773394,43.373768,43.574],[-1.773328,43.373753,44.089],[-1.773263,43.373737,44.377],[-1.773191,43.373747,44.11],[-1.773132,43.373764,43.299],[-1.773069,43.373779,42.207],[-1.773004,43.373779,42.027],[-1.772931,43.373785,42.308],[-1.772853,43.373792,42.583],[-1.772789,43.3738,42.653],[-1.77272,43.373791,43.176],[-1.772649,43.373791,43.879],[-1.772578,43.373796,44.267],[-1.772508,43.373804,44.862],[-1.772436,43.373796,45.69],[-1.772374,43.373798,45.393],[-1.772317,43.373816,45.175],[-1.77226,43.373834,44.628],[-1.772185,43.373835,44.32],[-1.77211,43.373845,44.108],[-1.772038,43.373851,44.491],[-1.77197,43.373868,44.251],[-1.771906,43.373881,44.194],[-1.771841,43.373892,44.087],[-1.771785,43.373925,43.665],[-1.771707,43.373942,43.36],[-1.771636,43.373959,42.758],[-1.771572,43.373978,42.861],[-1.771497,43.373995,42.433],[-1.771435,43.374023,42.223],[-1.771378,43.374046,42.115],[-1.771314,43.374059,42.008],[-1.771245,43.374077,42.087],[-1.771173,43.374095,42.097],[-1.771092,43.374103,41.64],[-1.771029,43.374106,41.713],[-1.770966,43.374108,41.851],[-1.770908,43.374124,41.996],[-1.770836,43.37414,41.594],[-1.77078,43.374164,40.997],[-1.77071,43.374189,40.956],[-1.770643,43.37421,40.959],[-1.770577,43.37422,41.314],[-1.770502,43.374237,41.508],[-1.770437,43.374262,42.089],[-1.770378,43.374275,42.389],[-1.770316,43.37429,42.112],[-1.770248,43.374284,42.485],[-1.770172,43.374301,42.673],[-1.77009,43.374303,43.118],[-1.770029,43.374327,42.666],[-1.76996,43.374344,41.939],[-1.769899,43.374368,41.935],[-1.769821,43.374371,42.786],[-1.769762,43.374394,44.014],[-1.769697,43.374398,44.408],[-1.769622,43.374414,45.027],[-1.769561,43.374426,45.897],[-1.769501,43.374439,45.98],[-1.769473,43.374482,45.923],[-1.769401,43.374502,45.981],[-1.769321,43.374504,45.546],[-1.769254,43.374513,45.714],[-1.769188,43.374534,45.837],[-1.769119,43.374555,45.542],[-1.76905,43.374557,46.122],[-1.768979,43.374565,46.114],[-1.768911,43.374566,46.108],[-1.768853,43.374585,45.718],[-1.768779,43.374603,45.518],[-1.768713,43.374626,45.481],[-1.768633,43.374635,45.784],[-1.768576,43.374654,45.512],[-1.768507,43.374667,44.637],[-1.768437,43.374676,44.025],[-1.768365,43.374682,43.718],[-1.768303,43.374695,43.535],[-1.768234,43.374696,43.486],[-1.76817,43.374715,44.114],[-1.768098,43.374731,45.308],[-1.768026,43.374742,46.897],[-1.767954,43.374753,46.927],[-1.767902,43.374784,46.22],[-1.767837,43.374795,46.643],[-1.767772,43.374795,46.881],[-1.767703,43.374809,46.516],[-1.767636,43.374822,45.934],[-1.767579,43.374841,45.217],[-1.767516,43.374856,44.045],[-1.767438,43.374881,43.347],[-1.767381,43.374904,42.911],[-1.767299,43.374916,42.608],[-1.767235,43.374943,42.488],[-1.767164,43.374973,42.798],[-1.767104,43.37499,42.561],[-1.767025,43.374993,41.624],[-1.766957,43.375013,41.492],[-1.76688,43.375029,41.347],[-1.76681,43.375057,41.665],[-1.766744,43.375065,42.278],[-1.766676,43.37507,42.678],[-1.766613,43.375087,42.433],[-1.766553,43.375102,42.726],[-1.766481,43.375114,42.108],[-1.766419,43.375124,41.311],[-1.766358,43.375136,40.411],[-1.766293,43.375155,39.984],[-1.766217,43.37517,40.487],[-1.766153,43.375186,40.385],[-1.766088,43.375201,40.66],[-1.766021,43.375224,41.638],[-1.765957,43.375235,42.221],[-1.765887,43.375235,42.287],[-1.765817,43.37524,42.642],[-1.765745,43.375245,42.426],[-1.765682,43.375258,41.508],[-1.765618,43.375271,41.432],[-1.765544,43.375281,40.992],[-1.765466,43.375295,41.865],[-1.765407,43.375309,42.378],[-1.765334,43.375329,43.036],[-1.765267,43.375347,43.091],[-1.765192,43.375349,43.489],[-1.765129,43.375365,43.392],[-1.765066,43.375389,42.834],[-1.764995,43.375406,42.955],[-1.764929,43.375425,43.01],[-1.764864,43.375433,43.008],[-1.764801,43.37545,42.667],[-1.764763,43.375495,42.087],[-1.764699,43.375523,41.27],[-1.764618,43.375525,41.143],[-1.764539,43.37552,41.121],[-1.764467,43.375541,40.726],[-1.764402,43.375565,40.424],[-1.764338,43.375588,39.837],[-1.764273,43.375609,39.136],[-1.764219,43.375634,38.717],[-1.764149,43.375633,38.818],[-1.764084,43.375637,39.708],[-1.764021,43.375639,39.867],[-1.763941,43.375652,39.957],[-1.76388,43.375669,39.95],[-1.763811,43.375688,40.343],[-1.763751,43.375708,41.471],[-1.763689,43.37572,42.416],[-1.763635,43.375759,43.084],[-1.763573,43.375803,43.437],[-1.763501,43.375849,44.015],[-1.763445,43.375878,44.065],[-1.763383,43.375868,44.811],[-1.763318,43.375865,44.908],[-1.763253,43.375875,44.955],[-1.763189,43.375879,44.155],[-1.763116,43.375873,43.668],[-1.763052,43.375888,43.391],[-1.762985,43.375911,43.129],[-1.762922,43.375919,43.444],[-1.762843,43.37592,44.072],[-1.762776,43.375923,44.795],[-1.762711,43.375937,45.557],[-1.762641,43.375948,45.6],[-1.76258,43.375956,46.12],[-1.762535,43.375991,46.808],[-1.762469,43.376013,47.659],[-1.762411,43.376032,48.189],[-1.762385,43.376083,48.072],[-1.762325,43.376055,47.975],[-1.762293,43.376016,47.533],[-1.762236,43.376061,46.898],[-1.762205,43.376105,46.066],[-1.762151,43.376139,45.529],[-1.762109,43.376174,44.847],[-1.762055,43.376212,44.429],[-1.761982,43.376246,44.621],[-1.761925,43.376278,44.308],[-1.761884,43.376323,44.948],[-1.761849,43.376364,44.928],[-1.761781,43.376344,44.981],[-1.761721,43.376318,45.794],[-1.761665,43.376298,46.272],[-1.761597,43.376299,46.587],[-1.761526,43.376308,46.375],[-1.761464,43.37633,46.638],[-1.761404,43.37635,46.845],[-1.761337,43.37638,46.947],[-1.761278,43.376398,47.011],[-1.761218,43.376418,46.608],[-1.76116,43.376437,45.678],[-1.76109,43.376463,46.618],[-1.761058,43.376503,47.631],[-1.76099,43.37653,48.224],[-1.760938,43.376564,48.662],[-1.760897,43.376599,48.067],[-1.760854,43.376632,47.285],[-1.760812,43.376675,47.188],[-1.760759,43.37671,47.571],[-1.760719,43.376746,47.741],[-1.76065,43.376775,47.415],[-1.760593,43.376799,47.208],[-1.760551,43.376843,46.731],[-1.760493,43.376871,46.441],[-1.760426,43.376896,46.644],[-1.760376,43.376926,47.527],[-1.760321,43.376964,47.775],[-1.760255,43.376983,47.87],[-1.760183,43.376992,47.568],[-1.760149,43.377031,47.331],[-1.760086,43.377046,47.256],[-1.760017,43.37706,47.159],[-1.759948,43.377074,47.114],[-1.759879,43.377102,47.108],[-1.759808,43.377117,46.749],[-1.759741,43.377124,46.179],[-1.759682,43.377147,45.722],[-1.759619,43.377169,45.575],[-1.759545,43.37718,45.463],[-1.759473,43.377187,46.148],[-1.759399,43.377185,46.546],[-1.759342,43.377166,47.269],[-1.759282,43.377191,47.682],[-1.759221,43.377213,47.843],[-1.759165,43.377234,47.517],[-1.759064,43.377248,47.708],[-1.759041,43.377193,47.872],[-1.75901,43.37714,47.912],[-1.758981,43.377097,48.045],[-1.758975,43.377045,47.638],[-1.758968,43.376994,47.866],[-1.758972,43.376944,47.561],[-1.75895,43.376901,47.389],[-1.758922,43.37686,47.282],[-1.758894,43.376811,47.597],[-1.758873,43.37676,47.323],[-1.758831,43.376721,47.625],[-1.75877,43.376688,47.808],[-1.758712,43.376658,48.333],[-1.758648,43.376635,48.263],[-1.758588,43.37665,47.316],[-1.758533,43.376673,46.869],[-1.758472,43.376699,46.177],[-1.758413,43.376729,46.932],[-1.758355,43.376749,48.25],[-1.75829,43.376764,49.823],[-1.758227,43.376779,50.759],[-1.758157,43.376802,51.703],[-1.758095,43.376819,52.723],[-1.758031,43.37682,52.908],[-1.757948,43.376815,54.269],[-1.757876,43.376816,55.039],[-1.757814,43.376808,55.932],[-1.757744,43.376799,56.825],[-1.757668,43.376801,57.083],[-1.757598,43.376806,57.518],[-1.757527,43.376804,57.416],[-1.757458,43.376801,57.779],[-1.757395,43.376785,58.396],[-1.757334,43.376777,58.331],[-1.757271,43.376757,59.124],[-1.757232,43.376716,60.408],[-1.757196,43.376676,60.833],[-1.757139,43.376642,60.613],[-1.757061,43.376629,59.756],[-1.757,43.376608,59.229],[-1.756929,43.376598,59.387],[-1.756852,43.376593,57.712],[-1.75678,43.376578,54.87],[-1.756724,43.376544,54.263],[-1.756666,43.376513,53.912],[-1.75661,43.376487,54.932],[-1.756546,43.376498,55.905],[-1.756512,43.376546,57.308],[-1.756446,43.376564,59.725],[-1.756378,43.3766,59.635],[-1.756317,43.376631,60.398],[-1.756255,43.376653,60.781],[-1.756179,43.376662,60.649],[-1.756115,43.376661,60.584],[-1.756059,43.376637,59.622],[-1.755989,43.376637,58.765],[-1.75592,43.376639,58.679],[-1.755858,43.376675,57.705],[-1.75581,43.376715,57.625],[-1.755755,43.376745,56.708],[-1.755706,43.376778,57.061],[-1.755639,43.376775,58.061],[-1.755565,43.376788,58.664],[-1.755503,43.376806,58.917],[-1.755445,43.376827,59.935],[-1.75537,43.376848,60.58],[-1.755309,43.376876,61.318],[-1.755253,43.376909,62.271],[-1.7552,43.376941,62.766],[-1.755151,43.376981,62.229],[-1.755111,43.377025,62.321],[-1.755061,43.377065,63.208],[-1.755005,43.377096,64.17],[-1.754939,43.377125,65.16],[-1.75489,43.377165,65.763],[-1.754831,43.377183,65.656],[-1.754766,43.377193,65.284],[-1.754692,43.377189,66.149],[-1.754619,43.377194,67.947],[-1.754544,43.377211,69.08],[-1.754468,43.377214,69.613],[-1.7544,43.377208,68.843],[-1.754331,43.377211,68.707],[-1.75427,43.377222,69.808],[-1.754208,43.377214,69.725],[-1.754143,43.377207,70.035],[-1.754075,43.377197,71.438],[-1.754001,43.377206,73.051],[-1.753921,43.377222,74.069],[-1.753859,43.377243,74.274],[-1.753798,43.377271,75.142],[-1.753741,43.377291,76.495],[-1.75368,43.377299,76.488],[-1.753618,43.377295,77.624],[-1.753549,43.377297,78.726],[-1.753465,43.377298,79.008],[-1.753403,43.377318,80.472],[-1.753343,43.377342,78.462],[-1.75329,43.377374,78.895],[-1.75329,43.377374,78.898],[-1.753206,43.377394,78.646],[-1.753139,43.377429,78.181],[-1.753087,43.377455,77.049],[-1.753024,43.377478,76.382],[-1.75295,43.37749,76.757],[-1.752873,43.377491,78.9],[-1.752806,43.3775,76.62],[-1.752742,43.377494,77.608],[-1.752669,43.377497,79.819],[-1.752615,43.377526,80.379],[-1.75255,43.37753,79.412],[-1.75248,43.377534,79.315],[-1.752401,43.377536,80.073],[-1.752311,43.377536,81.688],[-1.75224,43.37757,82.676],[-1.752209,43.377614,83.669],[-1.752172,43.377655,83.441],[-1.752161,43.377709,82.981],[-1.752158,43.377759,82.209],[-1.752125,43.377808,82.208],[-1.75209,43.377854,82.238],[-1.752075,43.377902,82.678],[-1.752045,43.377944,82.891],[-1.75201,43.37799,84.934],[-1.75198,43.378046,87.052],[-1.751947,43.378086,88.797],[-1.751933,43.378133,88.995],[-1.751914,43.378176,89.418],[-1.751895,43.378225,90.172],[-1.751866,43.378272,91.313],[-1.751845,43.37832,92.414],[-1.751802,43.378365,92.708],[-1.751764,43.378402,92.531],[-1.751733,43.378447,92.051],[-1.751726,43.378492,91.774],[-1.7517,43.378544,89.987],[-1.751758,43.378574,89.675],[-1.751795,43.378611,89.01],[-1.751856,43.378627,88.768],[-1.751881,43.378672,87.731],[-1.751951,43.378681,86.758],[-1.752024,43.378679,86.952],[-1.752088,43.378676,88.217],[-1.752161,43.378673,89.808],[-1.752231,43.378682,89.679],[-1.752291,43.378697,88.789],[-1.752359,43.378702,88.192],[-1.752424,43.378714,87.855],[-1.752497,43.378712,88.063],[-1.752554,43.378734,89.338],[-1.752614,43.378756,89.786],[-1.752677,43.378758,90.319],[-1.752748,43.378761,89.137],[-1.75282,43.378767,88.849],[-1.752885,43.37877,88.613],[-1.752945,43.378792,87.708],[-1.753023,43.378797,87.167],[-1.753094,43.378799,86.067],[-1.753149,43.378837,84.94],[-1.753217,43.378849,82.783],[-1.753304,43.378856,81.071],[-1.753385,43.378847,80.416],[-1.753448,43.378847,78.464],[-1.753514,43.378847,77.247],[-1.753567,43.37889,76.118],[-1.753614,43.378921,77.898],[-1.753678,43.378934,79.617],[-1.753754,43.378948,80.708],[-1.753839,43.378957,81.035],[-1.753889,43.378988,80.815],[-1.753965,43.379005,79.598],[-1.754033,43.379002,77.511],[-1.754066,43.379043,77.139],[-1.754136,43.37903,77.344],[-1.754199,43.379025,77.882],[-1.754277,43.379028,78.555],[-1.754341,43.379021,78.937],[-1.754407,43.37902,79.249],[-1.754459,43.379048,79.813],[-1.754524,43.37905,80.108],[-1.754583,43.379071,79.117],[-1.754645,43.379083,78.577],[-1.754729,43.379071,78.97],[-1.754811,43.379049,78.853],[-1.754872,43.379038,79.571],[-1.754874,43.379088,79.566],[-1.754907,43.37913,78.714],[-1.754948,43.379164,78.247],[-1.754966,43.379209,77.537],[-1.754945,43.379255,75.549],[-1.754919,43.379304,73.913],[-1.754892,43.379354,72.908],[-1.754886,43.379409,71.577],[-1.754893,43.379456,70.797],[-1.754865,43.379512,71.44],[-1.754854,43.379567,71.843],[-1.754861,43.379618,72.551],[-1.754864,43.379666,72.516],[-1.754871,43.379714,70.964],[-1.754871,43.379767,68.777],[-1.75483,43.379814,69.089],[-1.754796,43.379859,69.206],[-1.754761,43.379901,69.726],[-1.75472,43.379941,69.608],[-1.754681,43.379987,69.592],[-1.754633,43.38002,68.332],[-1.754583,43.380054,67.235],[-1.754528,43.380082,66.138],[-1.754478,43.380114,65.856],[-1.75442,43.380147,66.421],[-1.754353,43.380162,67.279],[-1.754298,43.380187,67.722],[-1.754251,43.380218,67.256],[-1.754209,43.380258,67.359],[-1.754146,43.380273,69.814],[-1.754094,43.380317,71.308],[-1.754025,43.380324,71.819],[-1.753966,43.380346,70.919],[-1.753904,43.380367,70.032],[-1.753837,43.380379,69.445],[-1.753781,43.380403,69.983],[-1.753718,43.380416,68.278],[-1.753649,43.380422,68.036],[-1.753607,43.380456,68.389],[-1.753555,43.380511,69.319],[-1.753492,43.380555,69.509],[-1.753443,43.380586,69.219],[-1.753389,43.38061,69.808],[-1.753326,43.380638,69.445],[-1.753295,43.380678,69.165],[-1.75324,43.380711,69.728],[-1.753179,43.380732,70.551],[-1.753138,43.380766,71.069],[-1.753126,43.380815,70.974],[-1.753123,43.380868,71.292],[-1.753137,43.380916,71.465],[-1.753141,43.380966,71.561],[-1.753142,43.38102,71.221],[-1.753147,43.381066,71.413],[-1.753137,43.381113,72.308],[-1.753128,43.381165,73.37],[-1.753179,43.381191,75.12],[-1.753241,43.381188,76.263],[-1.753302,43.381204,76.836],[-1.753359,43.381222,77.684],[-1.753414,43.381256,78.569],[-1.753429,43.381301,79.027],[-1.75346,43.381346,79.39],[-1.753484,43.381398,79.136],[-1.753495,43.381452,78.617],[-1.753497,43.381498,78.318],[-1.753496,43.381551,78.908],[-1.753512,43.381608,79.357],[-1.753543,43.381659,79.597],[-1.753598,43.381698,80.02],[-1.753634,43.381744,80.363],[-1.753649,43.381789,79.711],[-1.753696,43.381829,78.986],[-1.753746,43.381858,78.434],[-1.75382,43.381875,78.567],[-1.753877,43.381907,78.241],[-1.753948,43.38193,77.681],[-1.754002,43.381965,76.809],[-1.754002,43.382018,77.108],[-1.754042,43.382059,76.938],[-1.75406,43.382105,75.618],[-1.754088,43.382148,74.891],[-1.75409,43.382199,74.384],[-1.754078,43.382245,74.892],[-1.754106,43.382295,74.727],[-1.754145,43.382341,74.645],[-1.754196,43.382369,75.058],[-1.754259,43.382377,76.041],[-1.754335,43.382385,79.481],[-1.754397,43.382367,83.009],[-1.754443,43.382398,85.908],[-1.754443,43.382398,85.978],[-1.754443,43.382398,85.988],[-1.75438,43.382393,86.191],[-1.754323,43.382413,86.224],[-1.754287,43.382459,86.392],[-1.7543,43.38251,86.417],[-1.754288,43.382562,86.455],[-1.754271,43.382608,87.218],[-1.754216,43.382634,87.386],[-1.75417,43.382678,87.46],[-1.75419,43.382729,86.226],[-1.754184,43.38278,86.308],[-1.754147,43.38283,86.842],[-1.754081,43.382812,86.342],[-1.754081,43.382812,86.395],[-1.754038,43.382853,85.238],[-1.753988,43.382885,84.916],[-1.753905,43.382908,84.351],[-1.753832,43.382914,83.659],[-1.753779,43.382882,83.222],[-1.753727,43.382856,82.599],[-1.753674,43.382832,82.507],[-1.753617,43.382812,82.927],[-1.753565,43.382842,83.508],[-1.7535,43.382868,83.933],[-1.753425,43.382888,84.193],[-1.75337,43.382918,83.816],[-1.753297,43.382915,83.289],[-1.753232,43.382895,82.967],[-1.753156,43.382876,82.772],[-1.753093,43.382866,82.22],[-1.753055,43.382828,82.323],[-1.752987,43.382803,82.074],[-1.752942,43.382768,81.456],[-1.752926,43.382717,79.821],[-1.752887,43.382672,79.708],[-1.752862,43.38263,80.091],[-1.752834,43.382588,80.651],[-1.75278,43.382565,81.034],[-1.75274,43.382608,79.657],[-1.752707,43.382656,79.245],[-1.752705,43.382708,78.18],[-1.752673,43.382748,78.788],[-1.752639,43.382796,79.031],[-1.752637,43.382857,79.253],[-1.752638,43.382905,79.304],[-1.752641,43.382961,79.014],[-1.752627,43.383011,78.808],[-1.752622,43.383075,77.179],[-1.752578,43.383115,76.919],[-1.752544,43.383165,76.822],[-1.752494,43.383205,77.115],[-1.752425,43.383228,77.743],[-1.752379,43.383265,77.318],[-1.752308,43.383291,77.446],[-1.752235,43.383333,77.549],[-1.752216,43.383377,77.932],[-1.752234,43.383422,78.692],[-1.752259,43.383467,78.611],[-1.752231,43.383416,79.808],[-1.752202,43.383376,80.597],[-1.752153,43.383428,80.587],[-1.752118,43.383485,80.15],[-1.752102,43.383545,80.313],[-1.752024,43.383552,80.081],[-1.751972,43.383585,79.456],[-1.7519,43.383617,79.174],[-1.751837,43.383613,78.577],[-1.751768,43.383628,77.719],[-1.751703,43.383651,76.409],[-1.751641,43.383684,75.619],[-1.751594,43.383716,73.908],[-1.751525,43.383709,72.585],[-1.751533,43.383663,71.765],[-1.751558,43.38362,71.258],[-1.751527,43.38357,70.511],[-1.751513,43.383514,68.529],[-1.751491,43.383452,66.994],[-1.751472,43.3834,66.722],[-1.751478,43.383346,66.615],[-1.751515,43.383301,67.314],[-1.751535,43.383255,67.754],[-1.751561,43.383213,68.009],[-1.751608,43.383178,69.008],[-1.751635,43.383137,70.065],[-1.751659,43.383093,70.645],[-1.751722,43.383078,68.238],[-1.751788,43.383067,67.151],[-1.751848,43.38305,67.759],[-1.751863,43.382996,68.884],[-1.751875,43.382941,69.912],[-1.751877,43.382888,70.935],[-1.751854,43.382845,71.552],[-1.751839,43.38279,72.353],[-1.751824,43.382733,70.008],[-1.751763,43.3827,70.208],[-1.751698,43.382679,70.789],[-1.751632,43.382671,70.699],[-1.751564,43.38268,70.952],[-1.751498,43.382654,71.975],[-1.75144,43.382637,72.913],[-1.751366,43.382622,74.318],[-1.751302,43.38259,75.956],[-1.751258,43.382557,77.359],[-1.7512,43.382527,77.355],[-1.751142,43.382505,77.307],[-1.751084,43.382488,77.317],[-1.751041,43.382455,77.308],[-1.751017,43.382413,77.319],[-1.751005,43.382364,76.929],[-1.750952,43.382332,77.162],[-1.750935,43.382287,77.255],[-1.750906,43.382235,77.753],[-1.750881,43.382192,78.878],[-1.750867,43.382141,79.886],[-1.750832,43.382097,80.069],[-1.750779,43.38206,80.955],[-1.750743,43.382015,81.907],[-1.750731,43.381969,81.717],[-1.75072,43.381924,82.008],[-1.750682,43.381884,81.869],[-1.750635,43.381849,82.139],[-1.750579,43.381818,82.392],[-1.75052,43.381788,82.815],[-1.750464,43.381766,83.133],[-1.75041,43.381731,83.368],[-1.750369,43.381686,83.866],[-1.750312,43.38164,84.569],[-1.750276,43.3816,84.997],[-1.75031,43.381548,84.823],[-1.750338,43.3815,84.325],[-1.750342,43.381447,84.408],[-1.750341,43.381393,84.913],[-1.750353,43.381348,84.073],[-1.750365,43.381301,84.646],[-1.750388,43.381258,85.489],[-1.750405,43.381207,85.597],[-1.750397,43.38115,86.782],[-1.750375,43.38109,87.06],[-1.750342,43.381042,87.663],[-1.750341,43.380992,88.826],[-1.750319,43.380948,89.147],[-1.750281,43.380905,88.911],[-1.750297,43.380854,89.208],[-1.750289,43.380808,89.816],[-1.75028,43.380755,91.356],[-1.750245,43.38069,92.639],[-1.750218,43.380645,93.822],[-1.750192,43.380586,94.17],[-1.75015,43.380542,95.145],[-1.750149,43.380486,96.953],[-1.750147,43.380433,96.846],[-1.750126,43.380382,96.762],[-1.750102,43.380327,97.583],[-1.750093,43.380279,98.011],[-1.750097,43.38023,97.508],[-1.750039,43.380198,96.48],[-1.749993,43.380149,95.72],[-1.74995,43.380115,95.713],[-1.749916,43.380068,95.786],[-1.749891,43.380024,96.124],[-1.749841,43.379993,95.929],[-1.749789,43.379966,95.857],[-1.749818,43.379925,95.75],[-1.74984,43.379872,96.118],[-1.749858,43.379823,97.198],[-1.749886,43.379777,97.717],[-1.749909,43.379734,98.108],[-1.749946,43.379697,97.965],[-1.749986,43.379659,97.865],[-1.750029,43.379623,97.728],[-1.75005,43.379574,97.751],[-1.750087,43.379535,97.729],[-1.750143,43.379505,97.344],[-1.750175,43.379461,95.572],[-1.750209,43.379421,94.465],[-1.750248,43.379383,93.772],[-1.750283,43.379341,93.313],[-1.750318,43.379297,92.714],[-1.750355,43.37925,92.708],[-1.750393,43.379205,92.371],[-1.750443,43.379173,91.741],[-1.750502,43.379149,90.534],[-1.750547,43.379107,89.497],[-1.750599,43.379071,89.515],[-1.750648,43.379028,88.41],[-1.750708,43.379003,87.318],[-1.750765,43.378975,85.911],[-1.750829,43.378957,85.042],[-1.750885,43.378921,86.522],[-1.750944,43.378898,87.014],[-1.751009,43.378881,88.108],[-1.751076,43.378853,88.848],[-1.751131,43.378814,90.058],[-1.751187,43.378769,91.171],[-1.751227,43.378733,92.284],[-1.751271,43.378694,93.672],[-1.751341,43.378662,94.597],[-1.751395,43.378631,95.425],[-1.751422,43.378583,96.028],[-1.751473,43.378545,95.575],[-1.75152,43.378506,94.428],[-1.751557,43.378468,93.82],[-1.751619,43.378428,93.808],[-1.751718,43.378402,94.241],[-1.751744,43.378355,95.631],[-1.751762,43.378311,96.974],[-1.751795,43.378266,96.587],[-1.751834,43.378229,96.615],[-1.751851,43.37818,97.18],[-1.751909,43.378156,96.638],[-1.751978,43.378152,94.361],[-1.752038,43.378114,92.142],[-1.752037,43.378054,91.222],[-1.75206,43.377999,90.714],[-1.752054,43.377954,90.008],[-1.752049,43.377907,88.838],[-1.752082,43.377863,88.518],[-1.75212,43.377813,87.551],[-1.752155,43.377767,86.544],[-1.752188,43.377726,85.932],[-1.752231,43.377688,85.997],[-1.752268,43.377647,85.165],[-1.752308,43.37761,84.228],[-1.752374,43.377587,83.775],[-1.752451,43.377575,83.028],[-1.752514,43.377566,83.02],[-1.752587,43.377553,83.008],[-1.752662,43.37754,82.211],[-1.752735,43.377558,80.911],[-1.752819,43.377568,80.584],[-1.752902,43.377572,79.587],[-1.752978,43.37756,79.315],[-1.753034,43.377528,79.68],[-1.753106,43.377502,80.638],[-1.753159,43.377469,80.811],[-1.7532,43.37742,79.794],[-1.753238,43.377373,79.057],[-1.753305,43.377338,79.822],[-1.753368,43.37732,79.508],[-1.753434,43.377318,79.343],[-1.753497,43.377313,78.813],[-1.753567,43.377313,79.376],[-1.753638,43.377329,79.669],[-1.753716,43.37732,79.827],[-1.753784,43.377303,79.522],[-1.753844,43.377278,79.78],[-1.753897,43.377247,80.213],[-1.753963,43.377231,82.145],[-1.754021,43.377207,83.747],[-1.754091,43.377194,84.211],[-1.754161,43.377196,85.308],[-1.754244,43.377198,85.648],[-1.754314,43.377194,85.458],[-1.754383,43.377202,84.151],[-1.754415,43.377154,83.364],[-1.754478,43.37716,81.662],[-1.754541,43.377169,81.447],[-1.754609,43.377161,80.965],[-1.754679,43.377147,81.028],[-1.754746,43.377144,81.118],[-1.754813,43.377134,80.398],[-1.754878,43.377109,79.417],[-1.754945,43.377091,78.908],[-1.755012,43.377079,77.825],[-1.755073,43.377042,77.555],[-1.755133,43.377004,76.938],[-1.755187,43.376958,77.021],[-1.755239,43.376912,76.629],[-1.755292,43.376882,76.084],[-1.755344,43.376853,74.872],[-1.755402,43.376817,73.745],[-1.755456,43.376782,73.414],[-1.75552,43.376753,73.254],[-1.755569,43.376714,73.109],[-1.755619,43.376684,73.008],[-1.755672,43.376652,73.025],[-1.755738,43.376626,73.055],[-1.755799,43.376595,74.238],[-1.755865,43.37658,74.151],[-1.755932,43.376583,72.449],[-1.755994,43.376597,71.474],[-1.756048,43.376637,68.062],[-1.756107,43.376651,66.015],[-1.75619,43.37663,65.631],[-1.756259,43.376606,66.161],[-1.756316,43.376575,66.007],[-1.756371,43.376552,65.608],[-1.756435,43.376525,66.547],[-1.756498,43.376508,65.587],[-1.756569,43.376515,66.16],[-1.75663,43.376526,66.023],[-1.756674,43.37656,65.241],[-1.756739,43.376588,67.526],[-1.756812,43.376605,66.544],[-1.756889,43.376618,64.377],[-1.756953,43.376618,63.073],[-1.757025,43.376631,61.885],[-1.757099,43.376638,61.513],[-1.75716,43.376654,61.308],[-1.757216,43.376689,61.241],[-1.75727,43.376723,61.941],[-1.75732,43.376754,61.974],[-1.757379,43.37678,61.557],[-1.757454,43.376788,61.775],[-1.757529,43.376793,62.28],[-1.757594,43.376784,61.798],[-1.757673,43.376775,61.431],[-1.757752,43.376765,60.847],[-1.757821,43.376764,60.129],[-1.757881,43.376784,58.921],[-1.757962,43.376785,58.608],[-1.75804,43.37679,58.888],[-1.758103,43.376794,58.178],[-1.75818,43.376787,56.991],[-1.758247,43.37677,57.064],[-1.75832,43.376747,56.282],[-1.758385,43.376726,56.947],[-1.758439,43.376694,57.715],[-1.758485,43.376663,58.278],[-1.758543,43.376634,58.957],[-1.758618,43.376617,59.7],[-1.758688,43.376619,60.22],[-1.758755,43.376639,61.308],[-1.758812,43.376663,62.019],[-1.758865,43.376689,61.629],[-1.758907,43.376728,61.452],[-1.75894,43.376771,60.945],[-1.758965,43.376819,60.613],[-1.75896,43.376873,60.068],[-1.758966,43.376918,59.666],[-1.758976,43.376984,58.689],[-1.759012,43.377027,58.042],[-1.759076,43.377015,56.422],[-1.759164,43.377028,55.914],[-1.759216,43.377057,54.408],[-1.759243,43.377108,52.348],[-1.759303,43.377136,50.218],[-1.75936,43.377159,49.421],[-1.759433,43.377181,47.734],[-1.759495,43.377186,46.752],[-1.759562,43.377175,46.147],[-1.759632,43.377169,46.525],[-1.759704,43.377164,47.668],[-1.75978,43.377166,49.417],[-1.759864,43.377172,50.987],[-1.759928,43.377166,51.415],[-1.759993,43.377167,52.908],[-1.760052,43.377143,54.295],[-1.760115,43.377117,55.475],[-1.760187,43.377116,56.118],[-1.760241,43.37709,56.581],[-1.760315,43.377058,57.249],[-1.760383,43.377047,58.414],[-1.76045,43.377034,58.372],[-1.760513,43.377004,58.695],[-1.760601,43.376958,58.816],[-1.760664,43.376923,58.976],[-1.760725,43.376898,58.613],[-1.760789,43.376871,58.408],[-1.760857,43.376855,57.925],[-1.760909,43.376828,57.245],[-1.760964,43.376793,56.458],[-1.761013,43.376761,55.961],[-1.761072,43.376735,55.259],[-1.761118,43.376698,55.284],[-1.76117,43.376665,55.232],[-1.761244,43.376639,54.855],[-1.76129,43.376607,54.214],[-1.761353,43.376585,53.854],[-1.761406,43.37656,53.609],[-1.761447,43.376522,52.708],[-1.76151,43.376506,52.185],[-1.761566,43.376482,51.835],[-1.761614,43.376453,52.038],[-1.761681,43.376411,51.781],[-1.761742,43.376383,52.329],[-1.761811,43.376359,52.374],[-1.761862,43.376325,52.772],[-1.761926,43.376299,52.945],[-1.761989,43.376271,53.047],[-1.762058,43.376252,53.129],[-1.762115,43.376232,53.221],[-1.762186,43.376226,54.008],[-1.762251,43.376215,54.138],[-1.762323,43.376198,54.628],[-1.762405,43.376215,55.311],[-1.762473,43.376211,54.974],[-1.762486,43.376163,54.332],[-1.762515,43.376114,53.547],[-1.762508,43.376064,53.065],[-1.7625,43.376014,52.728],[-1.762496,43.375969,52.542],[-1.762497,43.37591,52.422],[-1.762488,43.375856,51.914],[-1.762503,43.37581,52.408],[-1.762572,43.375792,53.558],[-1.762632,43.37577,54.628],[-1.762691,43.375748,55.291],[-1.762746,43.375728,55.644],[-1.762829,43.37572,56.252],[-1.762909,43.375705,57.057],[-1.762976,43.375706,57.175],[-1.763048,43.37569,57.178],[-1.763109,43.375674,57.595],[-1.763192,43.375654,58.249],[-1.763267,43.375649,59.023],[-1.763332,43.375633,58.708],[-1.763394,43.375631,58.123],[-1.763448,43.375608,57.323],[-1.763511,43.375594,56.496],[-1.763572,43.375579,55.529],[-1.763647,43.375558,54.647],[-1.763706,43.37554,54.012],[-1.763777,43.375524,53.79],[-1.763846,43.375499,53.183],[-1.763907,43.37549,53.961],[-1.763975,43.375472,54.021],[-1.764041,43.375447,54.513],[-1.764109,43.375436,56.008],[-1.764178,43.375422,56.57],[-1.764248,43.375401,56.83],[-1.764311,43.375382,57.843],[-1.764374,43.37536,57.686],[-1.764443,43.375343,57.524],[-1.764509,43.375332,57.479],[-1.764577,43.375323,57.437],[-1.764644,43.375311,57.01],[-1.764723,43.375298,57.178],[-1.764783,43.375286,57.633],[-1.764847,43.375271,58.326],[-1.764914,43.375252,59.908],[-1.764996,43.375235,61.321],[-1.765066,43.375214,62.161],[-1.765132,43.375197,63.074],[-1.765197,43.375184,63.577],[-1.765264,43.375167,63.465],[-1.765338,43.375152,63.07],[-1.765399,43.375133,63.198],[-1.765477,43.375118,63.261],[-1.765547,43.375107,62.415],[-1.765607,43.375091,61.965],[-1.765674,43.375072,60.811],[-1.765736,43.375061,59.808],[-1.765811,43.375047,59.285],[-1.765873,43.375026,58.455],[-1.765943,43.375003,58.728],[-1.766023,43.374982,58.951],[-1.766093,43.374964,58.689],[-1.76616,43.374962,59.644],[-1.766226,43.374941,59.092],[-1.766285,43.374922,57.925],[-1.766354,43.374904,56.855],[-1.766422,43.374885,56.507],[-1.766491,43.374869,55.917],[-1.766559,43.374851,55.608],[-1.766621,43.374844,55.439],[-1.766683,43.374833,55.339],[-1.766756,43.374806,54.892],[-1.766818,43.374789,54.575],[-1.766887,43.374789,54.743],[-1.76695,43.374773,54.878],[-1.767026,43.374755,54.596],[-1.767091,43.374735,54.389],[-1.767164,43.37472,54.683],[-1.767229,43.374701,54.025],[-1.76729,43.374686,54.417],[-1.767355,43.374678,56.308],[-1.767425,43.374662,57.082],[-1.767492,43.374656,57.052],[-1.767559,43.374638,56.635],[-1.767621,43.374611,56.078],[-1.767701,43.374605,55.686],[-1.767771,43.374589,56.261],[-1.767849,43.374572,56.939],[-1.767911,43.374564,57.352],[-1.767973,43.374548,58.416],[-1.768036,43.374529,59.076],[-1.768096,43.374519,59.813],[-1.768169,43.374507,60.308],[-1.768226,43.374485,59.815],[-1.768286,43.374461,60.365],[-1.768343,43.374442,61.078],[-1.768417,43.374428,61.411],[-1.768499,43.374413,61.249],[-1.768561,43.374403,61.954],[-1.768622,43.374383,62.382],[-1.768681,43.374365,61.025],[-1.768745,43.374356,61.428],[-1.768814,43.374357,62.489],[-1.768878,43.374344,63.817],[-1.768941,43.374337,64.708],[-1.769008,43.374332,65.286],[-1.769079,43.374321,65.586],[-1.769149,43.374317,64.969],[-1.769224,43.3743,64.142],[-1.769285,43.374281,63.23],[-1.769355,43.374261,63.195],[-1.769416,43.374246,62.693],[-1.769482,43.374229,62.316],[-1.769547,43.374214,61.713],[-1.769622,43.374202,61.443],[-1.769686,43.374197,60.807],[-1.769753,43.374186,60.008],[-1.769813,43.374163,59.955],[-1.769875,43.37415,60.775],[-1.769943,43.374129,60.028],[-1.77002,43.374114,59.231],[-1.770086,43.374099,58.379],[-1.770159,43.374092,57.824],[-1.77023,43.374101,57.952],[-1.770299,43.374084,57.565],[-1.770365,43.374061,57.334],[-1.770428,43.374039,56.855],[-1.770493,43.374024,56.11],[-1.770559,43.374011,55.708],[-1.77062,43.374002,56.227],[-1.770686,43.373987,55.777],[-1.770753,43.373966,55.81],[-1.770821,43.373953,55.993],[-1.770891,43.373943,57.171],[-1.770959,43.373932,58.246],[-1.771027,43.373912,58.564],[-1.771086,43.37388,58.357],[-1.771156,43.373864,57.896],[-1.771216,43.373852,57.931],[-1.771284,43.373835,58.324],[-1.771351,43.373815,57.808],[-1.771413,43.373792,57.133],[-1.771485,43.373772,56.733],[-1.771553,43.373764,56.816],[-1.771622,43.37375,56.949],[-1.771697,43.373748,57.067],[-1.771752,43.373726,56.612],[-1.771817,43.373705,56.46],[-1.771887,43.373694,55.993],[-1.771948,43.373684,56.896],[-1.772014,43.373666,56.931],[-1.772081,43.373657,57.824],[-1.77215,43.373649,58.308],[-1.772218,43.373633,58.663],[-1.772289,43.373617,57.663],[-1.772354,43.373595,56.656],[-1.772425,43.373585,56.019],[-1.772501,43.373577,56.827],[-1.772573,43.373562,57.382],[-1.772637,43.373556,58.09],[-1.772707,43.373546,58.473],[-1.772772,43.373529,59.965],[-1.772837,43.373508,61.268],[-1.772898,43.373497,61.614],[-1.772965,43.373487,61.408],[-1.773029,43.373471,60.54],[-1.773093,43.373467,58.09],[-1.773164,43.373449,56.953],[-1.773232,43.37344,56.686],[-1.773298,43.373431,56.414],[-1.773372,43.373434,57.189],[-1.773441,43.373413,56.787],[-1.773516,43.373399,56.54],[-1.773596,43.373389,55.695],[-1.773669,43.373385,55.449],[-1.773748,43.37338,55.723],[-1.773813,43.373381,55.508],[-1.773884,43.373362,55.823],[-1.773953,43.373349,55.683],[-1.774016,43.373327,55.986],[-1.774082,43.37331,56.199],[-1.77415,43.373306,55.887],[-1.774224,43.37329,55.682],[-1.774286,43.373272,56.77],[-1.774348,43.373259,56.673],[-1.774396,43.373226,56.166],[-1.774456,43.3732,55.829],[-1.774528,43.373189,56.421],[-1.774598,43.37319,54.808],[-1.774678,43.373191,55.07],[-1.774741,43.37318,56.32],[-1.774809,43.373164,57.913],[-1.774877,43.373148,59.326],[-1.77495,43.373143,60.564],[-1.775018,43.373145,61.629],[-1.775088,43.373137,61.597],[-1.77516,43.373135,62.21],[-1.775241,43.373126,62.239],[-1.775301,43.373115,63.001],[-1.775363,43.373104,62.721],[-1.775434,43.373097,61.708],[-1.775506,43.373096,60.787],[-1.775586,43.373091,59.787],[-1.775647,43.37308,58.78],[-1.775726,43.373062,58.933],[-1.775787,43.373051,59.831],[-1.775857,43.373045,60.026],[-1.775926,43.373033,59.744],[-1.775993,43.373029,58.767],[-1.776056,43.373016,58.548],[-1.776128,43.373002,58.861],[-1.776202,43.372993,58.217],[-1.776269,43.372988,57.408],[-1.776333,43.372976,56.928],[-1.776409,43.372968,57.098],[-1.776472,43.372957,57.161],[-1.776537,43.372953,56.764],[-1.776609,43.372952,56.922],[-1.776669,43.372932,55.467],[-1.776688,43.372885,54.145],[-1.776656,43.372844,53.748],[-1.77666,43.372799,54.757],[-1.776727,43.372777,53.7],[-1.776785,43.372756,53.12],[-1.776754,43.372716,52.708],[-1.77681,43.372741,52.129],[-1.776823,43.372801,50.939],[-1.776802,43.372755,51.412],[-1.77674,43.372755,52.565],[-1.776698,43.372707,52.463],[-1.776771,43.372707,51.598],[-1.776849,43.372683,49.896],[-1.776927,43.372669,49.649],[-1.776988,43.372657,50.353],[-1.77706,43.372657,50.704],[-1.77714,43.37266,51.314],[-1.777207,43.372657,52.108],[-1.777279,43.372661,52.639],[-1.777339,43.372677,52.919],[-1.777403,43.37268,54.372],[-1.777475,43.372677,56.375],[-1.777543,43.372664,57.193],[-1.777622,43.372642,56.858],[-1.777669,43.372611,56.216],[-1.777706,43.372562,55.499],[-1.777701,43.372509,56.994],[-1.777699,43.372461,55.057],[-1.777668,43.372415,52.722],[-1.777623,43.372382,50.108],[-1.777582,43.37233,47.723],[-1.777579,43.372281,46.373],[-1.777574,43.372223,46.376],[-1.777568,43.372176,46.759],[-1.777583,43.372119,47.727],[-1.777568,43.372072,49.122],[-1.777566,43.372017,49.11],[-1.777546,43.371971,48.783],[-1.777499,43.371932,49.341],[-1.7775,43.371887,50.881],[-1.777497,43.371841,52.109],[-1.777489,43.371793,51.708],[-1.777477,43.371744,51.928],[-1.777472,43.371692,50.818],[-1.777461,43.371647,50.151],[-1.777459,43.371598,50.174],[-1.777464,43.371545,50.592],[-1.777459,43.371481,51.157],[-1.77745,43.371435,50.355],[-1.777437,43.371385,48.658],[-1.777429,43.371339,48.885],[-1.77743,43.371289,47.789],[-1.777417,43.371233,47.817],[-1.777404,43.371187,47.908],[-1.777402,43.37113,47.632],[-1.777395,43.371082,46.692],[-1.777396,43.371035,46.845],[-1.777398,43.370987,46.518],[-1.77739,43.370939,46.766],[-1.777385,43.370886,46.881],[-1.777387,43.370835,46.149],[-1.777379,43.370789,46.192],[-1.777401,43.370741,47.315],[-1.777416,43.370697,48.465],[-1.777418,43.370641,48.711],[-1.777408,43.370589,49.308],[-1.777392,43.370542,47.615],[-1.777345,43.37051,45.865],[-1.777262,43.370508,45.938],[-1.777186,43.370511,47.211],[-1.777124,43.370533,47.289],[-1.777059,43.370539,47.244],[-1.776982,43.370546,48.012],[-1.776907,43.370556,48.545],[-1.776845,43.370561,47.631],[-1.776771,43.370564,47.461],[-1.776708,43.370577,47.307],[-1.776647,43.370601,47.608],[-1.776578,43.370606,47.087],[-1.776546,43.370615,47.137]]}}]}