{"type":"FeatureCollection","features":[{"type":"Feature","properties":{"ruta_id":"46447614","nombre":"🌊 CASCADA de AITZONDO y HORNOS de IRUGURUTZETA ruta circular","blog_url":"https://www.rutasporelmonte.com/cascada-de-aitzondo-y-hornos-de-irugurutzeta/"},"geometry":{"type":"LineString","coordinates":[[-1.775771,43.322784,86.839],[-1.775711,43.322768,86.801],[-1.775708,43.322722,86.821],[-1.775667,43.322684,86.808],[-1.77564,43.322639,86.887],[-1.775639,43.322594,86.839],[-1.775623,43.322546,86.837],[-1.775621,43.322481,86.857],[-1.775642,43.322427,86.88],[-1.775614,43.322384,86.869],[-1.77561,43.322336,86.834],[-1.775598,43.322288,86.887],[-1.77558,43.322219,86.851],[-1.775566,43.322175,86.801],[-1.775544,43.322131,86.811],[-1.775526,43.322081,85.708],[-1.775527,43.322033,85.079],[-1.775531,43.321974,83.871],[-1.775522,43.321924,82.399],[-1.775474,43.321877,81.099],[-1.775445,43.321832,80.642],[-1.77544,43.321779,80.491],[-1.775402,43.321734,80.326],[-1.775399,43.321689,80.619],[-1.775397,43.321644,79.684],[-1.775384,43.321599,79.407],[-1.775373,43.321552,79.717],[-1.775361,43.32149,80.708],[-1.775341,43.321438,82.562],[-1.775339,43.321392,84.864],[-1.77532,43.321346,87.432],[-1.775295,43.321304,88.952],[-1.775268,43.321255,89.855],[-1.775232,43.321209,92.084],[-1.775208,43.321165,93.359],[-1.77519,43.321121,94.162],[-1.775167,43.321062,93.478],[-1.775146,43.321015,93.033],[-1.775117,43.320975,93.526],[-1.775097,43.320924,94.608],[-1.77508,43.320872,95.721],[-1.775078,43.320819,94.333],[-1.775066,43.320774,94.741],[-1.775039,43.320726,95.351],[-1.775009,43.320676,94.944],[-1.774975,43.320623,94.263],[-1.77494,43.320572,96.258],[-1.774908,43.320532,97.481],[-1.774897,43.320483,97.363],[-1.774891,43.320436,96.544],[-1.774877,43.320391,96.018],[-1.774849,43.320343,96.508],[-1.774839,43.320295,96.47],[-1.7748,43.320256,97.112],[-1.774756,43.320217,98.74],[-1.774718,43.320169,100.19],[-1.77468,43.320111,100.983],[-1.774642,43.320074,100.672],[-1.774618,43.320028,101.277],[-1.774594,43.31998,103.27],[-1.77454,43.319937,104.498],[-1.774492,43.319901,105.515],[-1.774438,43.319862,107.826],[-1.774374,43.319841,109.608],[-1.774315,43.319812,109.923],[-1.774268,43.319778,109.325],[-1.774207,43.319745,109.393],[-1.774143,43.319709,109.753],[-1.774085,43.319676,109.126],[-1.774033,43.31965,108.815],[-1.773973,43.319611,106.23],[-1.773973,43.319611,106.293],[-1.773932,43.319569,105.531],[-1.773884,43.319534,104.761],[-1.773834,43.319495,104.207],[-1.7738,43.319453,104.308],[-1.773745,43.319417,104.057],[-1.7737,43.319381,105.019],[-1.773644,43.319352,105.697],[-1.773611,43.319303,107.277],[-1.773572,43.319256,107.39],[-1.773564,43.319206,108.239],[-1.773527,43.319165,109.184],[-1.773498,43.319118,109.357],[-1.773473,43.31907,107.848],[-1.77343,43.319036,105.761],[-1.77339,43.318997,103.617],[-1.773349,43.318956,103.208],[-1.77331,43.318899,101.748],[-1.773262,43.318859,99.25],[-1.773206,43.318814,97.788],[-1.773183,43.318769,98.418],[-1.773165,43.318713,99.621],[-1.77313,43.318673,100.34],[-1.773094,43.318634,96.335],[-1.773055,43.318588,96.398],[-1.773011,43.318535,96.791],[-1.772981,43.318495,96.681],[-1.772938,43.318457,96.519],[-1.77288,43.31844,96.408],[-1.772827,43.318415,96.843],[-1.772776,43.318385,98.225],[-1.772723,43.318334,99.913],[-1.772665,43.3183,101.333],[-1.772598,43.318274,102.946],[-1.772526,43.318272,104.355],[-1.772481,43.31823,105.11],[-1.772429,43.318201,105.233],[-1.772373,43.318168,105.734],[-1.772326,43.318135,104.455],[-1.772254,43.318144,104.41],[-1.772215,43.318107,104.808],[-1.772165,43.318064,105.017],[-1.772105,43.318049,105.159],[-1.772058,43.318019,105.657],[-1.772035,43.317975,107.197],[-1.772015,43.317932,108.04],[-1.771984,43.317881,107.389],[-1.771927,43.317845,106.994],[-1.771893,43.317804,106.717],[-1.771862,43.317762,106.227],[-1.771851,43.317716,107.168],[-1.77182,43.317675,106.814],[-1.77185,43.317633,106.608],[-1.771904,43.317591,106.916],[-1.77194,43.31755,107.188],[-1.771977,43.317513,107.656],[-1.771993,43.31746,108.316],[-1.771965,43.317412,108.799],[-1.771946,43.317367,109.438],[-1.77194,43.31732,109.463],[-1.771945,43.317269,110.276],[-1.77195,43.317221,110.731],[-1.771941,43.317166,110.661],[-1.771936,43.317118,110.907],[-1.771929,43.317067,110.708],[-1.771931,43.317016,111.027],[-1.771942,43.316958,112.499],[-1.771977,43.316912,113.677],[-1.772038,43.316901,114.727],[-1.772066,43.316858,115.07],[-1.772067,43.316805,116.029],[-1.772068,43.316744,116.264],[-1.772063,43.316693,116.337],[-1.772066,43.316634,116.097],[-1.772015,43.316606,115.023],[-1.771983,43.316562,116.025],[-1.771978,43.316516,117.808],[-1.771972,43.31647,120.963],[-1.771937,43.316431,122.355],[-1.771909,43.316385,123.643],[-1.771945,43.31634,122.443],[-1.771961,43.31629,122.926],[-1.771979,43.316238,123.625],[-1.771947,43.316193,123.28],[-1.771979,43.316147,122.623],[-1.771995,43.316095,122.219],[-1.77202,43.316052,124.009],[-1.772023,43.316004,123.919],[-1.772,43.315955,126.208],[-1.77202,43.315912,130.035],[-1.772017,43.31586,133.177],[-1.771982,43.315817,137.195],[-1.772005,43.315769,140.175],[-1.772063,43.315753,144.158],[-1.7721,43.315712,145.967],[-1.772105,43.315666,147.082],[-1.772042,43.315673,143.065],[-1.772083,43.315707,142.985],[-1.772026,43.315687,143.289],[-1.772064,43.31565,142.217],[-1.772049,43.315605,143.208],[-1.772048,43.315545,140.222],[-1.772056,43.315484,141.274],[-1.772062,43.315434,143.862],[-1.77207,43.31538,147.032],[-1.772081,43.315334,148.975],[-1.772098,43.315289,149.284],[-1.772104,43.315243,149.459],[-1.772113,43.315192,149.562],[-1.772113,43.31514,151.648],[-1.772142,43.315098,154.061],[-1.772119,43.31505,152.717],[-1.772105,43.315005,153.508],[-1.772101,43.314959,155.228],[-1.772089,43.314911,155.47],[-1.772034,43.314877,155.598],[-1.772016,43.314826,156.888],[-1.772002,43.314782,158.871],[-1.771997,43.314728,160.42],[-1.772038,43.314686,161.315],[-1.772006,43.314637,161.968],[-1.771964,43.314602,163.063],[-1.771955,43.314554,164.144],[-1.77192,43.314516,162.818],[-1.771879,43.314464,160.808],[-1.771881,43.314414,158.87],[-1.77193,43.314374,157.232],[-1.771992,43.314351,156.21],[-1.772025,43.314309,155.67],[-1.77207,43.314277,152.933],[-1.772127,43.314255,150.962],[-1.772201,43.314228,150.587],[-1.772232,43.314175,150.27],[-1.772272,43.314128,151.293],[-1.772313,43.31409,151.865],[-1.772363,43.314055,152.621],[-1.772395,43.314014,151.908],[-1.772422,43.31397,151.113],[-1.772457,43.313932,149.865],[-1.772512,43.313897,149.883],[-1.77256,43.313854,152.293],[-1.772596,43.313807,153.226],[-1.772624,43.313764,155.045],[-1.772662,43.313724,156.53],[-1.772696,43.313684,158.633],[-1.772704,43.313636,159.131],[-1.772709,43.313585,155.461],[-1.772736,43.313544,154.407],[-1.772758,43.313501,155.008],[-1.77278,43.313459,156.167],[-1.772799,43.313412,157.699],[-1.772824,43.313358,159.327],[-1.772861,43.313321,161.987],[-1.772926,43.313326,161.96],[-1.77298,43.313303,160.789],[-1.773037,43.313283,158.434],[-1.773084,43.313248,157.437],[-1.773117,43.313196,157.673],[-1.773166,43.31316,157.785],[-1.773239,43.313151,159.813],[-1.773287,43.313122,161.808],[-1.77336,43.313125,163.051],[-1.773415,43.313095,162.543],[-1.77346,43.313057,161.011],[-1.773513,43.313012,160.541],[-1.773563,43.312974,160.234],[-1.773589,43.312926,160.023],[-1.773634,43.312893,159.938],[-1.773592,43.31285,156.241],[-1.77361,43.312805,154.015],[-1.773652,43.312769,152.765],[-1.773673,43.312722,153.911],[-1.773691,43.312667,155.408],[-1.773721,43.312624,157.155],[-1.773724,43.312571,159.777],[-1.773726,43.312523,160.595],[-1.773696,43.312472,160.635],[-1.773657,43.312422,159.858],[-1.77362,43.312386,160.177],[-1.773585,43.312335,160.772],[-1.773541,43.312292,160.365],[-1.773477,43.312272,159.662],[-1.773415,43.31227,157.683],[-1.773377,43.312218,157.211],[-1.773364,43.312173,157.008],[-1.773377,43.31212,157.77],[-1.773343,43.312072,158.152],[-1.773338,43.312018,159.17],[-1.773353,43.311968,159.35],[-1.773374,43.311921,159.063],[-1.773389,43.311871,158.462],[-1.773417,43.311828,157.787],[-1.773432,43.311778,158.58],[-1.773457,43.311729,157.457],[-1.77349,43.311686,155.9],[-1.773531,43.311637,155.82],[-1.773597,43.311626,155.708],[-1.773645,43.311588,155.319],[-1.773674,43.311538,155.871],[-1.773697,43.311489,155.399],[-1.773729,43.311431,154.689],[-1.773745,43.311384,154.662],[-1.773777,43.311345,155.081],[-1.77381,43.311302,155.616],[-1.773815,43.311248,155.289],[-1.773824,43.311195,155.746],[-1.773828,43.31115,156.888],[-1.77381,43.311102,155.916],[-1.77379,43.311058,155.308],[-1.773757,43.311014,155.818],[-1.773758,43.310964,157.36],[-1.773775,43.310911,157.038],[-1.773767,43.310863,155.258],[-1.773771,43.310806,154.911],[-1.773779,43.310755,154.39],[-1.773786,43.310701,154.895],[-1.773787,43.31064,155.198],[-1.773775,43.310592,155.368],[-1.773755,43.310539,154.642],[-1.773724,43.310488,155.026],[-1.773688,43.310451,155.208],[-1.773627,43.310415,155.74],[-1.77359,43.310378,155.262],[-1.773534,43.310343,154.98],[-1.773515,43.3103,155.19],[-1.773483,43.310259,154.453],[-1.773458,43.310214,154.432],[-1.773429,43.310173,155.277],[-1.773395,43.310129,156.13],[-1.773371,43.31008,157.474],[-1.773329,43.310045,158.256],[-1.773276,43.31001,158.721],[-1.773247,43.309962,160.208],[-1.773227,43.309914,160.751],[-1.773211,43.309869,163.473],[-1.773151,43.309857,163.071],[-1.773087,43.309859,162.081],[-1.773017,43.309871,161.074],[-1.773004,43.309821,160.483],[-1.773018,43.309775,159.678],[-1.772968,43.309747,158.741],[-1.77295,43.309702,159.424],[-1.772936,43.309655,161.804],[-1.772945,43.309605,163.614],[-1.772881,43.309599,164.308],[-1.772843,43.309562,166.746],[-1.772804,43.309527,167.878],[-1.772784,43.309477,167.626],[-1.772741,43.309444,167.526],[-1.772707,43.309402,165.859],[-1.772707,43.309356,169.888],[-1.77276,43.309328,173.663],[-1.772786,43.309284,173.176],[-1.772823,43.309321,174.497],[-1.772795,43.309362,170.423],[-1.77274,43.30939,171.625],[-1.772688,43.309353,173.908],[-1.772669,43.30931,174.553],[-1.772634,43.309264,174.895],[-1.772636,43.309215,175.843],[-1.772594,43.309174,175.643],[-1.77258,43.309128,174.316],[-1.772572,43.309082,173.555],[-1.772552,43.309035,173.41],[-1.772522,43.308995,172.633],[-1.772472,43.308958,170.526],[-1.772422,43.308919,169.247],[-1.772384,43.308883,168.411],[-1.772336,43.308845,168.308],[-1.772299,43.308808,168.726],[-1.772282,43.308765,170.158],[-1.772267,43.308714,170.646],[-1.772244,43.30866,170.146],[-1.772218,43.308617,169.439],[-1.772195,43.308568,168.688],[-1.772145,43.308534,168.563],[-1.772123,43.308484,169.296],[-1.772092,43.308443,169.658],[-1.772065,43.308395,170.352],[-1.772048,43.308349,170.717],[-1.772044,43.308301,170.908],[-1.771981,43.308277,172.219],[-1.771945,43.308238,172.651],[-1.771919,43.308195,173.659],[-1.771897,43.308144,173.869],[-1.771865,43.308102,173.112],[-1.771815,43.308066,172.381],[-1.771758,43.308028,171.836],[-1.771713,43.307995,171.159],[-1.771667,43.307962,170.358],[-1.771614,43.307927,169.452],[-1.771588,43.307883,169.717],[-1.771522,43.307886,165.708],[-1.771458,43.30787,161.719],[-1.771495,43.307832,165.711],[-1.771472,43.307785,166.729],[-1.77145,43.307743,166.129],[-1.771386,43.307743,162.142],[-1.771374,43.307692,158.141],[-1.771412,43.307655,150.166],[-1.771412,43.307655,150.189],[-1.771353,43.307627,146.567],[-1.771306,43.30768,143.681],[-1.771278,43.307724,141.819],[-1.771341,43.307725,141.108],[-1.771342,43.307678,141.53],[-1.77134,43.307623,142.532],[-1.771356,43.307577,143.52],[-1.771395,43.307542,139.71],[-1.771362,43.307499,135.743],[-1.77131,43.307472,131.722],[-1.771267,43.30743,127.767],[-1.771267,43.30738,123.89],[-1.771197,43.307369,119.973],[-1.771182,43.307417,119.185],[-1.771223,43.307453,119.813],[-1.771253,43.307412,123.008],[-1.771287,43.307371,124.531],[-1.771344,43.307335,126.213],[-1.771391,43.307299,127.241],[-1.771454,43.307281,127.071],[-1.771497,43.307245,127.714],[-1.771549,43.307218,129.393],[-1.771571,43.307173,125.978],[-1.771622,43.307204,122.211],[-1.771612,43.307155,118.273],[-1.771564,43.307184,117.685],[-1.771623,43.307159,118.013],[-1.771631,43.307111,116.708],[-1.771694,43.3071,115.511],[-1.771665,43.307142,118.883],[-1.771647,43.307186,119.211],[-1.771647,43.307234,121.881],[-1.771614,43.307272,117.814],[-1.77161,43.30722,113.833],[-1.771661,43.30718,116.668],[-1.771613,43.307213,117.971],[-1.771593,43.307259,121.925],[-1.771577,43.307315,125.926],[-1.77156,43.307358,129.908],[-1.771582,43.307314,133.908],[-1.771573,43.307269,137.956],[-1.771599,43.307227,140.718],[-1.771609,43.30718,136.746],[-1.771598,43.30713,132.766],[-1.7716,43.307178,128.799],[-1.771553,43.307217,126.418],[-1.771492,43.307235,125.033],[-1.771428,43.307242,124.216],[-1.771372,43.307269,128.237],[-1.771358,43.307314,132.249],[-1.771359,43.307367,136.213],[-1.771358,43.307418,140.208],[-1.771309,43.307447,144.227],[-1.771272,43.307487,148.299],[-1.771244,43.307539,145.757],[-1.771236,43.30759,149.487],[-1.77124,43.307646,153.45],[-1.771239,43.307696,157.479],[-1.771322,43.307688,161.494],[-1.771386,43.307693,165.437],[-1.771441,43.307728,169.426],[-1.771452,43.307775,173.447],[-1.77139,43.307767,177.411],[-1.771327,43.307774,178.808],[-1.771358,43.307821,182.176],[-1.771324,43.307865,186.158],[-1.771372,43.307834,189.366],[-1.771362,43.307787,191.226],[-1.771353,43.307737,187.269],[-1.771364,43.307784,183.238],[-1.771356,43.307849,182.363],[-1.77135,43.307894,186.396],[-1.771413,43.307914,190.316],[-1.771462,43.307944,194.376],[-1.771488,43.307988,198.313],[-1.771527,43.308032,201.808],[-1.771568,43.30808,203.535],[-1.771612,43.308112,202.927],[-1.77165,43.308151,201.375],[-1.771684,43.30819,200.865],[-1.771738,43.308224,200.548],[-1.771772,43.308266,199.917],[-1.771804,43.308312,198.342],[-1.771846,43.308347,195.855],[-1.771916,43.308344,193.976],[-1.77195,43.308383,191.99],[-1.771994,43.30842,192.319],[-1.772014,43.308464,189.008],[-1.772075,43.308489,187.011],[-1.772129,43.308526,185.053],[-1.772154,43.308567,181.881],[-1.7722,43.308604,180.351],[-1.772254,43.308627,180.284],[-1.772322,43.308656,180.133],[-1.772372,43.308691,180.548],[-1.772365,43.308748,180.791],[-1.772374,43.308793,182.047],[-1.772394,43.308838,182.429],[-1.772437,43.308879,183.021],[-1.772482,43.308915,184.208],[-1.772546,43.308941,183.748],[-1.772588,43.308977,184.22],[-1.772593,43.309034,184.588],[-1.77262,43.309082,184.338],[-1.772668,43.30911,180.681],[-1.772727,43.309127,176.86],[-1.77276,43.309167,172.815],[-1.772794,43.309219,168.948],[-1.772836,43.309269,169.863],[-1.772867,43.309314,171.944],[-1.772805,43.309323,175.218],[-1.772852,43.309371,182.808],[-1.772852,43.309371,182.82],[-1.772852,43.309371,182.852],[-1.772902,43.309407,185.32],[-1.772966,43.309416,186.44],[-1.773034,43.309394,187.163],[-1.773095,43.309379,186.772],[-1.773156,43.309358,187.787],[-1.773211,43.309337,187.96],[-1.77328,43.30934,187.686],[-1.773344,43.309359,183.66],[-1.773389,43.309391,179.626],[-1.773431,43.309435,175.608],[-1.773501,43.309445,175.062],[-1.773568,43.309465,176.354],[-1.773625,43.309483,178.362],[-1.773703,43.309497,179.512],[-1.773767,43.309526,180.265],[-1.773838,43.309537,180.284],[-1.773914,43.309542,179.029],[-1.773985,43.309543,179.172],[-1.77404,43.309579,178.817],[-1.774066,43.30962,179.487],[-1.774148,43.309628,175.415],[-1.774212,43.309644,173.008],[-1.774255,43.309678,173.975],[-1.774324,43.309712,174.997],[-1.774382,43.309735,176.325],[-1.774446,43.309714,175.955],[-1.774522,43.309742,176.598],[-1.774542,43.309795,177.287],[-1.774558,43.309838,178.072],[-1.774598,43.309876,177.725],[-1.774647,43.309909,176.377],[-1.774723,43.309903,175.961],[-1.774787,43.309926,175.627],[-1.774803,43.309971,176.208],[-1.774835,43.310011,177.841],[-1.774889,43.310039,178.033],[-1.774952,43.310051,178.531],[-1.774988,43.310088,174.541],[-1.774932,43.31011,175.284],[-1.774974,43.310153,179.283],[-1.775029,43.31018,183.278],[-1.775028,43.310227,186.851],[-1.775051,43.310287,189.495],[-1.775096,43.310323,190.149],[-1.775111,43.310379,189.323],[-1.775119,43.310425,190.008],[-1.775104,43.310469,191.273],[-1.775082,43.310538,191.585],[-1.77503,43.31058,191.743],[-1.775021,43.310629,193.083],[-1.775022,43.310684,194.696],[-1.775029,43.310736,195.615],[-1.775083,43.310768,195.06],[-1.775117,43.310808,194.293],[-1.775151,43.310855,194.512],[-1.775187,43.310913,193.932],[-1.77524,43.310943,193.505],[-1.775303,43.310939,192.908],[-1.775334,43.310987,192.535],[-1.775349,43.31104,194.777],[-1.77537,43.311088,194.885],[-1.775392,43.311131,194.115],[-1.775419,43.311172,194.568],[-1.775465,43.311203,195.517],[-1.77553,43.311189,195.782],[-1.775597,43.31117,195.845],[-1.775669,43.311162,196.742],[-1.775746,43.311181,197.622],[-1.775823,43.311184,197.814],[-1.775888,43.311157,198.708],[-1.775957,43.311171,200.888],[-1.776009,43.311198,202.95],[-1.776067,43.311239,204.538],[-1.776098,43.311294,205.168],[-1.77614,43.311334,207.151],[-1.77616,43.311383,207.97],[-1.776229,43.31141,209.295],[-1.776277,43.31144,209.628],[-1.776285,43.311494,209.858],[-1.776261,43.311543,208.752],[-1.776224,43.311583,204.717],[-1.776151,43.311594,201.708],[-1.776093,43.311623,200.359],[-1.776057,43.311661,201.071],[-1.776015,43.311713,203.419],[-1.776,43.311761,205.729],[-1.775993,43.311807,206.312],[-1.775945,43.311839,206.231],[-1.775947,43.311889,207.446],[-1.775953,43.311945,208.129],[-1.775954,43.312005,208.532],[-1.775945,43.312051,209.692],[-1.775926,43.312106,210.211],[-1.775916,43.312151,210.608],[-1.775904,43.312204,212.087],[-1.775885,43.312255,212.129],[-1.77588,43.312311,210.967],[-1.775874,43.312367,211.017],[-1.775849,43.31241,209.56],[-1.775863,43.312465,208.259],[-1.775871,43.312514,207.874],[-1.775879,43.312563,208.037],[-1.775853,43.312609,207.771],[-1.775838,43.312655,208.741],[-1.775825,43.312703,210.515],[-1.775815,43.31275,212.008],[-1.775818,43.312801,212.961],[-1.775825,43.31286,213.473],[-1.775815,43.312913,214.191],[-1.775824,43.312958,214.991],[-1.77585,43.313009,214.674],[-1.775851,43.313055,214.083],[-1.775845,43.313107,213.718],[-1.775836,43.313154,213.141],[-1.775828,43.313216,211.962],[-1.775822,43.313268,211.683],[-1.775804,43.313326,211.411],[-1.775802,43.313387,211.308],[-1.775806,43.313434,210.45],[-1.775761,43.313485,210.362],[-1.775731,43.313533,210.61],[-1.775699,43.313575,210.83],[-1.775674,43.313625,210.933],[-1.775642,43.313668,211.452],[-1.775594,43.313703,211.327],[-1.775581,43.313752,209.26],[-1.775568,43.313802,207.693],[-1.77555,43.313848,206.265],[-1.775518,43.313897,206.621],[-1.775471,43.313931,206.408],[-1.775438,43.313979,206.783],[-1.775426,43.314031,206.585],[-1.775439,43.314078,206.413],[-1.775386,43.314116,207.143],[-1.775344,43.314153,207.116],[-1.775316,43.314194,206.785],[-1.775278,43.314241,206.56],[-1.775239,43.314284,206.853],[-1.775194,43.314336,207.493],[-1.775161,43.314384,207.365],[-1.775125,43.314423,208.521],[-1.775077,43.314453,209.208],[-1.775052,43.314496,209.653],[-1.775017,43.314543,209.165],[-1.775008,43.314593,208.443],[-1.775019,43.314641,208.463],[-1.775019,43.31469,208.486],[-1.775025,43.314736,208.415],[-1.775046,43.314787,208.43],[-1.775057,43.314838,210.413],[-1.775077,43.314898,210.864],[-1.775092,43.314945,210.606],[-1.775114,43.314999,212.516],[-1.775118,43.315046,213.608],[-1.775126,43.315092,214.79],[-1.775127,43.315143,214.652],[-1.775108,43.315194,214.94],[-1.775105,43.315254,214.74],[-1.775089,43.315302,215.893],[-1.775086,43.315354,215.612],[-1.775075,43.31541,215.137],[-1.775059,43.315454,214.45],[-1.77508,43.3155,213.685],[-1.775075,43.31555,213.189],[-1.775134,43.31557,212.017],[-1.775185,43.315596,210.908],[-1.775219,43.31564,209.962],[-1.775287,43.315661,207.784],[-1.775358,43.315657,205.642],[-1.775392,43.315702,204.352],[-1.775458,43.315718,203.125],[-1.775506,43.31575,205.274],[-1.775515,43.315809,206.169],[-1.775503,43.315853,207.432],[-1.775506,43.3159,207.473],[-1.775522,43.315946,207.485],[-1.775518,43.316008,207.813],[-1.775518,43.316064,209.208],[-1.775517,43.316109,210.151],[-1.775518,43.316155,211.853],[-1.775546,43.3162,212.811],[-1.77549,43.316244,213.841],[-1.775466,43.316297,214.884],[-1.775447,43.316351,215.423],[-1.775429,43.316397,215.848],[-1.7754,43.316454,215.611],[-1.775375,43.316497,215.178],[-1.775369,43.316555,214.433],[-1.775365,43.316608,213.226],[-1.775371,43.316654,212.108],[-1.775333,43.316704,211.081],[-1.775343,43.31675,210.433],[-1.775372,43.316802,209.661],[-1.775398,43.316851,208.721],[-1.775443,43.316898,207.424],[-1.775473,43.316937,206.673],[-1.775523,43.316979,206.188],[-1.775579,43.317005,205.881],[-1.775642,43.317036,205.276],[-1.775679,43.317075,203.79],[-1.775711,43.317117,202.019],[-1.775758,43.317159,200.608],[-1.775784,43.317204,199.721],[-1.775832,43.317245,200.073],[-1.775898,43.317282,199.011],[-1.775949,43.317321,198.831],[-1.775992,43.317359,197.984],[-1.776055,43.317375,198.523],[-1.776101,43.317407,197.318],[-1.776104,43.317454,195.891],[-1.776142,43.317496,194.981],[-1.776185,43.317535,193.561],[-1.776214,43.317583,192.317],[-1.776255,43.317621,191.608],[-1.776294,43.317667,192.082],[-1.776308,43.317718,191.894],[-1.776341,43.317757,192.142],[-1.776395,43.317805,192.352],[-1.776421,43.317855,192.865],[-1.776424,43.317915,192.334],[-1.776431,43.317972,192.819],[-1.776437,43.31802,193.952],[-1.77645,43.31807,194.278],[-1.77648,43.318112,193.633],[-1.776524,43.31815,189.626],[-1.776557,43.318189,186.008],[-1.776604,43.318236,185.861],[-1.776652,43.318273,186.533],[-1.776704,43.31831,186.551],[-1.776752,43.31834,186.511],[-1.776803,43.318366,186.174],[-1.776869,43.318379,185.973],[-1.776932,43.318389,185.468],[-1.776969,43.318432,182.781],[-1.777039,43.318486,181.954],[-1.777064,43.318531,181.456],[-1.777093,43.318584,181.111],[-1.777135,43.318619,179.308],[-1.777178,43.318658,176.649],[-1.777229,43.318707,174.251],[-1.777279,43.318741,172.079],[-1.777348,43.318766,170.339],[-1.777407,43.318783,169.772],[-1.777419,43.318835,168.541],[-1.777422,43.318883,167.026],[-1.77741,43.318928,165.339],[-1.777473,43.318948,163.512],[-1.777529,43.318914,160.432],[-1.777586,43.318883,158.105],[-1.777628,43.318841,156.308],[-1.777666,43.318777,154.825],[-1.777692,43.318734,153.997],[-1.777682,43.318683,153.055],[-1.77764,43.318648,151.275],[-1.777652,43.318602,148.588],[-1.777681,43.318552,147.727],[-1.777722,43.318503,147.212],[-1.777771,43.318472,147.315],[-1.777787,43.318426,147.075],[-1.777776,43.318378,146.828],[-1.777766,43.318329,146.72],[-1.777755,43.318275,146.608],[-1.777782,43.318218,146.231],[-1.777809,43.318176,145.593],[-1.777826,43.318128,145.191],[-1.777841,43.318077,144.561],[-1.777857,43.318022,145.794],[-1.777849,43.317966,147.223],[-1.777839,43.31792,148.598],[-1.777808,43.317873,149.311],[-1.777763,43.317839,149.471],[-1.777759,43.317791,149.041],[-1.777817,43.317811,145.015],[-1.777888,43.317805,143.608],[-1.777961,43.317782,142.071],[-1.777989,43.317727,141.873],[-1.778053,43.31774,141.731],[-1.77811,43.317758,139.651],[-1.778187,43.317786,139.614],[-1.778266,43.317806,140.453],[-1.778345,43.317809,140.568],[-1.778423,43.317795,138.971],[-1.778501,43.317797,138.813],[-1.778565,43.317796,138.743],[-1.778628,43.317786,138.707],[-1.778693,43.317767,136.708],[-1.778727,43.317707,135.965],[-1.778778,43.317665,135.477],[-1.778836,43.31765,134.385],[-1.778902,43.317625,134.065],[-1.778973,43.317608,134.288],[-1.77903,43.31758,132.387],[-1.779038,43.317532,131.642],[-1.779107,43.317489,129.625],[-1.779144,43.317425,127.293],[-1.779182,43.317381,125.065],[-1.77926,43.317356,121.721],[-1.77933,43.317365,119.708],[-1.779403,43.317388,118.983],[-1.779441,43.31743,119.625],[-1.779474,43.317475,120.893],[-1.779546,43.317494,121.923],[-1.779611,43.317496,123.496],[-1.779681,43.317506,124.375],[-1.77975,43.317501,125.27],[-1.779816,43.317496,125.823],[-1.77988,43.317489,126.129],[-1.779941,43.317516,126.7],[-1.779996,43.317544,127.12],[-1.780065,43.317574,126.908],[-1.780118,43.317605,126.866],[-1.780168,43.317645,125.968],[-1.780182,43.317705,125.436],[-1.780225,43.31775,124.786],[-1.780281,43.317779,125.189],[-1.780349,43.317803,129.128],[-1.780393,43.317841,133.173],[-1.780411,43.317892,137.126],[-1.780443,43.317941,141.133],[-1.780461,43.317988,140.123],[-1.780485,43.318036,137.915],[-1.780485,43.318084,135.408],[-1.780491,43.318132,134.327],[-1.78049,43.318189,132.869],[-1.780495,43.318242,131.187],[-1.780492,43.318288,130.537],[-1.780498,43.318337,129.35],[-1.78054,43.318381,127.819],[-1.780553,43.318425,126.194],[-1.780583,43.318478,125.537],[-1.780586,43.318526,123.945],[-1.780597,43.318579,123.847],[-1.780614,43.318628,123.311],[-1.780626,43.318681,122.208],[-1.780615,43.318727,121.178],[-1.780588,43.318788,120.91],[-1.780578,43.318842,121.668],[-1.780585,43.31889,122.848],[-1.780593,43.318937,123.511],[-1.780589,43.318984,122.73],[-1.780577,43.319031,122.655],[-1.780567,43.319079,121.838],[-1.780552,43.319126,120.128],[-1.780545,43.319172,119.589],[-1.780564,43.319221,119.917],[-1.780587,43.319267,120.208],[-1.78057,43.319312,120.436],[-1.780569,43.319372,120.528],[-1.780577,43.319425,121.036],[-1.780563,43.319474,120.976],[-1.780539,43.319518,119.659],[-1.780544,43.319567,119.288],[-1.780603,43.319581,118.643],[-1.780634,43.319629,116.646],[-1.780669,43.319671,116.246],[-1.780687,43.319727,115.688],[-1.780713,43.319773,114.416],[-1.780741,43.319815,113.308],[-1.780769,43.319866,113.468],[-1.780812,43.319915,113.12],[-1.780845,43.31997,113.358],[-1.78088,43.320017,113.838],[-1.78092,43.320055,113.391],[-1.78098,43.320074,112.63],[-1.78103,43.32011,112.645],[-1.781073,43.320144,112.618],[-1.781102,43.320184,111.862],[-1.781134,43.320226,110.983],[-1.781139,43.320275,109.211],[-1.781144,43.320322,107.808],[-1.781143,43.320372,106.16],[-1.781132,43.32042,103.962],[-1.781142,43.320466,102.69],[-1.781157,43.320516,102.23],[-1.781126,43.320567,102.073],[-1.78112,43.320614,101.912],[-1.781106,43.320664,101.437],[-1.781055,43.32069,101.51],[-1.780984,43.320713,102.032],[-1.780918,43.320721,103.192],[-1.780894,43.320763,102.911],[-1.780855,43.320805,101.208],[-1.780823,43.320846,100.237],[-1.780799,43.32089,99.219],[-1.78079,43.320947,98.627],[-1.780773,43.321011,98.257],[-1.780762,43.321064,98.48],[-1.780724,43.321105,98.179],[-1.78067,43.321142,98.774],[-1.780617,43.321183,98.737],[-1.780564,43.321232,99.987],[-1.780518,43.321289,100.242],[-1.780496,43.321337,100.826],[-1.780425,43.321386,100.808],[-1.78038,43.32143,100.462],[-1.780343,43.321471,99.364],[-1.780303,43.321508,96.382],[-1.780245,43.321529,93.352],[-1.780181,43.321549,91.135],[-1.780121,43.321582,89.454],[-1.78008,43.321616,87.699],[-1.780042,43.321667,86.152],[-1.779994,43.321715,86.867],[-1.779944,43.321753,87.281],[-1.779897,43.321788,87.919],[-1.779831,43.321833,89.108],[-1.779779,43.321864,90.68],[-1.779765,43.321911,91.142],[-1.779718,43.321948,91.42],[-1.779644,43.321986,91.62],[-1.779592,43.322012,91.373],[-1.779576,43.322058,90.792],[-1.77951,43.322064,89.267],[-1.779442,43.32206,85.54],[-1.779363,43.32207,83.758],[-1.779304,43.322112,82.252],[-1.779249,43.322138,81.317],[-1.779203,43.322186,80.008],[-1.779129,43.322212,78.019],[-1.779064,43.322212,76.431],[-1.779038,43.322254,77.079],[-1.779056,43.322308,77.869],[-1.779036,43.322351,78.762],[-1.77904,43.32242,79.261],[-1.779042,43.322466,80.386],[-1.779033,43.322524,81.089],[-1.778996,43.322579,81.438],[-1.778951,43.322622,81.67],[-1.77891,43.322656,82.517],[-1.77886,43.322693,83.108],[-1.778806,43.322731,83.417],[-1.778763,43.322769,83.619],[-1.778706,43.322799,84.157],[-1.778642,43.322821,83.617],[-1.77859,43.322848,82.91],[-1.778527,43.322874,82.539],[-1.778469,43.322895,81.924],[-1.778407,43.322919,81.127],[-1.778356,43.322959,79.819],[-1.778302,43.323001,77.809],[-1.778244,43.323024,75.819],[-1.778181,43.323038,74.608],[-1.778143,43.323078,73.165],[-1.778102,43.323115,71.847],[-1.778039,43.323149,70.695],[-1.777983,43.323183,71.185],[-1.777909,43.323207,72.238],[-1.777832,43.323246,72.947],[-1.777782,43.323282,73.712],[-1.777732,43.323322,74.245],[-1.777732,43.323322,74.212],[-1.777669,43.323361,75.332],[-1.77762,43.323391,74.705],[-1.777576,43.323432,73.608],[-1.777551,43.323475,73.315],[-1.77748,43.323475,71.957],[-1.777406,43.323493,71.115],[-1.777346,43.323525,71.045],[-1.777293,43.323557,71.378],[-1.777234,43.323602,71.577],[-1.777195,43.323645,72.022],[-1.777151,43.323678,72.715],[-1.777105,43.323713,73.148],[-1.777082,43.323757,73.861],[-1.777036,43.32382,74.217],[-1.776985,43.323861,74.008],[-1.776917,43.323871,73.558],[-1.776839,43.323873,72.87],[-1.776778,43.323889,72.868],[-1.776705,43.323891,72.468],[-1.776631,43.323859,72.221],[-1.776563,43.323827,72.13],[-1.77651,43.323787,72.015],[-1.776471,43.323743,72.388],[-1.776423,43.323695,72.575],[-1.776387,43.323656,71.828],[-1.776342,43.323619,71.42],[-1.776299,43.323577,70.808],[-1.776261,43.323538,70.881],[-1.776227,43.323486,70.883],[-1.776183,43.323444,70.411],[-1.776214,43.323405,69.811],[-1.776161,43.323369,70.264],[-1.776099,43.323358,70.193],[-1.776031,43.323346,71.278],[-1.775989,43.323312,71.521],[-1.775931,43.323288,71.736],[-1.775868,43.323271,71.817],[-1.775845,43.32322,71.918],[-1.775834,43.323175,71.908],[-1.77581,43.323119,71.967],[-1.775779,43.323071,72.749],[-1.775755,43.323028,74.017],[-1.77574,43.322979,75.287],[-1.775722,43.322931,76.35],[-1.775709,43.322881,77.039],[-1.775686,43.322834,77.474],[-1.775641,43.322798,77.297]]}}]}