{"type":"FeatureCollection","features":[{"type":"Feature","properties":{"ruta_id":"46495717","nombre":"🌊 CASCADAS de la TOBERÍA desde ANDOIN","blog_url":"https://www.rutasporelmonte.com/cascadas-de-la-toberia-desde-andoin/"},"geometry":{"type":"LineString","coordinates":[[-2.266065,42.859319,656.149],[-2.266083,42.859276,656.102],[-2.266141,42.859237,656.122],[-2.266107,42.859279,656.108],[-2.26611,42.859331,656.118],[-2.266051,42.859308,656.14],[-2.266008,42.859265,656.128],[-2.266059,42.859231,656.163],[-2.26612,42.859224,656.149],[-2.26618,42.859211,656.171],[-2.266242,42.859195,656.185],[-2.2663,42.85918,656.151],[-2.266316,42.859132,656.179],[-2.266341,42.859084,656.105],[-2.266362,42.85904,656.125],[-2.266391,42.858997,656.108],[-2.266416,42.858952,655.771],[-2.266436,42.858908,654.683],[-2.266438,42.858853,652.411],[-2.266454,42.858808,651.986],[-2.266472,42.858765,652.072],[-2.266477,42.85871,651.664],[-2.266476,42.858659,651.488],[-2.266519,42.858619,652.154],[-2.26655,42.858577,652.581],[-2.266569,42.858525,653.561],[-2.266585,42.85848,653.717],[-2.26662,42.85843,654.208],[-2.266647,42.858376,655.372],[-2.266665,42.858319,655.654],[-2.266674,42.85827,655.822],[-2.266655,42.858224,654.787],[-2.266627,42.858172,653.243],[-2.266603,42.858118,653.135],[-2.266584,42.858068,653.179],[-2.266567,42.858016,653.985],[-2.266529,42.857971,652.421],[-2.266467,42.85794,650.741],[-2.266415,42.857903,650.905],[-2.26638,42.857858,650.208],[-2.266359,42.857804,649.816],[-2.266333,42.857754,649.568],[-2.266316,42.857704,648.556],[-2.26629,42.857648,648.311],[-2.266271,42.857594,647.867],[-2.266261,42.857541,648.369],[-2.266238,42.85749,648.613],[-2.266219,42.857442,648.489],[-2.266223,42.857391,648.334],[-2.266233,42.85734,649.055],[-2.266221,42.857287,649.41],[-2.266234,42.857233,650.508],[-2.266244,42.857172,651.597],[-2.266239,42.857113,652.589],[-2.266238,42.857061,650.727],[-2.266207,42.857018,649.642],[-2.266211,42.856966,648.268],[-2.26623,42.85691,649.78],[-2.266239,42.856863,650.654],[-2.26625,42.85681,650.81],[-2.266281,42.856763,651.323],[-2.266333,42.856725,650.883],[-2.266381,42.85669,651.311],[-2.266427,42.856657,652.808],[-2.266471,42.856625,653.336],[-2.266515,42.856587,654.478],[-2.266522,42.85654,655.146],[-2.266506,42.856496,654.711],[-2.266464,42.856459,653.797],[-2.266443,42.856408,653.559],[-2.266428,42.85635,653.883],[-2.266412,42.856291,652.059],[-2.266395,42.856236,651.337],[-2.266367,42.856189,652.549],[-2.266341,42.856148,656.013],[-2.266281,42.856118,658.508],[-2.266214,42.856097,659.637],[-2.266144,42.856072,661.569],[-2.266109,42.856023,663.057],[-2.266092,42.855974,663.142],[-2.266057,42.855927,665.268],[-2.266032,42.855884,666.83],[-2.266014,42.855828,667.874],[-2.265989,42.855785,668.81],[-2.265941,42.855743,669.431],[-2.265905,42.855703,669.461],[-2.265876,42.855663,669.807],[-2.265845,42.855613,669.608],[-2.265827,42.85556,669.597],[-2.265815,42.855504,669.879],[-2.265802,42.855459,670.037],[-2.265804,42.855403,670.992],[-2.265806,42.855358,671.548],[-2.265793,42.855306,672.66],[-2.265792,42.85526,670.594],[-2.265795,42.85521,674.09],[-2.265791,42.855159,677.395],[-2.265803,42.855114,677.749],[-2.265804,42.855065,678.323],[-2.26578,42.855022,679.508],[-2.265761,42.854978,680.283],[-2.265743,42.854931,681.415],[-2.265747,42.854881,682.153],[-2.265736,42.85483,683.318],[-2.26571,42.854783,684.434],[-2.265701,42.854732,683.586],[-2.265712,42.854681,683.45],[-2.265702,42.854635,683.336],[-2.265648,42.854596,684.035],[-2.265614,42.854551,684.086],[-2.265565,42.854516,684.414],[-2.265559,42.854468,685.108],[-2.265545,42.854423,685.597],[-2.265514,42.854375,686.139],[-2.265494,42.854322,685.757],[-2.265486,42.854267,686.262],[-2.265467,42.854216,686.158],[-2.265418,42.854188,688.18],[-2.265378,42.854148,690.524],[-2.265355,42.854103,691.53],[-2.265289,42.854104,692.914],[-2.265233,42.85407,693.354],[-2.265211,42.854023,693.209],[-2.265189,42.853975,691.908],[-2.265161,42.853933,691.175],[-2.265148,42.853876,687.427],[-2.265136,42.853827,685.665],[-2.265168,42.853787,684.58],[-2.26523,42.853773,683.516],[-2.265278,42.853739,685.798],[-2.265302,42.853688,689.712],[-2.265323,42.853646,693.048],[-2.265345,42.853603,695.016],[-2.265396,42.853571,694.676],[-2.265416,42.853528,695.613],[-2.265435,42.853479,697.408],[-2.265499,42.853459,698.955],[-2.265552,42.853423,699.437],[-2.265542,42.853375,700.175],[-2.265573,42.85333,701.71],[-2.265605,42.85329,703.956],[-2.265616,42.853246,705.618],[-2.265599,42.853201,707.442],[-2.265583,42.853158,708.538],[-2.265594,42.85311,708.855],[-2.265635,42.853076,708.607],[-2.265641,42.853028,708.517],[-2.265616,42.852982,708.808],[-2.265602,42.852938,709.019],[-2.265587,42.852887,709.551],[-2.265587,42.85284,710.219],[-2.265573,42.852794,706.294],[-2.265585,42.852744,704.61],[-2.265585,42.852699,708.562],[-2.265578,42.852644,711.616],[-2.265589,42.852595,713.182],[-2.265562,42.852551,714.068],[-2.265574,42.852501,715.342],[-2.265548,42.852449,715.726],[-2.265505,42.852407,715.508],[-2.265442,42.852384,715.86],[-2.265419,42.852337,716.092],[-2.265384,42.852299,715.76],[-2.265329,42.852267,715.575],[-2.265269,42.852247,715.421],[-2.265208,42.852229,715.723],[-2.265176,42.852185,717.537],[-2.265192,42.85214,717.433],[-2.265226,42.852097,717.785],[-2.265232,42.852048,717.989],[-2.265216,42.851998,717.617],[-2.265213,42.851949,718.208],[-2.265214,42.8519,718.652],[-2.265232,42.851855,719.634],[-2.265251,42.851808,720.622],[-2.265258,42.851757,722.897],[-2.26529,42.851717,724.153],[-2.265316,42.851676,724.975],[-2.265343,42.851626,724.699],[-2.26536,42.85157,725.635],[-2.265376,42.851519,726.616],[-2.265403,42.851477,728.476],[-2.265428,42.851428,729.113],[-2.265464,42.851373,730.708],[-2.26552,42.851343,733.355],[-2.265573,42.851306,736.037],[-2.265616,42.85127,738.415],[-2.265644,42.851217,739.19],[-2.265702,42.851198,740.726],[-2.265756,42.851177,741.368],[-2.265802,42.851134,742.872],[-2.265814,42.851087,744.568],[-2.265844,42.851045,745.577],[-2.265883,42.851004,746.161],[-2.265919,42.850967,745.727],[-2.265946,42.851009,745.808],[-2.266009,42.851026,744.751],[-2.265978,42.850982,744.893],[-2.265983,42.850934,745.371],[-2.266013,42.850874,746.046],[-2.266011,42.85082,746.092],[-2.266067,42.850799,747.294],[-2.266082,42.850745,748.728],[-2.266024,42.850728,750.094],[-2.265983,42.850692,749.226],[-2.265941,42.850657,747.147],[-2.265867,42.850651,743.111],[-2.265807,42.850686,740.608],[-2.265752,42.85072,741.546],[-2.265687,42.850711,738.128],[-2.265621,42.850728,737.616],[-2.265557,42.850745,739.731],[-2.265493,42.850761,741.477],[-2.265442,42.850735,742.819],[-2.265402,42.850698,743.213],[-2.265382,42.85065,745.179],[-2.265338,42.850614,747.079],[-2.265316,42.850566,747.805],[-2.265304,42.850515,748.325],[-2.265304,42.850468,748.608],[-2.2653,42.850419,750.021],[-2.265274,42.850375,749.693],[-2.265274,42.850321,750.671],[-2.265256,42.850271,750.036],[-2.265215,42.850233,748.842],[-2.265184,42.850189,748.924],[-2.265164,42.850145,749.088],[-2.26514,42.850102,749.084],[-2.265102,42.850052,749.827],[-2.26504,42.850032,750.768],[-2.264993,42.849996,746.714],[-2.264938,42.849969,745.208],[-2.264872,42.849974,744.356],[-2.264856,42.850027,740.628],[-2.264824,42.850074,742.426],[-2.264766,42.850057,742.711],[-2.264755,42.850013,746.197],[-2.264702,42.850039,748.599],[-2.264645,42.850004,749.113],[-2.264622,42.850047,753.149],[-2.264669,42.850015,757.135],[-2.264688,42.849965,761.186],[-2.264687,42.849917,765.114],[-2.264743,42.849936,767.108],[-2.264767,42.849891,766.797],[-2.264731,42.849848,764.999],[-2.2647,42.849804,765.017],[-2.26467,42.849751,764.782],[-2.26463,42.849712,763.328],[-2.264592,42.849676,759.35],[-2.264591,42.849614,756.934],[-2.264577,42.84956,756.24],[-2.264557,42.849517,756.225],[-2.264517,42.84948,757.026],[-2.2645,42.849432,764.008],[-2.2645,42.849432,764.008],[-2.2645,42.849432,764.086],[-2.26451,42.849385,768.028],[-2.264532,42.849429,772.076],[-2.264495,42.849474,776.021],[-2.264438,42.849498,777.397],[-2.264402,42.849535,777.769],[-2.264341,42.849545,776.773],[-2.26428,42.849535,774.119],[-2.264219,42.849557,773.365],[-2.264154,42.849563,772.468],[-2.264104,42.849526,771.114],[-2.264047,42.849509,771.508],[-2.264034,42.849463,772.15],[-2.263993,42.849424,772.582],[-2.26395,42.849388,772.73],[-2.2639,42.849362,774.895],[-2.263857,42.849319,775.311],[-2.263805,42.849293,776.063],[-2.263739,42.849265,778.017],[-2.263712,42.849219,778.853],[-2.263703,42.849167,778.522],[-2.263683,42.849117,778.362],[-2.263712,42.84907,779.008],[-2.263749,42.849026,780.608],[-2.263755,42.848977,780.876],[-2.263724,42.848932,780.148],[-2.263741,42.848881,778.916],[-2.263752,42.848837,779.811],[-2.263791,42.848802,780.347],[-2.263808,42.848754,780.269],[-2.263813,42.848705,781.783],[-2.263807,42.848658,783.839],[-2.263817,42.848604,787.187],[-2.263873,42.848579,788.742],[-2.26394,42.84858,784.726],[-2.263952,42.848633,780.708],[-2.264,42.848669,781.252],[-2.264063,42.848665,780.794],[-2.264123,42.848644,782.472],[-2.264183,42.848633,783.087],[-2.264244,42.848624,781.083],[-2.264277,42.848582,779.445],[-2.264279,42.848536,780.819],[-2.264302,42.848494,776.875],[-2.26429,42.848449,780.845],[-2.264287,42.848399,784.847],[-2.264293,42.848353,788.811],[-2.264272,42.848307,790.908],[-2.264303,42.848268,790.958],[-2.264371,42.848246,791.37],[-2.264414,42.848207,792.418],[-2.264439,42.848164,791.473],[-2.264504,42.848161,795.499],[-2.26455,42.84813,797.651],[-2.264556,42.848074,799.325],[-2.264484,42.848066,799.541],[-2.264456,42.848022,799.619],[-2.264426,42.847975,801.309],[-2.264403,42.847933,802.319],[-2.264361,42.8479,804.908],[-2.264336,42.847852,800.995],[-2.264283,42.847829,804.937],[-2.264297,42.847781,808.955],[-2.264356,42.847766,812.95],[-2.264372,42.847711,816.966],[-2.264394,42.847667,820.578],[-2.264377,42.847624,823.012],[-2.264429,42.847649,819.098],[-2.264477,42.84762,823.086],[-2.264518,42.847666,824.96],[-2.264555,42.847629,827.326],[-2.264568,42.847584,829.108],[-2.264541,42.847543,829.882],[-2.264532,42.847497,825.874],[-2.26458,42.847468,827.482],[-2.264643,42.847462,830.437],[-2.264602,42.847423,833.023],[-2.2646,42.847375,837.025],[-2.264632,42.847334,839.769],[-2.264676,42.847298,837.335],[-2.264759,42.847311,841.313],[-2.26482,42.847303,845.343],[-2.26484,42.847259,848.707],[-2.264896,42.847279,844.708],[-2.264893,42.847232,848.755],[-2.264904,42.847184,852.767],[-2.264936,42.847145,856.715],[-2.26495,42.847097,852.74],[-2.264927,42.847055,848.796],[-2.264922,42.84701,850.358],[-2.264938,42.846965,854.382],[-2.264952,42.846916,858.378],[-2.264944,42.84687,862.396],[-2.264895,42.846839,866.331],[-2.26495,42.846817,870.324],[-2.264972,42.846766,874.308],[-2.264971,42.846716,878.313],[-2.264971,42.84667,882.335],[-2.264988,42.846626,880.183],[-2.265051,42.846623,884.028],[-2.265093,42.84666,885.154],[-2.265159,42.846662,885.846],[-2.265186,42.846613,887.41],[-2.265172,42.846568,891.496],[-2.265203,42.846523,894.851],[-2.265258,42.846502,898.801],[-2.265317,42.846485,902.411],[-2.265379,42.846474,904.208],[-2.265361,42.846431,904.919],[-2.265318,42.846399,904.131],[-2.265273,42.846363,904.899],[-2.265296,42.846316,905.694],[-2.265359,42.846322,908.19],[-2.265421,42.846317,909.692],[-2.26548,42.846332,912.186],[-2.265521,42.846374,914.072],[-2.265579,42.846413,914.772],[-2.265654,42.84642,915.513],[-2.265681,42.846466,915.214],[-2.265719,42.846503,914.208],[-2.26577,42.846541,914.071],[-2.26579,42.846584,918.063],[-2.265749,42.846619,922.081],[-2.265707,42.846662,925.996],[-2.265723,42.846709,926.672],[-2.265682,42.846743,927.424],[-2.265734,42.846782,928.338],[-2.265789,42.846813,930.084],[-2.265834,42.846844,931.471],[-2.265887,42.846871,932.741],[-2.26594,42.846898,934.315],[-2.265973,42.846937,934.408],[-2.26599,42.846987,933.751],[-2.266049,42.847,934.573],[-2.266118,42.847008,934.681],[-2.266175,42.847029,935.016],[-2.266242,42.847039,937.372],[-2.266303,42.847051,938.394],[-2.266363,42.847078,940.158],[-2.266424,42.847089,940.874],[-2.266475,42.847121,941.661],[-2.266522,42.847157,942.921],[-2.266559,42.847196,943.713],[-2.266582,42.847242,944.608],[-2.266616,42.84728,945.18],[-2.26666,42.847326,945.862],[-2.266684,42.847374,945.86],[-2.266733,42.847405,945.035],[-2.266791,42.847378,944.181],[-2.26685,42.84736,944.093],[-2.266882,42.847318,944.317],[-2.266933,42.847291,943.713],[-2.266996,42.84727,943.326],[-2.267068,42.847245,943.147],[-2.267119,42.847216,942.611],[-2.267192,42.847208,942.708],[-2.267239,42.847238,941.956],[-2.267313,42.847248,942.638],[-2.267372,42.847275,943.026],[-2.267431,42.847299,943.341],[-2.267499,42.847297,945.137],[-2.267565,42.847303,946.659],[-2.267616,42.847277,947.573],[-2.267656,42.847232,948.429],[-2.267703,42.847201,948.254],[-2.267768,42.847181,948.956],[-2.26783,42.847153,947.711],[-2.267852,42.847103,946.608],[-2.267868,42.847053,945.139],[-2.267907,42.847016,944.221],[-2.267948,42.846977,940.299],[-2.267952,42.84693,936.284],[-2.267934,42.846887,940.25],[-2.267923,42.84684,944.222],[-2.267906,42.846794,948.236],[-2.267906,42.846748,951.362],[-2.267935,42.846706,954.399],[-2.267914,42.846655,956.507],[-2.267895,42.846611,958.227],[-2.267887,42.846566,958.408],[-2.267934,42.84653,956.953],[-2.267943,42.846485,957.655],[-2.267933,42.846437,958.853],[-2.26792,42.846393,959.548],[-2.267956,42.846356,959.184],[-2.268003,42.846324,958.546],[-2.268016,42.846279,960.15],[-2.268073,42.846255,962.736],[-2.268108,42.846213,963.072],[-2.268139,42.846173,964.013],[-2.268172,42.846131,961.814],[-2.268233,42.846123,957.808],[-2.268295,42.846123,954.951],[-2.268354,42.84611,955.533],[-2.268401,42.846141,954.711],[-2.268462,42.846153,955.846],[-2.268541,42.84617,956.552],[-2.268568,42.846213,955.784],[-2.268559,42.846259,955.218],[-2.268571,42.846306,952.564],[-2.268545,42.846349,950.132],[-2.268604,42.846363,948.392],[-2.268627,42.84632,948.411],[-2.268661,42.846275,948.508],[-2.268713,42.846306,949.797],[-2.268772,42.846323,949.279],[-2.268821,42.846356,948.517],[-2.268783,42.846398,946.122],[-2.268843,42.846383,942.348],[-2.268898,42.846406,940.06],[-2.268861,42.846446,938.624],[-2.26883,42.846489,937.81],[-2.268808,42.846538,936.527],[-2.268814,42.846592,935.368],[-2.268865,42.846619,934.614],[-2.268922,42.846644,933.808],[-2.268963,42.846692,933.766],[-2.268974,42.846747,933.668],[-2.268958,42.846792,934.496],[-2.26902,42.846789,933.741],[-2.268964,42.846769,930.917],[-2.268936,42.846809,929.649],[-2.268997,42.846834,928.433],[-2.269048,42.846809,927.349],[-2.269087,42.846768,925.464],[-2.269116,42.846722,923.506],[-2.269159,42.846687,922.716],[-2.269201,42.846652,921.408],[-2.269263,42.846642,921.46],[-2.26931,42.846605,920.632],[-2.269383,42.846585,919.74],[-2.269441,42.846564,919.665],[-2.269501,42.846578,915.611],[-2.269567,42.846584,913.963],[-2.269634,42.846581,915.367],[-2.2697,42.846588,916.113],[-2.269765,42.846606,916.692],[-2.269823,42.846631,917.373],[-2.269836,42.846675,915.32],[-2.269808,42.846715,911.308],[-2.269838,42.846755,907.393],[-2.269824,42.846806,903.395],[-2.269764,42.84683,900.513],[-2.269708,42.846854,898.448],[-2.26969,42.846902,899.284],[-2.269641,42.846936,901.316],[-2.269589,42.846967,903.31],[-2.269567,42.84701,905.336],[-2.269607,42.847046,905.399],[-2.269599,42.847099,902.107],[-2.269608,42.847144,900.227],[-2.269596,42.847192,896.308],[-2.269594,42.847244,893.993],[-2.269625,42.847284,892.195],[-2.269656,42.84733,891.863],[-2.269686,42.847372,891.238],[-2.269719,42.847413,890.514],[-2.269739,42.847456,889.726],[-2.26976,42.847502,889.29],[-2.269767,42.847552,887.326],[-2.26981,42.847592,886.686],[-2.269836,42.847636,886.66],[-2.269864,42.847678,887.026],[-2.269884,42.847725,888.008],[-2.269905,42.84777,888.222],[-2.269925,42.847819,887.534],[-2.269924,42.847872,885.592],[-2.269942,42.847917,885.987],[-2.26996,42.847969,883.733],[-2.27001,42.848004,880.885],[-2.270027,42.848049,879.129],[-2.270026,42.848101,875.385],[-2.270051,42.848149,873.046],[-2.270064,42.848196,872.888],[-2.270093,42.848242,871.916],[-2.27012,42.848288,875.908],[-2.270148,42.848332,876.298],[-2.270184,42.848371,874.43],[-2.27023,42.848413,872.538],[-2.270253,42.848455,870.243],[-2.270265,42.848516,871.639],[-2.270234,42.848563,871.631],[-2.270189,42.8486,870.085],[-2.27014,42.848635,869.141],[-2.270078,42.848659,868.197],[-2.270022,42.848681,867.523],[-2.269954,42.848677,867.225],[-2.269902,42.848643,867.808],[-2.269875,42.8486,865.833],[-2.269839,42.848552,865.055],[-2.269794,42.848513,864.543],[-2.269746,42.848479,863.898],[-2.269679,42.848505,863.844],[-2.269648,42.848545,863.836],[-2.269588,42.84856,861.82],[-2.269521,42.848571,861.846],[-2.269455,42.84856,861.065],[-2.269408,42.848524,859.768],[-2.26938,42.848483,860.114],[-2.269318,42.848506,856.408],[-2.269262,42.848524,854.29],[-2.269212,42.848556,858.252],[-2.269158,42.848586,858.57],[-2.269121,42.848623,855.985],[-2.269071,42.848594,852.781],[-2.269016,42.84864,852.053],[-2.268971,42.848694,850.457],[-2.268997,42.848745,848.683],[-2.268985,42.848791,845.946],[-2.26897,42.848838,843.188],[-2.268914,42.84887,847.016],[-2.268894,42.848919,846.608],[-2.26889,42.848966,848.368],[-2.268887,42.849014,846.93],[-2.268873,42.84907,844.598],[-2.268887,42.84912,841.473],[-2.26894,42.849163,838.849],[-2.268936,42.84922,837.691],[-2.26895,42.849278,836.155],[-2.268899,42.849315,836.011],[-2.268932,42.849376,835.573],[-2.268947,42.849423,834.885],[-2.26889,42.849441,832.813],[-2.268838,42.849469,831.608],[-2.268762,42.849479,829.731],[-2.268694,42.849491,826.953],[-2.268722,42.849543,824.061],[-2.268733,42.849604,820.786],[-2.268694,42.849641,819.592],[-2.268647,42.849676,818.064],[-2.268598,42.849714,816.728],[-2.268535,42.849726,815.184],[-2.26846,42.849704,813.387],[-2.268395,42.849694,809.342],[-2.268342,42.849667,809.426],[-2.268344,42.849718,805.408],[-2.268321,42.849773,801.512],[-2.268311,42.849825,798.824],[-2.268276,42.849866,796.092],[-2.268218,42.849892,795.557],[-2.268154,42.849915,794.443],[-2.268116,42.849959,794.995],[-2.268069,42.849995,795.659],[-2.267997,42.849987,795.245],[-2.267941,42.849957,793.822],[-2.26787,42.849952,792.162],[-2.267825,42.849987,791.908],[-2.267763,42.849998,790.608],[-2.267698,42.85001,789.056],[-2.267639,42.850043,788.088],[-2.267612,42.850086,787.426],[-2.267577,42.850125,786.341],[-2.26754,42.850177,785.697],[-2.267463,42.85021,784.499],[-2.267424,42.850253,783.783],[-2.267432,42.850305,783.339],[-2.267434,42.850351,783.887],[-2.26738,42.850375,783.742],[-2.267365,42.850419,783.726],[-2.267348,42.850467,781.708],[-2.267311,42.850508,781.392],[-2.267271,42.850544,781.124],[-2.267296,42.850586,780.662],[-2.267303,42.850636,778.767],[-2.26731,42.850685,777.553],[-2.267275,42.850725,776.095],[-2.26722,42.850752,773.999],[-2.267161,42.850775,771.885],[-2.267079,42.850751,770.218],[-2.26703,42.850791,774.298],[-2.267053,42.850865,776.017],[-2.26699,42.850903,773.508],[-2.266945,42.850953,770.895],[-2.266912,42.850998,768.477],[-2.26686,42.85103,766.125],[-2.266804,42.851059,765.58],[-2.266744,42.851031,766.086],[-2.266733,42.850983,766.338],[-2.266756,42.850939,767.782],[-2.266694,42.850949,766.968],[-2.266632,42.850943,764.466],[-2.266606,42.850984,761.329],[-2.266552,42.851013,760.721],[-2.26656,42.85106,759.908],[-2.266561,42.85111,758.67],[-2.266508,42.851133,757.882],[-2.266446,42.85113,756.91],[-2.266397,42.851168,755.685],[-2.266336,42.851184,754.441],[-2.266301,42.851146,750.463],[-2.266242,42.851168,750.987],[-2.266236,42.851219,752.043],[-2.266176,42.85125,753.136],[-2.26614,42.851289,754.517],[-2.266075,42.851279,755.418],[-2.266037,42.851315,755.108],[-2.265978,42.851295,754.927],[-2.265911,42.85131,754.889],[-2.26585,42.851338,754.357],[-2.265795,42.851368,752.852],[-2.265731,42.85138,751.538],[-2.265675,42.851411,749.97],[-2.265624,42.851445,748.634],[-2.265588,42.851483,747.47],[-2.265568,42.851527,746.397],[-2.265509,42.85155,744.823],[-2.265467,42.851593,743.925],[-2.265426,42.851643,742.208],[-2.265393,42.851693,741.663],[-2.265374,42.851745,740.095],[-2.26534,42.851791,738.713],[-2.265322,42.851838,738.798],[-2.265302,42.851882,738.774],[-2.265276,42.851928,738.786],[-2.265289,42.851985,737.94],[-2.265272,42.852037,738.266],[-2.265274,42.852086,736.085],[-2.265273,42.852139,736.389],[-2.265278,42.852195,736.117],[-2.26526,42.852249,735.608],[-2.265212,42.852287,735.742],[-2.26527,42.852306,735.714],[-2.265316,42.852337,731.792],[-2.265375,42.852351,727.717],[-2.265427,42.852387,725.333],[-2.265456,42.85243,725.515],[-2.265465,42.852477,725.279],[-2.26552,42.852512,725.465],[-2.26557,42.852559,723.979],[-2.265597,42.8526,723.005],[-2.265598,42.852654,722.925],[-2.265617,42.852703,722.808],[-2.26563,42.852747,722.051],[-2.265642,42.8528,722.743],[-2.265668,42.852847,722.381],[-2.265701,42.852896,721.786],[-2.265717,42.852949,720.542],[-2.265727,42.853004,719.454],[-2.265747,42.853057,719.178],[-2.265698,42.853099,718.134],[-2.265687,42.853148,717.174],[-2.265705,42.853193,716.956],[-2.265649,42.853221,714.821],[-2.265591,42.853244,713.508],[-2.265573,42.853293,711.921],[-2.265558,42.853338,711.433],[-2.265548,42.853392,710.331],[-2.265519,42.853447,709.286],[-2.265464,42.853473,709.062],[-2.265402,42.853478,708.914],[-2.265341,42.853493,709.628],[-2.265278,42.853523,708.474],[-2.265342,42.853527,707.756],[-2.265396,42.853559,706.159],[-2.265394,42.853617,704.314],[-2.265369,42.853668,702.408],[-2.265373,42.853714,700.989],[-2.265356,42.85376,699.681],[-2.265306,42.853805,699.649],[-2.265276,42.853845,698.814],[-2.265266,42.853899,698.33],[-2.265272,42.853948,699.272],[-2.265255,42.853995,697.766],[-2.265296,42.854031,695.282],[-2.265351,42.854062,693.371],[-2.26539,42.854097,692.241],[-2.265431,42.854141,691.515],[-2.265449,42.854194,691.908],[-2.265445,42.854249,691.391],[-2.265472,42.854296,692.633],[-2.265502,42.854338,689.821],[-2.265538,42.854376,688.926],[-2.265583,42.854421,688.092],[-2.265611,42.854471,687.474],[-2.265657,42.854523,687.578],[-2.265702,42.854561,687.164],[-2.265746,42.854594,688.191],[-2.265786,42.854634,688.781],[-2.265841,42.854678,688.719],[-2.26585,42.854734,688.708],[-2.265854,42.854787,687.923],[-2.265846,42.854837,687.855],[-2.265857,42.85489,688.983],[-2.265862,42.854945,689.638],[-2.265853,42.854992,689.624],[-2.26586,42.855039,685.676],[-2.265864,42.855096,684.88],[-2.265845,42.855147,686.376],[-2.265876,42.855186,687.668],[-2.265872,42.855235,688.042],[-2.26585,42.855286,688.626],[-2.265835,42.855333,689.408],[-2.265814,42.855387,685.97],[-2.265811,42.855449,685.432],[-2.265852,42.855501,681.51],[-2.265898,42.855542,681.255],[-2.265918,42.855599,682.211],[-2.265942,42.85565,682.423],[-2.265974,42.855692,681.397],[-2.266031,42.85572,679.573],[-2.266035,42.855772,678.484],[-2.266042,42.855839,678.107],[-2.266058,42.855902,677.917],[-2.266067,42.855956,677.008],[-2.266117,42.855996,673.072],[-2.266144,42.856046,670.174],[-2.266165,42.856103,668.762],[-2.266197,42.856158,666.717],[-2.266237,42.856204,666.753],[-2.266296,42.856232,666.365],[-2.266348,42.85626,666.199],[-2.266388,42.856297,666.015],[-2.266437,42.856328,665.951],[-2.266458,42.856385,666.201],[-2.266477,42.856437,666.011],[-2.2665,42.856491,667.108],[-2.266531,42.856539,667.439],[-2.266546,42.856589,667.271],[-2.266529,42.856638,667.569],[-2.266476,42.856691,667.324],[-2.266414,42.85673,667.28],[-2.266348,42.85675,665.922],[-2.266315,42.856807,664.796],[-2.266306,42.856871,664.472],[-2.266312,42.856918,664.286],[-2.266321,42.856966,663.76],[-2.266326,42.857015,662.626],[-2.266336,42.857076,661.908],[-2.266343,42.857122,661.962],[-2.266334,42.857173,661.164],[-2.266315,42.857223,661.062],[-2.266318,42.857275,660.667],[-2.26629,42.857327,659.583],[-2.266234,42.857347,659.725],[-2.26625,42.857395,659.859],[-2.266273,42.857445,660.355],[-2.266284,42.85749,659.078],[-2.266269,42.857534,657.033],[-2.266271,42.857596,655.426],[-2.266268,42.857642,654.808],[-2.266281,42.857687,654.131],[-2.266326,42.857726,654.563],[-2.266363,42.857768,655.161],[-2.266395,42.857816,655.966],[-2.266439,42.857851,656.812],[-2.266485,42.857897,657.334],[-2.266504,42.857943,658.028],[-2.266512,42.857995,658.424],[-2.26655,42.858041,658.314],[-2.266572,42.858087,657.854],[-2.266588,42.858137,657.509],[-2.266619,42.858177,657.708],[-2.266642,42.858223,659.055],[-2.266655,42.858269,660.247],[-2.266674,42.858314,660.515],[-2.266675,42.858365,661.12],[-2.266668,42.858417,661.146],[-2.26663,42.858473,660.348],[-2.2666,42.858512,660.252],[-2.266598,42.858557,659.778],[-2.266544,42.858602,659.079],[-2.266521,42.858654,658.205],[-2.266477,42.85869,657.325],[-2.26647,42.858739,657.208],[-2.26644,42.85879,657.531],[-2.26643,42.858838,657.743],[-2.266418,42.858888,658.681],[-2.266413,42.858934,659.926],[-2.266406,42.858988,659.172],[-2.266378,42.859031,658.664],[-2.266351,42.859079,658.348],[-2.266364,42.859125,658.144],[-2.266357,42.85917,658.435],[-2.266293,42.859188,660.286],[-2.26628,42.859236,661.714],[-2.266222,42.859259,662.608],[-2.266163,42.859277,662.757]]}}]}