{"type":"FeatureCollection","features":[{"type":"Feature","properties":{"ruta_id":"51010794","nombre":"⛰️ IRUMUGARRIETA y ALDAON desde el parking de ALBI","blog_url":"https://www.rutasporelmonte.com/irumugarrieta-aldaon-albi/"},"geometry":{"type":"LineString","coordinates":[[-1.995437,42.962926,986.659],[-1.995348,42.962921,986.603],[-1.995286,42.962902,986.623],[-1.995224,42.962886,986.608],[-1.995262,42.962847,986.69],[-1.995332,42.962854,986.616],[-1.995396,42.962855,986.625],[-1.99547,42.962842,986.646],[-1.995539,42.96282,986.695],[-1.995602,42.962799,986.652],[-1.995669,42.962793,986.624],[-1.995743,42.962777,986.629],[-1.995813,42.962787,986.679],[-1.995863,42.962756,986.605],[-1.995929,42.962726,986.625],[-1.995994,42.962716,985.408],[-1.996064,42.962703,985.192],[-1.996136,42.962694,984.978],[-1.996199,42.962675,985.247],[-1.996266,42.962673,985.888],[-1.996331,42.962673,985.747],[-1.996403,42.962654,985.714],[-1.996468,42.962628,986.586],[-1.996537,42.962611,987.081],[-1.996612,42.962613,986.929],[-1.996675,42.962619,986.8],[-1.996743,42.962614,986.42],[-1.996818,42.96261,986.508],[-1.996884,42.962611,987.437],[-1.996956,42.962616,988.783],[-1.997029,42.962628,989.972],[-1.997092,42.962637,990.663],[-1.997156,42.962639,991.042],[-1.99722,42.962658,990.589],[-1.997282,42.962694,990.291],[-1.997338,42.962716,990.476],[-1.997404,42.962734,990.971],[-1.997462,42.962768,989.641],[-1.997521,42.96279,987.615],[-1.997587,42.962824,986.008],[-1.997632,42.962867,985.172],[-1.997653,42.962923,984.548],[-1.997665,42.962977,985.067],[-1.997659,42.963029,985.388],[-1.99764,42.963085,985.977],[-1.99761,42.963132,985.464],[-1.99756,42.963175,985.116],[-1.997526,42.963214,985.381],[-1.997508,42.96326,985.849],[-1.99748,42.963301,986.102],[-1.997427,42.963335,986.722],[-1.997372,42.963366,987.108],[-1.997337,42.96341,987.759],[-1.997294,42.963448,987.745],[-1.997257,42.9635,987.784],[-1.997243,42.963548,987.725],[-1.997224,42.963592,988.154],[-1.99721,42.96364,989.171],[-1.997222,42.963697,988.913],[-1.997232,42.963742,988.888],[-1.997234,42.963787,990.371],[-1.997211,42.96383,990.041],[-1.997219,42.963883,989.815],[-1.997238,42.963937,990.108],[-1.997271,42.963985,989.912],[-1.997329,42.964011,989.838],[-1.99739,42.964045,989.757],[-1.997445,42.964077,989.378],[-1.997495,42.964106,988.647],[-1.997564,42.964117,987.824],[-1.997629,42.964139,987.366],[-1.997682,42.964167,985.861],[-1.997758,42.964191,985.345],[-1.99784,42.964194,984.247],[-1.997914,42.964195,983.911],[-1.998001,42.964193,984.508],[-1.998086,42.964181,985.319],[-1.998154,42.964185,985.875],[-1.998218,42.964197,985.724],[-1.998282,42.964198,986.035],[-1.998344,42.964204,986.214],[-1.99841,42.9642,985.941],[-1.998473,42.964182,985.763],[-1.998528,42.964141,985.648],[-1.99857,42.964099,985.984],[-1.998608,42.964058,986.507],[-1.99863,42.964013,986.117],[-1.998667,42.963977,986.208],[-1.998696,42.963937,987.563],[-1.998713,42.963889,989.549],[-1.998761,42.963849,989.198],[-1.998823,42.963828,989.659],[-1.998884,42.963817,989.138],[-1.998964,42.963825,990.425],[-1.999029,42.963844,991.227],[-1.999073,42.963883,990.922],[-1.999134,42.963901,994.332],[-1.999208,42.963885,997.592],[-1.999292,42.963883,999.011],[-1.999366,42.963893,1000.308],[-1.999441,42.963877,1000.798],[-1.999504,42.963851,1000.934],[-1.999566,42.963827,999.473],[-1.999637,42.963839,998.174],[-1.999705,42.963857,997.313],[-1.999776,42.963884,996.86],[-1.999834,42.963916,996.972],[-1.999886,42.963962,997.467],[-1.99995,42.963996,996.936],[-2.000013,42.964031,995.817],[-2.000079,42.964056,996.318],[-2.00011,42.964104,995.408],[-2.000116,42.964152,993.368],[-2.000124,42.964199,992.814],[-2.000169,42.964238,991.783],[-2.000248,42.964263,991.454],[-2.000305,42.96431,991.223],[-2.000359,42.964362,991.57],[-2.000409,42.964394,992.152],[-2.000461,42.964434,993.377],[-2.000501,42.964483,994.899],[-2.000547,42.964526,995.307],[-2.000596,42.964567,996.027],[-2.000663,42.964604,997.208],[-2.000715,42.964647,997.534],[-2.000743,42.96469,998.16],[-2.000761,42.964739,998.549],[-2.000746,42.964799,997.92],[-2.000739,42.964844,997.149],[-2.000675,42.964873,997.036],[-2.000617,42.964894,996.658],[-2.000552,42.964931,995.963],[-2.000531,42.964977,995.118],[-2.000527,42.965029,995.098],[-2.000513,42.965088,994.217],[-2.00053,42.965138,994.108],[-2.000554,42.965184,994.026],[-2.000591,42.965239,994.022],[-2.000635,42.965271,994.091],[-2.000655,42.965315,994.882],[-2.000711,42.965357,994.971],[-2.000779,42.965391,994.558],[-2.000829,42.965425,994.78],[-2.000885,42.965445,994.485],[-2.000953,42.965465,993.844],[-2.001004,42.965493,993.505],[-2.001054,42.965525,993.315],[-2.001132,42.965532,993.208],[-2.001196,42.965551,993.959],[-2.001271,42.965568,994.315],[-2.00134,42.96558,995.494],[-2.001401,42.965587,996.025],[-2.001463,42.965602,996.454],[-2.001528,42.965599,996.641],[-2.001596,42.965592,995.963],[-2.00167,42.965594,996.338],[-2.001747,42.965606,997.355],[-2.001825,42.965619,998.307],[-2.001898,42.965623,998.917],[-2.001973,42.965616,999.308],[-2.002051,42.96561,999.52],[-2.002119,42.965621,999.646],[-2.002162,42.965659,998.935],[-2.002201,42.965716,998.576],[-2.002203,42.965767,998.225],[-2.002182,42.965817,998.082],[-2.002133,42.96585,998.364],[-2.002102,42.965905,998.199],[-2.002053,42.965945,998.861],[-2.00201,42.965981,1000.021],[-2.001961,42.966016,1000.713],[-2.001908,42.966046,1000.708],[-2.001845,42.96606,1000.761],[-2.001779,42.966081,1001.127],[-2.001716,42.966106,1002.126],[-2.001672,42.966139,1001.527],[-2.00166,42.966185,1001.686],[-2.001634,42.966226,1001.263],[-2.001595,42.966264,999.465],[-2.001556,42.966306,1000.33],[-2.001518,42.966349,1000.847],[-2.001475,42.966394,1001.129],[-2.001425,42.966423,1000.921],[-2.001395,42.966477,1001.208],[-2.001378,42.966533,1002.299],[-2.001378,42.96658,1003.295],[-2.001363,42.96663,1004.244],[-2.001344,42.966676,1004.445],[-2.001306,42.966727,1005.754],[-2.001253,42.966769,1005.341],[-2.001195,42.966788,1005.193],[-2.001134,42.966803,1004.238],[-2.001085,42.966844,1002.459],[-2.001039,42.966888,1000.903],[-2.000993,42.966925,1000.023],[-2.000944,42.966957,999.108],[-2.000886,42.966981,998.54],[-2.000821,42.966994,999.016],[-2.000741,42.967003,998.955],[-2.000679,42.967011,999.226],[-2.000602,42.967026,998.265],[-2.000541,42.967034,998.432],[-2.000478,42.967039,999.354],[-2.000407,42.96705,999.919],[-2.000328,42.967066,1000.638],[-2.000259,42.967081,1001.47],[-2.000189,42.967086,1001.917],[-2.000123,42.967089,998.608],[-2.000044,42.967075,998.228],[-1.999966,42.96706,998.414],[-1.999897,42.967062,998.913],[-1.999815,42.967056,1000.474],[-1.999745,42.967055,1002.193],[-1.999677,42.967059,1003.57],[-1.999608,42.96709,1005.662],[-1.999561,42.967119,1006.867],[-1.999508,42.967141,1007.979],[-1.999446,42.967147,1008.605],[-1.999398,42.967181,1010.225],[-1.999366,42.967225,1011.608],[-1.999346,42.967272,1013.262],[-1.999335,42.96733,1014.258],[-1.999341,42.967378,1016.027],[-1.999355,42.967423,1017.178],[-1.999379,42.967475,1018.137],[-1.999396,42.967518,1018.354],[-1.999429,42.967571,1019.256],[-1.999455,42.967612,1020.241],[-1.999482,42.967657,1021.265],[-1.9995,42.967703,1021.068],[-1.999502,42.967758,1021.314],[-1.999508,42.967804,1021.108],[-1.999507,42.967858,1022.231],[-1.99956,42.967889,1020.897],[-1.999578,42.967942,1020.866],[-1.999592,42.967994,1020.827],[-1.999615,42.968038,1016.846],[-1.999691,42.968047,1018.483],[-1.999741,42.968076,1021.475],[-1.999784,42.968126,1023.62],[-1.999823,42.968163,1024.992],[-1.999848,42.968207,1026.173],[-1.999866,42.968253,1026.82],[-1.9999,42.968295,1027.608],[-1.999919,42.968346,1029.364],[-1.999965,42.968381,1030.77],[-2.000031,42.968402,1032.069],[-2.000059,42.968442,1032.81],[-2.000093,42.968484,1034.959],[-2.000141,42.968517,1037.316],[-2.000197,42.968552,1040.028],[-2.000249,42.968584,1041.273],[-2.000297,42.968615,1043.922],[-2.000337,42.968651,1044.762],[-2.00038,42.968686,1044.408],[-2.000428,42.968716,1043.808],[-2.000452,42.968762,1043.957],[-2.000433,42.968807,1043.923],[-2.000432,42.968859,1044.732],[-2.000419,42.968909,1044.833],[-2.000366,42.968939,1045.342],[-2.000301,42.968963,1046.829],[-2.000242,42.96898,1047.321],[-2.000194,42.969011,1047.646],[-2.000141,42.969039,1049.041],[-2.000093,42.969075,1049.881],[-2.000061,42.969117,1050.709],[-2.000015,42.969153,1050.808],[-1.999969,42.969186,1052.549],[-1.999954,42.969241,1053.145],[-1.99991,42.969274,1055.184],[-1.999866,42.969308,1056.715],[-1.999835,42.969358,1058.044],[-1.999796,42.969394,1057.251],[-1.999766,42.969438,1057.553],[-1.999726,42.969492,1057.748],[-1.999683,42.969533,1053.756],[-1.999643,42.969571,1049.759],[-1.999589,42.969612,1048.214],[-1.999555,42.96965,1049.308],[-1.999511,42.969696,1052.42],[-1.999472,42.969738,1055.886],[-1.999412,42.969765,1059.185],[-1.999362,42.969793,1062.366],[-1.99931,42.969823,1064.235],[-1.999252,42.969841,1065.332],[-1.999195,42.969874,1067.694],[-1.999153,42.969922,1063.629],[-1.999137,42.969975,1061.465],[-1.999092,42.970012,1063.368],[-1.999027,42.970049,1066.414],[-1.998968,42.970083,1070.408],[-1.998904,42.970094,1072.781],[-1.998849,42.97013,1074.197],[-1.99884,42.97018,1075.796],[-1.998837,42.970228,1077.937],[-1.998775,42.97026,1080.036],[-1.998714,42.97028,1080.983],[-1.998652,42.970275,1081.075],[-1.998628,42.970324,1080.78],[-1.998607,42.970373,1081.771],[-1.998602,42.970426,1081.941],[-1.998583,42.970471,1082.815],[-1.998563,42.970516,1084.208],[-1.998568,42.970574,1085.042],[-1.998579,42.970625,1085.598],[-1.998582,42.970671,1087.037],[-1.9986,42.970725,1089.928],[-1.998611,42.970776,1090.417],[-1.998603,42.970826,1090.314],[-1.998602,42.970875,1090.766],[-1.998643,42.970911,1091.391],[-1.998616,42.970961,1090.918],[-1.998605,42.971006,1090.298],[-1.998614,42.971056,1089.417],[-1.998644,42.971104,1088.908],[-1.998706,42.971131,1088.686],[-1.998727,42.971179,1087.252],[-1.998727,42.971232,1086.431],[-1.998751,42.971277,1086.322],[-1.998751,42.971323,1087.061],[-1.998747,42.97137,1087.838],[-1.998792,42.971412,1088.72],[-1.998832,42.971462,1089.645],[-1.998858,42.971503,1089.835],[-1.998854,42.971552,1090.786],[-1.998861,42.971604,1090.414],[-1.998889,42.971647,1090.208],[-1.998933,42.97168,1090.538],[-1.998881,42.97172,1089.974],[-1.998831,42.971758,1089.183],[-1.998785,42.971792,1089.054],[-1.998758,42.971845,1088.633],[-1.998741,42.971889,1089.12],[-1.998769,42.971935,1089.832],[-1.9988,42.971978,1091.037],[-1.998818,42.972025,1091.372],[-1.998836,42.97207,1091.513],[-1.998836,42.972116,1092.814],[-1.998895,42.972129,1094.808],[-1.998952,42.972151,1097.662],[-1.999002,42.972179,1100.958],[-1.999066,42.972193,1103.387],[-1.999131,42.972215,1104.778],[-1.9992,42.972239,1106.057],[-1.999217,42.97229,1105.664],[-1.99922,42.972352,1105.786],[-1.999216,42.9724,1105.831],[-1.999259,42.972434,1107.018],[-1.99931,42.972467,1108.998],[-1.999349,42.972509,1111.317],[-1.99938,42.972552,1109.908],[-1.999392,42.972598,1109.926],[-1.999435,42.972634,1110.332],[-1.999501,42.972631,1111.311],[-1.999564,42.972631,1113.162],[-1.999627,42.972656,1114.631],[-1.999693,42.972659,1114.368],[-1.999764,42.972652,1114.96],[-1.999835,42.972651,1115.755],[-1.999892,42.97267,1115.481],[-1.999935,42.972703,1115.261],[-1.999956,42.972751,1114.717],[-2.000011,42.972782,1115.208],[-2.000031,42.97283,1117.113],[-2.000067,42.972875,1118.269],[-2.000101,42.972924,1119.798],[-2.000132,42.972963,1119.879],[-2.000161,42.97301,1119.598],[-2.000182,42.973059,1119.345],[-2.000221,42.973106,1118.437],[-2.000268,42.973152,1117.832],[-2.000291,42.973195,1117.596],[-2.000333,42.973236,1117.331],[-2.000368,42.973274,1117.224],[-2.000404,42.973316,1117.108],[-2.000441,42.973362,1117.164],[-2.00048,42.973407,1117.19],[-2.000519,42.973444,1117.179],[-2.000577,42.973461,1117.11],[-2.000637,42.973479,1117.959],[-2.000701,42.973501,1118.046],[-2.000747,42.973467,1118.498],[-2.000785,42.97343,1119.923],[-2.000852,42.973446,1120.083],[-2.000913,42.973471,1120.825],[-2.000968,42.973501,1121.717],[-2.001021,42.973535,1122.208],[-2.001083,42.97356,1122.143],[-2.001145,42.973583,1122.989],[-2.001179,42.973621,1123.858],[-2.001213,42.973661,1124.329],[-2.001234,42.973704,1124.668],[-2.001222,42.973753,1124.485],[-2.001208,42.973797,1124.367],[-2.001195,42.973851,1125.492],[-2.00116,42.973899,1126.542],[-2.001141,42.973948,1128.322],[-2.001108,42.973992,1129.414],[-2.001059,42.974035,1130.108],[-2.001018,42.974076,1130.159],[-2.000969,42.974115,1130.575],[-2.000903,42.974136,1131.124],[-2.000837,42.974152,1131.985],[-2.000786,42.97418,1132.074],[-2.000738,42.974211,1131.211],[-2.000685,42.974246,1130.783],[-2.000613,42.974247,1130.058],[-2.000553,42.974262,1130.446],[-2.000502,42.974295,1131.488],[-2.000438,42.974298,1132.816],[-2.000371,42.974298,1133.308],[-2.000308,42.974321,1133.659],[-2.000246,42.974335,1133.015],[-2.000171,42.974324,1133.864],[-2.000102,42.974331,1129.875],[-2.000052,42.97437,1128.374],[-1.999986,42.974387,1129.071],[-1.999953,42.97443,1130.263],[-1.999941,42.974481,1130.538],[-1.999886,42.974512,1132.733],[-1.999833,42.974537,1133.623],[-1.999765,42.974553,1134.615],[-1.999719,42.974595,1134.408],[-1.999676,42.974629,1135.968],[-1.999624,42.974661,1137.284],[-1.999558,42.974691,1138.413],[-1.999529,42.974736,1138.724],[-1.999477,42.974779,1138.973],[-1.99944,42.974828,1139.86],[-1.999392,42.974858,1140.732],[-1.999378,42.974903,1138.527],[-1.999338,42.974939,1138.094],[-1.999302,42.974979,1138.157],[-1.999276,42.975026,1138.522],[-1.999239,42.975063,1139.208],[-1.999201,42.975101,1139.664],[-1.999145,42.975134,1139.84],[-1.999106,42.975174,1139.929],[-1.999086,42.975223,1141.24],[-1.999067,42.975274,1142.069],[-1.999045,42.975324,1142.596],[-1.999029,42.975371,1142.888],[-1.999034,42.975417,1143.433],[-1.999039,42.975465,1143.331],[-1.999054,42.975509,1143.361],[-1.999071,42.975553,1143.307],[-1.999127,42.97559,1143.308],[-1.999159,42.975639,1142.548],[-1.999176,42.975689,1142.064],[-1.9992,42.975733,1140.953],[-1.999224,42.975778,1140.284],[-1.999227,42.975826,1141.033],[-1.999231,42.975876,1140.76],[-1.999203,42.975917,1140.532],[-1.999233,42.975967,1141.637],[-1.999221,42.976017,1141.981],[-1.999234,42.976068,1141.761],[-1.9992,42.976119,1142.017],[-1.999177,42.976164,1143.008],[-1.99919,42.97621,1144.093],[-1.999218,42.976254,1144.629],[-1.999231,42.976298,1144.978],[-1.99924,42.976349,1145.189],[-1.999241,42.976397,1144.478],[-1.999253,42.976448,1144.475],[-1.999239,42.976495,1144.027],[-1.999236,42.976546,1144.652],[-1.999201,42.97659,1145.791],[-1.99923,42.976635,1146.481],[-1.999261,42.976681,1146.819],[-1.999321,42.976704,1147.408],[-1.999372,42.976736,1147.464],[-1.99941,42.976778,1147.09],[-1.999449,42.976817,1147.649],[-1.999469,42.976861,1148.72],[-1.999518,42.976889,1148.639],[-1.999569,42.976922,1148.996],[-1.999612,42.976964,1148.348],[-1.999649,42.977009,1148.723],[-1.999679,42.977057,1149.424],[-1.999711,42.977096,1150.604],[-1.999751,42.977132,1152.514],[-1.999792,42.977169,1152.108],[-1.999853,42.977191,1151.857],[-1.999898,42.977222,1152.053],[-1.999907,42.977269,1152.542],[-1.999936,42.977321,1153.633],[-1.999955,42.977368,1153.532],[-1.999989,42.977413,1153.879],[-2.000019,42.977463,1155.631],[-2.000042,42.977507,1157.126],[-2.000103,42.977521,1159.268],[-2.000167,42.977519,1160.142],[-2.000239,42.977518,1161.426],[-2.000293,42.977544,1162.608],[-2.0003,42.977596,1162.961],[-2.000291,42.977644,1163.577],[-2.000309,42.977693,1164.356],[-2.00029,42.977736,1163.647],[-2.000321,42.97778,1163.286],[-2.000365,42.97782,1162.933],[-2.000389,42.977864,1162.795],[-2.000421,42.97791,1163.84],[-2.000463,42.977944,1164.548],[-2.000495,42.977989,1165.361],[-2.000514,42.978038,1166.617],[-2.000533,42.978084,1169.408],[-2.000564,42.978127,1171.969],[-2.000625,42.978154,1172.695],[-2.000667,42.978197,1172.664],[-2.000731,42.978219,1172.665],[-2.000777,42.978261,1172.634],[-2.000819,42.978298,1173.461],[-2.000858,42.978336,1174.743],[-2.000904,42.978366,1176.388],[-2.000945,42.978404,1179.262],[-2.000967,42.97845,1182.683],[-2.000984,42.978497,1185.411],[-2.001025,42.978532,1188.708],[-2.001067,42.978576,1191.561],[-2.001078,42.978633,1192.887],[-2.001111,42.978674,1192.426],[-2.001122,42.978724,1192.587],[-2.00113,42.978781,1192.636],[-2.001153,42.978824,1192.693],[-2.001179,42.978873,1192.685],[-2.001213,42.978922,1193.43],[-2.001251,42.978963,1193.578],[-2.001299,42.979014,1193.633],[-2.001329,42.979057,1193.626],[-2.001365,42.9791,1194.408],[-2.001402,42.979137,1194.552],[-2.001439,42.979184,1194.618],[-2.001499,42.979212,1194.297],[-2.001555,42.979238,1193.668],[-2.001601,42.979269,1193.227],[-2.001647,42.979304,1193.014],[-2.001699,42.979338,1192.966],[-2.001755,42.979368,1192.831],[-2.001804,42.9794,1194.424],[-2.001862,42.979422,1195.704],[-2.001924,42.97945,1196.514],[-2.001975,42.979484,1197.408],[-2.002042,42.979514,1198.397],[-2.002089,42.979544,1198.523],[-2.002144,42.979579,1197.492],[-2.0022,42.979601,1197.143],[-2.002256,42.979626,1196.112],[-2.002312,42.979649,1195.979],[-2.002371,42.979672,1195.481],[-2.002421,42.9797,1194.376],[-2.002479,42.979722,1194.049],[-2.002541,42.979751,1193.402],[-2.002595,42.979774,1193.522],[-2.002664,42.979806,1193.908],[-2.002719,42.97983,1194.219],[-2.002782,42.979859,1193.635],[-2.002834,42.979891,1192.444],[-2.002899,42.979916,1192.135],[-2.002963,42.979939,1191.964],[-2.003026,42.979962,1191.851],[-2.003076,42.97999,1191.763],[-2.003132,42.98002,1190.918],[-2.003191,42.980041,1189.642],[-2.00325,42.980066,1189.222],[-2.003307,42.980101,1189.014],[-2.003365,42.980136,1188.508],[-2.003417,42.980176,1188.249],[-2.003457,42.980222,1188.065],[-2.003514,42.980266,1187.134],[-2.003576,42.980286,1185.445],[-2.003632,42.98032,1183.634],[-2.003686,42.980357,1182.111],[-2.003741,42.980391,1181.223],[-2.003791,42.980425,1180.368],[-2.003838,42.980467,1180.162],[-2.003887,42.980506,1180.083],[-2.003946,42.980548,1179.911],[-2.004005,42.980585,1179.908],[-2.004068,42.980612,1179.971],[-2.004131,42.980628,1179.177],[-2.004193,42.980659,1178.626],[-2.004235,42.980694,1178.337],[-2.004289,42.980723,1178.116],[-2.004362,42.980738,1178.473],[-2.004424,42.980758,1178.665],[-2.004495,42.980769,1178.75],[-2.004576,42.980771,1178.839],[-2.004647,42.980779,1178.401],[-2.004712,42.980792,1179.021],[-2.004779,42.980806,1179.708],[-2.00485,42.980832,1180.598],[-2.004915,42.980865,1181.094],[-2.004973,42.980887,1180.983],[-2.005048,42.980904,1181.214],[-2.005115,42.980918,1180.673],[-2.005174,42.980932,1180.62],[-2.005241,42.980959,1180.272],[-2.005312,42.980998,1180.077],[-2.005378,42.981031,1179.912],[-2.005438,42.981053,1180.232],[-2.00549,42.981078,1180.405],[-2.00555,42.981096,1180.508],[-2.005617,42.981117,1180.626],[-2.005675,42.981135,1181.012],[-2.005735,42.981154,1181.741],[-2.00579,42.981174,1181.782],[-2.005852,42.981192,1181.381],[-2.005914,42.981211,1181.148],[-2.00597,42.981232,1181.81],[-2.006044,42.981252,1182.655],[-2.006121,42.981268,1182.381],[-2.006195,42.981281,1180.961],[-2.006255,42.981301,1179.717],[-2.006318,42.981329,1179.808],[-2.006387,42.981353,1180.223],[-2.006452,42.981382,1180.549],[-2.00652,42.981405,1181.148],[-2.006582,42.981421,1181.459],[-2.006641,42.981447,1181.668],[-2.006684,42.98148,1181.345],[-2.006741,42.981521,1180.797],[-2.006796,42.981548,1179.672],[-2.00686,42.981567,1178.948],[-2.006932,42.981591,1178.161],[-2.006984,42.981622,1177.617],[-2.007038,42.98165,1177.308],[-2.007081,42.981682,1176.759],[-2.007133,42.981717,1176.465],[-2.007196,42.981748,1176.294],[-2.007253,42.981791,1176.575],[-2.007306,42.981826,1176.764],[-2.007353,42.981859,1177.251],[-2.007401,42.981897,1177.923],[-2.007447,42.981941,1179.188],[-2.007503,42.981977,1180.268],[-2.007567,42.982005,1180.542],[-2.007637,42.982016,1181.126],[-2.007707,42.98203,1180.608],[-2.007772,42.98205,1180.341],[-2.00783,42.982084,1180.577],[-2.007881,42.982119,1180.646],[-2.007938,42.982149,1180.747],[-2.007997,42.982169,1180.846],[-2.008074,42.982188,1181.283],[-2.008139,42.982219,1183.185],[-2.008203,42.98223,1183.86],[-2.008265,42.982247,1183.483],[-2.008335,42.982264,1182.825],[-2.008403,42.982263,1182.017],[-2.008476,42.982244,1181.108],[-2.008543,42.982245,1180.653],[-2.00862,42.982259,1179.949],[-2.008683,42.982253,1180.728],[-2.008743,42.982263,1181.279],[-2.008818,42.982266,1180.358],[-2.00889,42.982259,1178.925],[-2.008961,42.982252,1178.537],[-2.009023,42.982248,1178.382],[-2.009088,42.982238,1178.298],[-2.009166,42.982233,1177.715],[-2.009225,42.98222,1177.826],[-2.009291,42.98221,1177.908],[-2.009368,42.982196,1177.584],[-2.009435,42.982168,1178.18],[-2.009497,42.982153,1179.629],[-2.009568,42.982132,1180.13],[-2.009637,42.982105,1181.219],[-2.009707,42.982076,1181.926],[-2.009763,42.982052,1182.378],[-2.009828,42.982036,1182.573],[-2.009901,42.982043,1182.291],[-2.009975,42.982051,1182.481],[-2.010042,42.982067,1182.519],[-2.010113,42.982067,1183.408],[-2.010173,42.982044,1184.344],[-2.01024,42.982032,1185.36],[-2.010307,42.982024,1186.329],[-2.010371,42.98201,1187.74],[-2.010443,42.982023,1189.379],[-2.010515,42.982026,1190.736],[-2.010578,42.98205,1191.558],[-2.01064,42.982054,1192.463],[-2.010704,42.982059,1192.977],[-2.010782,42.982061,1193.661],[-2.010845,42.982053,1194.427],[-2.01091,42.98205,1194.908],[-2.010975,42.982057,1196.082],[-2.011049,42.982052,1197.548],[-2.011112,42.982057,1198.897],[-2.011176,42.982059,1200.098],[-2.011249,42.982067,1201.187],[-2.011322,42.982081,1201.864],[-2.011353,42.982124,1197.876],[-2.011367,42.982175,1200.231],[-2.011419,42.982202,1201.672],[-2.011464,42.982244,1202.513],[-2.011512,42.982283,1202.614],[-2.011552,42.982332,1202.708],[-2.011565,42.982382,1202.762],[-2.011575,42.982435,1202.768],[-2.01159,42.982485,1203.597],[-2.011629,42.982522,1204.058],[-2.011663,42.982564,1203.987],[-2.011694,42.982613,1203.444],[-2.011714,42.982662,1203.526],[-2.011724,42.982708,1204.091],[-2.011748,42.98275,1204.358],[-2.011778,42.9828,1204.152],[-2.011819,42.982848,1203.617],[-2.011862,42.982885,1203.708],[-2.011905,42.98293,1203.79],[-2.011959,42.982969,1203.316],[-2.011985,42.983012,1203.595],[-2.011981,42.983061,1203.686],[-2.01197,42.983114,1203.735],[-2.011963,42.983165,1204.192],[-2.011966,42.983217,1204.844],[-2.011969,42.983267,1205.679],[-2.011959,42.983318,1205.729],[-2.011992,42.983362,1205.7],[-2.012014,42.983415,1204.92],[-2.012028,42.983462,1204.008],[-2.012016,42.983509,1201.927],[-2.011977,42.983548,1200.253],[-2.011951,42.983589,1199.662],[-2.011939,42.983642,1199.233],[-2.011928,42.983693,1199.082],[-2.011919,42.983747,1198.149],[-2.011932,42.983794,1197.121],[-2.011986,42.983824,1196.166],[-2.012042,42.983862,1194.336],[-2.012066,42.983906,1192.417],[-2.012081,42.983954,1190.518],[-2.012124,42.983987,1189.308],[-2.012166,42.984022,1188.228],[-2.012187,42.984067,1186.754],[-2.012205,42.984118,1185.483],[-2.012232,42.984167,1185.094],[-2.012266,42.984212,1184.433],[-2.012291,42.984263,1183.28],[-2.012305,42.984316,1182.952],[-2.012317,42.984364,1181.927],[-2.012343,42.984408,1180.944],[-2.012379,42.984456,1181.105],[-2.012385,42.984508,1181.215],[-2.012335,42.984538,1180.908],[-2.012362,42.984579,1181.129],[-2.012399,42.984615,1181.635],[-2.012464,42.984618,1181.534],[-2.012534,42.984631,1181.035],[-2.012592,42.984652,1180.724],[-2.012642,42.984688,1180.551],[-2.012669,42.984733,1180.443],[-2.012651,42.984786,1180.768],[-2.012616,42.984826,1180.539],[-2.012595,42.98487,1180.001],[-2.012578,42.984916,1180.521],[-2.012566,42.984963,1179.208],[-2.012539,42.985009,1179.288],[-2.012492,42.985039,1178.874],[-2.01243,42.985065,1179.093],[-2.012378,42.985103,1179.554],[-2.012323,42.985137,1180.613],[-2.012283,42.98518,1180.51],[-2.012235,42.985217,1180.452],[-2.012171,42.985223,1181.987],[-2.012108,42.985207,1182.856],[-2.012077,42.98525,1184.659],[-2.012079,42.985295,1186.514],[-2.012091,42.985342,1187.208],[-2.012099,42.985389,1188.03],[-2.012089,42.985434,1187.716],[-2.012104,42.985484,1187.175],[-2.012139,42.985533,1187.216],[-2.012186,42.985575,1187.695],[-2.012234,42.985609,1187.972],[-2.012278,42.985653,1188.134],[-2.012328,42.98569,1188.269],[-2.012357,42.985732,1188.362],[-2.012388,42.985776,1188.383],[-2.012433,42.985807,1188.311],[-2.012393,42.985841,1188.308],[-2.012418,42.985886,1188.391],[-2.012447,42.98593,1187.927],[-2.012472,42.985978,1188.186],[-2.012492,42.986024,1189.087],[-2.012527,42.986074,1190.336],[-2.012527,42.98612,1191.953],[-2.012507,42.98617,1193.355],[-2.01248,42.986214,1194.54],[-2.012454,42.986261,1195.268],[-2.012442,42.986306,1195.642],[-2.012444,42.986352,1196.326],[-2.012451,42.986406,1195.508],[-2.012465,42.986453,1195.471],[-2.012486,42.986506,1195.817],[-2.012497,42.986559,1196.416],[-2.012519,42.986605,1197.287],[-2.01256,42.986655,1197.796],[-2.012613,42.986686,1198.063],[-2.012673,42.986709,1197.445],[-2.012735,42.986733,1196.29],[-2.012781,42.986767,1195.146],[-2.012846,42.986792,1194.488],[-2.012897,42.986825,1193.616],[-2.012934,42.986868,1192.708],[-2.012975,42.986912,1192.619],[-2.013012,42.986965,1192.915],[-2.013052,42.987016,1193.154],[-2.013087,42.987057,1193.675],[-2.013109,42.987104,1194.354],[-2.013146,42.987149,1195.131],[-2.013173,42.987197,1195.253],[-2.013187,42.987254,1194.918],[-2.013208,42.987305,1194.722],[-2.013246,42.987351,1195.062],[-2.013295,42.987391,1196.008],[-2.013338,42.987424,1196.608],[-2.013368,42.987474,1197.777],[-2.013401,42.987522,1193.783],[-2.013427,42.987563,1191.232],[-2.013446,42.987615,1194.123],[-2.013478,42.987663,1197.432],[-2.013515,42.987708,1199.899],[-2.013533,42.987754,1201.241],[-2.013554,42.987803,1203.386],[-2.013552,42.987849,1205.365],[-2.013554,42.987898,1206.568],[-2.013543,42.987948,1207.214],[-2.013549,42.987997,1207.608],[-2.013551,42.988052,1207.191],[-2.013553,42.988104,1207.627],[-2.013562,42.988154,1208.376],[-2.013575,42.988201,1209.537],[-2.013578,42.988256,1210.296],[-2.013595,42.988301,1211.053],[-2.013606,42.988351,1212.325],[-2.013619,42.988402,1212.72],[-2.01365,42.988452,1213.336],[-2.013661,42.988503,1214.117],[-2.013699,42.98855,1214.618],[-2.013745,42.988587,1214.108],[-2.01378,42.988638,1214.618],[-2.013799,42.988684,1214.934],[-2.013836,42.988721,1214.793],[-2.013866,42.988775,1215.034],[-2.013886,42.988818,1215.263],[-2.013922,42.988861,1214.98],[-2.013961,42.988899,1215.122],[-2.013981,42.988944,1215.617],[-2.014002,42.988987,1215.986],[-2.014023,42.989036,1215.76],[-2.014048,42.98908,1215.226],[-2.014064,42.989133,1215.708],[-2.014077,42.989181,1216.443],[-2.01409,42.989228,1217.259],[-2.01411,42.989273,1217.398],[-2.014139,42.989319,1217.819],[-2.014157,42.98937,1218.198],[-2.014176,42.989426,1217.915],[-2.014188,42.989479,1217.877],[-2.014204,42.989526,1217.772],[-2.01424,42.98957,1217.287],[-2.014284,42.989602,1216.942],[-2.014356,42.989614,1216.726],[-2.014431,42.989617,1216.608],[-2.01449,42.989643,1216.583],[-2.014503,42.989698,1216.579],[-2.014506,42.989756,1217.358],[-2.014547,42.9898,1217.829],[-2.01456,42.989846,1218.148],[-2.014575,42.989903,1219.165],[-2.014595,42.989948,1220.147],[-2.014634,42.989988,1220.352],[-2.014673,42.990027,1221.214],[-2.014715,42.990074,1221.754],[-2.014757,42.990114,1221.609],[-2.014788,42.990154,1222.008],[-2.014844,42.990184,1223.056],[-2.014916,42.990192,1223.622],[-2.01498,42.990207,1223.611],[-2.015043,42.99023,1224.092],[-2.015108,42.990247,1224.661],[-2.015173,42.99027,1225.878],[-2.015242,42.990283,1226.97],[-2.015307,42.990283,1227.625],[-2.015375,42.990279,1228.833],[-2.015438,42.990281,1229.123],[-2.015506,42.990306,1230.115],[-2.015536,42.990351,1231.108],[-2.015587,42.990388,1232.578],[-2.015634,42.990419,1233.774],[-2.015688,42.99045,1234.473],[-2.015726,42.990496,1235.244],[-2.015719,42.990543,1236.173],[-2.015726,42.990598,1237.81],[-2.015714,42.990647,1238.812],[-2.015712,42.990696,1239.887],[-2.015722,42.990748,1241.268],[-2.015691,42.990794,1242.142],[-2.015655,42.990837,1243.026],[-2.015693,42.990882,1244.308],[-2.015702,42.990927,1244.781],[-2.015744,42.990968,1245.397],[-2.015797,42.991002,1245.766],[-2.01582,42.99105,1246.377],[-2.015821,42.991103,1247.116],[-2.015834,42.991151,1247.273],[-2.015862,42.991193,1247.235],[-2.015891,42.991236,1247.68],[-2.015935,42.991273,1247.572],[-2.016003,42.991298,1247.413],[-2.016051,42.991332,1247.714],[-2.016091,42.99137,1249.108],[-2.01614,42.991408,1249.922],[-2.016167,42.991452,1250.498],[-2.01616,42.991502,1251.587],[-2.016142,42.991553,1252.228],[-2.016107,42.991599,1252.627],[-2.016111,42.991646,1252.424],[-2.016139,42.991694,1252.716],[-2.016175,42.991735,1253.341],[-2.016144,42.991784,1254.045],[-2.016118,42.99183,1254.447],[-2.016116,42.991885,1254.711],[-2.016105,42.991935,1254.908],[-2.0161,42.99199,1255.089],[-2.016082,42.992037,1255.575],[-2.016051,42.992082,1256.254],[-2.016039,42.992128,1257.015],[-2.016039,42.992174,1257.164],[-2.016034,42.992219,1257.531],[-2.016076,42.992256,1258.273],[-2.016126,42.992292,1259.098],[-2.016191,42.992306,1259.991],[-2.016254,42.992314,1260.881],[-2.016304,42.992349,1262.219],[-2.016366,42.992363,1263.408],[-2.016421,42.992392,1264.534],[-2.016485,42.992398,1265.66],[-2.016551,42.992387,1267.059],[-2.016582,42.992429,1269.17],[-2.016632,42.992463,1271.169],[-2.01668,42.992492,1273.516],[-2.016726,42.992528,1276.218],[-2.016789,42.992527,1278.263],[-2.016848,42.992548,1280.638],[-2.016886,42.992585,1282.07],[-2.016892,42.992633,1283.317],[-2.016901,42.992678,1284.908],[-2.016967,42.992683,1286.638],[-2.017,42.992727,1287.214],[-2.017016,42.992772,1288.053],[-2.017029,42.992826,1288.934],[-2.017055,42.992874,1289.863],[-2.01708,42.992922,1290.85],[-2.017093,42.992967,1291.432],[-2.01709,42.993017,1292.167],[-2.017102,42.993061,1292.121],[-2.01709,42.993114,1292.541],[-2.017067,42.993159,1292.805],[-2.017074,42.993215,1292.608],[-2.017089,42.993261,1293.387],[-2.01709,42.993316,1294.133],[-2.017083,42.993361,1293.862],[-2.017098,42.993407,1294.053],[-2.017108,42.993456,1293.782],[-2.017118,42.993504,1294.319],[-2.017128,42.993556,1294.341],[-2.017148,42.993602,1294.786],[-2.017158,42.993653,1295.332],[-2.017164,42.993702,1296.192],[-2.017171,42.993747,1297.011],[-2.017183,42.993801,1299.108],[-2.017173,42.993846,1300.468],[-2.017184,42.993902,1300.874],[-2.017195,42.993947,1300.673],[-2.017218,42.993996,1300.994],[-2.017264,42.994027,1300.753],[-2.017313,42.99406,1300.62],[-2.017364,42.994087,1300.522],[-2.017418,42.994125,1300.117],[-2.017483,42.994148,1299.891],[-2.017543,42.994169,1299.681],[-2.017609,42.994188,1300.719],[-2.017668,42.994172,1302.208],[-2.017731,42.994174,1303.924],[-2.017797,42.994182,1304.54],[-2.017865,42.994197,1304.919],[-2.017938,42.994207,1305.53],[-2.018002,42.994227,1306.369],[-2.018062,42.994253,1306.826],[-2.018122,42.994284,1307.918],[-2.018192,42.99429,1308.173],[-2.018233,42.99433,1308.237],[-2.018286,42.994361,1307.949],[-2.018352,42.994391,1307.313],[-2.018409,42.994418,1306.908],[-2.018468,42.994448,1306.798],[-2.018531,42.994471,1306.644],[-2.018601,42.994488,1307.773],[-2.018668,42.994493,1308.414],[-2.01873,42.994499,1308.823],[-2.018798,42.994523,1308.65],[-2.018867,42.994537,1309.332],[-2.018942,42.994539,1310.527],[-2.019001,42.994562,1310.886],[-2.019065,42.994579,1311.06],[-2.019127,42.994591,1311.526],[-2.019194,42.994614,1311.808],[-2.019261,42.99462,1312.423],[-2.019326,42.994638,1312.829],[-2.019398,42.994631,1313.088],[-2.019465,42.994604,1313.949],[-2.019533,42.994608,1315.728],[-2.019592,42.994638,1317.275],[-2.019613,42.99469,1317.347],[-2.019667,42.994715,1318.192],[-2.019728,42.994747,1317.048],[-2.019775,42.994782,1316.761],[-2.019738,42.994823,1317.317],[-2.019679,42.994846,1319.708],[-2.019623,42.994872,1320.769],[-2.019675,42.994903,1321.345],[-2.019693,42.994949,1322.154],[-2.019667,42.994993,1323.855],[-2.019619,42.99503,1324.884],[-2.019558,42.995058,1326.691],[-2.019502,42.995076,1327.313],[-2.019461,42.995113,1329.388],[-2.019512,42.995148,1331.372],[-2.019568,42.995173,1332.913],[-2.019622,42.995201,1333.914],[-2.019646,42.995254,1334.508],[-2.019663,42.995301,1334.432],[-2.01966,42.995349,1334.858],[-2.019621,42.995384,1335.427],[-2.019571,42.995422,1336.678],[-2.01953,42.995462,1337.397],[-2.019548,42.995505,1338.164],[-2.019586,42.995551,1338.616],[-2.019634,42.995581,1338.971],[-2.019619,42.995629,1339.925],[-2.019628,42.995675,1340.526],[-2.01969,42.995692,1341.708],[-2.019716,42.995741,1343.208],[-2.01971,42.995792,1344.577],[-2.019725,42.99584,1345.343],[-2.019738,42.995889,1345.822],[-2.019765,42.995938,1346.193],[-2.019788,42.995985,1346.752],[-2.019807,42.996034,1347.889],[-2.019833,42.996078,1348.581],[-2.019899,42.996102,1347.756],[-2.019952,42.99614,1347.296],[-2.019965,42.996185,1347.731],[-2.01996,42.996234,1348.024],[-2.019996,42.996272,1347.808],[-2.020013,42.996316,1348.944],[-2.020039,42.99636,1349.52],[-2.020085,42.996405,1349.199],[-2.020109,42.996449,1348.16],[-2.020144,42.996492,1346.799],[-2.020172,42.996547,1345.816],[-2.020202,42.996589,1344.998],[-2.020245,42.996628,1345.653],[-2.020299,42.996654,1344.876],[-2.020367,42.996667,1344.79],[-2.020425,42.996687,1344.619],[-2.020486,42.99672,1344.208],[-2.020544,42.996737,1343.512],[-2.020616,42.996744,1343.118],[-2.020679,42.996757,1343.797],[-2.020742,42.996755,1342.878],[-2.020819,42.996756,1338.857],[-2.020884,42.996772,1334.844],[-2.020958,42.996783,1333.966],[-2.021022,42.996806,1333.321],[-2.021093,42.996817,1334.277],[-2.021156,42.996793,1336.761],[-2.021211,42.996756,1339.427],[-2.021274,42.996754,1341.808],[-2.021345,42.996751,1344.152],[-2.021409,42.996749,1345.968],[-2.021471,42.996744,1347.437],[-2.021547,42.996747,1347.188],[-2.021615,42.996767,1346.917],[-2.021685,42.996763,1346.014],[-2.021744,42.996796,1346.276],[-2.021805,42.996819,1347.181],[-2.021819,42.996872,1349.328],[-2.021889,42.99688,1351.889],[-2.021954,42.996871,1354.917],[-2.022015,42.996875,1356.408],[-2.02205,42.996914,1356.517],[-2.022109,42.996934,1358.523],[-2.022171,42.99696,1359.352],[-2.02223,42.996976,1361.023],[-2.022293,42.996989,1362.472],[-2.022334,42.997027,1363.739],[-2.022322,42.997072,1366.171],[-2.022312,42.997126,1368.356],[-2.022291,42.997177,1369.651],[-2.022278,42.997222,1370.401],[-2.022241,42.997258,1371.711],[-2.022221,42.997303,1372.908],[-2.022234,42.997348,1374.09],[-2.022213,42.997391,1374.336],[-2.022217,42.997439,1373.745],[-2.022196,42.997485,1373.786],[-2.022187,42.997534,1374.525],[-2.022178,42.997583,1375.872],[-2.02222,42.997623,1377.814],[-2.02224,42.997666,1380.249],[-2.022247,42.997715,1382.064],[-2.022266,42.997761,1384.706],[-2.022278,42.997808,1386.316],[-2.022291,42.99786,1387.708],[-2.022315,42.99791,1388.591],[-2.022348,42.997953,1388.697],[-2.022416,42.997946,1388.796],[-2.022482,42.997959,1389.167],[-2.022551,42.997973,1389.426],[-2.022617,42.997976,1390.063],[-2.022654,42.997939,1390.315],[-2.022721,42.997941,1390.18],[-2.022762,42.99798,1390.044],[-2.022793,42.998024,1388.705],[-2.022805,42.998071,1388.315],[-2.022852,42.998104,1388.508],[-2.02291,42.998124,1388.629],[-2.022965,42.998103,1389.135],[-2.02301,42.998071,1389.484],[-2.023053,42.998104,1390.045],[-2.02308,42.998155,1389.934],[-2.023129,42.998187,1390.351],[-2.023142,42.998234,1390.163],[-2.023179,42.998275,1390.818],[-2.023223,42.998307,1390.027],[-2.023277,42.998334,1390.368],[-2.023347,42.998352,1390.914],[-2.023413,42.998362,1390.908],[-2.02345,42.998405,1391.737],[-2.023508,42.998427,1392.663],[-2.023514,42.998472,1393.522],[-2.023568,42.998506,1392.983],[-2.023634,42.998552,1392.562],[-2.023673,42.998595,1392.739],[-2.023715,42.998645,1393.611],[-2.023753,42.998693,1394.996],[-2.023788,42.998732,1395.328],[-2.023847,42.998758,1395.189],[-2.023909,42.99878,1395.417],[-2.023962,42.998828,1395.208],[-2.023995,42.998878,1395.167],[-2.02402,42.998921,1395.013],[-2.024073,42.998957,1395.862],[-2.024117,42.998992,1396.383],[-2.024162,42.999023,1396.692],[-2.024222,42.999065,1397.249],[-2.024242,42.999109,1397.591],[-2.024289,42.999154,1398.126],[-2.024323,42.999202,1398.949],[-2.024387,42.999216,1399.802],[-2.024433,42.99925,1401.122],[-2.024492,42.999267,1402.308],[-2.024546,42.999305,1403.069],[-2.024601,42.999333,1403.495],[-2.024661,42.999348,1404.114],[-2.02473,42.999347,1404.975],[-2.024792,42.999354,1406.254],[-2.024855,42.999361,1407.451],[-2.024911,42.999383,1408.923],[-2.024969,42.999406,1410.238],[-2.025025,42.999428,1411.838],[-2.025098,42.999428,1413.17],[-2.025175,42.999435,1413.517],[-2.025235,42.99946,1414.108],[-2.025292,42.999479,1414.598],[-2.025352,42.999507,1414.744],[-2.02542,42.99951,1414.863],[-2.025482,42.999501,1415.794],[-2.025535,42.999537,1416.283],[-2.025582,42.999578,1417.33],[-2.025646,42.999587,1418.042],[-2.02566,42.999631,1418.867],[-2.025709,42.999666,1420.539],[-2.025727,42.999719,1421.901],[-2.025724,42.999765,1422.721],[-2.025751,42.999813,1422.808],[-2.025784,42.999869,1422.968],[-2.025789,42.999926,1422.534],[-2.025768,42.99997,1423.583],[-2.025776,43.000018,1424.554],[-2.025807,43.000058,1425.913],[-2.02586,43.000083,1427.51],[-2.025827,43.000125,1428.512],[-2.025879,43.0001,1430.747],[-2.025939,43.000085,1430.444],[-2.026009,43.000088,1431.005],[-2.026075,43.000099,1430.215],[-2.026121,43.000062,1430.108],[-2.026177,43.000031,1430.479],[-2.026232,43.000056,1431.495],[-2.026287,43.000091,1430.894],[-2.026338,43.000131,1428.495],[-2.026405,43.000144,1428.274],[-2.02648,43.000158,1428.551],[-2.026547,43.000158,1427.123],[-2.02662,43.000152,1425.818],[-2.026683,43.000161,1424.651],[-2.026742,43.00014,1422.301],[-2.026782,43.000106,1420.911],[-2.026839,43.000077,1419.708],[-2.026903,43.000061,1419.09],[-2.026959,43.000041,1418.686],[-2.027017,43.000004,1417.935],[-2.027065,42.999968,1417.196],[-2.027137,42.999963,1415.445],[-2.027192,42.99993,1415.272],[-2.027236,42.999889,1415.124],[-2.027313,42.999864,1415.889],[-2.027374,42.999853,1415.454],[-2.027406,42.999899,1414.856],[-2.027463,42.999922,1413.611],[-2.027499,42.999962,1412.508],[-2.027559,42.999929,1411.05],[-2.027602,42.999895,1410.566],[-2.027682,42.999867,1409.425],[-2.027737,42.999842,1408.346],[-2.027811,42.999832,1408.145],[-2.027881,42.999809,1408.482],[-2.027941,42.999798,1407.454],[-2.028002,42.999784,1406.079],[-2.028086,42.999793,1405.589],[-2.028152,42.999781,1404.006],[-2.028226,42.999764,1402.726],[-2.028298,42.999749,1402.308],[-2.028363,42.999742,1401.773],[-2.028428,42.999741,1401.749],[-2.028491,42.999725,1400.998],[-2.028564,42.999713,1400.819],[-2.028625,42.999689,1399.228],[-2.028701,42.99967,1399.465],[-2.028782,42.999653,1399.587],[-2.028853,42.999641,1398.832],[-2.028921,42.999631,1398.425],[-2.028986,42.99962,1397.726],[-2.029068,42.999603,1396.908],[-2.029142,42.999598,1396.008],[-2.02921,42.999581,1395.987],[-2.02927,42.99956,1395.863],[-2.029332,42.999573,1393.842],[-2.0294,42.999564,1390.623],[-2.029453,42.99954,1389.172],[-2.029514,42.99952,1388.259],[-2.029581,42.999512,1386.891],[-2.029638,42.999494,1386.096],[-2.029677,42.999456,1383.974],[-2.029725,42.999419,1381.856],[-2.029758,42.999378,1379.821],[-2.029821,42.999355,1377.808],[-2.02989,42.999344,1375.892],[-2.029951,42.999375,1375.088],[-2.030014,42.999396,1373.727],[-2.030088,42.999391,1372.518],[-2.030167,42.999395,1371.887],[-2.03023,42.999394,1370.224],[-2.030297,42.999384,1368.096],[-2.030357,42.999371,1365.931],[-2.030428,42.999379,1363.871],[-2.030516,42.999384,1362.641],[-2.030587,42.999388,1361.515],[-2.030646,42.99942,1365.508],[-2.030715,42.999428,1364.892],[-2.030754,42.999467,1361.638],[-2.030826,42.999494,1359.327],[-2.030899,42.999491,1358.318],[-2.030965,42.999502,1358.157],[-2.031018,42.999533,1356.464],[-2.031073,42.999562,1355.416],[-2.031151,42.999569,1354.091],[-2.031221,42.999574,1355.179],[-2.031281,42.999608,1355.005],[-2.031349,42.999611,1354.125],[-2.031408,42.999629,1353.208],[-2.031472,42.999654,1353.092],[-2.031538,42.999665,1352.928],[-2.031598,42.999688,1353.217],[-2.031658,42.999708,1353.468],[-2.031714,42.999728,1353.967],[-2.031776,42.999715,1355.424],[-2.031813,42.999757,1356.786],[-2.031852,42.999795,1357.151],[-2.031912,42.999812,1358.124],[-2.031974,42.999812,1359.104],[-2.03201,42.999851,1362.914],[-2.032073,42.999869,1364.008],[-2.032138,42.999883,1365.947],[-2.032203,42.999887,1368.223],[-2.03227,42.999896,1370.472],[-2.032334,42.999889,1372.143],[-2.032398,42.999885,1372.312],[-2.032463,42.999894,1372.829],[-2.032516,42.999923,1372.791],[-2.032553,42.999967,1371.556],[-2.032559,43.000015,1370.828],[-2.032569,43.000064,1370.489],[-2.032604,43.000102,1370.117],[-2.032622,43.000148,1369.908],[-2.032657,43.000191,1369.887],[-2.032676,43.000243,1370.513],[-2.032711,43.000286,1369.782],[-2.032742,43.00033,1369.653],[-2.032779,43.000372,1369.612],[-2.032783,43.000421,1368.869],[-2.032799,43.000471,1367.561],[-2.032808,43.000517,1367.996],[-2.032815,43.000566,1367.418],[-2.032854,43.000609,1366.398],[-2.032889,43.000648,1365.617],[-2.032892,43.000693,1364.808],[-2.032937,43.000726,1365.146],[-2.032988,43.000759,1364.562],[-2.033044,43.000781,1363.361],[-2.033105,43.00081,1363.032],[-2.033144,43.00085,1361.671],[-2.033106,43.000897,1360.878],[-2.033057,43.000925,1359.96],[-2.033023,43.00098,1359.485],[-2.033047,43.001024,1358.377],[-2.033022,43.001072,1358.061],[-2.033022,43.001118,1359.027],[-2.03304,43.001163,1359.608],[-2.033039,43.001213,1359.662],[-2.03304,43.001268,1360.058],[-2.033064,43.001313,1359.847],[-2.033098,43.001354,1360.198],[-2.033111,43.0014,1360.387],[-2.033108,43.001456,1360.074],[-2.033139,43.001495,1360.276],[-2.033138,43.001542,1359.911],[-2.033156,43.001586,1359.798],[-2.033147,43.001642,1360.015],[-2.033172,43.001685,1359.826],[-2.033183,43.00174,1358.508],[-2.033163,43.001787,1357.734],[-2.033155,43.001834,1358.83],[-2.033137,43.001878,1360.399],[-2.033093,43.001915,1360.47],[-2.033049,43.00196,1359.769],[-2.033068,43.00201,1359.336],[-2.033108,43.002045,1359.088],[-2.033126,43.002088,1358.883],[-2.03315,43.002131,1357.556],[-2.033139,43.002178,1356.759],[-2.033127,43.00223,1355.814],[-2.033121,43.002285,1355.708],[-2.033104,43.00233,1356.45],[-2.033139,43.00237,1356.466],[-2.033161,43.002422,1356.045],[-2.033188,43.002465,1355.866],[-2.03321,43.002509,1356.185],[-2.033195,43.002572,1355.572],[-2.033165,43.002619,1355.124],[-2.033133,43.00266,1354.989],[-2.033131,43.002724,1354.852],[-2.033134,43.002771,1354.353],[-2.033132,43.00282,1354.408],[-2.033073,43.002845,1354.908],[-2.033034,43.002881,1355.28],[-2.033021,43.00293,1355.896],[-2.033001,43.002987,1356.165],[-2.032957,43.003025,1355.946],[-2.032906,43.003064,1356.235],[-2.032885,43.003107,1356.422],[-2.03289,43.003158,1356.984],[-2.032868,43.003204,1357.659],[-2.032862,43.003249,1358.049],[-2.032857,43.003299,1357.902],[-2.032847,43.003348,1357.422],[-2.032795,43.003386,1357.908],[-2.032735,43.0034,1358.619],[-2.032683,43.003448,1358.655],[-2.032637,43.003488,1359.014],[-2.032643,43.003544,1360.025],[-2.032646,43.003592,1361.844],[-2.032669,43.003644,1364.191],[-2.032684,43.003692,1364.743],[-2.032715,43.003732,1365.478],[-2.032754,43.00377,1365.896],[-2.032804,43.003803,1367.731],[-2.032866,43.003814,1368.024],[-2.032938,43.003808,1369.808],[-2.033,43.003815,1371.784],[-2.03304,43.00385,1373.26],[-2.033054,43.003895,1373.749],[-2.03303,43.003937,1374.02],[-2.032969,43.003969,1374.289],[-2.03292,43.004011,1374.716],[-2.032928,43.004057,1374.648],[-2.032947,43.004103,1374.513],[-2.032977,43.004147,1374.129],[-2.033008,43.00419,1373.8],[-2.033041,43.004228,1374.02],[-2.033067,43.004271,1374.908],[-2.033127,43.004282,1376.357],[-2.033179,43.004312,1377.583],[-2.033217,43.004349,1378.612],[-2.033261,43.004393,1380.133],[-2.033315,43.004424,1380.652],[-2.033374,43.004448,1381.729],[-2.033364,43.004498,1382.871],[-2.033326,43.004534,1383.896],[-2.033303,43.004576,1384.841],[-2.033292,43.004625,1384.681],[-2.033302,43.004677,1385.309],[-2.033294,43.004727,1386.508],[-2.033273,43.004773,1387.639],[-2.033257,43.004831,1389.195],[-2.033241,43.004876,1390.024],[-2.033245,43.004925,1390.135],[-2.033241,43.004971,1391.094],[-2.033209,43.005012,1391.521],[-2.03316,43.005046,1391.843],[-2.033112,43.005079,1392.448],[-2.033053,43.005101,1393.288],[-2.032997,43.005129,1394.124],[-2.032941,43.00516,1395.826],[-2.032921,43.005209,1398.008],[-2.032883,43.005248,1399.753],[-2.032822,43.005267,1401.519],[-2.032756,43.005281,1402.668],[-2.032695,43.005307,1403.749],[-2.032637,43.005324,1405.528],[-2.032621,43.005372,1408.225],[-2.0326,43.00542,1410.247],[-2.032572,43.005463,1412.212],[-2.032521,43.005495,1413.831],[-2.032473,43.005532,1413.661],[-2.032512,43.005491,1414.307],[-2.032481,43.00553,1412.708],[-2.032545,43.005534,1412.188],[-2.032594,43.005565,1411.854],[-2.032645,43.005593,1410.893],[-2.03271,43.005575,1410.264],[-2.032747,43.005531,1408.693],[-2.032804,43.005503,1407.77],[-2.032858,43.005474,1406.372],[-2.032913,43.005449,1404.377],[-2.032979,43.005424,1402.787],[-2.03302,43.005385,1401.742],[-2.033073,43.005362,1400.726],[-2.033131,43.005342,1399.308],[-2.033184,43.005315,1396.993],[-2.033247,43.005291,1393.879],[-2.033289,43.005254,1392.088],[-2.033356,43.005239,1390.989],[-2.033418,43.005202,1388.698],[-2.033465,43.005164,1387.255],[-2.033505,43.005127,1384.877],[-2.033571,43.005117,1381.492],[-2.033614,43.005078,1378.576],[-2.033678,43.005054,1376.49],[-2.033735,43.005033,1373.519],[-2.033805,43.005019,1371.008],[-2.033865,43.004992,1368.322],[-2.033887,43.00495,1367.128],[-2.033916,43.0049,1364.877],[-2.033954,43.004862,1363.038],[-2.034018,43.004854,1361.517],[-2.034075,43.004832,1361.024],[-2.03414,43.004812,1359.146],[-2.034195,43.004787,1356.411],[-2.034263,43.004772,1354.039],[-2.034323,43.004794,1351.701],[-2.034394,43.004786,1349.521],[-2.034461,43.004774,1347.008],[-2.034518,43.004754,1345.588],[-2.034564,43.004724,1345.084],[-2.034609,43.00469,1344.723],[-2.034645,43.004643,1344.544],[-2.034672,43.004601,1344.423],[-2.034724,43.00457,1343.14],[-2.034798,43.004568,1343.192],[-2.034849,43.004541,1341.997],[-2.034908,43.004516,1340.892],[-2.03496,43.004487,1339.373],[-2.035005,43.004453,1337.22],[-2.035062,43.004428,1335.208],[-2.035119,43.004394,1333.674],[-2.035185,43.004381,1332.62],[-2.035229,43.004346,1331.619],[-2.035283,43.004316,1330.23],[-2.035355,43.004297,1329.029],[-2.035431,43.00428,1327.566],[-2.035491,43.004248,1325.828],[-2.035544,43.004214,1323.673],[-2.035608,43.004203,1321.538],[-2.035673,43.004198,1321.07],[-2.035736,43.004196,1319.117],[-2.035805,43.004186,1317.608],[-2.035866,43.004159,1316.348],[-2.03593,43.004171,1314.384],[-2.036015,43.00418,1313.513],[-2.036066,43.004149,1312.674],[-2.036138,43.004127,1310.163],[-2.03619,43.004101,1308.24],[-2.036246,43.004074,1307.972],[-2.03632,43.004072,1307.727],[-2.036344,43.004024,1306.876],[-2.036384,43.003985,1310.89],[-2.036395,43.003929,1309.419],[-2.036438,43.003894,1307.008],[-2.036476,43.003856,1305.222],[-2.036504,43.003805,1303.328],[-2.03651,43.00375,1302.217],[-2.036547,43.003707,1300.358],[-2.036489,43.003683,1297.217],[-2.036432,43.003657,1296.184],[-2.036384,43.00362,1295.576],[-2.036355,43.003576,1294.771],[-2.036322,43.003536,1294.692],[-2.036305,43.003479,1293.873],[-2.036284,43.003423,1293.72],[-2.036299,43.003376,1293.208],[-2.036332,43.003325,1292.914],[-2.036358,43.003276,1292.34],[-2.036374,43.00323,1290.459],[-2.036409,43.00318,1288.89],[-2.036436,43.003139,1288.329],[-2.036435,43.003091,1288.046],[-2.036459,43.003046,1287.028],[-2.036446,43.002999,1286.833],[-2.036458,43.002946,1286.316],[-2.036489,43.002897,1286.076],[-2.036497,43.002842,1285.813],[-2.036503,43.002794,1284.508],[-2.036513,43.002742,1283.366],[-2.036512,43.002682,1282.682],[-2.036511,43.002636,1283.051],[-2.03652,43.002582,1282.422],[-2.036571,43.002536,1281.721],[-2.036619,43.002504,1280.158],[-2.036667,43.002467,1279.94],[-2.036721,43.002434,1280.615],[-2.036783,43.002409,1280.278],[-2.036832,43.002381,1277.233],[-2.036872,43.002332,1276.226],[-2.03691,43.002295,1274.808],[-2.036963,43.002267,1274.042],[-2.037008,43.002235,1273.968],[-2.037058,43.0022,1274.237],[-2.037114,43.002161,1273.298],[-2.037166,43.002129,1273.467],[-2.037204,43.002085,1272.364],[-2.037247,43.002049,1271.346],[-2.037286,43.00201,1269.531],[-2.037304,43.001966,1267.627],[-2.037322,43.001918,1268.568],[-2.037352,43.001876,1269.414],[-2.037381,43.001831,1269.208],[-2.037402,43.001787,1269.127],[-2.037355,43.001757,1268.643],[-2.037328,43.001709,1269.992],[-2.037306,43.001659,1271.163],[-2.037285,43.001611,1272.232],[-2.037216,43.001599,1273.339],[-2.037151,43.001585,1275.141],[-2.037084,43.001561,1274.656],[-2.03702,43.001574,1273.991],[-2.036996,43.00153,1274.381],[-2.036934,43.001514,1274.119],[-2.036891,43.00147,1274.408],[-2.036881,43.001418,1274.254],[-2.036887,43.00137,1274.58],[-2.03687,43.001317,1274.729],[-2.036825,43.001273,1278.78],[-2.036762,43.001264,1282.779],[-2.036707,43.001241,1281.666],[-2.036676,43.001201,1281.378],[-2.036611,43.001202,1281.533],[-2.036574,43.001161,1281.256],[-2.036564,43.001115,1279.859],[-2.036539,43.001069,1279.014],[-2.036498,43.001024,1279.308],[-2.036465,43.000983,1278.34],[-2.03643,43.000945,1277.786],[-2.036436,43.000895,1278.185],[-2.036416,43.000852,1278.066],[-2.036454,43.000816,1277.915],[-2.036518,43.000796,1277.512],[-2.036522,43.000743,1276.884],[-2.036466,43.000719,1276.079],[-2.036407,43.000702,1275.172],[-2.036408,43.000648,1275.413],[-2.036363,43.000612,1276.014],[-2.036334,43.000565,1275.908],[-2.036335,43.000517,1274.782],[-2.036352,43.000472,1273.688],[-2.036361,43.000424,1272.157],[-2.036397,43.000386,1270.458],[-2.036417,43.000341,1269.487],[-2.036428,43.00029,1268.474],[-2.036421,43.000243,1267.476],[-2.036415,43.000197,1266.481],[-2.036403,43.000151,1267.026],[-2.036411,43.000106,1266.647],[-2.036404,43.000055,1267.111],[-2.036436,42.999993,1267.008],[-2.036473,42.999949,1267.087],[-2.036515,42.9999,1266.223],[-2.036522,42.999855,1267.372],[-2.036514,42.999807,1267.683],[-2.036506,42.999758,1267.412],[-2.03649,42.999712,1268.979],[-2.036485,42.999662,1270.621],[-2.03649,42.999616,1270.846],[-2.036496,42.999568,1270.565],[-2.036513,42.999517,1269.968],[-2.036509,42.999472,1268.414],[-2.036463,42.999433,1268.308],[-2.036467,42.999384,1268.271],[-2.036481,42.999339,1268.677],[-2.036532,42.999308,1269.666],[-2.03657,42.999264,1271.017],[-2.036599,42.99922,1270.616],[-2.036607,42.999163,1270.083],[-2.036622,42.999117,1269.655],[-2.036575,42.999085,1271.41],[-2.036526,42.999044,1273.787],[-2.036479,42.999014,1275.942],[-2.036462,42.998968,1276.026],[-2.03647,42.998916,1274.908],[-2.036474,42.998868,1274.643],[-2.036422,42.998843,1276.019],[-2.036427,42.998793,1276.588],[-2.036441,42.998744,1277.649],[-2.036432,42.99869,1278.248],[-2.036465,42.99864,1278.675],[-2.036514,42.9986,1278.067],[-2.036546,42.998558,1277.712],[-2.036602,42.998533,1277.926],[-2.036659,42.9985,1277.647],[-2.036706,42.998461,1277.811],[-2.036704,42.99841,1277.508],[-2.036735,42.998365,1277.737],[-2.036758,42.998323,1277.813],[-2.036758,42.998277,1278.732],[-2.036764,42.99823,1278.423],[-2.036779,42.998177,1278.642],[-2.036786,42.998123,1278.799],[-2.036732,42.998093,1278.841],[-2.03667,42.998088,1279.396],[-2.036684,42.998041,1279.256],[-2.036727,42.997997,1279.959],[-2.036715,42.998044,1279.914],[-2.036659,42.998074,1279.108],[-2.036599,42.9981,1277.81],[-2.036574,42.99805,1278.256],[-2.036606,42.998009,1278.125],[-2.036649,42.997976,1278.076],[-2.036645,42.998023,1279.625],[-2.036704,42.998038,1280.512],[-2.036763,42.998005,1281.514],[-2.03683,42.997998,1281.749],[-2.036858,42.997956,1281.851],[-2.036853,42.997907,1281.501],[-2.036841,42.997863,1280.911],[-2.036811,42.997822,1278.508],[-2.036759,42.997798,1278.37],[-2.036714,42.997765,1277.456],[-2.036702,42.997718,1277.665],[-2.036702,42.997666,1277.786],[-2.036663,42.997623,1278.265],[-2.036664,42.997566,1278.542],[-2.036656,42.997518,1278.354],[-2.036663,42.997473,1279.479],[-2.036679,42.997422,1280.828],[-2.036697,42.997377,1282.589],[-2.036701,42.99733,1284.317],[-2.036717,42.997282,1285.408],[-2.036695,42.99724,1285.627],[-2.036737,42.997204,1287.363],[-2.036782,42.997169,1289.142],[-2.036798,42.997121,1290.673],[-2.036864,42.997116,1286.682],[-2.036918,42.997089,1282.619],[-2.036989,42.997064,1280.711],[-2.03706,42.997041,1281.276],[-2.037119,42.997027,1283.126],[-2.037175,42.996992,1284.647],[-2.037234,42.99696,1286.311],[-2.037281,42.996924,1287.308],[-2.037319,42.99688,1288.317],[-2.037394,42.996877,1289.333],[-2.037461,42.996881,1290.392],[-2.037524,42.99685,1290.983],[-2.03758,42.996825,1290.962],[-2.037626,42.996792,1291.339],[-2.037687,42.996787,1290.741],[-2.037734,42.996819,1291.216],[-2.037794,42.996831,1291.942],[-2.037852,42.996811,1293.522],[-2.037913,42.996794,1289.514],[-2.037972,42.99678,1293.508],[-2.038033,42.996768,1297.599],[-2.038096,42.996793,1299.375],[-2.038156,42.996811,1302.084],[-2.038211,42.996839,1303.685],[-2.038255,42.996798,1303.454],[-2.038305,42.996769,1303.331],[-2.038355,42.996739,1302.483],[-2.038408,42.996709,1301.968],[-2.038421,42.996663,1301.213],[-2.038439,42.996619,1301.643],[-2.038483,42.996586,1301.807],[-2.038434,42.996537,1300.508],[-2.038434,42.996537,1300.586],[-2.038434,42.996537,1300.562],[-2.038407,42.996493,1302.011],[-2.038342,42.996472,1302.182],[-2.038294,42.996442,1301.781],[-2.038255,42.9964,1300.728],[-2.038206,42.996365,1300.57],[-2.038195,42.996312,1300.095],[-2.038165,42.996272,1298.963],[-2.038173,42.996216,1296.644],[-2.038152,42.996168,1294.818],[-2.038091,42.996123,1293.308],[-2.038023,42.996086,1292.091],[-2.03798,42.996054,1290.847],[-2.037922,42.996028,1289.746],[-2.037862,42.995998,1289.457],[-2.037817,42.995967,1287.656],[-2.037759,42.995933,1286.993],[-2.037718,42.995899,1286.525],[-2.037675,42.995863,1286.35],[-2.037641,42.99581,1285.434],[-2.037601,42.995775,1285.255],[-2.037548,42.99575,1285.51],[-2.037496,42.995721,1286.908],[-2.037434,42.995697,1286.568],[-2.03736,42.995698,1285.144],[-2.0373,42.995668,1283.813],[-2.03725,42.995615,1283.034],[-2.037212,42.995549,1281.793],[-2.037176,42.995492,1280.93],[-2.037126,42.995446,1280.842],[-2.037078,42.995412,1279.667],[-2.037029,42.995382,1280.582],[-2.036963,42.995354,1281.043],[-2.036898,42.995342,1281.717],[-2.036829,42.995358,1282.108],[-2.03675,42.995371,1282.413],[-2.036686,42.995373,1283.099],[-2.036621,42.995374,1283.338],[-2.036565,42.995346,1283.159],[-2.036516,42.995313,1283.048],[-2.036447,42.995294,1283.345],[-2.036427,42.995251,1283.567],[-2.036372,42.995212,1283.212],[-2.036327,42.995172,1282.683],[-2.036287,42.995117,1282.725],[-2.036251,42.99508,1283.117],[-2.036199,42.995055,1281.808],[-2.036182,42.995008,1281.433],[-2.036154,42.994967,1281.299],[-2.036111,42.994922,1281.168],[-2.036058,42.99489,1280.619],[-2.036004,42.994859,1280.388],[-2.035955,42.994825,1280.125],[-2.035893,42.994795,1279.677],[-2.035835,42.994773,1280.922],[-2.035775,42.994747,1282.182],[-2.035708,42.994734,1283.243],[-2.035646,42.994711,1284.717],[-2.035612,42.994673,1286.408],[-2.035556,42.994641,1286.683],[-2.035493,42.994654,1286.719],[-2.035422,42.994663,1287.228],[-2.035356,42.994672,1287.979],[-2.035284,42.994687,1288.398],[-2.035227,42.994718,1288.535],[-2.03517,42.99474,1289.457],[-2.035121,42.994768,1290.022],[-2.035069,42.994793,1290.747],[-2.035002,42.994804,1291.529],[-2.034939,42.994821,1292.421],[-2.03487,42.994831,1292.508],[-2.034822,42.994859,1293.089],[-2.034778,42.994897,1294.525],[-2.034732,42.99494,1295.434],[-2.034685,42.99498,1295.585],[-2.034642,42.995012,1295.674],[-2.03458,42.995038,1294.821],[-2.034517,42.995045,1295.553],[-2.034453,42.995059,1295.978],[-2.034393,42.995085,1299.031],[-2.034368,42.99513,1300.861],[-2.034328,42.995169,1302.307],[-2.034284,42.995203,1304.808],[-2.034228,42.995226,1306.758],[-2.03417,42.995252,1307.844],[-2.034121,42.995283,1308.953],[-2.03408,42.995317,1311.234],[-2.034046,42.995357,1311.843],[-2.033992,42.99539,1312.94],[-2.033943,42.995418,1314.412],[-2.033894,42.995449,1316.137],[-2.033851,42.995483,1317.194],[-2.033812,42.995522,1319.357],[-2.033762,42.995553,1320.622],[-2.033681,42.995568,1321.808],[-2.033615,42.995588,1322.134],[-2.033563,42.995624,1323.57],[-2.033497,42.995633,1324.739],[-2.03343,42.995653,1325.01],[-2.033374,42.995681,1325.229],[-2.033328,42.995715,1324.916],[-2.033272,42.995744,1325.578],[-2.033227,42.995775,1326.773],[-2.033178,42.995804,1327.094],[-2.033117,42.995834,1329.657],[-2.033051,42.995848,1332.022],[-2.032998,42.995875,1333.408],[-2.032934,42.995902,1334.294],[-2.03286,42.995919,1334.71],[-2.032793,42.995934,1335.029],[-2.032726,42.995954,1335.69],[-2.032708,42.996,1336.729],[-2.032697,42.996046,1338.636],[-2.032646,42.996078,1339.718],[-2.03261,42.99612,1340.053],[-2.032568,42.996159,1340.266],[-2.032514,42.996181,1340.729],[-2.032442,42.996203,1340.621],[-2.032388,42.996228,1340.508],[-2.032341,42.996262,1341.341],[-2.032303,42.996304,1343.077],[-2.032242,42.996334,1344.896],[-2.032181,42.996354,1346.377],[-2.032144,42.996399,1347.666],[-2.032085,42.996412,1348.413],[-2.03201,42.996401,1349.395],[-2.031947,42.996407,1349.41],[-2.031885,42.996419,1349.119],[-2.031848,42.996458,1348.109],[-2.031776,42.996463,1343.919],[-2.031776,42.996463,1343.908],[-2.031776,42.996463,1343.976],[-2.031711,42.996451,1342.652],[-2.031648,42.996417,1341.481],[-2.03157,42.996371,1339.582],[-2.03157,42.996323,1339.921],[-2.03157,42.996323,1339.968],[-2.031518,42.996293,1340.21],[-2.031454,42.99628,1340.435],[-2.031391,42.99628,1339.777],[-2.031339,42.996254,1338.561],[-2.031311,42.996207,1337.827],[-2.03129,42.996164,1337.808],[-2.031258,42.99611,1337.842],[-2.031229,42.996057,1338.228],[-2.031205,42.995989,1338.077],[-2.031197,42.995942,1338.338],[-2.031188,42.995892,1338.557],[-2.031157,42.995829,1338.694],[-2.031141,42.995782,1338.766],[-2.031122,42.995731,1338.751],[-2.031099,42.995688,1339.137],[-2.031061,42.995635,1339.449],[-2.031031,42.99559,1339.213],[-2.031023,42.995543,1338.708],[-2.031016,42.995497,1337.688],[-2.030992,42.995454,1337.364],[-2.030922,42.995438,1335.913],[-2.030861,42.995426,1334.734],[-2.030873,42.995379,1333.673],[-2.030853,42.995328,1332.98],[-2.030808,42.995278,1332.552],[-2.030779,42.995226,1331.957],[-2.030762,42.995172,1332.768],[-2.030798,42.995134,1333.242],[-2.030835,42.995072,1333.126],[-2.030846,42.995002,1332.608],[-2.030848,42.994953,1332.751],[-2.030856,42.994906,1332.867],[-2.030852,42.994861,1331.216],[-2.030848,42.994805,1330.317],[-2.030833,42.994759,1330.146],[-2.030805,42.994718,1329.263],[-2.030808,42.994652,1327.965],[-2.030731,42.994651,1327.11],[-2.030666,42.994604,1326.233],[-2.030605,42.994573,1324.923],[-2.030541,42.994548,1323.715],[-2.030494,42.994518,1322.608],[-2.030422,42.994492,1321.568],[-2.030356,42.994468,1320.144],[-2.030301,42.994445,1319.283],[-2.030168,42.994413,1317.984],[-2.030168,42.994413,1317.983],[-2.030168,42.994413,1317.99],[-2.030168,42.994413,1317.992],[-2.030168,42.994413,1317.997],[-2.030168,42.994413,1317.933],[-2.030168,42.994413,1317.923],[-2.030168,42.994413,1317.915],[-2.030168,42.994413,1317.908],[-2.030197,42.994372,1317.918],[-2.030185,42.994328,1317.544],[-2.030195,42.99428,1317.723],[-2.03024,42.994245,1317.034],[-2.030294,42.994207,1316.293],[-2.030337,42.994148,1316.17],[-2.030376,42.994102,1315.692],[-2.030413,42.994064,1314.947],[-2.03044,42.994022,1314.182],[-2.030456,42.993954,1313.243],[-2.030481,42.993903,1311.517],[-2.030534,42.993854,1310.108],[-2.030572,42.993799,1309.253],[-2.030609,42.993751,1308.329],[-2.030669,42.993707,1307.328],[-2.030723,42.993659,1306.329],[-2.030716,42.993601,1304.958],[-2.03073,42.993535,1303.735],[-2.030768,42.993486,1302.667],[-2.030801,42.993443,1301.512],[-2.030818,42.993381,1300.948],[-2.03083,42.993319,1299.761],[-2.030867,42.993261,1299.017],[-2.0309,42.993216,1298.208],[-2.030918,42.993162,1297.779],[-2.030915,42.993107,1297.075],[-2.030901,42.993063,1295.894],[-2.030892,42.993001,1295.165],[-2.030861,42.992953,1294.744],[-2.030823,42.99291,1294.451],[-2.030788,42.992863,1294.213],[-2.030754,42.992813,1294.148],[-2.030715,42.992771,1294.467],[-2.030691,42.992723,1294.681],[-2.030694,42.992676,1295.919],[-2.030695,42.992625,1296.708],[-2.03068,42.992576,1296.881],[-2.030696,42.992531,1296.817],[-2.03069,42.99247,1296.026],[-2.030675,42.99241,1295.567],[-2.030692,42.992351,1296.066],[-2.030684,42.992294,1297.193],[-2.030704,42.992241,1296.625],[-2.030766,42.992203,1295.13],[-2.030827,42.992177,1293.855],[-2.030865,42.992136,1292.207],[-2.030902,42.992094,1291.617],[-2.030923,42.99205,1290.908],[-2.030927,42.991978,1289.73],[-2.030926,42.991907,1288.626],[-2.030911,42.991856,1287.975],[-2.030885,42.991812,1287.566],[-2.030885,42.99176,1286.925],[-2.03087,42.991692,1286.542],[-2.030871,42.991646,1286.334],[-2.030908,42.9916,1285.479],[-2.030955,42.99156,1284.878],[-2.030975,42.991508,1284.533],[-2.030985,42.991463,1283.926],[-2.031037,42.991425,1283.108],[-2.031061,42.991374,1282.242],[-2.031066,42.991328,1281.368],[-2.031061,42.991283,1280.817],[-2.031069,42.991234,1280.928],[-2.031083,42.991181,1280.937],[-2.031076,42.991136,1280.134],[-2.031113,42.991089,1279.236],[-2.03116,42.991058,1278.381],[-2.031168,42.991011,1278.148],[-2.031193,42.990963,1276.861],[-2.031235,42.990925,1275.617],[-2.031284,42.990885,1274.508],[-2.031353,42.990851,1273.469],[-2.031415,42.990816,1272.425],[-2.031464,42.99078,1271.874],[-2.031506,42.99074,1271.445],[-2.031546,42.990692,1270.884],[-2.031598,42.990661,1270.071],[-2.031658,42.990622,1268.713],[-2.031726,42.99058,1268.758],[-2.031733,42.990534,1268.754],[-2.03176,42.990485,1268.356],[-2.031762,42.990433,1267.711],[-2.031758,42.990382,1266.908],[-2.031761,42.990326,1265.25],[-2.031803,42.990293,1263.846],[-2.031832,42.990222,1259.845],[-2.031832,42.990222,1259.876],[-2.031832,42.990222,1259.825],[-2.031832,42.990222,1259.872],[-2.031832,42.990222,1259.834],[-2.031855,42.990175,1259.459],[-2.031869,42.990129,1258.794],[-2.031878,42.990077,1258.757],[-2.031862,42.99002,1258.322],[-2.031836,42.989973,1258.508],[-2.031829,42.989923,1258.214],[-2.03182,42.989871,1257.67],[-2.031816,42.989813,1257.379],[-2.031822,42.989756,1256.32],[-2.031827,42.989698,1255.769],[-2.031825,42.989639,1255.716],[-2.031816,42.98959,1255.778],[-2.031805,42.989543,1255.743],[-2.031775,42.989487,1254.969],[-2.031767,42.989438,1254.804],[-2.031758,42.989391,1254.824],[-2.031738,42.989341,1253.608],[-2.031749,42.98929,1252.571],[-2.031725,42.989231,1252.667],[-2.03172,42.989185,1252.736],[-2.031719,42.98913,1253.917],[-2.031687,42.989074,1255.066],[-2.031676,42.989029,1256.163],[-2.031673,42.988975,1256.485],[-2.03168,42.988922,1257.04],[-2.031692,42.98886,1256.924],[-2.03169,42.988815,1257.304],[-2.031681,42.988768,1257.114],[-2.031682,42.988719,1256.608],[-2.031693,42.988666,1257.137],[-2.031685,42.988613,1257.483],[-2.031684,42.988555,1256.892],[-2.031705,42.988509,1255.623],[-2.031723,42.988455,1255.342],[-2.031742,42.988405,1254.369],[-2.031765,42.988351,1254.151],[-2.031775,42.988292,1253.296],[-2.03179,42.988244,1252.339],[-2.031833,42.988206,1252.901],[-2.031862,42.988161,1253.321],[-2.031902,42.988107,1253.508],[-2.031927,42.988054,1253.298],[-2.03196,42.988011,1253.444],[-2.031996,42.987968,1254.713],[-2.032022,42.987915,1255.124],[-2.032047,42.987854,1255.343],[-2.03207,42.987788,1255.08],[-2.032077,42.987742,1254.052],[-2.032085,42.987687,1253.087],[-2.032123,42.987649,1252.488],[-2.032168,42.987595,1252.924],[-2.032199,42.987555,1253.226],[-2.032231,42.987513,1253.008],[-2.03229,42.987464,1252.553],[-2.032336,42.987427,1251.879],[-2.03235,42.98738,1250.688],[-2.032342,42.987325,1248.739],[-2.032326,42.987277,1247.948],[-2.032263,42.987261,1247.855],[-2.032203,42.987233,1247.817],[-2.032144,42.987207,1247.862],[-2.032086,42.987185,1247.039],[-2.032024,42.987177,1245.701],[-2.031943,42.987172,1245.321],[-2.031875,42.987164,1244.708],[-2.031811,42.987154,1243.998],[-2.031743,42.987145,1243.084],[-2.031672,42.987121,1242.533],[-2.031611,42.987093,1241.894],[-2.031546,42.987077,1241.443],[-2.031484,42.987064,1241.52],[-2.031396,42.987051,1241.242],[-2.031317,42.987044,1240.687],[-2.031238,42.987038,1241.028],[-2.031172,42.987045,1240.989],[-2.031109,42.987059,1240.417],[-2.03105,42.987079,1240.908],[-2.030982,42.987081,1240.057],[-2.03092,42.987076,1239.963],[-2.030839,42.987066,1239.422],[-2.030765,42.987056,1239.573],[-2.030699,42.987056,1239.212],[-2.030628,42.987038,1238.699],[-2.030554,42.987028,1238.661],[-2.030493,42.987022,1238.656],[-2.03042,42.987026,1238.295],[-2.030347,42.987039,1238.049],[-2.030288,42.987055,1237.523],[-2.030228,42.98707,1237.208],[-2.030165,42.987077,1237.024],[-2.030101,42.987092,1236.96],[-2.030021,42.98711,1236.429],[-2.029951,42.987113,1236.58],[-2.02989,42.987124,1236.659],[-2.029817,42.987125,1236.626],[-2.029755,42.987121,1237.068],[-2.029684,42.987114,1236.993],[-2.029605,42.987108,1235.629],[-2.029528,42.987097,1234.4],[-2.029462,42.987099,1233.32],[-2.029391,42.987107,1231.408],[-2.029327,42.987113,1229.527],[-2.029262,42.98712,1228.353],[-2.029201,42.987129,1227.682],[-2.029138,42.987143,1227.293],[-2.029058,42.987141,1226.692],[-2.028975,42.987131,1226.619],[-2.028911,42.987123,1227.411],[-2.028842,42.987114,1228.316],[-2.028766,42.987107,1229.228],[-2.02869,42.98712,1230.289],[-2.028607,42.987119,1230.417],[-2.028534,42.987115,1230.108],[-2.028458,42.987118,1230.347],[-2.028392,42.987114,1232.093],[-2.02833,42.987092,1233.022],[-2.028253,42.98706,1232.823],[-2.028183,42.987033,1232.772],[-2.028128,42.987004,1233.029],[-2.028057,42.986991,1233.611],[-2.027993,42.986976,1234.426],[-2.027913,42.986966,1234.141],[-2.02783,42.986963,1234.381],[-2.027766,42.986961,1234.409],[-2.027694,42.986958,1235.308],[-2.02762,42.986955,1235.099],[-2.027544,42.986946,1236.495],[-2.027481,42.986941,1236.974],[-2.027411,42.986934,1237.665],[-2.027342,42.986924,1237.674],[-2.027272,42.986924,1237.621],[-2.027203,42.986928,1237.633],[-2.027128,42.986937,1237.668],[-2.02706,42.98695,1237.618],[-2.026993,42.986964,1237.698],[-2.026929,42.986981,1236.817],[-2.026866,42.986999,1236.308],[-2.0268,42.987011,1235.646],[-2.026739,42.987032,1234.412],[-2.026669,42.987063,1233.391],[-2.026606,42.987085,1232.222],[-2.026546,42.987105,1231.641],[-2.02647,42.98712,1230.848],[-2.026411,42.987139,1230.32],[-2.026351,42.987156,1230.475],[-2.026273,42.987172,1230.997],[-2.026196,42.987182,1231.223],[-2.026122,42.987194,1231.425],[-2.026041,42.987205,1231.108],[-2.025981,42.987214,1230.514],[-2.025908,42.987222,1229.85],[-2.025846,42.987223,1229.899],[-2.025784,42.98722,1230.28],[-2.025722,42.987229,1230.099],[-2.025648,42.987229,1229.576],[-2.025578,42.98723,1229.238],[-2.025502,42.987237,1228.633],[-2.025437,42.987251,1228.757],[-2.025367,42.987271,1228.3],[-2.025305,42.987285,1228.52],[-2.025233,42.987299,1228.208],[-2.025162,42.98732,1228.44],[-2.025104,42.98735,1228.166],[-2.025028,42.987376,1227.115],[-2.024974,42.987401,1226.146],[-2.024924,42.987429,1225.585],[-2.024862,42.987463,1225.182],[-2.024815,42.987497,1224.994],[-2.024771,42.987529,1224.869],[-2.024716,42.987569,1223.945],[-2.024658,42.9876,1223.047],[-2.024592,42.987619,1222.811],[-2.024521,42.987641,1222.308],[-2.024428,42.987685,1222.069],[-2.02436,42.987711,1222.295],[-2.024295,42.987721,1222.344],[-2.02423,42.987737,1222.445],[-2.024164,42.98776,1222.074],[-2.024105,42.987775,1221.881],[-2.024034,42.987785,1221.763],[-2.023964,42.987793,1221.238],[-2.023878,42.987809,1221.762],[-2.023816,42.987812,1222.083],[-2.023754,42.987814,1221.411],[-2.023687,42.987819,1221.408],[-2.023617,42.987816,1221.061],[-2.023545,42.987825,1221.667],[-2.023545,42.987825,1221.666],[-2.023469,42.987809,1221.947],[-2.023469,42.987809,1221.976],[-2.023409,42.987788,1221.733],[-2.023346,42.987779,1220.485],[-2.023284,42.987765,1220.41],[-2.02321,42.987775,1220.489],[-2.02314,42.987797,1220.006],[-2.023077,42.987802,1219.426],[-2.023004,42.987797,1219.408],[-2.022936,42.987783,1219.423],[-2.022862,42.987783,1219.059],[-2.022787,42.987788,1218.078],[-2.02271,42.987778,1216.699],[-2.022634,42.987757,1215.358],[-2.022564,42.987744,1213.795],[-2.022502,42.987741,1212.437],[-2.022427,42.98774,1211.252],[-2.02236,42.987741,1210.157],[-2.022293,42.987742,1209.8],[-2.022229,42.987742,1208.82],[-2.022164,42.987745,1207.808],[-2.022102,42.987748,1206.85],[-2.021961,42.987733,1205.876],[-2.021893,42.987727,1204.425],[-2.021831,42.987726,1203.676],[-2.021764,42.987728,1203.195],[-2.021699,42.987734,1202.842],[-2.021628,42.987739,1203.064],[-2.021556,42.987744,1203.139],[-2.021495,42.987756,1203.234],[-2.021429,42.987767,1202.855],[-2.021362,42.98777,1202.21],[-2.02129,42.987776,1201.408],[-2.021228,42.987787,1197.438],[-2.021155,42.987792,1196.944],[-2.021085,42.987806,1196.263],[-2.021017,42.987817,1195.814],[-2.02095,42.98783,1195.683],[-2.020864,42.987855,1195.19],[-2.02081,42.987877,1194.872],[-2.020741,42.987911,1194.637],[-2.02068,42.987926,1194.152],[-2.020615,42.987926,1194.253],[-2.020549,42.987913,1193.908],[-2.02048,42.987913,1193.308],[-2.020414,42.987903,1192.98],[-2.020343,42.987886,1193.196],[-2.02027,42.987884,1194.075],[-2.020203,42.987882,1194.916],[-2.020134,42.987868,1194.365],[-2.020062,42.987867,1194.372],[-2.019999,42.987857,1194.324],[-2.019925,42.987847,1193.929],[-2.019854,42.987848,1193.757],[-2.019777,42.98786,1192.8],[-2.019708,42.98788,1193.02],[-2.019646,42.987886,1193.108],[-2.019577,42.987865,1194.09],[-2.01952,42.987833,1194.526],[-2.019458,42.987802,1194.855],[-2.019384,42.987781,1195.066],[-2.019317,42.987775,1195.575],[-2.019235,42.987773,1195.472],[-2.019164,42.987767,1195.714],[-2.019099,42.987768,1195.139],[-2.019034,42.987778,1194.733],[-2.018942,42.987752,1195.123],[-2.018942,42.987752,1195.115],[-2.018942,42.987752,1195.108],[-2.018942,42.987752,1195.118],[-2.018942,42.987752,1195.164],[-2.018942,42.987752,1195.143],[-2.018873,42.987742,1194.734],[-2.018802,42.987734,1193.793],[-2.018744,42.987717,1193.92],[-2.01868,42.987687,1194.052],[-2.018614,42.987673,1193.727],[-2.018541,42.987648,1192.779],[-2.01847,42.987626,1192.105],[-2.0184,42.987608,1191.725],[-2.018331,42.987594,1191.908],[-2.018268,42.987588,1192.052],[-2.018201,42.987583,1192.958],[-2.018135,42.987586,1193.427],[-2.018064,42.987604,1194.158],[-2.018002,42.987612,1194.137],[-2.017938,42.987611,1193.364],[-2.017869,42.987609,1192.866],[-2.017801,42.987602,1191.721],[-2.017735,42.987607,1191.136],[-2.017661,42.987611,1189.917],[-2.017592,42.987611,1189.618],[-2.017521,42.987608,1189.408],[-2.01744,42.98761,1189.328],[-2.017376,42.987616,1189.634],[-2.017308,42.987629,1189.833],[-2.017228,42.987643,1189.914],[-2.017157,42.987641,1189.683],[-2.017074,42.987636,1189.41],[-2.016993,42.987627,1188.992],[-2.016912,42.987609,1189.067],[-2.016829,42.987595,1188.748],[-2.016753,42.987589,1188.161],[-2.016681,42.987588,1187.317],[-2.016614,42.987593,1186.808],[-2.016548,42.98759,1186.159],[-2.016478,42.987579,1185.365],[-2.016402,42.987564,1184.824],[-2.016322,42.987553,1184.125],[-2.016245,42.987541,1183.794],[-2.016169,42.987526,1183.191],[-2.016099,42.987507,1183.543],[-2.016021,42.987487,1185.338],[-2.015936,42.98747,1186.432],[-2.015858,42.987457,1186.792],[-2.015794,42.987444,1186.911],[-2.015728,42.987422,1187.008],[-2.015665,42.987403,1186.378],[-2.015587,42.987375,1185.934],[-2.015516,42.987354,1185.293],[-2.015462,42.987332,1185.254],[-2.015407,42.987298,1186.033],[-2.015347,42.98727,1185.36],[-2.015277,42.987235,1184.192],[-2.015218,42.987205,1183.027],[-2.015156,42.987174,1181.517],[-2.015099,42.987148,1179.887],[-2.01503,42.98712,1178.415],[-2.01498,42.987093,1178.808],[-2.014932,42.987063,1180.286],[-2.014878,42.987029,1181.462],[-2.014829,42.986999,1183.311],[-2.01477,42.986967,1185.772],[-2.014718,42.986942,1186.711],[-2.014642,42.986915,1186.968],[-2.014564,42.986881,1186.63],[-2.014515,42.986846,1186.015],[-2.014458,42.9868,1186.591],[-2.014403,42.986763,1186.081],[-2.014357,42.986733,1186.119],[-2.014321,42.986695,1186.608],[-2.014261,42.986671,1187.394],[-2.014208,42.986646,1187.37],[-2.014143,42.986624,1187.359],[-2.014066,42.986592,1187.38],[-2.014002,42.986565,1187.349],[-2.013937,42.986558,1186.966],[-2.013878,42.986524,1185.588],[-2.013828,42.986481,1184.633],[-2.013771,42.986437,1184.113],[-2.013703,42.986407,1183.843],[-2.013641,42.9864,1183.207],[-2.013576,42.986418,1182.408],[-2.013498,42.986426,1181.986],[-2.013435,42.986427,1181.682],[-2.013353,42.98642,1180.291],[-2.013291,42.986414,1179.472],[-2.013217,42.986401,1179.721],[-2.013147,42.986396,1180.338],[-2.013093,42.986371,1181.56],[-2.013033,42.986331,1182.215],[-2.012981,42.986302,1181.484],[-2.012914,42.986268,1181.307],[-2.012868,42.986236,1180.517],[-2.012824,42.986203,1180.008],[-2.012791,42.986162,1180.193],[-2.012762,42.986119,1179.869],[-2.012733,42.986064,1180.848],[-2.012696,42.986023,1182.219],[-2.012648,42.985981,1182.278],[-2.012604,42.985935,1182.225],[-2.012565,42.985893,1183.047],[-2.01253,42.985842,1183.192],[-2.012497,42.985796,1183.655],[-2.012464,42.985752,1184.707],[-2.012421,42.985711,1185.717],[-2.012387,42.985671,1186.708],[-2.012328,42.985623,1187.72],[-2.012328,42.985623,1187.796],[-2.012328,42.985623,1187.715],[-2.01229,42.985586,1187.916],[-2.012244,42.985545,1187.655],[-2.012213,42.985504,1187.062],[-2.01219,42.98546,1185.994],[-2.01217,42.985412,1184.899],[-2.012157,42.985359,1185.075],[-2.012129,42.985314,1185.128],[-2.012098,42.985263,1185.22],[-2.012072,42.98522,1185.208],[-2.012072,42.985168,1185.642],[-2.012059,42.985114,1186.748],[-2.012012,42.985073,1186.567],[-2.011984,42.985028,1186.848],[-2.011939,42.98498,1186.257],[-2.011889,42.984931,1185.864],[-2.011842,42.984892,1184.866],[-2.011827,42.984848,1183.451],[-2.011778,42.984809,1182.223],[-2.011717,42.984777,1181.983],[-2.011662,42.98475,1181.711],[-2.011616,42.984719,1181.208],[-2.011575,42.984676,1180.587],[-2.011569,42.98463,1179.723],[-2.011561,42.984585,1180.082],[-2.01154,42.984542,1180.663],[-2.011522,42.984497,1181.792],[-2.011483,42.984454,1183.229],[-2.011422,42.984435,1183.371],[-2.011361,42.98442,1183.066],[-2.011286,42.984403,1183.614],[-2.011205,42.984401,1184.054],[-2.011147,42.984382,1184.609],[-2.011086,42.984351,1185.408],[-2.011023,42.984343,1185.956],[-2.010952,42.984339,1186.292],[-2.010886,42.984314,1186.851],[-2.010818,42.984289,1187.982],[-2.010755,42.984253,1188.681],[-2.010688,42.984248,1189.418],[-2.01064,42.984209,1190.37],[-2.010578,42.984174,1190.845],[-2.010518,42.984142,1191.176],[-2.010462,42.984115,1192.19],[-2.010394,42.984084,1193.119],[-2.01033,42.984072,1193.708],[-2.010265,42.984054,1194.182],[-2.010202,42.984026,1193.988],[-2.01013,42.983999,1193.847],[-2.010069,42.98397,1193.318],[-2.010004,42.983959,1192.617],[-2.009932,42.983924,1192.694],[-2.009877,42.983899,1192.646],[-2.009821,42.983855,1193.461],[-2.009771,42.983814,1194.349],[-2.009725,42.983777,1195.202],[-2.009716,42.983731,1196.622],[-2.009658,42.983683,1198.208],[-2.009596,42.98365,1198.899],[-2.009534,42.983619,1197.955],[-2.009473,42.983581,1197.034],[-2.00942,42.983546,1197.365],[-2.009365,42.983509,1196.744],[-2.009291,42.983495,1197.531],[-2.009239,42.983452,1197.633],[-2.009188,42.983412,1197.388],[-2.009128,42.983399,1198.393],[-2.009076,42.983357,1199.365],[-2.009031,42.983319,1199.921],[-2.008989,42.983275,1200.708],[-2.008955,42.983234,1200.854],[-2.00891,42.983203,1200.89],[-2.008823,42.983215,1201.299],[-2.008754,42.983215,1201.15],[-2.008676,42.983213,1200.669],[-2.008606,42.983199,1199.936],[-2.008525,42.983173,1198.738],[-2.008469,42.98315,1197.263],[-2.008407,42.983128,1196.393],[-2.008351,42.983109,1196.565],[-2.00828,42.983078,1196.221],[-2.00822,42.983054,1196.408],[-2.008167,42.983027,1196.984],[-2.008105,42.982989,1196.06],[-2.008029,42.982952,1195.119],[-2.007976,42.982925,1194.52],[-2.007908,42.982894,1193.439],[-2.007853,42.982843,1192.386],[-2.007816,42.982804,1192.148],[-2.007766,42.982754,1191.693],[-2.007721,42.982716,1190.521],[-2.007678,42.982684,1190.641],[-2.007619,42.982644,1190.305],[-2.007571,42.982614,1190.108],[-2.007518,42.982586,1189.667],[-2.007453,42.982548,1188.153],[-2.007393,42.982505,1187.212],[-2.00733,42.982474,1187.163],[-2.007277,42.982448,1186.682],[-2.007219,42.982411,1187.199],[-2.00717,42.982372,1188.261],[-2.007125,42.982331,1188.586],[-2.007084,42.982285,1188.721],[-2.007039,42.98224,1188.841],[-2.006997,42.982202,1189.305],[-2.006949,42.982159,1190.008],[-2.006894,42.982115,1190.067],[-2.006828,42.98207,1190.063],[-2.006764,42.982032,1190.092],[-2.006701,42.981995,1190.083],[-2.006648,42.981968,1189.672],[-2.006589,42.981933,1189.419],[-2.006539,42.981894,1189.361],[-2.006493,42.98185,1188.866],[-2.006449,42.981804,1186.984],[-2.006393,42.98175,1186.207],[-2.006332,42.98171,1186.217],[-2.006279,42.981682,1186.208],[-2.006224,42.981656,1187.033],[-2.006171,42.981615,1186.729],[-2.006113,42.981575,1186.978],[-2.006065,42.981539,1186.269],[-2.006017,42.981502,1186.218],[-2.005956,42.98146,1186.625],[-2.0059,42.981433,1186.487],[-2.005839,42.981406,1187.192],[-2.005783,42.981382,1186.756],[-2.005714,42.981358,1186.959],[-2.005652,42.981336,1186.614],[-2.00559,42.981308,1186.408],[-2.005531,42.981274,1186.31],[-2.005478,42.981235,1186.266],[-2.005427,42.981197,1186.255],[-2.005375,42.981158,1186.686],[-2.005313,42.981117,1186.895],[-2.005259,42.981081,1186.532],[-2.005197,42.981046,1186.384],[-2.00515,42.981005,1186.649],[-2.005091,42.980971,1187.619],[-2.005027,42.98095,1187.409],[-2.004976,42.98092,1186.119],[-2.004929,42.98089,1185.308],[-2.004878,42.98086,1184.036],[-2.004815,42.980824,1183.282],[-2.004745,42.980797,1183.111],[-2.00468,42.980768,1183.172],[-2.004616,42.980751,1182.721],[-2.00455,42.980728,1182.498],[-2.004485,42.980711,1182.64],[-2.004404,42.980684,1182.355],[-2.00434,42.980659,1182.147],[-2.004293,42.980627,1180.429],[-2.004232,42.980603,1179.021],[-2.004167,42.980574,1178.608],[-2.004108,42.980547,1179.119],[-2.004054,42.980517,1179.485],[-2.004002,42.980488,1180.034],[-2.00393,42.980467,1180.475],[-2.003882,42.980428,1180.244],[-2.003838,42.980382,1180.511],[-2.003799,42.98034,1180.743],[-2.003766,42.980299,1180.888],[-2.00373,42.980253,1181.386],[-2.003688,42.980211,1182.06],[-2.003623,42.980203,1182.426],[-2.003567,42.980174,1182.208],[-2.003518,42.980143,1182.123],[-2.003488,42.980091,1182.069],[-2.003457,42.98005,1182.078],[-2.003429,42.980006,1182.479],[-2.003397,42.979959,1183.018],[-2.003355,42.979919,1184.225],[-2.003307,42.979889,1184.527],[-2.003238,42.979863,1185.152],[-2.003182,42.979843,1186.391],[-2.003124,42.979821,1186.681],[-2.003058,42.979811,1187.219],[-2.002981,42.9798,1187.108],[-2.002909,42.979788,1187.554],[-2.002848,42.979775,1188.14],[-2.002774,42.979785,1186.529],[-2.002699,42.979777,1187.56],[-2.002645,42.979739,1188.919],[-2.002567,42.979714,1189.376],[-2.002491,42.979702,1190.068],[-2.002427,42.979678,1190.883],[-2.002363,42.979644,1191.357],[-2.002301,42.97962,1191.2],[-2.002233,42.979619,1190.32],[-2.00216,42.979587,1189.808],[-2.002096,42.979556,1189.96],[-2.00204,42.979533,1190.876],[-2.001976,42.979494,1191.745],[-2.001927,42.979466,1192.626],[-2.001855,42.979435,1193.265],[-2.001801,42.979402,1193.982],[-2.001739,42.979365,1194.744],[-2.001686,42.979333,1195.659],[-2.001624,42.979323,1196.154],[-2.00157,42.979289,1196.056],[-2.001525,42.979258,1197.211],[-2.001474,42.97921,1197.908],[-2.001422,42.979163,1198.39],[-2.001381,42.979116,1198.576],[-2.001347,42.979068,1198.245],[-2.001315,42.979026,1197.276],[-2.001291,42.978985,1196.225],[-2.001255,42.978934,1196.872],[-2.00123,42.978882,1197.234],[-2.001188,42.978846,1197.449],[-2.001155,42.978799,1196.718],[-2.001134,42.978754,1195.998],[-2.001107,42.978709,1194.617],[-2.001099,42.978662,1192.608],[-2.001065,42.978609,1191.046],[-2.00103,42.978551,1190.192],[-2.001039,42.978497,1189.111],[-2.001046,42.978452,1188.972],[-2.001054,42.978405,1188.011],[-2.001022,42.978367,1186.328],[-2.000992,42.978317,1186.19],[-2.001028,42.978275,1184.855],[-2.001077,42.978246,1184.481],[-2.001117,42.978201,1184.661],[-2.001137,42.97814,1185.117],[-2.00115,42.978091,1185.808],[-2.001142,42.978034,1185.413],[-2.001082,42.978019,1184.849],[-2.001018,42.978015,1184.848],[-2.000948,42.977998,1184.879],[-2.000881,42.977972,1183.218],[-2.000816,42.977932,1181.425],[-2.000762,42.977906,1181.167],[-2.000701,42.97789,1180.582],[-2.000629,42.977876,1179.887],[-2.000551,42.977868,1179.042],[-2.000488,42.977864,1178.526],[-2.000413,42.97786,1177.808],[-2.000355,42.977822,1176.243],[-2.000301,42.977789,1174.419],[-2.000232,42.977761,1172.158],[-2.000178,42.977732,1171.169],[-2.000129,42.977704,1169.358],[-2.000076,42.977666,1167.855],[-2.00003,42.977633,1165.767],[-1.999966,42.977645,1165.362],[-1.999916,42.977678,1165.014],[-1.999838,42.977671,1166.054],[-1.999787,42.977641,1165.809],[-1.999748,42.977604,1164.508],[-1.999715,42.977555,1163.786],[-1.999679,42.977511,1162.452],[-1.999631,42.977478,1161.231],[-1.999582,42.977435,1158.962],[-1.999539,42.9774,1159.161],[-1.999491,42.97735,1159.668],[-1.999449,42.977292,1159.19],[-1.99941,42.977242,1158.875],[-1.99937,42.977186,1158.612],[-1.999341,42.977131,1158.132],[-1.999314,42.977088,1156.605],[-1.999274,42.977033,1156.108],[-1.999246,42.976982,1155.816],[-1.999247,42.976927,1154.852],[-1.999246,42.976876,1152.611],[-1.999245,42.976831,1150.562],[-1.999253,42.976782,1148.061],[-1.999251,42.976728,1146.128],[-1.99924,42.976681,1144.68],[-1.999236,42.976625,1144.115],[-1.999236,42.976568,1144.298],[-1.999247,42.976517,1144.315],[-1.999249,42.976468,1145.126],[-1.999249,42.976419,1145.208],[-1.999232,42.976363,1145.384],[-1.999207,42.976302,1144.97],[-1.999191,42.976247,1144.799],[-1.999186,42.976187,1144.65],[-1.999181,42.97612,1144.919],[-1.999173,42.976069,1143.946],[-1.999187,42.976016,1143.718],[-1.999195,42.975971,1143.243],[-1.99919,42.975924,1142.988],[-1.999182,42.975877,1142.324],[-1.999185,42.97583,1142.326],[-1.999207,42.97577,1141.908],[-1.999184,42.975723,1140.533],[-1.999178,42.975667,1139.669],[-1.999163,42.975619,1140.748],[-1.999117,42.975577,1143.439],[-1.999098,42.97553,1145.068],[-1.999077,42.975474,1145.665],[-1.999026,42.975447,1144.757],[-1.999002,42.975385,1145.052],[-1.999019,42.975338,1144.858],[-1.999026,42.975292,1143.952],[-1.999047,42.975248,1143.717],[-1.999089,42.975202,1144.008],[-1.99913,42.975159,1143.86],[-1.999177,42.975123,1139.886],[-1.99922,42.975076,1135.825],[-1.99925,42.975024,1132.926],[-1.999276,42.974978,1133.975],[-1.999313,42.974924,1129.972],[-1.999353,42.974875,1129.734],[-1.999403,42.974833,1132.059],[-1.999453,42.974789,1133.449],[-1.999497,42.974756,1134.202],[-1.999542,42.974724,1134.722],[-1.999602,42.97468,1134.208],[-1.999657,42.974646,1133.939],[-1.99974,42.974608,1134.525],[-1.99977,42.974553,1135.374],[-1.999827,42.97452,1134.215],[-1.99989,42.97451,1133.914],[-1.999951,42.974487,1133.331],[-2.000011,42.974466,1133.413],[-2.000069,42.974439,1133.878],[-2.00008,42.974389,1133.725],[-2.0001,42.974345,1133.226],[-2.000165,42.974325,1132.908],[-2.00025,42.974334,1133.508],[-2.00032,42.974334,1134.347],[-2.000383,42.97432,1134.483],[-2.000436,42.97429,1136.022],[-2.000488,42.974264,1135.463],[-2.00055,42.974258,1134.692],[-2.000606,42.974237,1133.329],[-2.000672,42.974221,1131.781],[-2.00074,42.974216,1131.246],[-2.000795,42.974177,1127.297],[-2.000868,42.974152,1124.523],[-2.000937,42.974127,1123.725],[-2.000974,42.974085,1124.408],[-2.001009,42.974043,1125.274],[-2.001049,42.973994,1125.75],[-2.00109,42.973956,1126.459],[-2.001129,42.973905,1127.62],[-2.001156,42.973848,1127.169],[-2.00118,42.973801,1126.416],[-2.001184,42.973751,1125.628],[-2.001166,42.973705,1125.113],[-2.00113,42.973654,1125.295],[-2.001066,42.973616,1124.549],[-2.000996,42.973585,1123.323],[-2.000932,42.973544,1122.208],[-2.000871,42.973495,1121.174],[-2.000801,42.97346,1120.03],[-2.000746,42.973426,1118.639],[-2.000695,42.9734,1117.75],[-2.000623,42.973398,1116.439],[-2.000556,42.973442,1115.646],[-2.000508,42.973487,1115.118],[-2.000475,42.973525,1115.263],[-2.000464,42.973478,1115.779],[-2.000443,42.973432,1117.205],[-2.000416,42.973375,1118.525],[-2.00039,42.973325,1118.508],[-2.000356,42.973269,1118.532],[-2.000319,42.973225,1119.368],[-2.000265,42.973181,1119.097],[-2.000214,42.973124,1118.818],[-2.000158,42.973083,1119.127],[-2.00013,42.97303,1118.524],[-2.000104,42.972977,1118.116],[-2.000088,42.972932,1117.971],[-2.000062,42.972881,1118.273],[-2.000022,42.972839,1117.685],[-1.999963,42.972799,1116.413],[-1.999916,42.972746,1117.308],[-1.999893,42.972704,1118.622],[-1.999886,42.972656,1120.658],[-1.999816,42.972666,1119.427],[-1.999755,42.972656,1119.158],[-1.999691,42.972635,1115.157],[-1.99962,42.972614,1111.154],[-1.999554,42.972602,1109.326],[-1.999497,42.972577,1109.461],[-1.999439,42.972552,1109.998],[-1.999374,42.972533,1110.615],[-1.999351,42.972476,1111.426],[-1.999382,42.972426,1113.108],[-1.999348,42.972384,1114.514],[-1.999325,42.972337,1110.59],[-1.999263,42.972305,1106.939],[-1.999203,42.972287,1106.45],[-1.999167,42.972243,1104.179],[-1.999097,42.972225,1100.196],[-1.999031,42.972221,1096.168],[-1.99898,42.972185,1093.513],[-1.998923,42.972154,1092.717],[-1.998877,42.972119,1088.787],[-1.998844,42.97206,1085.015],[-1.998795,42.971996,1085.608],[-1.998762,42.971942,1086.476],[-1.998751,42.971882,1086.912],[-1.998758,42.97182,1087.261],[-1.998782,42.971765,1087.032],[-1.998804,42.971704,1087.351],[-1.998815,42.971638,1088.798],[-1.998817,42.971568,1090.71],[-1.998809,42.971505,1091.555],[-1.998794,42.971453,1092.027],[-1.998775,42.971397,1091.968],[-1.998759,42.97134,1091.814],[-1.998761,42.971292,1091.808],[-1.998775,42.971235,1091.417],[-1.998718,42.971194,1089.553],[-1.998642,42.971151,1087.252],[-1.998584,42.971116,1085.813],[-1.998561,42.971074,1085.412],[-1.998534,42.971031,1086.389],[-1.998526,42.970984,1089.331],[-1.998532,42.970933,1085.376],[-1.998563,42.970865,1085.131],[-1.998603,42.970808,1085.061],[-1.998622,42.970745,1084.907],[-1.998604,42.970691,1085.308],[-1.998567,42.970632,1085.178],[-1.998505,42.970598,1085.044],[-1.998496,42.970547,1084.563],[-1.998523,42.970501,1083.414],[-1.998571,42.970467,1080.493],[-1.9986,42.970426,1077.47],[-1.998631,42.970371,1076.052],[-1.998668,42.970332,1075.517],[-1.99872,42.970289,1075.641],[-1.998757,42.970253,1074.981],[-1.998791,42.970196,1074.509],[-1.998789,42.970148,1074.208],[-1.998774,42.97009,1073.629],[-1.998801,42.970042,1070.575],[-1.998863,42.970005,1067.484],[-1.99893,42.96998,1066.055],[-1.998991,42.969959,1065.114],[-1.999051,42.969937,1064.211],[-1.999115,42.969895,1060.253],[-1.999163,42.969851,1056.238],[-1.999209,42.969822,1053.646],[-1.999262,42.969794,1054.188],[-1.999324,42.969763,1055.616],[-1.999379,42.969721,1058.108],[-1.999431,42.969675,1059.629],[-1.999476,42.969635,1060.965],[-1.999518,42.969595,1061.314],[-1.999566,42.969566,1061.575],[-1.999601,42.969523,1062.044],[-1.999651,42.969476,1063.181],[-1.999711,42.969432,1063.083],[-1.999753,42.969379,1063.788],[-1.999803,42.969332,1063.783],[-1.999847,42.96929,1064.925],[-1.999882,42.969252,1065.617],[-1.999914,42.969205,1065.608],[-1.999953,42.969164,1064.893],[-2.000007,42.969114,1064.319],[-2.00007,42.96906,1064.048],[-2.000135,42.969021,1060.099],[-2.000197,42.968998,1056.048],[-2.000257,42.968979,1052.085],[-2.000326,42.968943,1050.627],[-2.000384,42.968895,1051.482],[-2.000394,42.968842,1051.533],[-2.000384,42.968796,1051.523],[-2.000319,42.968768,1047.515],[-2.000276,42.968731,1044.308],[-2.000253,42.968686,1042.078],[-2.000236,42.968625,1041.824],[-2.000216,42.968582,1039.393],[-2.000154,42.968564,1035.344],[-2.00011,42.968529,1031.433],[-2.000058,42.968504,1030.35],[-2.000017,42.968467,1030.062],[-1.999967,42.968433,1026.087],[-1.99994,42.968392,1025.435],[-1.999939,42.968341,1027.186],[-1.99992,42.968291,1027.714],[-1.999902,42.968237,1026.508],[-1.999917,42.968179,1026.288],[-1.99991,42.968118,1024.854],[-1.99988,42.968074,1022.073],[-1.999827,42.968025,1020.334],[-1.999759,42.967997,1019.733],[-1.999699,42.967988,1018.53],[-1.99963,42.96798,1018.232],[-1.99957,42.967957,1019.677],[-1.999532,42.967916,1019.743],[-1.999494,42.96787,1018.964],[-1.99949,42.967822,1017.21],[-1.999472,42.96777,1016.608],[-1.999444,42.967717,1016.299],[-1.999442,42.967672,1016.435],[-1.99944,42.967595,1015.334],[-1.999417,42.967528,1014.295],[-1.999395,42.967456,1013.214],[-1.999377,42.967399,1012.661],[-1.999363,42.967337,1011.843],[-1.999369,42.967276,1011.738],[-1.999393,42.967233,1011.313],[-1.999425,42.967184,1009.843],[-1.999484,42.967156,1008.907],[-1.999544,42.967128,1008.808],[-1.999604,42.967103,1008.756],[-1.999692,42.967096,1009.932],[-1.999768,42.967092,1010.641],[-1.99984,42.967089,1009.032],[-1.99993,42.967092,1008.841],[-2.000009,42.967102,1008.378],[-2.000093,42.967114,1008.02],[-2.000174,42.96712,1007.035],[-2.000258,42.967115,1006.051],[-2.000366,42.967086,1005.401],[-2.000433,42.967059,1005.011],[-2.00049,42.967032,1006.008],[-2.00057,42.966999,1007.05],[-2.000639,42.966988,1007.636],[-2.000711,42.966969,1008.065],[-2.000777,42.966977,1007.816],[-2.000828,42.967005,1007.315],[-2.000892,42.966988,1006.642],[-2.000956,42.966968,1005.884],[-2.001001,42.966935,1005.329],[-2.00105,42.966896,1004.615],[-2.001126,42.966863,1003.865],[-2.001215,42.966815,1003.711],[-2.001281,42.966758,1004.008],[-2.001324,42.966701,1004.626],[-2.001348,42.966644,1004.622],[-2.001347,42.966587,1004.611],[-2.001327,42.966544,1004.682],[-2.001362,42.966496,1005.071],[-2.001401,42.966443,1004.848],[-2.001412,42.966384,1004.36],[-2.001452,42.966344,1003.295],[-2.001497,42.966308,1002.165],[-2.001539,42.966274,1001.568],[-2.001593,42.966231,1000.314],[-2.001624,42.966177,999.208],[-2.001671,42.966134,998.951],[-2.001741,42.966134,995.977],[-2.001802,42.966107,992.136],[-2.001865,42.966076,990.657],[-2.001933,42.96605,989.736],[-2.001996,42.966036,989.253],[-2.002043,42.965999,990.165],[-2.002084,42.965964,989.44],[-2.002122,42.965923,989.097],[-2.002184,42.965884,989.623],[-2.002205,42.965826,989.925],[-2.002198,42.96577,990.508],[-2.002174,42.965716,990.954],[-2.002126,42.96567,991.54],[-2.002056,42.965656,992.729],[-2.001988,42.965637,993.02],[-2.001904,42.965625,993.219],[-2.001836,42.96562,991.346],[-2.001763,42.965627,990.638],[-2.001681,42.965624,990.673],[-2.00162,42.965616,990.647],[-2.001553,42.965608,990.629],[-2.001481,42.965591,989.821],[-2.001396,42.965572,989.308],[-2.0013,42.965566,988.699],[-2.00121,42.965561,989.075],[-2.001139,42.965536,988.854],[-2.001066,42.965514,987.955],[-2.000999,42.965484,989.074],[-2.00095,42.965437,990.451],[-2.000894,42.9654,991.393],[-2.000836,42.965384,991.048],[-2.000773,42.965353,990.072],[-2.000712,42.96533,989.413],[-2.000636,42.965299,989.114],[-2.000585,42.965251,990.108],[-2.000554,42.965198,992.372],[-2.000539,42.965145,994.858],[-2.00053,42.965096,994.327],[-2.000508,42.965044,994.898],[-2.000506,42.964996,995.147],[-2.000552,42.964958,995.354],[-2.000592,42.964923,996.256],[-2.000639,42.964891,996.351],[-2.000652,42.964845,996.888],[-2.000669,42.964799,997.524],[-2.000674,42.964744,997.926],[-2.000658,42.964694,997.308],[-2.000628,42.964643,998.253],[-2.000615,42.964585,997.989],[-2.000585,42.964531,996.558],[-2.000559,42.964477,995.759],[-2.000554,42.964431,993.298],[-2.00054,42.964381,991.715],[-2.000504,42.964332,990.437],[-2.000457,42.964291,990.482],[-2.000389,42.964265,989.287],[-2.00033,42.964241,987.742],[-2.000267,42.964219,986.426],[-2.000208,42.964193,987.208],[-2.00016,42.964153,988.583],[-2.000118,42.964115,990.969],[-2.000073,42.964079,993.128],[-2.000023,42.964036,994.069],[-1.999974,42.963994,995.058],[-1.999946,42.96395,994.855],[-1.999902,42.96391,994.757],[-1.999841,42.963888,995.012],[-1.999799,42.963854,995.665],[-1.999719,42.963853,996.068],[-1.999651,42.963858,995.014],[-1.999577,42.963858,994.008],[-1.999504,42.963855,992.611],[-1.999431,42.963865,992.617],[-1.999368,42.963892,992.256],[-1.999287,42.963893,992.317],[-1.999209,42.963914,990.896],[-1.999144,42.963922,989.573],[-1.999062,42.963915,988.735],[-1.99897,42.963899,988.68],[-1.998881,42.963896,988.218],[-1.99882,42.963906,987.998],[-1.998767,42.96395,987.317],[-1.998733,42.964,986.608],[-1.998715,42.964044,986.296],[-1.99869,42.964095,985.132],[-1.998642,42.964147,984.991],[-1.998607,42.964189,984.052],[-1.998545,42.964206,984.241],[-1.998485,42.964219,984.718],[-1.99841,42.964231,987.03],[-1.998339,42.96423,988.065],[-1.998282,42.964204,989.412],[-1.998227,42.964183,989.432],[-1.998146,42.964168,990.605],[-1.998044,42.964161,990.108],[-1.997968,42.964179,990.266],[-1.997907,42.964198,990.782],[-1.997843,42.964207,990.251],[-1.997773,42.964183,989.992],[-1.997746,42.964132,988.961],[-1.997694,42.964107,986.728],[-1.997618,42.964118,985.88],[-1.997556,42.964107,985.365],[-1.997492,42.9641,987.095],[-1.997426,42.964086,988.049],[-1.997356,42.964063,989.023],[-1.997301,42.964043,989.608],[-1.997252,42.964013,989.634],[-1.997222,42.963971,989.28],[-1.99724,42.963919,989.319],[-1.99726,42.963866,988.68],[-1.997242,42.963808,987.889],[-1.997233,42.96375,987.316],[-1.997239,42.963691,986.628],[-1.997253,42.963643,986.683],[-1.997279,42.963599,987.019],[-1.997322,42.963559,986.409],[-1.997363,42.963516,987.319],[-1.997415,42.963462,986.608],[-1.997438,42.963415,985.876],[-1.997468,42.963355,986.152],[-1.997504,42.963305,985.961],[-1.99754,42.963266,986.232],[-1.99758,42.963218,986.441],[-1.997611,42.963177,987.338],[-1.997628,42.963126,988.25],[-1.997634,42.963081,988.015],[-1.997622,42.963031,987.994],[-1.997624,42.962978,988.657],[-1.997611,42.96293,989.022],[-1.997555,42.962909,988.508],[-1.997493,42.96288,987.434],[-1.997464,42.962838,986.71],[-1.997399,42.962821,986.319],[-1.997354,42.962785,986.16],[-1.997291,42.962743,986.079],[-1.997229,42.962726,985.126],[-1.997157,42.962712,986.288],[-1.997097,42.962692,987.613],[-1.997028,42.962669,987.766],[-1.996964,42.962654,985.329],[-1.996903,42.962667,982.721],[-1.996821,42.962675,982.308],[-1.996756,42.962675,982.191],[-1.996687,42.962659,983.637],[-1.996612,42.962673,984.136],[-1.996528,42.962665,984.457],[-1.996465,42.96265,985.046],[-1.996395,42.962637,985.723],[-1.996327,42.962647,987.775],[-1.996265,42.962663,988.96],[-1.996202,42.962668,990.488],[-1.996125,42.962684,990.924],[-1.99605,42.962702,990.426],[-1.995989,42.962705,988.508],[-1.995927,42.96273,987.013],[-1.995858,42.962749,986.119],[-1.995791,42.962752,986.398],[-1.995725,42.962738,986.039],[-1.995658,42.962738,985.848],[-1.995592,42.962764,986.565],[-1.995528,42.962766,987.367],[-1.995459,42.96276,987.422],[-1.995401,42.962785,986.757],[-1.995337,42.96281,986.7],[-1.995265,42.962841,986.72],[-1.995227,42.962878,986.708]]}}]}