{"type":"FeatureCollection","features":[{"type":"Feature","properties":{"ruta_id":"53716848","nombre":"⛰️ ACHAR de ALANO desde TACHERAS","blog_url":"https://www.rutasporelmonte.com/achar-de-alano-ruta-desde-tacheras/"},"geometry":{"type":"LineString","coordinates":[[-0.788746,42.854325,1280.787],[-0.788799,42.8543,1280.742],[-0.78885,42.854273,1280.726],[-0.78891,42.854262,1280.708],[-0.788969,42.85425,1280.773],[-0.789005,42.854212,1280.771],[-0.789007,42.854163,1280.725],[-0.789038,42.854123,1280.729],[-0.789079,42.854083,1280.754],[-0.789088,42.854036,1280.746],[-0.789057,42.853997,1280.752],[-0.788989,42.854001,1280.786],[-0.788925,42.853992,1280.765],[-0.788856,42.853966,1280.768],[-0.788813,42.853926,1280.714],[-0.788813,42.853926,1280.708],[-0.788757,42.853894,1281.041],[-0.788717,42.853857,1281.679],[-0.788656,42.853853,1282.693],[-0.7886,42.853829,1283.737],[-0.788569,42.853786,1284.782],[-0.7885,42.853789,1285.824],[-0.788436,42.8538,1286.74],[-0.78837,42.853777,1287.354],[-0.78831,42.853752,1287.566],[-0.788261,42.853714,1287.529],[-0.788231,42.853672,1287.221],[-0.788198,42.853628,1286.808],[-0.788171,42.853584,1286.651],[-0.788119,42.853552,1286.429],[-0.78807,42.853513,1286.443],[-0.788032,42.853476,1286.727],[-0.788022,42.85343,1287.272],[-0.787994,42.853388,1287.974],[-0.787989,42.853338,1288.88],[-0.78799,42.853288,1289.764],[-0.787969,42.853239,1290.386],[-0.787934,42.853201,1290.76],[-0.787885,42.853163,1291.126],[-0.787827,42.853143,1291.708],[-0.787782,42.853105,1292.653],[-0.78773,42.853066,1293.681],[-0.787701,42.853025,1294.775],[-0.787704,42.85298,1296.339],[-0.787645,42.852994,1296.954],[-0.787583,42.852987,1297.636],[-0.787516,42.853,1298.672],[-0.787455,42.852982,1300.436],[-0.787385,42.852979,1302.683],[-0.787342,42.852944,1304.725],[-0.787336,42.852896,1306.517],[-0.787344,42.852846,1308.108],[-0.787322,42.852798,1309.513],[-0.787319,42.85275,1311.181],[-0.78732,42.8527,1312.825],[-0.787291,42.852655,1314.569],[-0.787229,42.852629,1316.654],[-0.787156,42.852613,1318.356],[-0.787089,42.852614,1319.982],[-0.787031,42.852597,1321.136],[-0.786968,42.852589,1322.071],[-0.786989,42.852632,1322.341],[-0.786913,42.852611,1322.615],[-0.786855,42.852594,1322.608],[-0.786793,42.852569,1323.012],[-0.786748,42.852529,1323.63],[-0.786679,42.852518,1324.414],[-0.78661,42.852533,1325.678],[-0.786544,42.852539,1327.143],[-0.786476,42.852523,1328.845],[-0.786417,42.852506,1330.431],[-0.786357,42.852487,1331.755],[-0.78629,42.852494,1333.077],[-0.786215,42.852496,1334.561],[-0.786152,42.8525,1336.127],[-0.78609,42.852502,1337.608],[-0.786021,42.852491,1338.982],[-0.785951,42.852481,1339.82],[-0.785867,42.852489,1340.484],[-0.785804,42.852479,1340.968],[-0.785746,42.852445,1341.233],[-0.78569,42.852423,1341.645],[-0.785628,42.852414,1342.331],[-0.78557,42.852394,1341.825],[-0.785526,42.852354,1341.835],[-0.785473,42.852323,1342.186],[-0.785419,42.8523,1342.614],[-0.785349,42.852294,1343.208],[-0.785284,42.852303,1343.888],[-0.785223,42.852312,1344.556],[-0.785164,42.852325,1345.37],[-0.785101,42.852337,1346.294],[-0.785032,42.85235,1347.119],[-0.784964,42.852344,1347.741],[-0.784909,42.852319,1348.147],[-0.784844,42.852311,1348.311],[-0.784785,42.85228,1348.649],[-0.784738,42.852243,1349.002],[-0.784683,42.852212,1349.922],[-0.784637,42.85217,1351.308],[-0.784581,42.852146,1352.789],[-0.784528,42.85212,1353.997],[-0.784494,42.852081,1355.031],[-0.784432,42.852077,1356.435],[-0.78437,42.852054,1358.25],[-0.784313,42.852027,1359.612],[-0.784258,42.852,1360.688],[-0.784211,42.851963,1361.332],[-0.784167,42.851926,1361.893],[-0.784131,42.851889,1362.365],[-0.784095,42.851848,1362.821],[-0.78406,42.851807,1363.408],[-0.784029,42.851766,1364.174],[-0.784016,42.851714,1365.042],[-0.783979,42.851672,1365.886],[-0.783938,42.85163,1366.57],[-0.783887,42.851588,1367.425],[-0.783839,42.851556,1368.317],[-0.783788,42.851522,1369.433],[-0.783741,42.851492,1370.587],[-0.783697,42.851457,1371.775],[-0.78365,42.851423,1372.928],[-0.783606,42.851386,1374.02],[-0.783576,42.85134,1375.208],[-0.783548,42.85129,1376.742],[-0.783503,42.851254,1378.06],[-0.78345,42.851219,1379.344],[-0.783427,42.851174,1380.838],[-0.783419,42.851126,1383.033],[-0.783358,42.85111,1384.075],[-0.783288,42.851112,1385.661],[-0.783226,42.851101,1386.725],[-0.783177,42.851069,1387.369],[-0.783116,42.851048,1387.904],[-0.783066,42.851015,1388.524],[-0.78301,42.850994,1388.908],[-0.782974,42.850955,1389.511],[-0.782955,42.85091,1390.259],[-0.782934,42.850862,1391.093],[-0.782925,42.850817,1391.957],[-0.782899,42.850766,1392.922],[-0.782864,42.850728,1393.484],[-0.782832,42.850684,1393.74],[-0.782795,42.850642,1393.834],[-0.782789,42.850591,1393.998],[-0.782822,42.850551,1394.215],[-0.782823,42.8505,1395.126],[-0.782803,42.850454,1396.208],[-0.782759,42.850421,1397.324],[-0.782706,42.850398,1398.752],[-0.782639,42.850387,1401.266],[-0.782597,42.850353,1403.11],[-0.782574,42.850311,1404.465],[-0.782548,42.850262,1405.317],[-0.782525,42.850213,1406.373],[-0.782498,42.850164,1406.877],[-0.782479,42.850116,1407.193],[-0.782441,42.850078,1407.865],[-0.782416,42.850035,1408.821],[-0.782434,42.849986,1410.208],[-0.782444,42.849936,1412.144],[-0.782424,42.849887,1413.652],[-0.782423,42.84984,1415.176],[-0.78239,42.849797,1416.68],[-0.782351,42.849758,1418.175],[-0.782292,42.849734,1419.697],[-0.782233,42.849719,1420.883],[-0.782172,42.849711,1421.897],[-0.782106,42.849706,1423.141],[-0.782047,42.849687,1424.181],[-0.782024,42.849645,1424.909],[-0.781959,42.849622,1426.208],[-0.781901,42.849598,1427.339],[-0.781853,42.849567,1428.747],[-0.781815,42.849526,1429.841],[-0.781774,42.849487,1430.855],[-0.781728,42.849457,1431.72],[-0.781685,42.849425,1432.762],[-0.78164,42.84939,1433.778],[-0.781592,42.849361,1435.052],[-0.781536,42.849336,1436.764],[-0.781483,42.849307,1438.706],[-0.78147,42.849261,1442.216],[-0.781468,42.849209,1444.308],[-0.78147,42.849162,1446.181],[-0.781478,42.849109,1447.669],[-0.781472,42.849061,1448.673],[-0.781453,42.849015,1450.067],[-0.781432,42.848968,1451.432],[-0.781436,42.848918,1452.554],[-0.781454,42.848874,1453.52],[-0.781415,42.848838,1454.574],[-0.781354,42.848826,1455.394],[-0.781288,42.848813,1455.757],[-0.781254,42.848772,1455.722],[-0.781306,42.848744,1455.908],[-0.781346,42.848701,1457.824],[-0.78138,42.848657,1459.942],[-0.781398,42.848613,1462.496],[-0.781412,42.848566,1465.35],[-0.781441,42.848524,1468.175],[-0.781463,42.848475,1470.957],[-0.781489,42.84843,1473.463],[-0.781512,42.848385,1475.567],[-0.781509,42.848339,1477.552],[-0.781574,42.848337,1479.653],[-0.781574,42.848291,1481.508],[-0.781568,42.848242,1483.208],[-0.781633,42.848234,1484.32],[-0.781695,42.848235,1485.458],[-0.781767,42.848243,1486.762],[-0.781823,42.848262,1487.826],[-0.78188,42.848279,1489.271],[-0.78189,42.848233,1490.673],[-0.781909,42.848186,1492.439],[-0.78191,42.848139,1494.263],[-0.781888,42.848094,1495.881],[-0.781932,42.848062,1497.661],[-0.781996,42.848078,1500.317],[-0.782053,42.848106,1501.908],[-0.782124,42.848085,1503.553],[-0.782138,42.848034,1505.141],[-0.782129,42.847988,1506.225],[-0.78211,42.847941,1507.079],[-0.782091,42.847896,1507.534],[-0.782061,42.847851,1508.096],[-0.782039,42.847809,1508.582],[-0.782044,42.847761,1507.576],[-0.782044,42.847761,1507.596],[-0.782071,42.847713,1507.331],[-0.782092,42.847666,1507.224],[-0.782116,42.847624,1507.308],[-0.782142,42.847578,1507.874],[-0.782162,42.847535,1508.482],[-0.782175,42.847489,1509.426],[-0.782187,42.847438,1510.65],[-0.78221,42.847391,1511.735],[-0.782228,42.847343,1512.867],[-0.782253,42.847292,1514.093],[-0.782301,42.847255,1515.047],[-0.782322,42.847212,1516.154],[-0.782336,42.847163,1516.756],[-0.782392,42.847144,1516.111],[-0.782387,42.847197,1516.908],[-0.782442,42.847167,1516.63],[-0.782478,42.84712,1515.958],[-0.782511,42.847072,1515.242],[-0.782536,42.847031,1514.486],[-0.782569,42.846987,1513.811],[-0.782614,42.846954,1513.573],[-0.782631,42.846896,1513.419],[-0.782595,42.846852,1513.263],[-0.782544,42.846823,1514.768],[-0.782544,42.846823,1514.742],[-0.782479,42.846818,1515.426],[-0.782541,42.846794,1515.708],[-0.782604,42.846793,1516.061],[-0.782596,42.846745,1516.119],[-0.782551,42.846713,1517.143],[-0.782586,42.846676,1518.867],[-0.782589,42.846627,1520.552],[-0.782648,42.846605,1522.014],[-0.782709,42.846585,1523.78],[-0.782747,42.846548,1524.794],[-0.782726,42.846595,1524.694],[-0.782698,42.846553,1525.657],[-0.782713,42.846601,1525.822],[-0.782669,42.846633,1525.708],[-0.78271,42.846596,1525.944],[-0.782759,42.846567,1525.992],[-0.782805,42.846533,1526.166],[-0.782841,42.846494,1526.53],[-0.782896,42.846466,1528.515],[-0.782962,42.846437,1530.557],[-0.783009,42.846405,1532.213],[-0.783057,42.84637,1533.637],[-0.78309,42.846331,1534.839],[-0.783127,42.846288,1536.001],[-0.78317,42.846243,1537.121],[-0.783212,42.846207,1538.608],[-0.783252,42.846173,1540.678],[-0.783304,42.846146,1542.836],[-0.783355,42.846118,1544.83],[-0.783397,42.846082,1547.094],[-0.78345,42.846059,1549.289],[-0.783462,42.846013,1550.671],[-0.78352,42.845993,1551.787],[-0.783585,42.845998,1552.531],[-0.783652,42.846004,1553.388],[-0.783709,42.845987,1554.024],[-0.783753,42.845955,1554.826],[-0.783819,42.845954,1555.508],[-0.783881,42.845962,1556.323],[-0.783946,42.845966,1557.121],[-0.783972,42.845919,1558.295],[-0.783923,42.845886,1559.289],[-0.783898,42.845838,1560.474],[-0.783952,42.845815,1562.036],[-0.78402,42.845816,1563.332],[-0.78408,42.845795,1564.646],[-0.784135,42.845759,1566.036],[-0.784191,42.845739,1567.417],[-0.784224,42.845698,1568.918],[-0.784199,42.845653,1570.608],[-0.784177,42.845605,1571.978],[-0.784173,42.845559,1573.096],[-0.784114,42.845543,1577.09],[-0.784077,42.845499,1580.854],[-0.784027,42.84547,1584.199],[-0.783995,42.845429,1587.011],[-0.783983,42.845384,1589.667],[-0.783977,42.845339,1591.831],[-0.784001,42.845297,1593.739],[-0.784013,42.845249,1595.701],[-0.784018,42.845203,1596.921],[-0.784036,42.845158,1597.608],[-0.784074,42.845111,1598.118],[-0.784119,42.845078,1598.416],[-0.78417,42.845042,1598.63],[-0.784223,42.845012,1598.654],[-0.784277,42.84499,1598.419],[-0.784321,42.844957,1598.351],[-0.784304,42.844907,1598.417],[-0.784309,42.844859,1598.671],[-0.784305,42.844813,1598.756],[-0.784271,42.844774,1599.059],[-0.784232,42.844739,1599.714],[-0.784181,42.844711,1600.708],[-0.784199,42.844664,1601.78],[-0.784204,42.844616,1602.978],[-0.784199,42.844569,1604.512],[-0.784193,42.844523,1606.076],[-0.784208,42.844477,1607.451],[-0.784224,42.844432,1608.733],[-0.784225,42.844382,1610.469],[-0.78422,42.844336,1612.073],[-0.784236,42.844285,1613.656],[-0.784254,42.844238,1615.359],[-0.784217,42.8442,1616.614],[-0.784182,42.84416,1618.008],[-0.784191,42.844107,1619.95],[-0.784193,42.844059,1621.868],[-0.784212,42.844016,1623.642],[-0.784234,42.843971,1625.346],[-0.784228,42.843925,1626.661],[-0.784239,42.843877,1627.533],[-0.784261,42.843819,1628.169],[-0.784263,42.843774,1628.843],[-0.78426,42.843723,1629.865],[-0.784308,42.843693,1630.968],[-0.784356,42.843659,1632.114],[-0.784388,42.84362,1633.708],[-0.784389,42.84357,1635.381],[-0.784436,42.843539,1636.749],[-0.784488,42.843514,1638.023],[-0.784544,42.843494,1639.427],[-0.78461,42.843475,1640.762],[-0.784631,42.84343,1642.864],[-0.784687,42.843408,1645.06],[-0.784703,42.843362,1647.084],[-0.784699,42.843316,1649.048],[-0.784706,42.843271,1651.461],[-0.784742,42.843226,1653.717],[-0.784753,42.843177,1655.708],[-0.784812,42.843194,1656.979],[-0.784874,42.843185,1657.837],[-0.784901,42.843142,1659.061],[-0.784882,42.843099,1660.685],[-0.784888,42.843053,1662.51],[-0.784857,42.843013,1664.442],[-0.784804,42.842979,1665.998],[-0.784767,42.842942,1667.362],[-0.784711,42.842912,1668.418],[-0.784664,42.842879,1669.298],[-0.784616,42.842846,1669.617],[-0.784566,42.842813,1669.808],[-0.784511,42.842773,1669.956],[-0.784458,42.842748,1670.364],[-0.784404,42.842723,1670.878],[-0.784347,42.842693,1671.152],[-0.784288,42.842672,1672.397],[-0.784237,42.84264,1673.339],[-0.784207,42.842595,1674.365],[-0.784193,42.842547,1675.359],[-0.784172,42.842504,1676.313],[-0.78423,42.842525,1677.543],[-0.784297,42.842543,1678.707],[-0.784353,42.842564,1679.808],[-0.784413,42.842582,1680.856],[-0.784481,42.84258,1681.514],[-0.784545,42.842577,1682.238],[-0.784546,42.84253,1683.482],[-0.784518,42.842489,1685.017],[-0.784482,42.84245,1686.479],[-0.784434,42.842422,1687.735],[-0.784385,42.842389,1689.299],[-0.784348,42.842351,1690.561],[-0.784307,42.842316,1691.521],[-0.784291,42.84227,1692.213],[-0.784239,42.842244,1692.908],[-0.78418,42.842225,1694.871],[-0.784174,42.842175,1696.429],[-0.784166,42.842128,1698.483],[-0.784156,42.842082,1700.037],[-0.784217,42.842099,1701.292],[-0.784191,42.842056,1702.564],[-0.784154,42.842018,1703.78],[-0.784221,42.842014,1705.044],[-0.784278,42.842032,1706.181],[-0.784285,42.841986,1707.761],[-0.78423,42.841964,1708.917],[-0.784208,42.841921,1709.808],[-0.784273,42.841906,1710.573],[-0.784334,42.841913,1711.251],[-0.784394,42.841899,1711.965],[-0.784454,42.841888,1712.939],[-0.7845,42.841858,1713.974],[-0.784472,42.841813,1715.626],[-0.784466,42.841869,1718.672],[-0.78449,42.841821,1721.466],[-0.784543,42.841798,1723.316],[-0.784484,42.841779,1724.476],[-0.784447,42.841743,1725.113],[-0.784408,42.841708,1727.108],[-0.784374,42.84167,1729.496],[-0.784334,42.841634,1731.514],[-0.784318,42.841588,1733.358],[-0.784329,42.841541,1734.812],[-0.784315,42.841495,1736.817],[-0.784278,42.841458,1738.449],[-0.784247,42.841418,1739.785],[-0.784222,42.84137,1741.019],[-0.784197,42.841328,1742.359],[-0.784174,42.841279,1743.503],[-0.784131,42.841244,1744.623],[-0.784097,42.841196,1746.208],[-0.784053,42.841161,1747.67],[-0.783998,42.841135,1748.948],[-0.783956,42.841101,1750.322],[-0.7839,42.841082,1751.626],[-0.78394,42.841041,1753.281],[-0.783907,42.840999,1754.883],[-0.783841,42.840974,1756.419],[-0.783789,42.840945,1757.963],[-0.783834,42.840913,1759.724],[-0.78378,42.840883,1762.204],[-0.783735,42.84085,1764.414],[-0.783733,42.840804,1766.408],[-0.783725,42.840755,1767.937],[-0.78374,42.84071,1769.595],[-0.783724,42.840659,1771.129],[-0.783781,42.840642,1773.093],[-0.783841,42.840656,1774.738],[-0.783905,42.84065,1776.32],[-0.783898,42.840604,1778.886],[-0.783884,42.840557,1781.58],[-0.783947,42.84055,1784.416],[-0.78401,42.840558,1786.676],[-0.783984,42.840517,1790.613],[-0.783986,42.84047,1792.908],[-0.783955,42.840425,1794.156],[-0.783972,42.84038,1794.814],[-0.784016,42.840346,1795.328],[-0.783974,42.840305,1795.442],[-0.783941,42.840259,1795.847],[-0.78389,42.840233,1796.119],[-0.783826,42.840242,1796.465],[-0.783775,42.84021,1796.539],[-0.783709,42.840188,1796.631],[-0.783647,42.840175,1796.861],[-0.783583,42.840161,1797.107],[-0.783543,42.840125,1797.308],[-0.783574,42.840085,1796.978],[-0.783624,42.840056,1796.136],[-0.78363,42.840009,1794.97],[-0.783644,42.83996,1793.844],[-0.783614,42.839918,1793.329],[-0.783657,42.839882,1793.211],[-0.783688,42.839839,1793.317],[-0.783693,42.839794,1794.071],[-0.783749,42.839775,1794.728],[-0.78374,42.839729,1796.089],[-0.783756,42.839685,1797.317],[-0.783734,42.839643,1798.408],[-0.783795,42.839633,1799.177],[-0.783857,42.83962,1799.765],[-0.783894,42.839583,1800.599],[-0.783955,42.83958,1801.613],[-0.784007,42.839555,1802.538],[-0.783969,42.839518,1804.32],[-0.783917,42.839491,1805.586],[-0.78397,42.839464,1806.34],[-0.783975,42.839415,1810.225],[-0.78395,42.839372,1812.826],[-0.783965,42.839325,1814.508],[-0.783977,42.839279,1815.708],[-0.783997,42.839236,1816.737],[-0.783987,42.839189,1817.415],[-0.784029,42.83915,1817.979],[-0.784095,42.839138,1818.793],[-0.784125,42.839178,1819.838],[-0.784163,42.839215,1821.08],[-0.7842,42.839174,1822.226],[-0.784136,42.839148,1823.46],[-0.784089,42.839112,1824.221],[-0.784039,42.83908,1825.141],[-0.784044,42.83913,1826.705],[-0.784015,42.839171,1828.808],[-0.784061,42.839135,1830.717],[-0.784089,42.839089,1832.225],[-0.78409,42.839041,1833.479],[-0.784091,42.838988,1834.593],[-0.784127,42.838948,1835.728],[-0.784168,42.838911,1836.98],[-0.784231,42.838904,1838.446],[-0.784213,42.838854,1839.98],[-0.784277,42.838856,1841.437],[-0.784288,42.838809,1842.649],[-0.784276,42.838763,1844.713],[-0.784222,42.838737,1846.408],[-0.784278,42.838703,1848.828],[-0.784351,42.83871,1850.486],[-0.784412,42.838694,1851.77],[-0.784475,42.838677,1853.144],[-0.784537,42.83867,1854.679],[-0.78458,42.838703,1855.571],[-0.784645,42.838711,1856.877],[-0.784711,42.838696,1860.831],[-0.784751,42.83866,1864.839],[-0.784799,42.838631,1868.801],[-0.784859,42.83862,1872.821],[-0.784811,42.838651,1876.808],[-0.78483,42.838603,1880.838],[-0.784842,42.838552,1884.826],[-0.784886,42.838506,1888.86],[-0.784941,42.838472,1892.814],[-0.785,42.838452,1896.889],[-0.78505,42.838425,1900.821],[-0.785108,42.838399,1903.747],[-0.785138,42.838357,1905.681],[-0.785147,42.838311,1906.619],[-0.785154,42.838263,1907.409],[-0.785187,42.838224,1907.719],[-0.785236,42.838195,1908.208],[-0.785277,42.83816,1908.586],[-0.785311,42.838113,1908.864],[-0.785285,42.838067,1910.328],[-0.78534,42.838044,1911.472],[-0.785331,42.83809,1911.857],[-0.78531,42.838137,1911.949],[-0.785336,42.838093,1911.535],[-0.785358,42.838049,1910.929],[-0.785409,42.838079,1909.796],[-0.785466,42.838108,1908.931],[-0.785499,42.838147,1908.824],[-0.785514,42.838196,1909.208],[-0.7855,42.838245,1909.744],[-0.785497,42.838294,1910.032],[-0.785528,42.838341,1910.346],[-0.785567,42.83838,1910.64],[-0.785589,42.838423,1911.795],[-0.785589,42.838423,1911.717],[-0.785624,42.838463,1912.383],[-0.785648,42.838505,1913.097],[-0.785682,42.838548,1913.879],[-0.785724,42.838585,1914.905],[-0.785765,42.838621,1916.625],[-0.785828,42.838635,1918.308],[-0.785877,42.838667,1920.242],[-0.785934,42.838692,1922.42],[-0.785948,42.838736,1924.624],[-0.785997,42.838764,1927.898],[-0.785997,42.838764,1927.863],[-0.786032,42.838801,1929.125],[-0.786084,42.838826,1930.431],[-0.786141,42.838844,1931.855],[-0.78611,42.838886,1933.354],[-0.786157,42.838915,1935.556],[-0.786213,42.838934,1937.811],[-0.786274,42.838923,1940.708],[-0.786335,42.838912,1943.04],[-0.786399,42.838899,1945.628],[-0.786466,42.838893,1947.822],[-0.786528,42.838896,1949.826],[-0.78659,42.838899,1951.091],[-0.786645,42.838928,1951.963],[-0.786684,42.838966,1952.739],[-0.786747,42.838984,1953.683],[-0.786811,42.838978,1954.415],[-0.78687,42.838998,1954.865],[-0.786929,42.839024,1955.811],[-0.78699,42.83903,1956.408],[-0.78706,42.839031,1956.876],[-0.787122,42.839033,1957.494],[-0.787182,42.839056,1957.768],[-0.787239,42.839074,1957.942],[-0.787305,42.839087,1958.077],[-0.787367,42.839099,1958.119],[-0.787434,42.839093,1958.655],[-0.787497,42.839107,1959.549],[-0.787527,42.839151,1960.725],[-0.787532,42.8392,1961.726],[-0.787523,42.839255,1963.008],[-0.787526,42.839302,1964.608],[-0.787481,42.839336,1966.247],[-0.787428,42.839363,1967.715],[-0.787367,42.839385,1969.129],[-0.787337,42.839427,1970.673],[-0.787384,42.839457,1971.878],[-0.787415,42.839499,1973.37],[-0.787422,42.839548,1974.876],[-0.787451,42.839591,1976.25],[-0.787477,42.839633,1977.829],[-0.78751,42.839675,1980.9],[-0.787501,42.839725,1983.32],[-0.78746,42.839769,1985.808],[-0.787423,42.839807,1987.497],[-0.787359,42.839821,1988.375],[-0.787295,42.839806,1989.169],[-0.787236,42.839785,1990.053],[-0.78717,42.839791,1991.438],[-0.787116,42.839821,1993.77],[-0.787119,42.839867,1997.566],[-0.787081,42.839904,2000.69],[-0.787021,42.839925,2003.567],[-0.786956,42.839925,2006.281],[-0.78691,42.839956,2008.919],[-0.786861,42.839984,2010.408],[-0.786799,42.839993,2013.531],[-0.786745,42.840016,2015.949],[-0.786682,42.840006,2017.223],[-0.786626,42.83998,2017.627],[-0.786565,42.839989,2017.712],[-0.786633,42.839998,2018.724],[-0.786696,42.839997,2020.13],[-0.786762,42.840006,2022.114],[-0.786794,42.840045,2023.777],[-0.786772,42.840089,2024.561],[-0.786708,42.840072,2024.727],[-0.786643,42.840076,2024.608],[-0.786581,42.840056,2025.252],[-0.786578,42.840112,2028.33],[-0.786532,42.840146,2031.824],[-0.786565,42.840192,2035.898],[-0.786602,42.84023,2039.833],[-0.786566,42.840268,2043.875],[-0.786526,42.840302,2046.291],[-0.786469,42.840324,2047.875],[-0.786399,42.840323,2049.023],[-0.786334,42.840345,2050.083],[-0.786282,42.840374,2050.511],[-0.786245,42.840412,2051.808],[-0.786182,42.840402,2054.387],[-0.786118,42.840393,2056.115],[-0.786093,42.840345,2058.839],[-0.78603,42.840337,2060.653],[-0.785977,42.84036,2062.398],[-0.785957,42.840407,2063.81],[-0.786013,42.840435,2065.676],[-0.786079,42.840453,2067.42],[-0.786073,42.840402,2068.751],[-0.786131,42.840381,2070.201],[-0.786177,42.840411,2071.811],[-0.786115,42.840409,2072.408],[-0.786145,42.84037,2071.98],[-0.78621,42.840371,2071.458],[-0.786267,42.840388,2071.332],[-0.786295,42.840429,2071.536],[-0.786302,42.840474,2072.281],[-0.786328,42.840428,2073.723],[-0.786265,42.840421,2074.289],[-0.786201,42.840404,2074.093],[-0.786159,42.840371,2073.784],[-0.786096,42.840372,2073.407],[-0.78603,42.840375,2073.117],[-0.786065,42.840337,2073.808],[-0.786136,42.840334,2073.113],[-0.786188,42.840362,2072.371],[-0.786246,42.840381,2071.295],[-0.786259,42.840333,2070.769],[-0.786254,42.840284,2071.054],[-0.786287,42.84024,2072.096],[-0.786318,42.840279,2072.832],[-0.786383,42.840288,2072.336],[-0.786441,42.840254,2071.124],[-0.786495,42.840228,2069.904],[-0.786546,42.840199,2066.114],[-0.78654,42.840153,2062.108],[-0.786481,42.840139,2058.157],[-0.786494,42.840092,2054.295],[-0.786555,42.840073,2051.279],[-0.786507,42.840101,2047.283],[-0.786549,42.840062,2043.738],[-0.786579,42.840101,2040.63],[-0.786641,42.840095,2037.876],[-0.786673,42.840056,2035.55],[-0.786735,42.84006,2034.064],[-0.786768,42.840022,2032.906],[-0.786768,42.839974,2031.716],[-0.786706,42.839965,2027.908],[-0.786688,42.839917,2024.321],[-0.786684,42.839871,2021.149],[-0.786746,42.839869,2018.343],[-0.786805,42.839889,2015.727],[-0.786867,42.839892,2013.422],[-0.786859,42.839847,2011.474],[-0.786819,42.839812,2009.98],[-0.786765,42.839783,2008.594],[-0.78673,42.83974,2007.416],[-0.78679,42.839717,2005.276],[-0.786733,42.83969,2003.013],[-0.786673,42.839674,2000.808],[-0.786708,42.839633,1998.296],[-0.786662,42.839599,1995.264],[-0.786613,42.839568,1992.548],[-0.786564,42.839535,1990.232],[-0.786528,42.839496,1987.547],[-0.786549,42.839446,1984.339],[-0.786567,42.839399,1981.535],[-0.786574,42.839354,1979.029],[-0.786594,42.839306,1976.445],[-0.786563,42.839261,1974.147],[-0.786542,42.839219,1971.211],[-0.7865,42.839185,1968.608],[-0.786511,42.839135,1966.179],[-0.786554,42.839092,1964.027],[-0.78659,42.839052,1962.271],[-0.786591,42.839007,1960.665],[-0.786609,42.838955,1958.93],[-0.786567,42.838921,1957.362],[-0.786505,42.838896,1956.098],[-0.786452,42.838864,1954.592],[-0.78639,42.838834,1952.982],[-0.786323,42.838834,1951.143],[-0.786267,42.838855,1948.817],[-0.786191,42.838876,1946.008],[-0.786136,42.838901,1943.983],[-0.786133,42.838843,1941.761],[-0.786093,42.838805,1939.985],[-0.786026,42.838792,1938.339],[-0.785968,42.838755,1936.844],[-0.785937,42.83871,1935.416],[-0.785886,42.83868,1934.322],[-0.785847,42.838635,1932.926],[-0.78581,42.838595,1931.627],[-0.785758,42.838566,1930.168],[-0.785711,42.838534,1928.814],[-0.78565,42.838497,1927.208],[-0.7856,42.838466,1925.367],[-0.785535,42.838473,1923.325],[-0.785522,42.838413,1921.399],[-0.785538,42.838367,1919.343],[-0.785537,42.838321,1917.218],[-0.785542,42.838275,1915.23],[-0.785539,42.838229,1913.346],[-0.78551,42.838185,1911.54],[-0.785459,42.838155,1909.617],[-0.785393,42.838141,1908.587],[-0.785334,42.838168,1907.815],[-0.785287,42.838202,1907.208],[-0.785227,42.838229,1907.696],[-0.785172,42.838276,1908.064],[-0.785152,42.838325,1908.488],[-0.785142,42.838378,1908.792],[-0.785102,42.838414,1908.677],[-0.78507,42.838453,1908.249],[-0.785016,42.838476,1907.615],[-0.784963,42.8385,1907.199],[-0.784914,42.838535,1906.547],[-0.784878,42.838577,1905.729],[-0.784862,42.838625,1904.921],[-0.784856,42.838676,1904.108],[-0.784792,42.838682,1903.499],[-0.784751,42.838715,1903.227],[-0.784772,42.83876,1903.251],[-0.78471,42.838772,1902.965],[-0.784665,42.838809,1902.41],[-0.784593,42.838806,1901.912],[-0.784532,42.838816,1901.588],[-0.784477,42.838839,1900.192],[-0.78444,42.838888,1898.541],[-0.78441,42.838929,1897.281],[-0.784361,42.838965,1895.309],[-0.784353,42.839011,1893.608],[-0.784372,42.839059,1891.899],[-0.784414,42.839096,1889.817],[-0.784364,42.839127,1887.571],[-0.784303,42.839142,1885.335],[-0.784273,42.839183,1883.08],[-0.784226,42.839222,1880.832],[-0.784176,42.83925,1877.518],[-0.784144,42.83929,1875.052],[-0.784175,42.839332,1873.137],[-0.784239,42.83933,1871.949],[-0.784283,42.839289,1870.813],[-0.78422,42.839294,1869.208],[-0.78418,42.839335,1867.928],[-0.784161,42.839379,1867.056],[-0.784191,42.839421,1866.22],[-0.784201,42.839467,1865.434],[-0.784154,42.839497,1864.679],[-0.784109,42.839528,1863.561],[-0.784083,42.83957,1861.027],[-0.784076,42.839615,1857.971],[-0.784022,42.839587,1854.735],[-0.784015,42.839635,1852.186],[-0.784052,42.839673,1850.314],[-0.784094,42.839709,1849.008],[-0.784109,42.839759,1847.658],[-0.784047,42.839771,1845.436],[-0.78399,42.839789,1842.72],[-0.783928,42.839788,1839.894],[-0.783867,42.839812,1837.149],[-0.78388,42.83986,1834.851],[-0.783941,42.839876,1832.887],[-0.783876,42.839887,1830.021],[-0.783824,42.839912,1827.657],[-0.783847,42.839955,1824.9],[-0.783811,42.839992,1820.92],[-0.783751,42.840003,1817.208],[-0.783784,42.840041,1813.98],[-0.783845,42.840035,1811.318],[-0.783799,42.84007,1808.772],[-0.783734,42.840085,1806.396],[-0.783673,42.840093,1804.471],[-0.783676,42.840139,1802.293],[-0.783627,42.840166,1799.769],[-0.783661,42.840205,1797.233],[-0.783722,42.84019,1794.577],[-0.783791,42.840184,1792.561],[-0.783853,42.8402,1790.727],[-0.783907,42.840228,1788.908],[-0.78397,42.840226,1786.942],[-0.784016,42.840261,1785.01],[-0.784025,42.840309,1783.524],[-0.784043,42.840356,1782.438],[-0.784038,42.840402,1781.763],[-0.784047,42.840452,1781.295],[-0.784062,42.840499,1780.961],[-0.784056,42.840544,1781.635],[-0.78405,42.840589,1782.633],[-0.784002,42.840624,1784.423],[-0.783961,42.840589,1785.715],[-0.783886,42.840596,1785.808],[-0.783884,42.840643,1784.168],[-0.783902,42.840688,1782.986],[-0.78384,42.840695,1782.12],[-0.783779,42.840668,1781.024],[-0.783715,42.840652,1780.139],[-0.783697,42.840705,1779.461],[-0.783712,42.840752,1778.837],[-0.783765,42.840785,1778.261],[-0.783747,42.840832,1777.413],[-0.783793,42.840866,1776.543],[-0.783846,42.840894,1775.407],[-0.7839,42.840921,1774.208],[-0.783841,42.84095,1772.366],[-0.783831,42.840999,1770.144],[-0.783879,42.841032,1768.018],[-0.783933,42.841066,1765.592],[-0.783957,42.841108,1762.897],[-0.784014,42.841125,1759.729],[-0.784067,42.841153,1757.025],[-0.78411,42.841193,1754.629],[-0.784127,42.841237,1752.784],[-0.784139,42.841287,1751.107],[-0.784175,42.841325,1749.617],[-0.784197,42.841371,1748.008],[-0.784258,42.841395,1746.043],[-0.784318,42.841418,1743.741],[-0.784354,42.841465,1741.965],[-0.784378,42.841507,1740.329],[-0.784419,42.841545,1738.654],[-0.784373,42.841575,1737.486],[-0.784331,42.841616,1736.652],[-0.784348,42.841662,1736.016],[-0.784383,42.841703,1735.685],[-0.784401,42.841748,1735.289],[-0.784457,42.841773,1734.317],[-0.784508,42.8418,1733.308],[-0.784542,42.84184,1731.763],[-0.784485,42.841878,1730.181],[-0.784472,42.841925,1728.725],[-0.784457,42.841974,1726.989],[-0.784393,42.841992,1725.144],[-0.784323,42.841992,1723.486],[-0.78426,42.842002,1721.652],[-0.78423,42.842043,1719.826],[-0.784276,42.842078,1718.113],[-0.784315,42.842115,1716.443],[-0.784247,42.842112,1714.807],[-0.784202,42.842079,1713.408],[-0.784135,42.842076,1712.246],[-0.784164,42.842116,1711.144],[-0.784201,42.842152,1710.098],[-0.784139,42.84214,1708.632],[-0.784169,42.84218,1707.347],[-0.784219,42.842219,1706.059],[-0.784256,42.84226,1704.945],[-0.784189,42.842278,1704.279],[-0.784238,42.842308,1703.722],[-0.784293,42.842346,1703.162],[-0.784333,42.842387,1702.508],[-0.78436,42.842433,1701.408],[-0.784418,42.842452,1700.057],[-0.784439,42.842501,1698.785],[-0.784494,42.842522,1697.259],[-0.784518,42.842572,1695.633],[-0.784528,42.842617,1693.768],[-0.78446,42.842624,1691.99],[-0.784388,42.842616,1689.876],[-0.784318,42.84261,1687.85],[-0.784262,42.842572,1685.941],[-0.784197,42.842554,1683.881],[-0.784139,42.84257,1681.709],[-0.78409,42.842602,1679.508],[-0.784105,42.842649,1677.979],[-0.784139,42.842689,1676.537],[-0.784199,42.842726,1674.931],[-0.784269,42.842729,1673.475],[-0.784339,42.84274,1671.87],[-0.784417,42.842759,1670.612],[-0.784478,42.842777,1669.428],[-0.784532,42.842813,1668.362],[-0.784578,42.842855,1667.225],[-0.784637,42.842871,1666.426],[-0.784707,42.842884,1665.808],[-0.784768,42.842896,1665.308],[-0.784824,42.842932,1664.897],[-0.784859,42.842986,1664.215],[-0.784885,42.843031,1663.899],[-0.784913,42.843077,1663.743],[-0.784912,42.843128,1663.678],[-0.784913,42.843178,1663.38],[-0.784913,42.843225,1662.966],[-0.784852,42.843243,1662.44],[-0.784787,42.843233,1661.857],[-0.784742,42.843265,1661.2],[-0.784729,42.843309,1660.22],[-0.784737,42.843356,1659.008],[-0.784708,42.8434,1657.61],[-0.784691,42.843444,1656.268],[-0.784665,42.843485,1654.362],[-0.784598,42.843504,1652.196],[-0.784576,42.843547,1650.021],[-0.784514,42.843556,1647.863],[-0.784447,42.843572,1645.639],[-0.784386,42.843582,1643.633],[-0.784338,42.843615,1641.848],[-0.784305,42.843658,1640.161],[-0.784291,42.843706,1638.217],[-0.784263,42.843752,1636.408],[-0.784224,42.843794,1634.379],[-0.784217,42.843839,1632.357],[-0.784216,42.843887,1630.361],[-0.784202,42.843937,1628.525],[-0.784187,42.843997,1626.85],[-0.784182,42.844042,1625.422],[-0.784173,42.844087,1624.258],[-0.784155,42.844134,1623.172],[-0.784169,42.844178,1621.782],[-0.784182,42.844227,1620.343],[-0.784216,42.844266,1618.817],[-0.784272,42.844295,1617.708],[-0.784315,42.844332,1616.483],[-0.784298,42.84439,1615.391],[-0.78429,42.844435,1614.155],[-0.784292,42.844481,1612.829],[-0.78426,42.844521,1612.044],[-0.784236,42.844567,1611.326],[-0.784248,42.844614,1610.662],[-0.784267,42.844663,1609.726],[-0.784264,42.844715,1608.914],[-0.78423,42.844767,1608.054],[-0.784261,42.844806,1606.909],[-0.78428,42.844861,1605.608],[-0.784284,42.844911,1604.536],[-0.784314,42.844956,1602.924],[-0.784261,42.844989,1601.838],[-0.7842,42.845012,1601.042],[-0.784156,42.845044,1600.377],[-0.784138,42.845087,1599.639],[-0.784109,42.845132,1598.775],[-0.784069,42.845185,1598.059],[-0.784051,42.84523,1597.683],[-0.784044,42.84528,1597.325],[-0.78405,42.84534,1596.917],[-0.784033,42.845391,1596.308],[-0.784015,42.845437,1595.243],[-0.784042,42.845482,1593.651],[-0.784103,42.845484,1592.145],[-0.784142,42.845525,1590.489],[-0.784115,42.845577,1588.674],[-0.78412,42.845624,1586.436],[-0.784181,42.845604,1584.592],[-0.784208,42.845646,1582.896],[-0.784238,42.845697,1581.158],[-0.784254,42.845748,1579.552],[-0.7842,42.845777,1578.017],[-0.78416,42.845811,1576.408],[-0.784102,42.845839,1574.71],[-0.784037,42.845852,1573.368],[-0.783968,42.845862,1571.732],[-0.783906,42.845861,1570.036],[-0.783847,42.845847,1568.361],[-0.78384,42.845893,1566.893],[-0.783891,42.845942,1565.469],[-0.783846,42.84598,1563.283],[-0.783778,42.845991,1561.652],[-0.783698,42.845982,1560.053],[-0.783639,42.846008,1558.708],[-0.783574,42.846028,1557.608],[-0.783508,42.846024,1556.41],[-0.783436,42.846038,1554.988],[-0.783394,42.846072,1553.622],[-0.783386,42.84612,1552.286],[-0.78336,42.846161,1550.691],[-0.783319,42.846197,1548.983],[-0.783255,42.846217,1547.449],[-0.783194,42.846244,1545.763],[-0.783147,42.846282,1543.998],[-0.783103,42.84632,1542.415],[-0.78306,42.846363,1540.526],[-0.783012,42.846398,1538.708],[-0.782963,42.846427,1537.094],[-0.782912,42.846455,1535.672],[-0.782855,42.846481,1534.326],[-0.782803,42.846518,1533.24],[-0.782759,42.846563,1532.285],[-0.782721,42.846602,1531.447],[-0.782687,42.846647,1530.973],[-0.782675,42.846691,1530.547],[-0.78262,42.846721,1529.741],[-0.782559,42.846745,1528.681],[-0.782498,42.846777,1527.509],[-0.782438,42.846799,1526.608],[-0.782374,42.846807,1525.749],[-0.782368,42.846854,1524.317],[-0.782416,42.846882,1522.471],[-0.782483,42.846873,1520.455],[-0.782546,42.84686,1518.75],[-0.782595,42.846832,1517.192],[-0.78267,42.846843,1516.528],[-0.782702,42.846889,1515.582],[-0.782688,42.846938,1515.071],[-0.782654,42.846983,1514.941],[-0.782605,42.847022,1515.215],[-0.782565,42.84706,1515.308],[-0.782523,42.847096,1514.592],[-0.7825,42.847143,1513.73],[-0.782469,42.847187,1512.954],[-0.78244,42.847237,1512.168],[-0.782414,42.847283,1511.493],[-0.782376,42.847326,1511.225],[-0.782347,42.847366,1511.271],[-0.782331,42.847415,1510.985],[-0.782304,42.847457,1510.455],[-0.782263,42.847495,1509.507],[-0.78224,42.847537,1509.017],[-0.782206,42.847584,1508.808],[-0.782175,42.847623,1509.09],[-0.782141,42.847664,1509.388],[-0.782113,42.847707,1509.742],[-0.782084,42.84776,1510.186],[-0.782068,42.84781,1510.551],[-0.782069,42.847856,1510.783],[-0.782062,42.847907,1510.939],[-0.782035,42.84795,1510.983],[-0.781973,42.847939,1510.765],[-0.781979,42.847985,1510.068],[-0.782039,42.848001,1509.314],[-0.781965,42.848025,1508.908],[-0.781891,42.848046,1508.661],[-0.781836,42.848084,1508.279],[-0.781838,42.848139,1507.833],[-0.781896,42.848167,1507.317],[-0.781944,42.848203,1506.532],[-0.78198,42.848241,1505.464],[-0.78192,42.848271,1504.32],[-0.781907,42.848316,1503.054],[-0.781869,42.848351,1501.569],[-0.781801,42.848347,1499.904],[-0.78172,42.848338,1498.224],[-0.78165,42.848332,1496.508],[-0.781581,42.848309,1494.531],[-0.781529,42.848337,1492.659],[-0.781504,42.848382,1490.623],[-0.781512,42.848427,1488.117],[-0.781552,42.848468,1486.292],[-0.781545,42.848514,1484.594],[-0.7815,42.848549,1483.29],[-0.781449,42.848583,1481.784],[-0.781439,42.848628,1480.215],[-0.781386,42.848657,1478.765],[-0.781367,42.848707,1476.911],[-0.781341,42.848751,1474.708],[-0.781287,42.848777,1472.676],[-0.78123,42.848795,1469.754],[-0.78127,42.848834,1466.738],[-0.78127,42.848882,1464.172],[-0.781321,42.848909,1461.677],[-0.781388,42.848912,1459.859],[-0.781447,42.848931,1458.385],[-0.781479,42.84897,1457.229],[-0.781449,42.849012,1456.243],[-0.781485,42.849054,1454.964],[-0.78148,42.849099,1453.61],[-0.781475,42.849148,1452.408],[-0.781483,42.849206,1451.289],[-0.781474,42.849252,1450.127],[-0.781478,42.849306,1449.181],[-0.781507,42.849347,1448.245],[-0.781562,42.849377,1447.18],[-0.78162,42.849398,1445.992],[-0.781683,42.849414,1444.388],[-0.781752,42.849425,1442.542],[-0.781788,42.849464,1440.733],[-0.781854,42.849488,1438.823],[-0.781907,42.849512,1437.215],[-0.781944,42.849554,1435.808],[-0.781997,42.84958,1434.568],[-0.782055,42.849608,1433.176],[-0.782114,42.84962,1431.61],[-0.782123,42.849669,1430.064],[-0.78217,42.84971,1428.899],[-0.782238,42.849738,1427.691],[-0.782309,42.849754,1426.627],[-0.782379,42.849764,1425.711],[-0.782434,42.849788,1424.994],[-0.782479,42.849821,1424.257],[-0.782524,42.849857,1423.222],[-0.782533,42.849912,1421.908],[-0.782523,42.849958,1420.734],[-0.782576,42.849988,1419.562],[-0.782625,42.850026,1418.216],[-0.782618,42.850073,1416.97],[-0.782573,42.850107,1415.535],[-0.782617,42.850147,1414.097],[-0.782622,42.850197,1412.613],[-0.782627,42.850249,1411.497],[-0.782643,42.850294,1410.513],[-0.782684,42.850333,1409.543],[-0.782732,42.850366,1408.507],[-0.782784,42.85039,1407.408],[-0.782805,42.850433,1406.246],[-0.782807,42.850485,1405.374],[-0.782815,42.85053,1404.478],[-0.782851,42.850578,1403.412],[-0.782878,42.85062,1402.367],[-0.782906,42.850662,1401.249],[-0.78294,42.8507,1400.095],[-0.782978,42.850737,1398.979],[-0.783,42.850779,1397.952],[-0.783033,42.850835,1397.053],[-0.783036,42.850883,1396.108],[-0.783046,42.850929,1394.908],[-0.783086,42.850964,1393.77],[-0.783143,42.851006,1392.268],[-0.783202,42.851033,1390.352],[-0.783264,42.851048,1388.546],[-0.783327,42.851077,1386.151],[-0.783396,42.85108,1383.683],[-0.783446,42.851052,1381.739],[-0.783472,42.851098,1379.983],[-0.783486,42.851145,1378.328],[-0.783538,42.851177,1376.989],[-0.783587,42.851206,1375.617],[-0.783633,42.851245,1374.308],[-0.783674,42.851287,1373.187],[-0.783723,42.851317,1371.655],[-0.78378,42.851344,1370.249],[-0.783817,42.851382,1369.043],[-0.783875,42.851407,1367.898],[-0.783931,42.851426,1366.65],[-0.783994,42.851445,1365.566],[-0.784052,42.851475,1364.51],[-0.7841,42.85151,1363.586],[-0.784135,42.85155,1362.56],[-0.784153,42.851599,1361.326],[-0.78418,42.851648,1360.208],[-0.784225,42.851685,1359.073],[-0.784257,42.851727,1358.061],[-0.784291,42.851769,1357.145],[-0.784303,42.851815,1356.389],[-0.78432,42.851858,1355.384],[-0.784356,42.851895,1354.316],[-0.78442,42.851908,1353.192],[-0.784468,42.851941,1351.966],[-0.784519,42.851982,1350.767],[-0.784568,42.852011,1349.981],[-0.784636,42.852028,1348.819],[-0.784671,42.852067,1347.708],[-0.784701,42.852118,1346.251],[-0.784758,42.852153,1344.829],[-0.784799,42.85219,1343.593],[-0.784838,42.852234,1342.347],[-0.784894,42.852256,1341.372],[-0.784957,42.85227,1340.254],[-0.785024,42.852292,1339.05],[-0.784994,42.852245,1337.974],[-0.785028,42.852205,1336.799],[-0.7851,42.852226,1335.907],[-0.785162,42.852261,1335.227],[-0.78522,42.852281,1334.508],[-0.785275,42.852301,1333.594],[-0.785333,42.852316,1332.642],[-0.785404,42.852327,1331.586],[-0.785466,42.852329,1330.73],[-0.785536,42.852332,1330.135],[-0.785599,42.852324,1329.477],[-0.785671,42.852316,1328.563],[-0.785737,42.852325,1327.787],[-0.785811,42.852323,1326.893],[-0.785872,42.85235,1325.965],[-0.785927,42.85238,1325.121],[-0.785996,42.852395,1324.408],[-0.786082,42.852388,1323.754],[-0.786148,42.852385,1323.132],[-0.786211,42.852381,1322.846],[-0.786274,42.852404,1322.74],[-0.786334,42.852431,1322.755],[-0.786396,42.852454,1322.817],[-0.786449,42.852426,1323.063],[-0.786516,42.852427,1322.937],[-0.786582,42.852443,1322.743],[-0.786642,42.852433,1322.564],[-0.786653,42.852384,1322.41],[-0.786726,42.852404,1322.408],[-0.78677,42.852443,1322.349],[-0.786832,42.852459,1322.277],[-0.7869,42.85244,1321.661],[-0.786964,42.852434,1321.185],[-0.787027,42.852451,1320.83],[-0.787089,42.852483,1319.872],[-0.78715,42.852517,1318.178],[-0.787191,42.852556,1316.342],[-0.787224,42.852601,1315.069],[-0.78726,42.852644,1313.904],[-0.787255,42.852693,1313.124],[-0.787262,42.852755,1312.408],[-0.787287,42.852801,1311.041],[-0.787309,42.852845,1309.039],[-0.787363,42.852884,1306.573],[-0.787414,42.85292,1304.317],[-0.787454,42.852967,1302.492],[-0.787516,42.852995,1301.314],[-0.787571,42.853027,1300.77],[-0.787635,42.853029,1300.584],[-0.787701,42.853032,1300.396],[-0.78777,42.853043,1299.431],[-0.787806,42.85309,1298.224],[-0.787845,42.853127,1297.308],[-0.787891,42.853158,1296.464],[-0.787938,42.853213,1295.662],[-0.787952,42.853259,1295.066],[-0.787958,42.85331,1294.41],[-0.787973,42.853355,1293.875],[-0.788018,42.85339,1292.837],[-0.78806,42.85344,1291.733],[-0.788099,42.85348,1290.967],[-0.788162,42.853516,1290.346],[-0.788206,42.85355,1289.988],[-0.78824,42.853595,1289.416],[-0.788285,42.853635,1288.908],[-0.788318,42.853677,1288.289],[-0.788361,42.85371,1287.717],[-0.788407,42.853742,1287.061],[-0.788469,42.853737,1286.355],[-0.788527,42.85372,1285.87],[-0.788593,42.853721,1285.392],[-0.788638,42.853762,1284.688],[-0.788659,42.853813,1284.552],[-0.788714,42.853837,1284.652],[-0.788765,42.853867,1284.653],[-0.7888,42.85391,1284.608],[-0.788848,42.853946,1284.408],[-0.788886,42.853984,1283.98],[-0.788931,42.854017,1283.268],[-0.788991,42.854031,1282.682],[-0.789053,42.854043,1282.026],[-0.789105,42.854074,1281.121],[-0.789079,42.85412,1280.543],[-0.789036,42.854154,1279.919],[-0.788975,42.854186,1279.483],[-0.788911,42.85421,1278.944],[-0.788851,42.854237,1278.405],[-0.788806,42.854275,1278.415]]}}]}