{"type":"FeatureCollection","features":[{"type":"Feature","properties":{"ruta_id":"54578338","nombre":"⛰️ MONTEJURRA ruta circular desde MONASTERIO de IRATXE","blog_url":"https://www.rutasporelmonte.com/montejurra-desde-iratxe-ruta-circular/"},"geometry":{"type":"LineString","coordinates":[[-2.044152,42.650062,515.368],[-2.044123,42.650022,515.342],[-2.044123,42.650022,515.326],[-2.044158,42.650068,515.308],[-2.044182,42.650118,515.371],[-2.044226,42.650084,515.32],[-2.04417,42.650106,515.371],[-2.044142,42.650148,515.393],[-2.044155,42.650192,515.324],[-2.044217,42.650169,515.329],[-2.044279,42.650134,515.389],[-2.044335,42.650103,515.324],[-2.044397,42.650078,515.379],[-2.044459,42.650056,515.305],[-2.044514,42.650034,515.325],[-2.044514,42.650034,515.308],[-2.044573,42.650006,515.222],[-2.044621,42.649977,515.271],[-2.044665,42.649939,515.532],[-2.04471,42.649906,515.834],[-2.044749,42.649867,516.135],[-2.044806,42.649826,516.57],[-2.044862,42.649798,516.99],[-2.044913,42.649762,517.295],[-2.044952,42.649723,517.151],[-2.045004,42.649691,516.901],[-2.045052,42.64966,516.811],[-2.045112,42.649636,516.908],[-2.045163,42.649606,517.01],[-2.045212,42.649574,517.449],[-2.04524,42.649532,517.54],[-2.045252,42.649488,516.832],[-2.045283,42.649443,516.213],[-2.045336,42.649409,516.368],[-2.045399,42.649386,516.478],[-2.04547,42.649373,516.573],[-2.045533,42.649363,516.878],[-2.045582,42.649334,517.633],[-2.04556,42.649289,518.626],[-2.045613,42.64926,519.608],[-2.04568,42.64925,520.592],[-2.045745,42.649235,521.081],[-2.045796,42.649204,521.712],[-2.045853,42.649173,522.384],[-2.045908,42.649151,522.675],[-2.045961,42.649125,522.76],[-2.046012,42.649094,522.98],[-2.046065,42.649063,523.175],[-2.046128,42.649041,522.775],[-2.046183,42.649013,522.028],[-2.04622,42.648962,521.32],[-2.046253,42.64892,520.808],[-2.046317,42.648878,520.592],[-2.046381,42.648851,520.321],[-2.046436,42.648809,520.442],[-2.046476,42.648769,520.714],[-2.046523,42.648737,521.135],[-2.046572,42.648704,521.49],[-2.04664,42.648671,521.88],[-2.046695,42.648641,522.355],[-2.046742,42.648604,522.861],[-2.04679,42.648575,523.221],[-2.04684,42.648548,523.513],[-2.046894,42.648519,523.908],[-2.046949,42.648488,524.171],[-2.046999,42.64846,524.05],[-2.047051,42.648429,524.071],[-2.047101,42.648402,524.113],[-2.047151,42.648369,524.464],[-2.047194,42.648336,524.529],[-2.047241,42.648303,524.679],[-2.04728,42.648268,525.194],[-2.047311,42.648224,525.859],[-2.047342,42.648181,526.403],[-2.047372,42.648137,527.123],[-2.047407,42.648092,527.808],[-2.047425,42.648048,528.56],[-2.047448,42.647995,529.179],[-2.047459,42.647948,529.75],[-2.04748,42.647905,530.282],[-2.047504,42.647862,530.853],[-2.04752,42.647818,531.648],[-2.047539,42.647769,532.598],[-2.047567,42.647727,533.063],[-2.047589,42.647676,533.477],[-2.047616,42.647629,534.161],[-2.047659,42.647594,534.827],[-2.047675,42.647543,535.408],[-2.047683,42.647494,535.752],[-2.047697,42.647443,536.141],[-2.047715,42.647396,536.632],[-2.047723,42.647342,537.234],[-2.047737,42.647291,538.065],[-2.047738,42.647233,538.93],[-2.047734,42.647182,539.78],[-2.047745,42.647129,540.545],[-2.047758,42.647083,541.175],[-2.047763,42.647037,541.628],[-2.047767,42.646991,542.12],[-2.047764,42.646944,542.708],[-2.047772,42.646892,543.442],[-2.04777,42.646839,543.731],[-2.047777,42.646787,544.122],[-2.047777,42.646736,544.324],[-2.047779,42.646679,544.555],[-2.047784,42.646634,544.85],[-2.047794,42.646586,545.11],[-2.047797,42.646539,545.535],[-2.047803,42.646492,546.024],[-2.047827,42.646448,546.504],[-2.04787,42.646402,546.914],[-2.047909,42.646365,547.008],[-2.047954,42.646322,547.187],[-2.048001,42.646279,547.056],[-2.048014,42.646233,547.157],[-2.048,42.646188,546.959],[-2.048008,42.646141,546.72],[-2.048052,42.646098,546.625],[-2.048085,42.646053,547.295],[-2.048107,42.646006,548.22],[-2.048102,42.645957,549.415],[-2.048105,42.645902,550.765],[-2.048107,42.645856,552.011],[-2.048116,42.64581,553.008],[-2.048126,42.645764,553.766],[-2.048138,42.645719,554.095],[-2.048147,42.645672,554.026],[-2.048137,42.645625,554.258],[-2.04812,42.645579,554.989],[-2.048105,42.645531,555.444],[-2.048097,42.645483,555.914],[-2.048085,42.645432,556.779],[-2.048075,42.645386,557.383],[-2.0481,42.645342,557.825],[-2.048085,42.645296,558.217],[-2.048054,42.645257,558.408],[-2.048026,42.645215,557.983],[-2.047984,42.645178,557.922],[-2.047949,42.645132,558.313],[-2.047908,42.645091,558.725],[-2.047879,42.645046,558.486],[-2.047837,42.645004,558.151],[-2.047803,42.644962,557.721],[-2.047775,42.644919,557.576],[-2.047745,42.644874,557.325],[-2.047713,42.644832,557.226],[-2.047676,42.644794,557.308],[-2.047625,42.644756,557.308],[-2.047572,42.644723,557.367],[-2.047527,42.644692,557.446],[-2.047489,42.644647,557.687],[-2.047439,42.644608,557.639],[-2.047382,42.644582,557.69],[-2.047329,42.644555,557.795],[-2.047275,42.644524,557.895],[-2.047237,42.644484,557.99],[-2.047205,42.644439,558.153],[-2.047168,42.644394,558.404],[-2.047132,42.64435,558.814],[-2.047094,42.644315,560.208],[-2.047075,42.644272,561.69],[-2.047032,42.644235,562.749],[-2.047095,42.644293,563.78],[-2.047034,42.644282,564.072],[-2.046975,42.644262,563.813],[-2.046936,42.64422,563.738],[-2.046883,42.644182,564.038],[-2.046837,42.644133,564.283],[-2.0468,42.644086,564.662],[-2.046788,42.644038,564.683],[-2.046831,42.644,563.911],[-2.04684,42.643949,564.108],[-2.046853,42.643903,564.681],[-2.046867,42.643858,565.41],[-2.046901,42.643818,566.191],[-2.046944,42.643782,566.453],[-2.046926,42.643738,566.864],[-2.046892,42.643689,567.369],[-2.046852,42.643648,567.989],[-2.046793,42.643623,568.324],[-2.04673,42.643618,567.837],[-2.046786,42.643599,566.449],[-2.046797,42.64355,564.913],[-2.04683,42.643503,563.708],[-2.046872,42.643465,563.048],[-2.046921,42.643436,562.857],[-2.046974,42.643412,563.048],[-2.047029,42.643387,563.49],[-2.047099,42.643364,564.091],[-2.047149,42.643334,564.716],[-2.047189,42.643298,565.546],[-2.047234,42.643254,566.261],[-2.047274,42.643219,566.625],[-2.04732,42.643174,566.726],[-2.047355,42.643136,566.708],[-2.047402,42.643099,566.708],[-2.047454,42.643066,566.847],[-2.047512,42.643038,566.486],[-2.04757,42.643019,565.917],[-2.047631,42.643004,565.949],[-2.047699,42.642998,566.68],[-2.047761,42.642992,567.725],[-2.047825,42.642961,568.745],[-2.047879,42.642933,569.69],[-2.047938,42.642907,570.466],[-2.047988,42.642879,571.529],[-2.048035,42.642849,572.521],[-2.048099,42.642813,573.408],[-2.048151,42.642779,574.381],[-2.048188,42.642742,575.22],[-2.048229,42.6427,576.231],[-2.048278,42.642667,577.263],[-2.048327,42.642637,578.034],[-2.048381,42.642606,578.889],[-2.048441,42.642595,579.559],[-2.048509,42.6426,580.394],[-2.048575,42.642601,581.015],[-2.04864,42.642599,581.565],[-2.048703,42.64258,582.411],[-2.048763,42.642563,583.208],[-2.048824,42.642543,584.196],[-2.048884,42.642521,585.175],[-2.048933,42.642487,586.536],[-2.048959,42.642444,587.748],[-2.049019,42.642463,587.949],[-2.049089,42.642459,587.614],[-2.049154,42.64243,587.224],[-2.049207,42.642399,586.919],[-2.049253,42.64236,586.654],[-2.049308,42.642321,586.456],[-2.049355,42.642289,586.411],[-2.049418,42.642262,586.508],[-2.04947,42.642233,586.71],[-2.049529,42.642205,586.979],[-2.049593,42.642202,587.21],[-2.049653,42.642176,587.222],[-2.049707,42.642148,587.393],[-2.049762,42.642124,587.328],[-2.049818,42.642096,587.478],[-2.04987,42.642065,587.763],[-2.049925,42.642035,588.088],[-2.049983,42.642018,588.424],[-2.050048,42.642,588.926],[-2.050101,42.641973,589.308],[-2.050159,42.641944,589.773],[-2.050212,42.641911,590.222],[-2.050269,42.641873,590.783],[-2.050323,42.641844,591.355],[-2.050387,42.641809,591.856],[-2.050436,42.641782,592.131],[-2.050483,42.641753,592.481],[-2.050529,42.64172,592.836],[-2.050583,42.641698,593.545],[-2.050648,42.641686,594.347],[-2.050715,42.641659,595.111],[-2.050767,42.641629,595.808],[-2.050825,42.6416,596.369],[-2.050895,42.641575,596.768],[-2.050956,42.641558,597.329],[-2.051008,42.64153,597.941],[-2.051062,42.641503,598.462],[-2.051137,42.641472,598.997],[-2.051205,42.641447,599.537],[-2.051257,42.641405,600.152],[-2.051309,42.641364,600.748],[-2.051354,42.641333,601.361],[-2.051399,42.641303,601.917],[-2.051445,42.641266,602.708],[-2.051497,42.641237,603.699],[-2.051566,42.641209,604.698],[-2.051631,42.641185,605.599],[-2.0517,42.641163,606.371],[-2.051746,42.641133,606.922],[-2.051793,42.641091,607.737],[-2.051844,42.64106,608.697],[-2.051893,42.641032,609.232],[-2.051949,42.641011,609.747],[-2.052007,42.640994,610.029],[-2.052065,42.640969,610.121],[-2.05213,42.64093,609.908],[-2.052188,42.6409,610.099],[-2.052247,42.640871,610.348],[-2.052299,42.640833,610.749],[-2.052362,42.640796,611.551],[-2.052412,42.640768,612.472],[-2.05246,42.64074,613.077],[-2.052511,42.640703,613.227],[-2.052592,42.640679,613.272],[-2.052664,42.64067,613.734],[-2.052707,42.640635,614.655],[-2.052747,42.640592,615.81],[-2.052785,42.640543,617.408],[-2.052809,42.640495,618.538],[-2.052856,42.640464,619.297],[-2.052906,42.640436,619.668],[-2.05296,42.640397,619.95],[-2.053006,42.640362,619.981],[-2.053006,42.640362,619.916],[-2.053041,42.640323,619.976],[-2.053037,42.640278,619.671],[-2.053073,42.640239,619.165],[-2.053084,42.640193,619.068],[-2.053116,42.640152,618.514],[-2.053157,42.640116,618.208],[-2.053151,42.640063,618.141],[-2.053136,42.640008,618.27],[-2.053133,42.639956,618.451],[-2.053136,42.639903,618.893],[-2.05315,42.639852,619.474],[-2.053158,42.639807,620.039],[-2.053167,42.639762,620.749],[-2.05317,42.639714,621.114],[-2.053173,42.639662,621.421],[-2.053173,42.639616,621.741],[-2.05318,42.639563,622.105],[-2.053193,42.639514,622.808],[-2.053202,42.63946,623.437],[-2.053216,42.639414,624.176],[-2.053236,42.639369,624.737],[-2.053253,42.639321,625.189],[-2.05326,42.639273,625.66],[-2.053261,42.63922,626.195],[-2.053271,42.639169,626.745],[-2.053297,42.639124,627.28],[-2.053308,42.63908,627.712],[-2.053293,42.639031,628.332],[-2.053253,42.638991,629.405],[-2.053242,42.638938,630.708],[-2.053235,42.63889,632.386],[-2.053226,42.638843,634.645],[-2.053216,42.638795,636.456],[-2.0532,42.638744,637.738],[-2.053189,42.638699,639.139],[-2.053182,42.638649,640.384],[-2.053179,42.638602,641.684],[-2.053186,42.638554,642.629],[-2.0532,42.638505,643.657],[-2.053215,42.638458,644.6],[-2.053234,42.638412,645.32],[-2.053261,42.638366,646.008],[-2.053279,42.638313,646.63],[-2.053304,42.638261,647.379],[-2.053332,42.63822,648.28],[-2.053382,42.638177,649.052],[-2.053435,42.638136,649.883],[-2.053486,42.638105,650.258],[-2.053547,42.638085,650.378],[-2.053608,42.638073,650.543],[-2.053681,42.638072,650.942],[-2.053745,42.638073,651.222],[-2.053822,42.638069,651.214],[-2.053879,42.63804,650.908],[-2.05394,42.638021,650.319],[-2.053882,42.637988,652.368],[-2.053855,42.637941,654.069],[-2.053866,42.637889,655.671],[-2.053887,42.637836,656.822],[-2.05391,42.637783,657.377],[-2.053918,42.637733,658.067],[-2.053908,42.637681,658.672],[-2.053887,42.637639,659.717],[-2.05387,42.637591,660.587],[-2.053878,42.637546,661.115],[-2.053898,42.637497,661.708],[-2.053911,42.637445,662.496],[-2.053947,42.637408,663.085],[-2.053948,42.63736,663.066],[-2.053988,42.63732,663.048],[-2.054043,42.637284,663.119],[-2.054102,42.637262,663.354],[-2.054129,42.637218,663.514],[-2.054182,42.637179,663.749],[-2.054233,42.637145,664.025],[-2.054258,42.637097,664.226],[-2.054267,42.637047,664.408],[-2.054291,42.637001,664.608],[-2.054283,42.636954,664.967],[-2.054253,42.636906,665.146],[-2.054241,42.636859,665.477],[-2.054223,42.636807,666.299],[-2.05418,42.636764,666.94],[-2.054133,42.636728,667.525],[-2.054088,42.636694,668.145],[-2.054051,42.636656,668.74],[-2.054,42.636631,669.455],[-2.053947,42.636596,670.207],[-2.05391,42.636558,671.017],[-2.053878,42.636519,671.808],[-2.053837,42.636477,672.79],[-2.053806,42.636434,673.549],[-2.053767,42.636396,674.11],[-2.053724,42.636352,674.552],[-2.05369,42.636306,674.863],[-2.053658,42.636263,675.198],[-2.053624,42.636222,675.468],[-2.053594,42.636181,675.863],[-2.053571,42.636136,675.753],[-2.053592,42.636086,675.604],[-2.053622,42.636045,675.414],[-2.053659,42.636004,675.708],[-2.05368,42.635955,676.86],[-2.053639,42.635918,678.299],[-2.053607,42.635879,679.99],[-2.053583,42.635829,681.592],[-2.053563,42.635783,682.873],[-2.053535,42.635738,684.188],[-2.053499,42.635694,685.278],[-2.053464,42.635657,686.393],[-2.05344,42.635612,687.622],[-2.053427,42.635563,688.762],[-2.053428,42.635512,689.708],[-2.053431,42.635465,690.608],[-2.053439,42.63541,691.987],[-2.053424,42.63536,693.186],[-2.05341,42.635313,694.267],[-2.053418,42.635267,695.399],[-2.053427,42.635217,696.38],[-2.053432,42.635166,697.695],[-2.053441,42.63512,698.875],[-2.05345,42.635069,700.15],[-2.053472,42.635022,701.025],[-2.053493,42.634973,701.826],[-2.053511,42.634926,702.508],[-2.05353,42.634882,703.208],[-2.053552,42.63484,704.087],[-2.053577,42.634792,704.916],[-2.053598,42.634749,705.987],[-2.053618,42.634706,706.939],[-2.05362,42.634656,708.14],[-2.053605,42.634612,709.575],[-2.053571,42.634574,710.895],[-2.053539,42.634531,711.97],[-2.053512,42.634485,712.735],[-2.053497,42.634441,713.286],[-2.053494,42.63439,714.014],[-2.053482,42.634342,715.108],[-2.053463,42.634298,715.818],[-2.053424,42.63426,716.627],[-2.053398,42.634216,717.188],[-2.053363,42.634173,717.39],[-2.05333,42.634131,717.481],[-2.053307,42.634086,717.636],[-2.053281,42.634041,717.986],[-2.053247,42.633994,718.221],[-2.053202,42.633959,718.846],[-2.05316,42.633926,719.388],[-2.053112,42.633895,719.716],[-2.053071,42.633855,720.108],[-2.053027,42.633817,720.489],[-2.052979,42.633785,720.648],[-2.052941,42.633746,720.959],[-2.052907,42.633707,721.391],[-2.052867,42.633669,721.882],[-2.052829,42.633623,722.367],[-2.052794,42.633586,722.847],[-2.05275,42.633539,723.572],[-2.05271,42.633493,724.479],[-2.052669,42.633455,725.505],[-2.052621,42.633427,726.825],[-2.052685,42.633426,728.608],[-2.052747,42.633413,729.522],[-2.05282,42.633418,729.821],[-2.052888,42.633417,730.172],[-2.052927,42.633379,731.084],[-2.05296,42.633341,732.065],[-2.053005,42.633309,733.11],[-2.053038,42.63327,734.02],[-2.053094,42.633246,734.895],[-2.053154,42.633232,735.813],[-2.053218,42.633228,736.743],[-2.053282,42.633236,737.507],[-2.053339,42.633266,738.208],[-2.053389,42.633295,738.886],[-2.053453,42.633301,739.465],[-2.053515,42.633287,740.346],[-2.053532,42.633244,741.468],[-2.053595,42.63326,742.889],[-2.053631,42.633299,744.464],[-2.053684,42.633329,746.124],[-2.053731,42.633363,747.589],[-2.053803,42.633375,748.754],[-2.053864,42.633391,749.956],[-2.053926,42.633402,750.911],[-2.053988,42.633414,752.008],[-2.054039,42.633439,753.06],[-2.054083,42.633483,754.159],[-2.05412,42.633522,755.28],[-2.054178,42.63354,756.452],[-2.054238,42.63356,757.163],[-2.054288,42.633589,757.758],[-2.054327,42.633626,758.368],[-2.054371,42.633658,758.743],[-2.054393,42.633709,759.171],[-2.054427,42.633747,759.541],[-2.054464,42.633785,759.815],[-2.054506,42.633821,760.208],[-2.054555,42.633854,760.572],[-2.054594,42.63389,760.931],[-2.054633,42.633925,761.272],[-2.054703,42.633947,761.324],[-2.054766,42.633954,761.695],[-2.054829,42.633948,762.13],[-2.054868,42.633904,762.12],[-2.054861,42.633855,762.015],[-2.054834,42.633802,761.839],[-2.054848,42.633754,761.001],[-2.05489,42.633709,760.121],[-2.054929,42.633661,759.208],[-2.054943,42.633614,758.458],[-2.054935,42.633565,757.797],[-2.054909,42.63352,756.888],[-2.054867,42.633485,756.05],[-2.054848,42.633439,755.321],[-2.054844,42.633392,754.876],[-2.054844,42.633347,754.676],[-2.054861,42.633301,754.651],[-2.054864,42.633251,754.735],[-2.054836,42.633205,754.986],[-2.054808,42.633159,755.114],[-2.054802,42.633113,755.408],[-2.054777,42.633069,755.968],[-2.054774,42.633024,756.237],[-2.054762,42.632977,756.478],[-2.054782,42.632932,756.64],[-2.054792,42.632885,756.731],[-2.054813,42.632839,757.076],[-2.054811,42.632794,757.796],[-2.054807,42.632749,759.331],[-2.054752,42.632721,763.364],[-2.054753,42.632672,767.306],[-2.054727,42.632625,771.316],[-2.05474,42.632574,775.308],[-2.054777,42.632537,779.381],[-2.054821,42.632503,782.63],[-2.054856,42.632459,785.581],[-2.054895,42.632418,788.083],[-2.054932,42.63238,790.514],[-2.054971,42.632335,793.049],[-2.055005,42.632291,795.279],[-2.055054,42.632258,797.334],[-2.055094,42.632214,799.213],[-2.055113,42.632165,801.143],[-2.055132,42.632117,802.907],[-2.055154,42.632069,804.808],[-2.055176,42.632021,806.726],[-2.055198,42.631978,808.185],[-2.055227,42.631939,808.846],[-2.055268,42.631904,809.718],[-2.055272,42.631857,810.349],[-2.055255,42.631803,811.284],[-2.055251,42.63175,812.214],[-2.055252,42.631698,813.179],[-2.055255,42.631652,814.074],[-2.05528,42.631607,814.756],[-2.05531,42.631563,815.721],[-2.055347,42.631516,816.508],[-2.055382,42.631478,817.282],[-2.05542,42.631441,817.661],[-2.055448,42.6314,817.852],[-2.055476,42.631352,818.074],[-2.055507,42.631301,818.635],[-2.055527,42.631255,819.68],[-2.055554,42.631211,819.55],[-2.055578,42.631167,819.085],[-2.055603,42.631123,818.568],[-2.055634,42.631077,819.342],[-2.055682,42.631043,819.626],[-2.055746,42.631023,819.408],[-2.055806,42.631008,819.271],[-2.055763,42.630967,819.18],[-2.055706,42.63095,819.581],[-2.055633,42.630961,820.353],[-2.055566,42.630975,821.164],[-2.055502,42.630994,822.259],[-2.055438,42.63102,823.489],[-2.055381,42.631045,824.624],[-2.05533,42.631084,826.053],[-2.055285,42.631116,827.804],[-2.05523,42.631153,829.514],[-2.055174,42.631179,831.308],[-2.055124,42.631209,833.29],[-2.055064,42.631232,834.929],[-2.054999,42.631259,836.13],[-2.054954,42.631299,837.152],[-2.054908,42.631333,838.053],[-2.054849,42.631358,838.918],[-2.054794,42.631386,839.958],[-2.054741,42.631414,840.913],[-2.054692,42.63145,841.879],[-2.054641,42.631478,842.505],[-2.054594,42.631515,843.025],[-2.054541,42.631545,843.408],[-2.054473,42.631561,843.882],[-2.054409,42.631586,844.471],[-2.05436,42.631624,845.262],[-2.054311,42.631655,845.914],[-2.054255,42.631681,846.295],[-2.05419,42.631695,846.54],[-2.054124,42.631702,846.79],[-2.054048,42.631705,847.125],[-2.053988,42.631716,847.694],[-2.053929,42.6317,848.457],[-2.053879,42.631671,849.722],[-2.053871,42.631625,850.908],[-2.053914,42.631593,851.984],[-2.053973,42.631578,852.643],[-2.054032,42.631548,852.354],[-2.054076,42.631513,851.996],[-2.05413,42.631482,851.017],[-2.054191,42.631456,850.142],[-2.054244,42.631427,849.792],[-2.054304,42.631399,849.557],[-2.054364,42.631373,849.524],[-2.054415,42.631336,849.504],[-2.054458,42.631294,849.514],[-2.054492,42.631253,849.608],[-2.054526,42.631208,849.877],[-2.054561,42.631162,850.496],[-2.054591,42.631113,851.027],[-2.054609,42.63107,851.669],[-2.054642,42.631025,852.27],[-2.054648,42.630974,852.845],[-2.054641,42.630918,853.365],[-2.054652,42.630869,854.08],[-2.054682,42.630823,854.726],[-2.054723,42.630777,855.947],[-2.054762,42.630729,856.911],[-2.054805,42.630684,857.908],[-2.054843,42.630639,858.717],[-2.054883,42.630597,859.376],[-2.054917,42.630558,860.047],[-2.054972,42.630519,860.859],[-2.055027,42.630483,861.49],[-2.055088,42.63045,862.145],[-2.055141,42.63042,863.135],[-2.05519,42.630392,864.04],[-2.055234,42.630359,865.211],[-2.055288,42.630321,866.321],[-2.055335,42.630287,867.603],[-2.055377,42.630252,868.808],[-2.055422,42.630214,870.226],[-2.055467,42.630176,871.475],[-2.055515,42.630143,872.526],[-2.055543,42.630103,873.498],[-2.055545,42.630054,874.379],[-2.055577,42.630012,875.914],[-2.05561,42.629972,877.624],[-2.055642,42.629933,879.129],[-2.055684,42.629898,880.764],[-2.055726,42.629859,882.106],[-2.055768,42.629825,883.316],[-2.055826,42.629793,884.408],[-2.05587,42.629761,885.341],[-2.055916,42.629728,886.18],[-2.05597,42.629695,886.911],[-2.056021,42.629666,887.893],[-2.056079,42.629647,888.884],[-2.056135,42.629626,889.669],[-2.056193,42.629602,890.389],[-2.056255,42.629583,891.244],[-2.056321,42.629568,892.168],[-2.056388,42.629564,893.142],[-2.05646,42.629558,894.026],[-2.056524,42.629554,894.908],[-2.056591,42.629548,895.711],[-2.056647,42.629529,896.65],[-2.056713,42.629514,897.291],[-2.056757,42.629481,897.883],[-2.0568,42.629444,898.484],[-2.056853,42.629402,898.799],[-2.056895,42.629359,898.849],[-2.056929,42.629316,898.674],[-2.056963,42.629275,898.338],[-2.057004,42.629228,897.87],[-2.057037,42.629185,897.417],[-2.057064,42.629143,897.108],[-2.057084,42.629094,896.938],[-2.057102,42.629049,896.887],[-2.057114,42.629002,896.628],[-2.057095,42.628954,896.56],[-2.057054,42.628917,896.651],[-2.056996,42.628903,897.086],[-2.056934,42.628927,897.836],[-2.056883,42.628952,899.011],[-2.056827,42.628976,900.742],[-2.056784,42.629012,902.022],[-2.056729,42.629038,903.014],[-2.056664,42.629061,904.008],[-2.056603,42.629076,905.399],[-2.056534,42.629076,906.318],[-2.056477,42.629056,907.139],[-2.056424,42.629016,907.551],[-2.056404,42.628966,907.812],[-2.056411,42.628911,908.367],[-2.056429,42.628864,908.947],[-2.056453,42.628821,909.472],[-2.056484,42.628781,909.448],[-2.056508,42.628737,909.061],[-2.056527,42.628687,908.417],[-2.056538,42.628639,907.608],[-2.056545,42.628594,907.149],[-2.056549,42.628544,907.158],[-2.05656,42.628497,907.249],[-2.056577,42.628449,907.551],[-2.056613,42.62841,908.172],[-2.056671,42.628369,909.687],[-2.056708,42.628327,911.187],[-2.05673,42.628283,912.562],[-2.056756,42.628241,913.968],[-2.056777,42.628198,916.242],[-2.056807,42.628155,918.426],[-2.056853,42.628102,920.808],[-2.056895,42.628069,923.121],[-2.056937,42.628035,924.82],[-2.056982,42.627996,926.211],[-2.057027,42.627954,927.583],[-2.057081,42.627917,928.374],[-2.057132,42.627886,928.619],[-2.057189,42.627847,929.159],[-2.057236,42.627804,929.614],[-2.05727,42.627763,929.969],[-2.057311,42.627717,930.204],[-2.057355,42.627685,930.624],[-2.057401,42.627645,931.108],[-2.057455,42.627605,931.441],[-2.05751,42.627561,931.46],[-2.057552,42.627526,931.381],[-2.057587,42.627489,931.413],[-2.057627,42.627452,931.574],[-2.057669,42.627414,931.519],[-2.057712,42.627382,931.569],[-2.05776,42.627352,931.574],[-2.057815,42.627319,931.415],[-2.057873,42.627291,931.365],[-2.057938,42.627282,931.611],[-2.05801,42.627284,932.208],[-2.058076,42.627269,933.116],[-2.05813,42.627236,934.195],[-2.058185,42.627206,935.746],[-2.058244,42.627172,937.228],[-2.058303,42.627188,938.029],[-2.058272,42.627144,939.684],[-2.05821,42.627133,940.854],[-2.058143,42.627133,941.449],[-2.058067,42.627144,941.796],[-2.058007,42.627158,941.831],[-2.057965,42.627197,942.024],[-2.057909,42.627221,942.308],[-2.057847,42.62724,942.674],[-2.057788,42.627267,943.133],[-2.057721,42.627268,943.684],[-2.057647,42.627284,944.266],[-2.05758,42.627298,944.637],[-2.057517,42.627314,944.762],[-2.057445,42.627311,944.412],[-2.05738,42.627303,943.027],[-2.057312,42.627323,941.685],[-2.057251,42.627339,940.489],[-2.057177,42.627347,939.417],[-2.057108,42.627359,938.808],[-2.057035,42.627376,938.553],[-2.056942,42.627399,938.072],[-2.056878,42.627427,937.283],[-2.056819,42.627452,936.345],[-2.056754,42.627476,935.486],[-2.05669,42.627501,934.741],[-2.056633,42.627524,934.291],[-2.056558,42.627548,934.216],[-2.05649,42.627563,934.226],[-2.056431,42.627578,934.247],[-2.056365,42.627596,934.211],[-2.056318,42.627628,934.508],[-2.056262,42.627664,934.967],[-2.056214,42.627697,935.676],[-2.056155,42.627718,936.267],[-2.056079,42.627713,936.739],[-2.056005,42.627711,937.34],[-2.055943,42.627719,937.755],[-2.055881,42.627713,937.655],[-2.055828,42.627741,937.83],[-2.055777,42.62777,938.315],[-2.055718,42.627785,939.065],[-2.055661,42.627813,939.811],[-2.055602,42.627838,940.508],[-2.055548,42.627863,941.026],[-2.055492,42.627898,941.525],[-2.055426,42.627928,941.716],[-2.05537,42.627959,941.978],[-2.055304,42.627981,942.349],[-2.055244,42.627994,942.494],[-2.055184,42.628008,942.284],[-2.055137,42.628037,941.919],[-2.055075,42.628069,942.119],[-2.055017,42.628093,942.209],[-2.05496,42.628115,942.419],[-2.054899,42.628134,942.808],[-2.054838,42.628161,943.356],[-2.054774,42.628188,943.875],[-2.054717,42.628216,944.426],[-2.054655,42.628246,944.888],[-2.054597,42.628272,944.949],[-2.05453,42.628302,945.044],[-2.054464,42.628321,945.124],[-2.054408,42.628343,945.499],[-2.054332,42.628371,946.071],[-2.054274,42.628397,946.541],[-2.054217,42.628425,947.215],[-2.054157,42.628443,948.008],[-2.054102,42.628464,948.612],[-2.054046,42.628493,949.031],[-2.053985,42.628518,949.452],[-2.053931,42.62854,950.154],[-2.053871,42.628559,950.795],[-2.053815,42.628583,951.34],[-2.053752,42.628618,952.07],[-2.053698,42.628642,952.695],[-2.053638,42.628661,953.344],[-2.053568,42.628678,953.905],[-2.053502,42.62871,954.315],[-2.053438,42.628741,954.508],[-2.053375,42.628762,954.429],[-2.053314,42.628781,954.378],[-2.053252,42.628803,954.259],[-2.053196,42.628831,954.341],[-2.053133,42.62885,954.642],[-2.053071,42.628867,955.127],[-2.052995,42.628868,955.727],[-2.052934,42.628857,956.632],[-2.052876,42.628833,957.095],[-2.052817,42.628807,957.249],[-2.052754,42.628792,957.723],[-2.052689,42.628781,958.408],[-2.052601,42.628772,958.934],[-2.052537,42.628766,959.423],[-2.052456,42.628762,959.974],[-2.052386,42.628752,960.456],[-2.052313,42.628745,961.147],[-2.052237,42.628742,961.912],[-2.052168,42.628741,962.572],[-2.052071,42.628732,963.047],[-2.051999,42.628721,963.254],[-2.051928,42.628715,963.356],[-2.051859,42.628716,963.511],[-2.051793,42.628718,963.708],[-2.05173,42.628715,964.02],[-2.051652,42.628709,964.489],[-2.051582,42.628707,964.78],[-2.051518,42.628703,965.262],[-2.051455,42.628701,965.693],[-2.051381,42.628698,965.918],[-2.051306,42.628695,966.168],[-2.051244,42.628685,966.293],[-2.051182,42.628679,966.335],[-2.051118,42.628667,966.386],[-2.051044,42.628651,965.914],[-2.050992,42.628619,965.208],[-2.050935,42.628598,965.198],[-2.050864,42.628579,965.387],[-2.050799,42.628566,965.688],[-2.050729,42.628555,966.15],[-2.05066,42.628545,966.761],[-2.050594,42.628529,967.526],[-2.050533,42.628512,968.196],[-2.050465,42.628496,968.731],[-2.050387,42.628473,969.364],[-2.050331,42.628453,969.806],[-2.050272,42.628429,969.616],[-2.050201,42.628411,969.408],[-2.050136,42.628391,969.461],[-2.05006,42.628369,969.58],[-2.049997,42.628345,969.791],[-2.049933,42.628328,969.653],[-2.049869,42.628303,969.524],[-2.049817,42.628279,970.179],[-2.049756,42.628253,970.749],[-2.049697,42.628222,971.694],[-2.049652,42.628191,972.497],[-2.049602,42.628164,972.823],[-2.04954,42.628138,972.925],[-2.049468,42.628121,972.708],[-2.049408,42.628141,971.644],[-2.049352,42.62817,970.233],[-2.049287,42.628168,968.874],[-2.049214,42.628154,968.166],[-2.049137,42.62814,968.367],[-2.049046,42.628108,968.742],[-2.048983,42.628089,969.152],[-2.048911,42.628104,969.737],[-2.04884,42.628115,970.017],[-2.048773,42.628128,970.387],[-2.048704,42.628135,970.315],[-2.048634,42.62814,970.308],[-2.048552,42.628151,970.396],[-2.048492,42.628159,970.185],[-2.048404,42.628167,970.196],[-2.048332,42.628178,970.428],[-2.048379,42.628215,970.659],[-2.048339,42.628258,970.244],[-2.048279,42.628277,970.394],[-2.048222,42.628295,971.089],[-2.048147,42.628313,971.124],[-2.048075,42.628314,971.204],[-2.048013,42.628313,971.314],[-2.047931,42.628315,971.308],[-2.04785,42.628321,971.577],[-2.047778,42.628326,971.826],[-2.047716,42.628327,972.117],[-2.047629,42.628325,972.599],[-2.047573,42.628347,973.01],[-2.047506,42.628365,973.635],[-2.047434,42.628363,974.315],[-2.047366,42.628371,975.35],[-2.047303,42.628387,976.018],[-2.047257,42.628428,976.498],[-2.047246,42.628472,976.617],[-2.047248,42.628524,976.808],[-2.047248,42.628569,976.636],[-2.047251,42.628617,976.345],[-2.047212,42.628673,976.066],[-2.047176,42.628716,976.458],[-2.047133,42.628759,976.869],[-2.047098,42.628797,977.514],[-2.047054,42.628838,978.144],[-2.047001,42.62888,979.319],[-2.046982,42.628924,981.125],[-2.04699,42.628974,983.426],[-2.046974,42.62902,985.308],[-2.046959,42.629065,987.108],[-2.046955,42.629111,988.927],[-2.046924,42.629151,990.656],[-2.04687,42.629177,992.287],[-2.046808,42.62919,993.819],[-2.04675,42.629213,995.45],[-2.046721,42.62926,996.985],[-2.046704,42.629306,998.535],[-2.046703,42.629354,1000.19],[-2.046709,42.629402,1001.444],[-2.046714,42.629455,1002.205],[-2.046715,42.629502,1003.015],[-2.046705,42.629548,1004.108],[-2.046683,42.629591,1005.149],[-2.046664,42.629637,1006.138],[-2.046643,42.629682,1007.259],[-2.046613,42.629723,1008.531],[-2.046553,42.629753,1009.772],[-2.046497,42.629778,1011.437],[-2.046439,42.629801,1013.277],[-2.046377,42.629805,1015.142],[-2.04631,42.629801,1017.157],[-2.046225,42.6298,1018.6],[-2.046154,42.629791,1019.72],[-2.046093,42.629786,1020.508],[-2.046027,42.629779,1021.55],[-2.045965,42.629768,1022.999],[-2.045884,42.629777,1023.47],[-2.045828,42.629758,1023.622],[-2.045773,42.62973,1024.173],[-2.045773,42.629684,1025.588],[-2.045753,42.629639,1027.188],[-2.045704,42.629605,1028.463],[-2.045646,42.629571,1029.858],[-2.045589,42.629541,1031.252],[-2.045536,42.629516,1032.217],[-2.045473,42.629493,1033.008],[-2.045406,42.629489,1034.19],[-2.045344,42.629506,1036.059],[-2.045309,42.629545,1037.81],[-2.045366,42.629564,1039.152],[-2.045427,42.629577,1040.113],[-2.045397,42.629529,1040.828],[-2.045387,42.629478,1041.228],[-2.045449,42.629472,1041.233],[-2.045511,42.629491,1040.654],[-2.045573,42.62951,1039.856],[-2.045632,42.629533,1038.511],[-2.04569,42.629558,1037.308],[-2.04574,42.629591,1036.61],[-2.045784,42.629636,1035.859],[-2.045796,42.62969,1034.96],[-2.045837,42.629731,1033.382],[-2.045889,42.629763,1032.023],[-2.045829,42.629782,1030.358],[-2.045805,42.629828,1028.858],[-2.045786,42.629892,1028.563],[-2.045752,42.629929,1026.929],[-2.045694,42.629908,1025.5],[-2.045639,42.629885,1023.42],[-2.045577,42.629873,1022.008],[-2.045502,42.629864,1020.887],[-2.045427,42.629874,1019.816],[-2.045373,42.629899,1019.017],[-2.045328,42.629935,1018.289],[-2.04528,42.629968,1017.41],[-2.045215,42.629993,1016.765],[-2.045146,42.630012,1016.245],[-2.045103,42.630051,1015.57],[-2.045074,42.630091,1015.015],[-2.045061,42.630135,1015.165],[-2.045035,42.63018,1015.511],[-2.044999,42.630222,1016.308],[-2.044937,42.630227,1017.166],[-2.044898,42.630271,1018.015],[-2.044926,42.630316,1019.266],[-2.044959,42.630359,1020.928],[-2.044929,42.630404,1022.989],[-2.04489,42.630441,1024.614],[-2.044829,42.630479,1026.124],[-2.044774,42.630449,1027.549],[-2.044717,42.630428,1028.984],[-2.044662,42.630455,1031.107],[-2.0446,42.630453,1032.817],[-2.044642,42.630486,1035.208],[-2.04469,42.630519,1037.073],[-2.044732,42.630561,1038.422],[-2.044778,42.630597,1039.673],[-2.044819,42.630631,1041.115],[-2.044779,42.630596,1041.786],[-2.044715,42.630573,1042.581],[-2.04465,42.630558,1043.291],[-2.044593,42.630539,1042.476],[-2.044555,42.6305,1041.613],[-2.044494,42.630511,1039.543],[-2.044452,42.630548,1037.907],[-2.044408,42.630591,1036.508],[-2.044444,42.630632,1035.446],[-2.044462,42.630681,1034.775],[-2.044447,42.630727,1033.986],[-2.044484,42.630765,1033.318],[-2.044497,42.630817,1032.139],[-2.044497,42.630817,1032.174],[-2.044497,42.630866,1030.464],[-2.044497,42.630866,1030.459],[-2.044521,42.630907,1029.839],[-2.044496,42.630957,1028.901],[-2.044468,42.630999,1027.121],[-2.044468,42.630999,1027.108],[-2.0444,42.630988,1025.218],[-2.044363,42.630949,1023.477],[-2.044323,42.630911,1021.588],[-2.044261,42.630908,1019.98],[-2.044192,42.630897,1018.471],[-2.044126,42.63088,1016.786],[-2.04406,42.630875,1015.366],[-2.043987,42.630875,1014.271],[-2.043927,42.630906,1013.693],[-2.043893,42.630947,1013.465],[-2.043845,42.630975,1013.421],[-2.043784,42.630989,1013.208],[-2.043723,42.630985,1012.984],[-2.043657,42.630986,1012.473],[-2.043597,42.631005,1012.344],[-2.043543,42.63103,1012.396],[-2.043483,42.631057,1012.237],[-2.043423,42.631077,1012.462],[-2.043361,42.631082,1012.772],[-2.043294,42.631103,1012.737],[-2.043239,42.631134,1012.743],[-2.04319,42.631167,1012.764],[-2.043133,42.631187,1012.91],[-2.043067,42.6312,1012.908],[-2.043039,42.631251,1013.059],[-2.043019,42.631298,1013.168],[-2.043007,42.631347,1013.899],[-2.043049,42.631388,1014.821],[-2.043091,42.631421,1015.842],[-2.043149,42.631435,1016.717],[-2.043195,42.631471,1017.947],[-2.043244,42.63151,1020.022],[-2.043304,42.631524,1021.871],[-2.043376,42.631537,1023.641],[-2.043439,42.63153,1025.115],[-2.043504,42.631506,1026.508],[-2.043545,42.631471,1028.392],[-2.043495,42.631443,1030.521],[-2.04343,42.631439,1032.172],[-2.04336,42.631434,1033.344],[-2.043317,42.631402,1032.555],[-2.043386,42.631404,1031.85],[-2.043448,42.631404,1031.16],[-2.043484,42.631445,1030.695],[-2.043523,42.631481,1029.997],[-2.043476,42.631513,1029.123],[-2.043407,42.631549,1028.425],[-2.043344,42.631541,1028.408],[-2.04328,42.631544,1028.374],[-2.043227,42.631517,1028.253],[-2.043169,42.631486,1028.214],[-2.04311,42.631466,1027.936],[-2.043049,42.631452,1027.397],[-2.042993,42.631427,1026.742],[-2.042947,42.631397,1026.292],[-2.042989,42.631354,1023.527],[-2.043001,42.631307,1021.592],[-2.042939,42.631326,1018.973],[-2.042878,42.631365,1017.12],[-2.042806,42.631366,1015.608],[-2.042745,42.631372,1014.434],[-2.042677,42.631385,1013.343],[-2.042634,42.631424,1011.144],[-2.042589,42.631463,1009.056],[-2.042551,42.631512,1007.327],[-2.042486,42.631515,1006.192],[-2.042424,42.631489,1004.812],[-2.042372,42.631516,1003.177],[-2.042307,42.631506,1001.694],[-2.042246,42.631491,1000.357],[-2.042197,42.631462,998.522],[-2.042154,42.63143,997.408],[-2.04209,42.631432,996.074],[-2.042048,42.631393,994.813],[-2.042038,42.631343,993.744],[-2.041977,42.631334,992.556],[-2.041907,42.631322,991.187],[-2.041836,42.631313,989.582],[-2.041783,42.631288,988.152],[-2.041719,42.631249,986.997],[-2.041666,42.631225,985.678],[-2.041599,42.631215,984.233],[-2.041539,42.631197,982.926],[-2.041476,42.631175,981.408],[-2.041411,42.63117,979.532],[-2.041345,42.631154,977.571],[-2.041285,42.631122,975.662],[-2.041222,42.631109,974.024],[-2.041176,42.631073,972.575],[-2.041152,42.631029,971.22],[-2.041115,42.630992,969.94],[-2.041063,42.630963,968.545],[-2.041015,42.630933,967.383],[-2.040952,42.630943,966.025],[-2.040897,42.630923,964.717],[-2.040827,42.630914,963.508],[-2.040766,42.630916,962.213],[-2.040713,42.630891,960.822],[-2.04066,42.630867,959.323],[-2.040592,42.630847,958.075],[-2.040552,42.630807,956.796],[-2.040482,42.630814,955.041],[-2.040449,42.630772,952.951],[-2.040395,42.630739,950.766],[-2.040332,42.630741,948.067],[-2.040302,42.63078,945.981],[-2.040368,42.63078,944.319],[-2.040416,42.630749,944.008],[-2.040479,42.630757,943.911],[-2.040431,42.630787,944.89],[-2.040373,42.630801,945.231],[-2.040435,42.630801,944.423],[-2.040492,42.630818,944.284],[-2.040561,42.630824,944.459],[-2.040623,42.630851,944.919],[-2.040683,42.63087,945.964],[-2.040728,42.630838,948.789],[-2.040751,42.630796,950.806],[-2.0407,42.630767,952.326],[-2.040641,42.630718,953.208],[-2.040594,42.630689,953.893],[-2.040525,42.630676,954.042],[-2.040463,42.630676,953.823],[-2.040398,42.630661,953.275],[-2.040339,42.630639,952.516],[-2.040278,42.630622,951.851],[-2.040194,42.630605,950.811],[-2.040127,42.630604,949.796],[-2.040068,42.630616,948.597],[-2.040005,42.630605,947.223],[-2.039938,42.630622,944.325],[-2.039875,42.630621,942.208],[-2.039808,42.630631,940.064],[-2.039734,42.630644,938.073],[-2.039665,42.630643,935.974],[-2.039605,42.630625,933.946],[-2.039541,42.630631,932.657],[-2.039481,42.63062,931.522],[-2.039417,42.630611,930.322],[-2.039354,42.630625,929.167],[-2.039288,42.630633,927.523],[-2.039227,42.630649,925.783],[-2.039176,42.630679,923.911],[-2.039109,42.630701,922.208],[-2.039039,42.630705,920.457],[-2.038964,42.630688,918.556],[-2.038887,42.630679,916.947],[-2.038823,42.630674,915.459],[-2.038762,42.630667,915.05],[-2.038733,42.630624,914.525],[-2.038671,42.630614,914.275],[-2.038612,42.630635,914.36],[-2.038614,42.630685,914.679],[-2.038601,42.630732,914.905],[-2.038532,42.630745,914.725],[-2.038461,42.63076,914.008],[-2.038394,42.630758,913.422],[-2.038315,42.630751,912.551],[-2.038261,42.630719,911.482],[-2.038213,42.630689,910.174],[-2.038185,42.630737,907.075],[-2.038196,42.630789,904.31],[-2.038179,42.630837,901.57],[-2.038135,42.630888,898.945],[-2.038118,42.630933,896.831],[-2.038136,42.630982,895.061],[-2.038145,42.631036,893.207],[-2.038136,42.631087,891.508],[-2.038136,42.631134,889.928],[-2.038134,42.631182,888.217],[-2.038117,42.631229,886.848],[-2.038079,42.631275,885.32],[-2.038056,42.631323,883.641],[-2.038025,42.631369,882.226],[-2.037993,42.631412,880.626],[-2.038002,42.631457,878.891],[-2.038039,42.631496,876.838],[-2.038115,42.631527,874.57],[-2.038178,42.631511,873.117],[-2.038258,42.631505,871.808],[-2.038323,42.631511,870.688],[-2.038386,42.631515,869.417],[-2.038438,42.631542,868.848],[-2.038474,42.631579,868.75],[-2.038533,42.631609,868.691],[-2.038585,42.631639,868.196],[-2.038649,42.631643,867.696],[-2.038718,42.631648,867.461],[-2.03879,42.631666,867.635],[-2.03885,42.631692,868.086],[-2.038904,42.631718,868.414],[-2.038942,42.631756,868.808],[-2.038972,42.631796,869.198],[-2.039008,42.631834,869.317],[-2.038998,42.631884,869.498],[-2.038967,42.631931,869.67],[-2.038927,42.631965,869.311],[-2.038936,42.632012,869.056],[-2.038902,42.632057,868.666],[-2.038866,42.632099,868.111],[-2.038818,42.632134,867.565],[-2.038764,42.63216,866.468],[-2.038683,42.632149,864.514],[-2.038632,42.632176,862.508],[-2.038571,42.632178,860.261],[-2.038507,42.63219,858.13],[-2.038444,42.632192,855.851],[-2.038472,42.632237,853.623],[-2.038475,42.632283,851.784],[-2.038488,42.632334,849.979],[-2.038429,42.632348,847.919],[-2.038378,42.632376,845.464],[-2.038318,42.632389,842.785],[-2.038278,42.632433,840.289],[-2.03824,42.632474,838.017],[-2.038185,42.632505,836.308],[-2.038187,42.632552,834.453],[-2.0382,42.6326,831.562],[-2.038136,42.632602,828.923],[-2.038169,42.632645,826.315],[-2.038189,42.632689,824.076],[-2.038134,42.632712,821.691],[-2.038068,42.632714,818.741],[-2.03804,42.632755,816.536],[-2.038092,42.632786,814.752],[-2.038099,42.632834,813.453],[-2.038035,42.632827,812.308],[-2.037981,42.63285,811.008],[-2.037926,42.632873,809.41],[-2.037891,42.632919,808.269],[-2.037914,42.632963,807.38],[-2.037955,42.633002,805.752],[-2.03802,42.63302,804.693],[-2.038048,42.633068,803.358],[-2.038062,42.633116,801.648],[-2.038054,42.633162,799.843],[-2.038104,42.633194,797.798],[-2.038156,42.633222,795.215],[-2.038166,42.633272,792.526],[-2.038117,42.63331,789.808],[-2.038055,42.633344,786.284],[-2.038,42.63337,783.413],[-2.037955,42.633402,781.414],[-2.037904,42.633428,779.546],[-2.037878,42.63347,777.667],[-2.037873,42.633519,775.872],[-2.037911,42.633556,774.232],[-2.037915,42.633606,772.747],[-2.037879,42.633651,771.025],[-2.03786,42.633698,769.026],[-2.037836,42.63374,766.608],[-2.037861,42.633784,764.908],[-2.037903,42.633833,763.837],[-2.037956,42.633862,762.936],[-2.037999,42.6339,762.167],[-2.037992,42.633952,761.329],[-2.037953,42.633988,760.37],[-2.037907,42.634025,759.065],[-2.037865,42.634064,757.525],[-2.037831,42.634103,756.09],[-2.037853,42.634153,754.529],[-2.037845,42.634201,753.3],[-2.037839,42.634249,752.02],[-2.037841,42.634297,750.908],[-2.037875,42.634348,749.967],[-2.037894,42.634397,749.196],[-2.037883,42.634449,748.377],[-2.037882,42.634498,747.149],[-2.037863,42.634542,745.41],[-2.037838,42.634587,743.345],[-2.03781,42.634633,741.495],[-2.037787,42.634681,739.95],[-2.037778,42.634739,738.161],[-2.037764,42.634783,736.221],[-2.03774,42.634829,733.613],[-2.037727,42.634884,731.908],[-2.03772,42.63493,731.071],[-2.037726,42.63498,730.49],[-2.037749,42.635023,729.521],[-2.037746,42.635072,729.143],[-2.037761,42.635116,728.854],[-2.037777,42.635164,728.669],[-2.037758,42.635217,728.499],[-2.037732,42.635269,728.044],[-2.037711,42.635314,727.667],[-2.037696,42.63537,727.081],[-2.037686,42.635421,726.119],[-2.037667,42.635478,724.408],[-2.037666,42.635526,722.661],[-2.037692,42.635582,721.22],[-2.03771,42.635633,719.431],[-2.037723,42.635681,717.623],[-2.037747,42.635731,715.734],[-2.037738,42.635781,713.879],[-2.037741,42.635829,712.319],[-2.037764,42.635878,710.774],[-2.037781,42.635926,709.258],[-2.037785,42.635981,707.652],[-2.03781,42.636029,706.317],[-2.037832,42.636073,705.008],[-2.037855,42.636131,703.35],[-2.037888,42.636169,701.739],[-2.037933,42.636204,700.49],[-2.037967,42.63625,699.282],[-2.037985,42.636306,698.073],[-2.03802,42.63635,696.678],[-2.03805,42.636401,694.878],[-2.038073,42.636461,692.833],[-2.038078,42.63651,691.177],[-2.038096,42.636556,689.361],[-2.038121,42.636597,687.127],[-2.038106,42.636643,685.408],[-2.038123,42.636702,685.042],[-2.038141,42.63675,685.131],[-2.038165,42.636799,685.222],[-2.038167,42.636847,685.264],[-2.03818,42.636895,684.875],[-2.038205,42.636936,684.55],[-2.038236,42.636976,684.11],[-2.03826,42.637025,683.225],[-2.038256,42.63707,681.725],[-2.038218,42.637118,679.926],[-2.038198,42.637169,677.708],[-2.038169,42.637218,675.708],[-2.038149,42.637262,673.377],[-2.03811,42.637302,670.586],[-2.038104,42.637347,668.367],[-2.038099,42.637402,666.549],[-2.038099,42.63746,665.28],[-2.038141,42.637511,663.795],[-2.038196,42.637539,662.355],[-2.038241,42.637576,660.97],[-2.038282,42.637616,659.586],[-2.038313,42.637658,658.56],[-2.038349,42.637724,657.426],[-2.038377,42.637777,656.108],[-2.0384,42.637831,655.173],[-2.038445,42.637865,654.412],[-2.038485,42.637912,653.723],[-2.038515,42.637956,653.085],[-2.03855,42.638,652.496],[-2.038568,42.638052,651.641],[-2.038553,42.6381,650.831],[-2.038541,42.638149,649.876],[-2.038532,42.638194,648.159],[-2.038523,42.638239,646.503],[-2.038496,42.638281,645.323],[-2.03847,42.638327,644.208],[-2.03843,42.638364,643.38],[-2.038389,42.638402,642.399],[-2.038336,42.638435,641.33],[-2.038371,42.638476,639.082],[-2.038405,42.638521,637.743],[-2.038409,42.638567,636.518],[-2.038414,42.638614,635.918],[-2.038406,42.638671,635.823],[-2.038391,42.638716,635.845],[-2.038378,42.638768,635.947],[-2.038408,42.638811,636.011],[-2.038377,42.638865,635.608],[-2.038358,42.638909,635.159],[-2.03835,42.638957,634.448],[-2.038348,42.639005,633.899],[-2.03834,42.639067,633.211],[-2.03833,42.639123,632.612],[-2.038322,42.639169,631.327],[-2.038308,42.639218,629.727],[-2.038294,42.63927,628.332],[-2.038282,42.639321,626.832],[-2.038278,42.639375,625.492],[-2.038272,42.639426,624.211],[-2.038276,42.639475,622.908],[-2.038271,42.63953,621.828],[-2.038284,42.639579,621.287],[-2.038293,42.639627,620.858],[-2.038297,42.639678,620.69],[-2.038299,42.639724,620.971],[-2.038303,42.639773,621.256],[-2.0383,42.639822,621.136],[-2.038284,42.63987,620.241],[-2.038267,42.639919,619.331],[-2.038273,42.639983,618.561],[-2.038281,42.640028,617.907],[-2.038288,42.640078,617.408],[-2.038288,42.640129,616.968],[-2.038292,42.640177,616.567],[-2.038301,42.640229,616.148],[-2.038308,42.640282,615.66],[-2.038315,42.64034,615.251],[-2.038314,42.640396,615.336],[-2.038319,42.640443,615.296],[-2.03834,42.640492,615.141],[-2.03835,42.640544,614.995],[-2.038363,42.640591,614.649],[-2.038367,42.640639,614.123],[-2.038338,42.640684,613.408],[-2.038327,42.64073,612.284],[-2.038317,42.640782,611.183],[-2.0383,42.640831,610.184],[-2.038301,42.64088,609.116],[-2.038299,42.640926,608.197],[-2.038292,42.640975,607.192],[-2.038283,42.641026,606.122],[-2.038274,42.641079,605.287],[-2.03827,42.641154,604.125],[-2.038265,42.641208,603.226],[-2.038272,42.641265,602.508],[-2.038279,42.64131,601.808],[-2.038257,42.641352,601.067],[-2.038244,42.641398,600.416],[-2.038293,42.641433,599.687],[-2.03829,42.641479,598.819],[-2.0383,42.641528,598.47],[-2.038303,42.641593,598.525],[-2.038293,42.64165,598.555],[-2.038286,42.641717,598.49],[-2.038273,42.641763,598.589],[-2.038265,42.641822,598.606],[-2.038248,42.64188,598.526],[-2.038236,42.641934,597.908],[-2.038215,42.641979,597.393],[-2.038218,42.642024,596.092],[-2.038225,42.642072,593.883],[-2.038234,42.642127,591.425],[-2.038257,42.642172,589.086],[-2.038252,42.642218,587.391],[-2.038236,42.642276,586.171],[-2.038226,42.64233,585.336],[-2.03823,42.642379,584.725],[-2.03825,42.642427,584.426],[-2.038262,42.642479,584.208],[-2.038263,42.642532,584.108],[-2.038246,42.642582,584.277],[-2.038233,42.642632,584.386],[-2.038219,42.642688,584.657],[-2.038211,42.642739,584.869],[-2.038198,42.642787,584.22],[-2.038178,42.642838,583.325],[-2.03818,42.642886,582.095],[-2.038181,42.64294,580.83],[-2.038177,42.642986,579.752],[-2.038175,42.643036,578.153],[-2.038157,42.64308,576.808],[-2.038134,42.643131,576.108],[-2.038122,42.643189,575.83],[-2.038108,42.643237,575.489],[-2.038049,42.643259,574.67],[-2.038011,42.643298,574.132],[-2.037992,42.643343,572.873],[-2.037978,42.643394,571.128],[-2.037967,42.643443,569.938],[-2.037962,42.643489,569.233],[-2.03796,42.643541,568.551],[-2.037947,42.643608,567.601],[-2.037975,42.643655,566.911],[-2.037975,42.643701,564.908],[-2.037995,42.643756,563.83],[-2.038007,42.643801,563.369],[-2.038021,42.643851,562.29],[-2.038021,42.643851,562.292],[-2.038029,42.643897,561.783],[-2.038089,42.643912,561.618],[-2.038153,42.643928,562.148],[-2.038212,42.643958,563.233],[-2.038261,42.643986,564.755],[-2.038343,42.644007,566.107],[-2.038415,42.644005,567.417],[-2.038476,42.644024,567.208],[-2.038541,42.644052,566.08],[-2.038615,42.644043,565.219],[-2.038682,42.644028,564.73],[-2.038735,42.644003,564.382],[-2.038803,42.644005,563.983],[-2.038871,42.643988,563.678],[-2.038937,42.643987,563.138],[-2.039001,42.643983,562.473],[-2.039065,42.643969,561.821],[-2.039125,42.643955,561.141],[-2.039212,42.643946,560.805],[-2.039271,42.643963,560.608],[-2.039324,42.643989,560.457],[-2.039379,42.644022,560.136],[-2.039433,42.644049,559.947],[-2.039485,42.644078,559.719],[-2.039545,42.64411,559.41],[-2.039612,42.644128,559.175],[-2.039643,42.644168,558.785],[-2.039689,42.644198,558.52],[-2.039745,42.644217,557.874],[-2.039812,42.644244,557.556],[-2.039882,42.644268,557.121],[-2.039947,42.644273,556.708],[-2.040022,42.644289,556.762],[-2.040077,42.644313,556.931],[-2.040118,42.644352,557.222],[-2.040141,42.644397,557.774],[-2.040176,42.644438,558.165],[-2.040223,42.644471,558.45],[-2.040254,42.644512,558.28],[-2.040326,42.644532,557.595],[-2.040395,42.644538,556.893],[-2.040465,42.644551,556.265],[-2.040535,42.644572,555.421],[-2.040594,42.644592,554.608],[-2.040656,42.644613,553.324],[-2.040734,42.644658,552.093],[-2.040796,42.644693,550.794],[-2.040866,42.644728,549.466],[-2.040936,42.644747,547.967],[-2.040997,42.644761,546.772],[-2.04105,42.644784,545.572],[-2.041116,42.644811,544.237],[-2.041173,42.64483,543.142],[-2.041235,42.644839,541.822],[-2.041312,42.64484,540.514],[-2.041379,42.644841,539.008],[-2.041444,42.644842,537.539],[-2.041508,42.644836,536.018],[-2.041566,42.64481,534.749],[-2.041628,42.644794,534.231],[-2.041688,42.644769,534.752],[-2.041736,42.644737,535.817],[-2.041783,42.644702,537.417],[-2.04183,42.64467,539.992],[-2.041888,42.644637,542.983],[-2.041944,42.644605,545.725],[-2.042005,42.644563,548.417],[-2.042042,42.644525,551.008],[-2.042078,42.644487,552.943],[-2.042125,42.644453,554.522],[-2.042177,42.644415,555.963],[-2.042221,42.644381,557.115],[-2.042268,42.64434,557.436],[-2.042321,42.644306,557.621],[-2.04238,42.644279,557.391],[-2.042434,42.644251,557.156],[-2.042492,42.644222,557.716],[-2.042537,42.644186,559.276],[-2.042593,42.644156,560.813],[-2.042656,42.644125,562.808],[-2.042716,42.644104,564.366],[-2.042783,42.644092,565.565],[-2.042854,42.644073,566.676],[-2.042916,42.644058,567.698],[-2.042975,42.644038,568.719],[-2.043033,42.644022,569.734],[-2.043098,42.644015,570.774],[-2.043162,42.644002,571.889],[-2.043233,42.643989,573.174],[-2.043296,42.64397,574.156],[-2.043357,42.643959,574.721],[-2.043426,42.643936,575.208],[-2.043495,42.643924,575.772],[-2.043555,42.6439,576.231],[-2.043615,42.64389,576.472],[-2.043669,42.643862,576.444],[-2.043722,42.643831,576.695],[-2.04377,42.643794,576.99],[-2.043815,42.643762,577.47],[-2.043876,42.643741,577.255],[-2.043944,42.643743,577.384],[-2.044004,42.643729,577.407],[-2.044083,42.64371,577.317],[-2.044147,42.643696,576.708],[-2.04421,42.643685,576.073],[-2.044278,42.643666,575.332],[-2.044337,42.64365,574.523],[-2.044403,42.643666,573.775],[-2.044464,42.64367,573.546],[-2.044545,42.643655,573.011],[-2.044614,42.643642,572.371],[-2.044677,42.643632,571.876],[-2.044743,42.643623,571.553],[-2.044812,42.64362,571.304],[-2.044876,42.643618,571.214],[-2.044951,42.643615,571.208],[-2.045014,42.643614,571.28],[-2.045098,42.643612,571.359],[-2.045171,42.643613,571.36],[-2.045234,42.643606,571.122],[-2.045305,42.643625,570.583],[-2.045371,42.643632,570.028],[-2.045434,42.643642,569.628],[-2.0455,42.643648,569.333],[-2.045561,42.643645,569.231],[-2.045633,42.643641,569.361],[-2.045701,42.643637,569.307],[-2.045764,42.643634,569.208],[-2.045825,42.643624,568.838],[-2.045885,42.643609,568.577],[-2.045947,42.643607,568.238],[-2.046018,42.643604,567.61],[-2.046091,42.643612,567.111],[-2.046149,42.643627,566.896],[-2.046213,42.643627,566.366],[-2.046276,42.643621,565.851],[-2.046337,42.643612,565.316],[-2.046413,42.643598,564.876],[-2.04649,42.643594,564.513],[-2.046554,42.64359,564.708],[-2.046619,42.643584,564.976],[-2.046685,42.643587,565.365],[-2.046749,42.643598,565.716],[-2.0468,42.643637,566.038],[-2.04683,42.643676,566.329],[-2.046821,42.643723,566.564],[-2.04683,42.643769,566.614],[-2.046827,42.643815,566.649],[-2.04681,42.643885,566.626],[-2.046799,42.643931,566.347],[-2.046792,42.643977,565.211],[-2.046842,42.644008,564.208],[-2.046873,42.644047,563.667],[-2.046898,42.644089,563.136],[-2.04692,42.644135,562.747],[-2.046941,42.644192,562.449],[-2.046972,42.644239,562.35],[-2.047012,42.644278,562.295],[-2.047084,42.644291,562.125],[-2.047143,42.644305,562.09],[-2.047177,42.644345,561.766],[-2.047223,42.644399,561.329],[-2.047267,42.644444,560.821],[-2.047306,42.644479,560.108],[-2.047362,42.644522,559.611],[-2.047417,42.644551,559.32],[-2.047467,42.644579,559.331],[-2.047512,42.644621,559.343],[-2.047533,42.644664,559.294],[-2.047571,42.644714,558.999],[-2.047605,42.644762,558.439],[-2.047642,42.644804,557.914],[-2.047685,42.644837,557.759],[-2.047748,42.644887,557.503],[-2.047802,42.644929,557.323],[-2.04786,42.644976,557.208],[-2.047902,42.645017,557.29],[-2.04794,42.645059,557.199],[-2.047966,42.645104,556.74],[-2.047974,42.645156,556.692],[-2.047992,42.645199,557.083],[-2.048022,42.645252,557.668],[-2.048054,42.645298,558.138],[-2.04808,42.645343,558.443],[-2.048106,42.645398,558.558],[-2.04812,42.645443,558.752],[-2.048128,42.645494,558.917],[-2.048131,42.64554,558.908],[-2.048145,42.645598,558.64],[-2.048141,42.645644,558.099],[-2.048135,42.645696,557.27],[-2.04814,42.645752,556.242],[-2.048141,42.645805,555.083],[-2.048137,42.645855,553.998],[-2.048124,42.645908,553.328],[-2.04811,42.645964,552.833],[-2.048091,42.64602,552.292],[-2.048065,42.64607,551.073],[-2.048039,42.64612,549.82],[-2.048005,42.646161,548.508],[-2.047992,42.646211,547.684],[-2.04798,42.646261,547.053],[-2.047956,42.64631,546.694],[-2.047919,42.646358,546.136],[-2.047901,42.646406,545.487],[-2.047879,42.646455,544.882],[-2.04785,42.646533,545.462],[-2.047839,42.646587,545.917],[-2.047823,42.646635,546.365],[-2.047816,42.646683,546.668],[-2.047817,42.646732,546.814],[-2.047823,42.646787,547.108],[-2.04782,42.646832,547.621],[-2.047814,42.646884,547.76],[-2.047806,42.646935,547.451],[-2.047808,42.646984,547.133],[-2.047802,42.647034,546.854],[-2.047797,42.647096,546.219],[-2.047792,42.647151,545.759],[-2.047787,42.647204,545.494],[-2.047783,42.647254,544.682],[-2.047781,42.647316,544.043],[-2.047774,42.647381,543.517],[-2.047763,42.647428,543.308],[-2.047745,42.647477,543.043],[-2.04771,42.647518,542.662],[-2.04768,42.647564,542.143],[-2.047679,42.647611,541.515],[-2.04767,42.64766,540.746],[-2.04765,42.647712,540.271],[-2.047629,42.647758,539.991],[-2.047595,42.647811,539.386],[-2.047528,42.647888,539.398],[-2.047493,42.647931,539.315],[-2.047454,42.647982,539.126],[-2.047442,42.648029,538.808],[-2.047414,42.648071,538.534],[-2.047355,42.648098,537.523],[-2.04731,42.648135,536.924],[-2.047282,42.648185,536.226],[-2.04724,42.648232,535.147],[-2.0472,42.648271,533.922],[-2.047148,42.648311,533.192],[-2.047099,42.648347,532.467],[-2.047037,42.648386,531.936],[-2.047007,42.648426,532.017],[-2.04698,42.648468,532.318],[-2.046934,42.648499,532.608],[-2.046881,42.648529,532.748],[-2.046835,42.648558,532.777],[-2.046783,42.648595,532.768],[-2.046728,42.648632,532.63],[-2.046665,42.648676,532.551],[-2.046595,42.648724,532.326],[-2.046541,42.648766,531.856],[-2.046492,42.648797,530.881],[-2.046424,42.648811,529.473],[-2.046356,42.648819,528.485],[-2.046328,42.64886,527.613],[-2.046287,42.648902,527.508],[-2.046248,42.648939,527.442],[-2.046201,42.648977,527.111],[-2.046138,42.649009,526.692],[-2.046054,42.649043,526.154],[-2.045997,42.649076,525.745],[-2.045933,42.649071,525.18],[-2.045868,42.649079,524.49],[-2.045809,42.649114,523.985],[-2.045751,42.649144,523.691],[-2.045693,42.649184,523.881],[-2.045644,42.649228,524.119],[-2.045606,42.649278,524.608],[-2.04558,42.64932,525.054],[-2.045544,42.649372,525.453],[-2.045497,42.649405,525.574],[-2.045436,42.649429,525.496],[-2.045381,42.649449,525.597],[-2.04533,42.649481,525.512],[-2.045276,42.649515,525.692],[-2.045219,42.64955,525.727],[-2.04516,42.649594,525.522],[-2.045119,42.649636,525.262],[-2.045076,42.649676,524.608],[-2.045022,42.649701,523.808],[-2.044963,42.649723,522.957],[-2.044904,42.649746,522.426],[-2.044847,42.64978,522.567],[-2.044807,42.649821,523.039],[-2.044762,42.649878,523.44],[-2.044723,42.649934,523.885],[-2.044682,42.64997,524.195],[-2.044639,42.650009,524.47],[-2.044593,42.650039,525.149],[-2.044534,42.650019,524.602],[-2.044464,42.65001,524.022],[-2.044399,42.650009,523.708],[-2.044337,42.650009,523.149],[-2.044272,42.650006,522.048]]}}]}