{"type":"FeatureCollection","features":[{"type":"Feature","properties":{"ruta_id":"54894267","nombre":"⛰️ JARINDO y ALBERTIA desde EMBALSE de ALBINA ruta circular","blog_url":"https://www.rutasporelmonte.com/jarindo-desde-embalse-de-albina-ruta-circular/"},"geometry":{"type":"LineString","coordinates":[[-2.629517,42.991999,617.443],[-2.629461,42.991961,617.464],[-2.629461,42.991961,617.41],[-2.629431,42.991921,617.408],[-2.62937,42.991914,617.499],[-2.629305,42.991913,617.428],[-2.629241,42.991924,617.432],[-2.629173,42.991925,617.453],[-2.629121,42.991955,617.498],[-2.629058,42.991968,617.466],[-2.628995,42.991965,617.47],[-2.62893,42.99197,617.461],[-2.628893,42.992015,617.446],[-2.62883,42.992032,617.488],[-2.628769,42.992047,617.416],[-2.628708,42.992065,618.808],[-2.628646,42.992076,620.099],[-2.628581,42.9921,621.428],[-2.628505,42.992129,622.842],[-2.62845,42.99216,624.183],[-2.628394,42.992183,625.368],[-2.628347,42.992214,626.026],[-2.628313,42.992253,626.75],[-2.628277,42.992292,627.211],[-2.628247,42.992338,627.748],[-2.628234,42.992382,628.861],[-2.628204,42.992427,630.017],[-2.62817,42.992472,631.008],[-2.628132,42.99251,631.719],[-2.628087,42.992551,631.978],[-2.628048,42.992589,632.562],[-2.62801,42.992626,633.483],[-2.627993,42.992673,634.478],[-2.627983,42.992719,635.566],[-2.627945,42.99276,636.62],[-2.627911,42.992801,637.471],[-2.62788,42.992843,638.077],[-2.627829,42.992871,638.261],[-2.627778,42.992896,638.027],[-2.627758,42.992946,637.708],[-2.627775,42.993002,637.882],[-2.627785,42.993058,638.361],[-2.627758,42.993102,638.735],[-2.627706,42.993146,638.826],[-2.62765,42.993166,638.661],[-2.627593,42.993187,638.189],[-2.627553,42.993223,637.513],[-2.62751,42.993256,637.214],[-2.627468,42.993303,637.232],[-2.627429,42.993353,637.192],[-2.627397,42.993392,637.111],[-2.627357,42.993431,637.108],[-2.627306,42.993464,637.098],[-2.627256,42.993496,636.537],[-2.627217,42.993532,635.861],[-2.627202,42.993578,635.152],[-2.627152,42.993608,634.537],[-2.627085,42.99362,634.035],[-2.627008,42.993621,633.539],[-2.626949,42.993633,632.86],[-2.626873,42.993645,632.537],[-2.626811,42.993652,632.549],[-2.626742,42.993661,632.213],[-2.62669,42.993687,632.408],[-2.626675,42.993732,633.238],[-2.626606,42.993755,634.047],[-2.626523,42.993757,634.781],[-2.626461,42.993752,635.382],[-2.626396,42.993744,635.927],[-2.626327,42.993728,636.595],[-2.626262,42.993729,637.039],[-2.626205,42.993704,637.34],[-2.626137,42.993673,637.412],[-2.62607,42.993643,637.432],[-2.626008,42.993626,636.605],[-2.625948,42.993609,636.108],[-2.625882,42.993592,635.676],[-2.625813,42.993576,635.275],[-2.625749,42.993559,634.939],[-2.625681,42.993557,634.68],[-2.62561,42.99356,634.115],[-2.625543,42.993566,633.683],[-2.625469,42.993573,633.077],[-2.625403,42.993577,632.368],[-2.625335,42.993563,631.662],[-2.625271,42.993548,631.183],[-2.625198,42.993546,630.511],[-2.625125,42.993549,629.908],[-2.625062,42.993559,629.361],[-2.625,42.993577,628.95],[-2.624933,42.993588,628.694],[-2.624861,42.993607,628.255],[-2.624795,42.993621,627.78],[-2.624737,42.993636,627.358],[-2.624672,42.993656,626.862],[-2.624597,42.993679,626.273],[-2.624532,42.993699,625.792],[-2.624475,42.993722,625.273],[-2.624414,42.993743,624.52],[-2.624355,42.993763,623.908],[-2.624299,42.993788,623.534],[-2.624224,42.993823,622.933],[-2.624157,42.993846,622.227],[-2.62409,42.993856,621.458],[-2.624024,42.993862,620.453],[-2.623956,42.993864,619.651],[-2.623891,42.99386,619.045],[-2.623816,42.993843,618.816],[-2.623741,42.993825,618.722],[-2.62367,42.99382,618.562],[-2.623609,42.993807,618.308],[-2.623544,42.993787,617.808],[-2.623487,42.993768,617.317],[-2.623418,42.993749,617.126],[-2.623363,42.993726,616.84],[-2.623299,42.993698,616.641],[-2.62324,42.993676,616.886],[-2.623178,42.993651,617.484],[-2.623111,42.993618,618.178],[-2.623053,42.993596,618.969],[-2.622996,42.99357,619.538],[-2.622927,42.993549,619.97],[-2.622878,42.993522,619.817],[-2.622828,42.993491,619.408],[-2.622773,42.993468,619.028],[-2.622711,42.993445,618.737],[-2.622645,42.993424,618.461],[-2.62257,42.993421,618.572],[-2.622511,42.993408,618.637],[-2.622447,42.993388,618.615],[-2.622399,42.99336,618.929],[-2.622344,42.99333,619.24],[-2.622292,42.993305,619.285],[-2.622226,42.993279,619.089],[-2.622167,42.99326,618.617],[-2.622107,42.993238,617.508],[-2.622043,42.993209,616.663],[-2.621988,42.993179,616.012],[-2.621914,42.993151,615.746],[-2.621842,42.993139,615.937],[-2.621786,42.993112,616.352],[-2.621735,42.993085,616.18],[-2.62168,42.993059,615.764],[-2.621624,42.99303,614.885],[-2.621549,42.993035,613.834],[-2.621484,42.993033,613.355],[-2.621403,42.993021,613.11],[-2.621342,42.993003,613.608],[-2.621281,42.992987,614.288],[-2.621217,42.992975,615.057],[-2.621155,42.992961,616.621],[-2.621095,42.992943,618.952],[-2.621035,42.992927,621.317],[-2.620975,42.992907,622.185],[-2.620908,42.992892,622.649],[-2.62084,42.992877,622.91],[-2.620768,42.992868,622.975],[-2.620689,42.992861,622.328],[-2.620615,42.992864,621.92],[-2.620554,42.992852,622.008],[-2.620496,42.992831,622.032],[-2.620437,42.992815,621.951],[-2.620375,42.992799,621.635],[-2.620319,42.992779,621.416],[-2.62025,42.992766,619.911],[-2.620181,42.992749,618.189],[-2.620119,42.992724,616.193],[-2.620056,42.992702,614.514],[-2.619988,42.992684,612.989],[-2.619919,42.99266,611.106],[-2.619857,42.992636,610.126],[-2.6198,42.992616,610.308],[-2.619739,42.992602,610.773],[-2.619675,42.992592,611.142],[-2.619613,42.992576,611.356],[-2.61954,42.992562,611.157],[-2.619477,42.99254,610.932],[-2.619402,42.992536,610.61],[-2.619352,42.992581,610.584],[-2.619289,42.992585,611.555],[-2.619232,42.992562,612.592],[-2.619293,42.992571,612.173],[-2.619321,42.992612,612.12],[-2.61936,42.99265,611.908],[-2.619417,42.992673,612.544],[-2.619466,42.992706,613.223],[-2.619526,42.992748,613.997],[-2.619589,42.992767,614.988],[-2.619645,42.992786,615.483],[-2.619714,42.99281,615.891],[-2.619769,42.992832,616.015],[-2.619825,42.992858,616.136],[-2.619877,42.992893,616.333],[-2.619916,42.992929,616.723],[-2.619961,42.992964,617.115],[-2.620007,42.992997,617.208],[-2.620058,42.993029,617.988],[-2.620111,42.99306,618.247],[-2.620152,42.993096,618.281],[-2.620213,42.993129,618.682],[-2.62028,42.993155,619.717],[-2.620327,42.993191,620.945],[-2.620365,42.993231,621.919],[-2.620404,42.99327,622.79],[-2.620444,42.99331,623.496],[-2.620433,42.993356,622.931],[-2.620465,42.993395,622.324],[-2.62048,42.99344,621.808],[-2.620464,42.993486,621.594],[-2.620418,42.993522,621.333],[-2.620375,42.993556,621.177],[-2.620339,42.993597,621.088],[-2.620324,42.993642,620.923],[-2.62031,42.993689,620.921],[-2.620314,42.993735,620.955],[-2.620314,42.993783,620.996],[-2.620323,42.993828,621.035],[-2.620318,42.993878,621.486],[-2.620277,42.993921,621.614],[-2.620231,42.993958,621.608],[-2.620185,42.993991,621.528],[-2.620143,42.99403,621.487],[-2.6201,42.994063,622.091],[-2.620072,42.994109,623.232],[-2.620102,42.994149,624.587],[-2.620134,42.994194,625.965],[-2.620173,42.994237,626.889],[-2.620221,42.994284,627.85],[-2.620254,42.99433,629.324],[-2.620282,42.994371,630.404],[-2.620314,42.994413,631.214],[-2.620337,42.994455,631.508],[-2.620352,42.9945,631.827],[-2.620382,42.994548,632.556],[-2.620388,42.9946,632.39],[-2.620413,42.994654,632.821],[-2.620417,42.994704,633.286],[-2.620444,42.994751,633.854],[-2.620461,42.994799,634.538],[-2.620474,42.994849,634.959],[-2.620493,42.994894,634.941],[-2.620534,42.994928,635.081],[-2.620568,42.994967,634.809],[-2.62058,42.995018,634.608],[-2.620599,42.995068,634.349],[-2.620643,42.995109,635.548],[-2.620692,42.995143,637.052],[-2.620728,42.995185,637.873],[-2.620741,42.99523,637.938],[-2.620744,42.995276,637.986],[-2.620742,42.995322,637.62],[-2.620701,42.995357,637.091],[-2.620686,42.995409,636.651],[-2.620694,42.995458,636.701],[-2.620703,42.995506,637.111],[-2.620708,42.995555,638.208],[-2.620708,42.995601,639.43],[-2.620686,42.995646,640.539],[-2.620651,42.995685,641.953],[-2.620601,42.995726,643.444],[-2.620533,42.995728,644.879],[-2.620473,42.99571,646.167],[-2.620413,42.995688,647.421],[-2.620347,42.995676,648.852],[-2.620295,42.995643,649.942],[-2.620235,42.995622,650.422],[-2.620177,42.995596,650.814],[-2.620122,42.99557,651.108],[-2.620067,42.995549,651.729],[-2.620002,42.995539,652.128],[-2.619941,42.995532,652.652],[-2.619878,42.995517,653.293],[-2.619828,42.995491,654.178],[-2.619769,42.995468,654.976],[-2.619697,42.995439,655.54],[-2.619641,42.995414,656.431],[-2.619582,42.995435,657.487],[-2.61952,42.995427,658.842],[-2.61946,42.995415,660.026],[-2.6194,42.995392,661.108],[-2.619331,42.99538,662.023],[-2.619265,42.995367,662.442],[-2.619206,42.995344,662.556],[-2.619139,42.995334,662.487],[-2.619076,42.995327,662.242],[-2.619019,42.995303,662.81],[-2.618954,42.995287,663.614],[-2.618885,42.995266,664.025],[-2.618838,42.995236,664.027],[-2.618772,42.995229,664.368],[-2.618705,42.995228,664.814],[-2.618645,42.995211,665.108],[-2.618586,42.995187,665.667],[-2.618522,42.995165,666.136],[-2.618455,42.995163,666.78],[-2.618394,42.995152,667.851],[-2.618329,42.995134,669.016],[-2.618268,42.995111,670.184],[-2.618207,42.995092,671.468],[-2.618137,42.995092,672.649],[-2.618071,42.995104,673.546],[-2.618018,42.995128,674.288],[-2.617978,42.995163,674.616],[-2.617962,42.995209,675.008],[-2.617949,42.995259,675.689],[-2.61796,42.995306,676.368],[-2.61791,42.995336,678.352],[-2.617905,42.995385,679.983],[-2.617935,42.995425,680.798],[-2.617913,42.995472,681.466],[-2.617911,42.995523,682.19],[-2.617885,42.995568,682.811],[-2.617869,42.995619,683.712],[-2.617833,42.995665,684.632],[-2.617805,42.995715,685.305],[-2.617762,42.995771,685.908],[-2.617733,42.99582,685.986],[-2.617724,42.995867,685.635],[-2.617696,42.995907,685.339],[-2.617662,42.995949,685.82],[-2.617629,42.995993,686.645],[-2.617615,42.996043,687.363],[-2.617584,42.996087,688.057],[-2.617529,42.996109,689.038],[-2.61746,42.996102,690.442],[-2.617403,42.996082,691.722],[-2.617346,42.996061,692.614],[-2.617298,42.996031,693.208],[-2.617264,42.995988,693.739],[-2.617236,42.995938,694.148],[-2.617199,42.995892,694.532],[-2.617156,42.995853,694.813],[-2.617106,42.995823,695.158],[-2.617042,42.995807,695.316],[-2.61699,42.995778,695.25],[-2.616937,42.995745,695.231],[-2.616874,42.995724,695.298],[-2.616813,42.995697,695.715],[-2.616768,42.995661,696.326],[-2.61674,42.995616,696.908],[-2.616678,42.995604,697.234],[-2.616609,42.995596,697.513],[-2.616548,42.995579,697.947],[-2.616488,42.995556,698.458],[-2.61643,42.995532,699.013],[-2.616364,42.995509,699.791],[-2.616313,42.99548,700.475],[-2.616264,42.995449,700.746],[-2.616202,42.995419,700.842],[-2.61614,42.995395,700.822],[-2.616088,42.995368,700.814],[-2.616034,42.995339,700.908],[-2.61599,42.995306,701.289],[-2.615928,42.99531,701.718],[-2.615867,42.995289,702.532],[-2.6158,42.995285,702.853],[-2.615731,42.995289,702.848],[-2.615666,42.995275,702.726],[-2.615596,42.995255,702.64],[-2.615514,42.995251,702.641],[-2.615453,42.995243,702.786],[-2.615389,42.995237,703.06],[-2.615329,42.995226,703.626],[-2.615261,42.995211,704.308],[-2.615201,42.995191,705.163],[-2.615142,42.995173,706.032],[-2.615083,42.995155,706.946],[-2.61502,42.995131,708.047],[-2.614962,42.995112,708.932],[-2.614912,42.995082,710.05],[-2.614848,42.995063,711.194],[-2.6148,42.995035,712.635],[-2.614738,42.995022,714.815],[-2.614672,42.995011,716.965],[-2.614623,42.994983,719.211],[-2.614565,42.994957,721.008],[-2.614503,42.994949,722.426],[-2.614439,42.994936,723.775],[-2.614387,42.994905,724.649],[-2.614331,42.994883,725.27],[-2.614271,42.994859,725.565],[-2.614208,42.994842,726.013],[-2.614144,42.994846,726.597],[-2.614073,42.994849,727.428],[-2.614009,42.994852,728.283],[-2.613938,42.994853,728.725],[-2.613874,42.994835,729.217],[-2.613812,42.99482,729.608],[-2.61375,42.994814,730.043],[-2.613674,42.994818,730.642],[-2.613606,42.994825,731.436],[-2.613543,42.99483,732.147],[-2.613477,42.994843,732.882],[-2.613409,42.99485,734.07],[-2.613353,42.994876,735.014],[-2.613298,42.9949,735.875],[-2.613264,42.99494,736.644],[-2.613261,42.994988,737.505],[-2.613287,42.99503,738.415],[-2.613319,42.995081,739.408],[-2.613342,42.995123,740.419],[-2.613358,42.995167,741.698],[-2.613368,42.995213,742.952],[-2.613366,42.99526,744.143],[-2.613366,42.995308,745.258],[-2.613359,42.995359,746.446],[-2.61336,42.995411,746.82],[-2.613358,42.995461,746.731],[-2.613349,42.995506,746.454],[-2.613346,42.995555,746.056],[-2.613351,42.9956,745.911],[-2.613347,42.995653,746.508],[-2.613329,42.995708,747.74],[-2.613312,42.995752,749.299],[-2.613284,42.995797,750.743],[-2.613269,42.995841,752.054],[-2.613255,42.995898,753.979],[-2.613246,42.995946,755.227],[-2.613233,42.99599,756.381],[-2.613213,42.996033,756.722],[-2.61319,42.99608,757.256],[-2.613181,42.996125,757.659],[-2.613169,42.99617,758.114],[-2.613138,42.996214,758.208],[-2.613123,42.996259,758.88],[-2.613113,42.996316,759.769],[-2.613116,42.996364,760.573],[-2.613111,42.996413,761.174],[-2.613105,42.996461,761.939],[-2.613102,42.996509,762.777],[-2.613075,42.996562,763.871],[-2.613059,42.996608,765.182],[-2.613032,42.996653,766.246],[-2.613012,42.996697,767.088],[-2.612962,42.996739,767.216],[-2.612928,42.996782,767.108],[-2.612897,42.996822,766.939],[-2.612863,42.996863,767.048],[-2.612831,42.996903,767.482],[-2.612788,42.996943,767.853],[-2.612742,42.996992,768.248],[-2.612701,42.997026,768.726],[-2.612652,42.997056,769.29],[-2.6126,42.997086,770.091],[-2.612545,42.997117,770.663],[-2.61248,42.997128,771.244],[-2.612408,42.997156,772.018],[-2.612343,42.997161,772.908],[-2.612277,42.997154,773.811],[-2.612212,42.997136,774.63],[-2.612152,42.997121,775.164],[-2.612083,42.997114,775.965],[-2.612021,42.997106,776.76],[-2.611958,42.997102,777.328],[-2.611896,42.997083,777.932],[-2.611843,42.99706,778.573],[-2.611782,42.997043,779.244],[-2.611739,42.997006,779.805],[-2.611669,42.996989,780.015],[-2.611607,42.996994,780.208],[-2.61155,42.996973,780.729],[-2.611493,42.996954,781.118],[-2.611428,42.996936,781.422],[-2.611357,42.996935,781.733],[-2.611295,42.996935,782.048],[-2.611223,42.996943,782.416],[-2.61116,42.996955,783.07],[-2.611103,42.996975,783.511],[-2.61106,42.997011,784.111],[-2.611001,42.997032,784.521],[-2.61095,42.997061,784.903],[-2.610891,42.997087,785.408],[-2.610836,42.997108,786.266],[-2.610767,42.997104,787.185],[-2.610705,42.997102,788.049],[-2.61064,42.997097,788.84],[-2.61057,42.9971,789.985],[-2.610508,42.997123,791.043],[-2.610453,42.997151,792.227],[-2.610388,42.997163,793.568],[-2.610348,42.997204,794.786],[-2.610293,42.997236,795.76],[-2.610241,42.997264,796.526],[-2.610179,42.997271,797.208],[-2.610112,42.997275,797.913],[-2.610049,42.997265,798.712],[-2.609977,42.997245,799.496],[-2.609912,42.997228,799.967],[-2.609866,42.997196,800.252],[-2.609796,42.99717,800.57],[-2.609728,42.997149,800.674],[-2.609663,42.997135,800.915],[-2.609578,42.997125,801.054],[-2.609521,42.997108,801.056],[-2.609464,42.997083,801.111],[-2.609396,42.997069,801.208],[-2.609324,42.997065,801.16],[-2.609252,42.997069,800.799],[-2.609193,42.997086,800.253],[-2.609122,42.997081,799.574],[-2.609172,42.997051,799.659],[-2.609108,42.997058,799.637],[-2.609043,42.997074,799.881],[-2.608971,42.997076,800.322],[-2.608912,42.997092,800.735],[-2.608851,42.997113,801.186],[-2.608786,42.997103,801.814],[-2.608719,42.997109,802.908],[-2.608661,42.997124,804.248],[-2.608636,42.997166,805.767],[-2.608586,42.997193,807.021],[-2.608527,42.997213,808.232],[-2.608463,42.997214,809.087],[-2.6084,42.997221,809.835],[-2.608402,42.997268,810.749],[-2.608359,42.997305,811.51],[-2.608307,42.997339,812.766],[-2.608263,42.997375,813.829],[-2.608212,42.997403,815.421],[-2.608157,42.997429,816.508],[-2.6081,42.997451,817.571],[-2.608046,42.997485,818.41],[-2.607986,42.997501,819.454],[-2.607908,42.997491,820.985],[-2.607845,42.997491,822.51],[-2.607785,42.997472,824.248],[-2.60772,42.99745,825.762],[-2.607656,42.99743,827.063],[-2.607588,42.997412,828.377],[-2.607524,42.997412,830.061],[-2.607459,42.997401,831.827],[-2.6074,42.997375,833.808],[-2.607346,42.997348,836.142],[-2.60728,42.99735,838.131],[-2.60722,42.997365,840.035],[-2.607155,42.997377,841.756],[-2.607091,42.997374,843.161],[-2.607027,42.997364,844.679],[-2.606972,42.997385,846.463],[-2.606921,42.997354,847.634],[-2.606856,42.997352,848.664],[-2.606804,42.997382,849.306],[-2.606742,42.997409,849.816],[-2.606686,42.997433,850.608],[-2.60663,42.997461,851.321],[-2.606582,42.99749,852.12],[-2.606528,42.997528,853.294],[-2.606472,42.997557,854.425],[-2.606426,42.997588,855.61],[-2.606371,42.997608,856.718],[-2.606314,42.997643,858.042],[-2.606259,42.997666,859.243],[-2.606206,42.997693,860.399],[-2.606144,42.997713,861.407],[-2.606088,42.997735,863.027],[-2.606025,42.99775,864.608],[-2.605966,42.997763,866.344],[-2.605896,42.997762,867.273],[-2.605869,42.997804,868.517],[-2.605898,42.997849,870.348],[-2.605949,42.997883,871.923],[-2.605995,42.997913,873.151],[-2.606037,42.997958,874.175],[-2.606043,42.998011,874.756],[-2.606036,42.998056,875.225],[-2.606008,42.998098,875.726],[-2.605985,42.998143,876.108],[-2.605959,42.998188,876.508],[-2.605923,42.998226,877.287],[-2.605885,42.998264,878.216],[-2.605823,42.998276,879.54],[-2.605885,42.998274,881.931],[-2.605843,42.998308,882.656],[-2.605803,42.998268,882.884],[-2.605758,42.998233,882.588],[-2.605706,42.998197,882.289],[-2.605661,42.998165,882.019],[-2.605599,42.998129,882.109],[-2.605541,42.998099,882.419],[-2.605497,42.998064,882.708],[-2.605447,42.998031,883.086],[-2.605395,42.998003,883.445],[-2.605406,42.997958,883.579],[-2.605349,42.997941,884.45],[-2.605281,42.997926,884.375],[-2.605212,42.997896,883.643],[-2.60514,42.997858,883.277],[-2.60509,42.997823,883.068],[-2.605019,42.997803,882.695],[-2.604958,42.997781,882.449],[-2.604901,42.997753,882.223],[-2.604849,42.997719,881.408],[-2.604779,42.997687,881.084],[-2.604718,42.997675,880.743],[-2.604665,42.99765,880.117],[-2.604646,42.997597,879.798],[-2.604616,42.997557,879.623],[-2.604561,42.997533,879.981],[-2.604496,42.997515,880.175],[-2.604467,42.997467,880.186],[-2.604408,42.997446,879.238],[-2.604423,42.9974,878.57],[-2.604445,42.997356,877.617],[-2.604489,42.997322,876.608],[-2.604518,42.997277,875.428],[-2.604544,42.997225,874.627],[-2.604556,42.997178,873.571],[-2.60457,42.997132,872.122],[-2.604595,42.997086,870.897],[-2.60463,42.997044,869.475],[-2.604628,42.996995,867.979],[-2.604658,42.996954,866.82],[-2.604706,42.996907,864.831],[-2.604717,42.996842,862.561],[-2.604757,42.996799,859.907],[-2.604778,42.996752,857.608],[-2.604783,42.996703,855.848],[-2.604843,42.996683,853.727],[-2.604905,42.996668,852.861],[-2.604926,42.996625,852.672],[-2.604952,42.99658,852.667],[-2.604948,42.996531,852.465],[-2.604949,42.996479,852.169],[-2.604975,42.996429,851.96],[-2.604998,42.996381,851.647],[-2.604999,42.996331,851.629],[-2.605017,42.996283,850.521],[-2.605057,42.996243,849.708],[-2.605093,42.996202,849.249],[-2.605107,42.996158,848.768],[-2.605144,42.996116,848.232],[-2.605172,42.996072,847.973],[-2.605196,42.99603,847.898],[-2.605229,42.995987,847.926],[-2.60525,42.995939,847.85],[-2.605273,42.995894,847.661],[-2.605306,42.995844,847.126],[-2.605329,42.995796,846.347],[-2.605344,42.995747,845.611],[-2.605351,42.9957,845.008],[-2.605346,42.995655,843.957],[-2.605351,42.9956,842.836],[-2.605334,42.995546,841.81],[-2.605328,42.9955,840.911],[-2.605308,42.995452,840.056],[-2.60528,42.995402,839.264],[-2.60526,42.995355,838.538],[-2.605229,42.995314,838.379],[-2.605202,42.995273,838.288],[-2.605169,42.995228,837.724],[-2.605125,42.995186,836.526],[-2.605083,42.995144,836.008],[-2.605032,42.995117,836.783],[-2.604987,42.995086,837.242],[-2.604961,42.995038,837.226],[-2.604959,42.994988,836.887],[-2.604929,42.994944,836.382],[-2.604889,42.9949,835.65],[-2.604862,42.994854,834.914],[-2.604835,42.994803,834.685],[-2.604808,42.994744,834.456],[-2.604787,42.99469,835.559],[-2.604784,42.994636,836.914],[-2.60478,42.994582,838.208],[-2.604757,42.994536,839.86],[-2.60474,42.994488,841.179],[-2.604728,42.994442,842.233],[-2.604708,42.994396,843.254],[-2.604691,42.994349,844.319],[-2.60468,42.994298,845.187],[-2.604665,42.994254,845.651],[-2.604638,42.994202,846.122],[-2.604602,42.994166,845.838],[-2.604564,42.994122,845.07],[-2.604556,42.994065,844.617],[-2.604553,42.994015,844.808],[-2.604532,42.993954,844.858],[-2.604489,42.993907,844.747],[-2.604456,42.993867,845.011],[-2.604424,42.993826,845.882],[-2.604393,42.993783,846.747],[-2.604367,42.993732,847.735],[-2.604349,42.993669,848.539],[-2.604357,42.993619,848.95],[-2.604357,42.993569,848.998],[-2.604338,42.993519,848.715],[-2.604311,42.993472,848.226],[-2.604269,42.993438,847.508],[-2.60424,42.993391,846.814],[-2.604219,42.993347,846.413],[-2.604207,42.993298,845.767],[-2.604196,42.993252,844.738],[-2.604191,42.993203,843.073],[-2.604193,42.993158,841.051],[-2.604208,42.993114,838.695],[-2.604201,42.993069,837.726],[-2.604193,42.993024,837.441],[-2.604176,42.992978,837.481],[-2.604154,42.992933,837.709],[-2.604137,42.992886,837.908],[-2.604117,42.992839,838.129],[-2.604091,42.992786,838.428],[-2.604091,42.992737,838.852],[-2.604065,42.992693,839.013],[-2.604029,42.992649,839.258],[-2.60401,42.992604,839.336],[-2.604003,42.992554,839.43],[-2.603974,42.99251,839.661],[-2.603936,42.992474,839.899],[-2.603917,42.99243,840.107],[-2.603914,42.992384,840.527],[-2.603907,42.992339,840.908],[-2.603895,42.992292,841.154],[-2.603857,42.992249,841.373],[-2.603833,42.992203,841.417],[-2.603801,42.992154,841.318],[-2.603783,42.99211,840.723],[-2.603755,42.99206,840.211],[-2.603719,42.992012,839.615],[-2.603675,42.991959,838.996],[-2.60363,42.991916,838.099],[-2.603581,42.991886,837.407],[-2.60351,42.991862,837.127],[-2.60346,42.991818,836.608],[-2.603398,42.9918,835.694],[-2.603337,42.991785,835.083],[-2.6033,42.991748,834.967],[-2.603256,42.991711,835.238],[-2.603207,42.991676,835.883],[-2.603152,42.99165,836.681],[-2.60309,42.991629,837.415],[-2.60303,42.991607,838.156],[-2.602965,42.991582,838.922],[-2.602908,42.991556,839.862],[-2.602858,42.991529,840.508],[-2.602801,42.9915,841.208],[-2.602741,42.991467,841.747],[-2.602686,42.991439,842.186],[-2.602625,42.991417,842.67],[-2.602567,42.991388,843.261],[-2.602514,42.991364,843.426],[-2.602454,42.991343,843.224],[-2.602395,42.991323,842.858],[-2.602331,42.991306,842.529],[-2.602283,42.991277,841.947],[-2.602235,42.991244,841.329],[-2.602186,42.991216,841.121],[-2.602129,42.991193,841.308],[-2.602071,42.991168,842.159],[-2.602013,42.991133,844.788],[-2.601953,42.991103,847.552],[-2.601883,42.991077,850.473],[-2.60182,42.991056,852.458],[-2.601766,42.991032,852.926],[-2.60171,42.991007,853.28],[-2.601634,42.990976,852.941],[-2.601584,42.990947,853.236],[-2.601527,42.990922,853.817],[-2.60145,42.990908,853.818],[-2.601392,42.990886,853.108],[-2.601346,42.990853,852.348],[-2.60129,42.990824,851.497],[-2.601235,42.990795,850.851],[-2.601164,42.990767,850.582],[-2.601092,42.990734,848.797],[-2.601043,42.990705,846.825],[-2.600992,42.990673,843.969],[-2.600924,42.99066,841.33],[-2.600862,42.990666,839.653],[-2.6008,42.990641,838.704],[-2.600755,42.990598,838.514],[-2.600712,42.990561,838.408],[-2.60066,42.990533,838.48],[-2.600606,42.990503,838.579],[-2.600555,42.990471,838.383],[-2.600503,42.990446,838.124],[-2.60044,42.990418,837.839],[-2.60039,42.990391,837.537],[-2.600334,42.990366,837.241],[-2.600281,42.990343,837.022],[-2.600214,42.990315,836.899],[-2.600159,42.990294,836.507],[-2.6001,42.990273,836.427],[-2.600038,42.99025,836.608],[-2.599972,42.990227,836.894],[-2.599922,42.990198,836.533],[-2.599867,42.990177,835.867],[-2.599811,42.99015,835.018],[-2.599757,42.990123,834.043],[-2.599691,42.990095,833.581],[-2.59963,42.990066,833.065],[-2.599578,42.990037,832.496],[-2.599518,42.990011,832.023],[-2.599462,42.989986,831.483],[-2.599406,42.989963,830.711],[-2.599351,42.989935,830.108],[-2.599302,42.989907,829.587],[-2.599247,42.989883,828.976],[-2.599185,42.989866,828.58],[-2.599124,42.989843,828.521],[-2.599062,42.989812,828.536],[-2.599007,42.989791,828.684],[-2.598942,42.989779,828.668],[-2.598926,42.989733,828.719],[-2.598882,42.989695,828.774],[-2.598829,42.989669,828.656],[-2.598778,42.989628,828.121],[-2.598753,42.989584,827.708],[-2.598718,42.989541,827.172],[-2.598676,42.989504,826.781],[-2.598613,42.989496,826.435],[-2.598553,42.989462,826.126],[-2.598512,42.989423,825.761],[-2.59847,42.989363,825.159],[-2.598441,42.989319,824.673],[-2.598419,42.989275,824.154],[-2.598395,42.989228,823.669],[-2.598335,42.989218,822.704],[-2.598279,42.989179,822.324],[-2.598237,42.989142,822.408],[-2.598202,42.989095,823.621],[-2.598173,42.989046,824.56],[-2.598142,42.989005,825.374],[-2.598095,42.988972,826.375],[-2.598056,42.988936,827.09],[-2.598005,42.988889,827.558],[-2.597958,42.988858,827.732],[-2.597909,42.988816,827.513],[-2.597873,42.988773,826.886],[-2.597838,42.988734,826.16],[-2.59778,42.988751,824.326],[-2.59773,42.988714,822.708],[-2.597699,42.988674,821.653],[-2.597644,42.988641,820.522],[-2.597592,42.988613,819.226],[-2.59754,42.988584,818.367],[-2.597524,42.988541,818.112],[-2.597481,42.988508,818.36],[-2.597428,42.98848,818.664],[-2.59737,42.988451,818.635],[-2.597307,42.988436,818.619],[-2.597244,42.988431,818.709],[-2.597175,42.98843,819.019],[-2.597118,42.988412,819.108],[-2.597061,42.988393,819.686],[-2.597024,42.988357,820.595],[-2.597028,42.988306,820.989],[-2.597034,42.988254,820.88],[-2.597075,42.988202,821.445],[-2.597114,42.988163,822.833],[-2.597158,42.988127,823.917],[-2.597188,42.988085,824.848],[-2.597232,42.988051,825.414],[-2.597275,42.988017,825.854],[-2.597322,42.987973,826.109],[-2.597375,42.987936,826.308],[-2.597421,42.987902,826.516],[-2.597463,42.987863,826.465],[-2.597512,42.987833,826.239],[-2.597569,42.987808,826.09],[-2.597638,42.987804,825.755],[-2.597705,42.987793,825.753],[-2.59777,42.987801,824.357],[-2.597828,42.98783,822.728],[-2.597905,42.987834,821.871],[-2.597971,42.987834,821.641],[-2.598037,42.987816,821.715],[-2.59812,42.98782,821.708],[-2.598184,42.987805,821.922],[-2.598254,42.987792,821.891],[-2.598326,42.987803,821.155],[-2.598382,42.987822,820.276],[-2.598466,42.987837,819.321],[-2.598533,42.987839,818.529],[-2.598602,42.987852,817.643],[-2.598668,42.987862,816.764],[-2.598735,42.98787,815.725],[-2.598794,42.9879,814.826],[-2.598868,42.987913,813.208],[-2.598929,42.987893,811.508],[-2.598987,42.987867,809.947],[-2.599055,42.987859,808.716],[-2.599138,42.987863,807.65],[-2.5992,42.98787,806.831],[-2.599291,42.987884,806.046],[-2.599359,42.987887,805.354],[-2.599425,42.987873,804.678],[-2.599496,42.987858,804.649],[-2.599555,42.98784,805.163],[-2.599621,42.987812,805.644],[-2.599675,42.987787,805.818],[-2.599739,42.987767,805.408],[-2.599821,42.987751,804.091],[-2.599886,42.987732,802.13],[-2.599947,42.987714,800.154],[-2.600012,42.98771,798.275],[-2.600073,42.987702,796.57],[-2.600134,42.987685,795.388],[-2.600191,42.987658,794.462],[-2.600244,42.987626,793.643],[-2.600314,42.987598,792.393],[-2.600378,42.987576,791.265],[-2.600444,42.98756,790.221],[-2.600501,42.98753,789.608],[-2.600548,42.9875,789.254],[-2.600584,42.987461,788.263],[-2.60062,42.987424,787.047],[-2.60066,42.987384,785.838],[-2.600707,42.987342,784.773],[-2.600749,42.987305,783.611],[-2.600784,42.987264,782.475],[-2.600829,42.987225,781.046],[-2.600877,42.987189,779.925],[-2.600927,42.987146,778.926],[-2.600974,42.987108,778.008],[-2.601015,42.987056,777.308],[-2.601037,42.987013,776.727],[-2.601103,42.987008,776.216],[-2.601159,42.986978,776.31],[-2.601214,42.986953,776.421],[-2.601252,42.986917,776.846],[-2.601261,42.986871,776.484],[-2.601316,42.986846,775.668],[-2.601377,42.986824,774.949],[-2.601428,42.98679,774.098],[-2.601463,42.986752,772.815],[-2.601523,42.986721,771.926],[-2.601582,42.986708,770.908],[-2.601645,42.986694,770.294],[-2.601698,42.986665,769.673],[-2.601746,42.986634,769.447],[-2.601809,42.986621,769.058],[-2.601878,42.986617,767.973],[-2.601945,42.986604,766.751],[-2.602014,42.986597,764.525],[-2.602075,42.986577,762.956],[-2.602143,42.98656,761.593],[-2.602205,42.986551,760.065],[-2.602276,42.986565,758.721],[-2.602345,42.986574,757.508],[-2.602409,42.986585,756.514],[-2.602472,42.986606,755.513],[-2.602535,42.986619,754.787],[-2.602596,42.986633,754.348],[-2.602672,42.986641,754.233],[-2.602738,42.986653,753.581],[-2.602806,42.986663,751.825],[-2.602874,42.986664,749.886],[-2.602948,42.986654,748.319],[-2.603014,42.986644,746.809],[-2.603079,42.986635,745.919],[-2.603146,42.98662,745.208],[-2.603202,42.986597,744.456],[-2.60327,42.986563,744.175],[-2.603322,42.986528,743.869],[-2.603377,42.986505,743.19],[-2.60343,42.98648,742.345],[-2.603489,42.986458,741.473],[-2.603549,42.986442,740.137],[-2.603615,42.986432,738.628],[-2.603684,42.986425,737.027],[-2.603747,42.986432,735.868],[-2.60381,42.986427,734.714],[-2.603878,42.986415,733.608],[-2.603939,42.986411,732.887],[-2.604,42.9864,732.166],[-2.604065,42.98638,731.49],[-2.60413,42.986372,730.781],[-2.604182,42.986343,730.176],[-2.604225,42.986306,729.574],[-2.604284,42.986286,728.788],[-2.60433,42.986255,728.049],[-2.604413,42.986226,727.539],[-2.60447,42.986193,727.001],[-2.604533,42.986163,726.521],[-2.604589,42.98614,726.008],[-2.604642,42.986115,725.548],[-2.604706,42.986089,724.797],[-2.604706,42.986089,724.731],[-2.604708,42.986044,725.092],[-2.604741,42.986,725.657],[-2.604768,42.985955,726.895],[-2.604784,42.985911,727.879],[-2.604784,42.985866,728.84],[-2.604793,42.985815,729.473],[-2.604824,42.985773,730.185],[-2.604847,42.985722,731.013],[-2.604875,42.985682,731.608],[-2.604887,42.985634,731.642],[-2.604896,42.985582,731.461],[-2.604957,42.985549,730.935],[-2.605013,42.985519,730.276],[-2.605048,42.985479,729.471],[-2.605091,42.985442,728.699],[-2.605155,42.985441,726.853],[-2.605217,42.98545,726.054],[-2.605285,42.985439,725.953],[-2.605349,42.985435,726.104],[-2.605404,42.985408,725.914],[-2.605465,42.985399,726.008],[-2.605522,42.985424,726.01],[-2.60558,42.985447,725.969],[-2.605642,42.98546,725.423],[-2.60571,42.985475,724.634],[-2.605775,42.985476,723.729],[-2.605838,42.985476,722.897],[-2.605906,42.985458,722.511],[-2.605965,42.985443,722.442],[-2.606018,42.985416,722.665],[-2.606061,42.985384,722.968],[-2.60611,42.985349,723.214],[-2.606165,42.985318,723.208],[-2.606219,42.985292,723.331],[-2.606279,42.985283,723.46],[-2.606344,42.985297,723.634],[-2.606407,42.985306,724.035],[-2.606473,42.985287,724.78],[-2.606506,42.985248,725.558],[-2.60654,42.985196,726.432],[-2.60659,42.985162,727.393],[-2.606634,42.985124,728.249],[-2.606679,42.985092,728.902],[-2.606723,42.98506,729.522],[-2.606742,42.985012,730.008],[-2.606747,42.984963,730.159],[-2.606762,42.984915,729.978],[-2.606788,42.984868,729.852],[-2.606798,42.98482,730.013],[-2.606833,42.984782,730.658],[-2.60688,42.984811,731.056],[-2.606866,42.984764,731.19],[-2.606844,42.984718,731.191],[-2.606824,42.984672,731.364],[-2.606826,42.984623,731.506],[-2.606869,42.984586,731.816],[-2.606898,42.984543,732.008],[-2.606915,42.984495,732.261],[-2.606944,42.984442,732.65],[-2.606979,42.984392,733.194],[-2.606962,42.984346,733.295],[-2.606982,42.984293,733.24],[-2.607024,42.984254,732.998],[-2.607084,42.984225,732.552],[-2.607133,42.984187,732.923],[-2.60716,42.984141,733.418],[-2.60717,42.984095,733.998],[-2.607197,42.984053,735.017],[-2.607195,42.984006,735.908],[-2.607183,42.983957,736.986],[-2.607179,42.983909,738.545],[-2.607194,42.983859,741.239],[-2.607218,42.983814,743.64],[-2.607254,42.983776,745.515],[-2.607289,42.983735,746.943],[-2.607323,42.983695,748.177],[-2.607344,42.983647,749.398],[-2.607388,42.983606,750.674],[-2.607447,42.983573,752.056],[-2.607504,42.98355,753.021],[-2.607533,42.983506,754.008],[-2.607479,42.983474,754.912],[-2.607503,42.983425,755.941],[-2.607553,42.983398,756.555],[-2.607601,42.983368,756.876],[-2.607584,42.983324,756.481],[-2.607645,42.983288,756.129],[-2.607709,42.98327,756.033],[-2.607776,42.983254,756.044],[-2.60784,42.983231,756.664],[-2.607894,42.983199,757.506],[-2.607923,42.983154,758.616],[-2.60792,42.9831,759.308],[-2.607954,42.983056,759.541],[-2.608015,42.983036,759.57],[-2.608077,42.98305,758.784],[-2.608127,42.98302,758.035],[-2.608133,42.982971,757.58],[-2.608122,42.982924,757.198],[-2.608066,42.982904,756.672],[-2.608078,42.982856,756.073],[-2.60808,42.982807,755.328],[-2.608092,42.982762,754.589],[-2.608129,42.982721,753.717],[-2.608152,42.982675,753.008],[-2.608143,42.982627,752.377],[-2.608115,42.982582,752.166],[-2.60809,42.98254,752.05],[-2.608083,42.982494,752.031],[-2.608077,42.982442,751.576],[-2.608075,42.982394,751.394],[-2.608091,42.982343,751.298],[-2.608092,42.98229,751.389],[-2.608099,42.982243,751.452],[-2.608088,42.982197,751.653],[-2.608082,42.982152,751.708],[-2.608051,42.982111,751.808],[-2.608056,42.982056,752.57],[-2.608053,42.982009,753.149],[-2.608049,42.981964,753.683],[-2.608045,42.981913,754.194],[-2.608049,42.981861,754.619],[-2.608046,42.98181,754.947],[-2.608048,42.981757,755.481],[-2.608055,42.981707,756.052],[-2.608061,42.981659,756.886],[-2.60806,42.981612,758.06],[-2.608052,42.981567,759.126],[-2.608052,42.981516,760.008],[-2.608055,42.981464,761.063],[-2.608051,42.981418,761.942],[-2.608037,42.98137,762.756],[-2.608032,42.981318,763.647],[-2.608029,42.981269,764.612],[-2.608014,42.981222,765.37],[-2.607958,42.981185,765.774],[-2.60792,42.981139,765.885],[-2.607965,42.981099,766.035],[-2.607903,42.981113,766.286],[-2.607853,42.981081,765.814],[-2.607833,42.981034,765.308],[-2.607839,42.980986,764.458],[-2.607838,42.980941,763.627],[-2.607822,42.980883,763.671],[-2.607801,42.980837,764.072],[-2.607785,42.980789,764.747],[-2.607775,42.980744,765.615],[-2.607756,42.980696,766.829],[-2.607743,42.980652,767.88],[-2.607735,42.9806,768.896],[-2.60769,42.980557,770.131],[-2.607649,42.98051,771.024],[-2.607612,42.980472,771.908],[-2.607568,42.980422,772.784],[-2.607526,42.980385,773.533],[-2.60747,42.980349,774.157],[-2.60743,42.980303,774.568],[-2.607401,42.98026,774.963],[-2.607381,42.980213,775.551],[-2.607366,42.980162,776.165],[-2.607353,42.980113,776.526],[-2.60734,42.980066,776.822],[-2.607333,42.980014,777.262],[-2.607322,42.979969,777.608],[-2.607313,42.979921,777.908],[-2.607298,42.979869,778.557],[-2.607297,42.979819,779.046],[-2.607317,42.979773,779.57],[-2.60732,42.979723,779.941],[-2.607306,42.979679,780.216],[-2.607311,42.979626,780.414],[-2.607309,42.979577,780.618],[-2.607298,42.979528,780.769],[-2.607292,42.979477,780.896],[-2.607313,42.979434,780.931],[-2.607328,42.979389,781.024],[-2.607337,42.979337,780.808],[-2.607342,42.979285,780.474],[-2.607352,42.97924,779.833],[-2.607381,42.979191,778.537],[-2.607394,42.979145,777.098],[-2.607407,42.979093,775.173],[-2.60743,42.979048,772.911],[-2.607383,42.979013,771.165],[-2.607305,42.979002,770.026],[-2.607342,42.978961,768.012],[-2.607408,42.97896,766.532],[-2.607422,42.979008,763.605],[-2.607471,42.978978,762.808],[-2.607541,42.978989,762.536],[-2.607596,42.979011,762.355],[-2.607603,42.979057,762.359],[-2.607674,42.97908,761.82],[-2.607716,42.979113,761.615],[-2.607773,42.979132,761.823],[-2.607826,42.979158,762.047],[-2.607893,42.979192,762.968],[-2.607898,42.979253,763.118],[-2.607901,42.979299,763.298],[-2.607903,42.979347,763.417],[-2.607956,42.979376,763.508],[-2.608013,42.9794,764.096],[-2.608054,42.979437,764.415],[-2.608116,42.97946,767.979],[-2.608139,42.979503,770.42],[-2.608157,42.97955,772.565],[-2.608204,42.979592,774.243],[-2.608254,42.979627,775.587],[-2.608286,42.979671,776.568],[-2.608335,42.979717,777.284],[-2.608387,42.979749,777.607],[-2.60843,42.979783,777.917],[-2.608483,42.979815,778.208],[-2.608535,42.979841,778.753],[-2.608586,42.979866,779.472],[-2.608634,42.979899,780.026],[-2.608692,42.979924,780.587],[-2.608755,42.979926,780.642],[-2.608817,42.979954,781.15],[-2.608879,42.979969,781.674],[-2.608942,42.979987,782.095],[-2.609002,42.980026,782.543],[-2.609044,42.98006,782.964],[-2.609087,42.980094,783.21],[-2.609128,42.980132,783.608],[-2.609187,42.980154,784.159],[-2.609252,42.98017,785.098],[-2.609315,42.980184,785.792],[-2.609375,42.980194,786.243],[-2.609431,42.980216,786.798],[-2.609483,42.980241,787.546],[-2.60954,42.98026,788.71],[-2.609595,42.980288,789.781],[-2.60961,42.980334,790.796],[-2.609662,42.980361,791.631],[-2.60972,42.980385,792.524],[-2.609771,42.980416,793.908],[-2.609804,42.980458,795.134],[-2.609855,42.980488,796.283],[-2.60991,42.980512,797.157],[-2.609973,42.980526,798.048],[-2.610024,42.980554,799.023],[-2.610086,42.980555,800.061],[-2.610146,42.980538,801.065],[-2.610208,42.980541,801.896],[-2.610276,42.980559,802.535],[-2.610331,42.980584,803.086],[-2.610387,42.980608,803.414],[-2.610443,42.98063,803.708],[-2.610493,42.980666,804.088],[-2.610555,42.980675,804.337],[-2.610616,42.980696,804.541],[-2.610661,42.980736,804.642],[-2.610702,42.980772,804.827],[-2.610748,42.980807,805.185],[-2.610793,42.980839,805.929],[-2.610854,42.980863,806.88],[-2.610902,42.980892,807.638],[-2.610937,42.980937,808.57],[-2.610988,42.980968,809.217],[-2.61103,42.981006,809.808],[-2.611064,42.981048,810.168],[-2.61111,42.981084,810.477],[-2.611152,42.981121,810.611],[-2.611194,42.981161,811.062],[-2.611248,42.981183,811.497],[-2.6113,42.981211,812.175],[-2.611349,42.981241,812.859],[-2.6114,42.981271,813.62],[-2.611454,42.981295,814.572],[-2.611514,42.981321,815.313],[-2.611574,42.981346,816.314],[-2.611633,42.981362,817.408],[-2.611676,42.981396,818.752],[-2.611733,42.981424,820.371],[-2.611793,42.981441,821.855],[-2.611861,42.98145,823.056],[-2.611923,42.981468,823.781],[-2.611976,42.981493,824.479],[-2.612022,42.981525,825.163],[-2.612069,42.98156,825.964],[-2.612115,42.981591,827.246],[-2.612173,42.981617,828.988],[-2.612235,42.981635,830.116],[-2.612302,42.981662,830.508],[-2.612354,42.981693,830.729],[-2.612406,42.981728,830.898],[-2.612456,42.981757,830.772],[-2.612502,42.981796,830.493],[-2.612545,42.981831,830.228],[-2.612582,42.981871,830.276],[-2.612627,42.981906,830.35],[-2.612673,42.981944,830.461],[-2.612716,42.981996,830.625],[-2.612759,42.982034,831.026],[-2.612811,42.982063,831.508],[-2.612866,42.982085,832.208],[-2.612922,42.982123,832.887],[-2.612976,42.982147,833.326],[-2.61302,42.982183,834.08],[-2.613072,42.982211,835.191],[-2.613124,42.982241,836.166],[-2.613171,42.982283,837.134],[-2.613215,42.982318,837.928],[-2.613267,42.982343,838.429],[-2.613327,42.982365,838.916],[-2.613396,42.982393,839.176],[-2.613447,42.982428,839.513],[-2.613491,42.982459,840.008],[-2.613525,42.982506,840.566],[-2.613557,42.982546,841.035],[-2.613606,42.982581,841.759],[-2.613665,42.982615,842.99],[-2.613715,42.982643,844.255],[-2.61376,42.982676,845.383],[-2.61381,42.982714,846.387],[-2.613864,42.982737,847.218],[-2.613901,42.982773,847.839],[-2.613963,42.982804,847.801],[-2.614017,42.98283,847.521],[-2.614071,42.98286,847.108],[-2.614124,42.982885,847.088],[-2.614172,42.982919,847.847],[-2.614199,42.982961,848.791],[-2.614237,42.982999,849.752],[-2.614266,42.983041,850.757],[-2.61431,42.983084,851.315],[-2.614373,42.983102,851.849],[-2.614433,42.983113,852.15],[-2.614507,42.983116,852.446],[-2.614582,42.983115,852.588],[-2.614645,42.983119,852.516],[-2.614709,42.98313,852.708],[-2.614789,42.98312,853.059],[-2.614865,42.983133,853.248],[-2.614935,42.983151,853.432],[-2.614995,42.983169,853.673],[-2.615057,42.983193,853.868],[-2.615117,42.983214,853.996],[-2.615175,42.983239,854.12],[-2.61523,42.983263,854.351],[-2.615282,42.98329,854.663],[-2.615319,42.983326,854.744],[-2.615366,42.983357,854.618],[-2.615405,42.983399,854.308],[-2.61535,42.983343,853.931],[-2.615321,42.983301,853.85],[-2.615392,42.983286,853.444],[-2.615455,42.983312,853.715],[-2.615515,42.983283,854.52],[-2.615572,42.983245,853.538],[-2.615571,42.983199,852.592],[-2.615586,42.98315,852.273],[-2.615585,42.983105,852.698],[-2.615597,42.983056,853.115],[-2.615631,42.983014,853.626],[-2.615708,42.983013,853.908],[-2.615773,42.983019,854.244],[-2.61584,42.983022,854.623],[-2.615911,42.983035,855.037],[-2.615978,42.983041,855.468],[-2.616039,42.983052,855.763],[-2.616113,42.983069,855.881],[-2.616181,42.983093,855.995],[-2.616238,42.983122,856.016],[-2.616292,42.983148,856.247],[-2.616346,42.983174,856.429],[-2.616404,42.983203,856.621],[-2.616451,42.983251,856.608],[-2.616512,42.983276,856.399],[-2.616582,42.983309,856.238],[-2.616642,42.983324,856.192],[-2.616703,42.983328,856.253],[-2.616771,42.983343,856.098],[-2.616835,42.983371,855.956],[-2.616869,42.983412,855.82],[-2.616914,42.983448,855.861],[-2.616963,42.983481,855.746],[-2.617021,42.983505,855.688],[-2.617087,42.983526,855.416],[-2.617147,42.98354,855.208],[-2.617221,42.983557,855.069],[-2.617292,42.983556,854.898],[-2.617355,42.983555,854.652],[-2.61743,42.983567,854.353],[-2.617488,42.983598,854.088],[-2.617544,42.983621,853.656],[-2.617602,42.98365,853.01],[-2.617661,42.983667,852.351],[-2.617736,42.983683,851.663],[-2.617804,42.983697,851.044],[-2.617863,42.983716,850.518],[-2.617941,42.98372,849.908],[-2.617974,42.983758,849.441],[-2.618023,42.983787,848.87],[-2.618091,42.983811,848.274],[-2.618153,42.983837,847.425],[-2.618214,42.983862,846.57],[-2.61826,42.983895,845.558],[-2.618318,42.983935,844.482],[-2.618367,42.98397,843.313],[-2.618433,42.983987,842.388],[-2.618498,42.984005,841.324],[-2.618561,42.984016,840.426],[-2.618619,42.984045,839.408],[-2.618682,42.984064,838.483],[-2.618748,42.984084,837.562],[-2.618809,42.984112,836.756],[-2.618878,42.984133,835.817],[-2.618952,42.984146,834.852],[-2.619028,42.984154,833.64],[-2.619095,42.984177,832.584],[-2.619154,42.984205,831.465],[-2.619208,42.984232,830.447],[-2.619264,42.984251,829.329],[-2.619335,42.98427,828.521],[-2.619397,42.984286,827.908],[-2.619475,42.984304,827.359],[-2.619533,42.984327,826.718],[-2.619589,42.984347,826.262],[-2.619624,42.984386,825.073],[-2.619687,42.984379,824.378],[-2.619735,42.984342,823.866],[-2.6198,42.984327,823.45],[-2.619885,42.98433,823.131],[-2.619953,42.984349,823.048],[-2.620002,42.984382,823.161],[-2.620049,42.984418,823.317],[-2.620104,42.98445,823.408],[-2.620165,42.98448,823.699],[-2.620221,42.984508,823.658],[-2.62027,42.984544,823.552],[-2.62032,42.984571,823.393],[-2.620374,42.984598,823.188],[-2.620429,42.984625,823.046],[-2.620479,42.984657,822.67],[-2.620521,42.984691,822.051],[-2.620575,42.984718,821.482],[-2.620646,42.984747,820.743],[-2.620704,42.984774,820.017],[-2.620778,42.984804,819.108],[-2.620827,42.984832,818.023],[-2.620888,42.984848,816.622],[-2.62097,42.984856,814.956],[-2.621025,42.984829,813.767],[-2.621086,42.98484,813.012],[-2.621148,42.98486,812.33],[-2.621214,42.984871,811.854],[-2.621296,42.984881,811.065],[-2.621352,42.984911,810.098],[-2.621397,42.984943,809.015],[-2.621466,42.984965,808.126],[-2.621533,42.984978,807.208],[-2.6216,42.984973,806.334],[-2.621667,42.984979,805.083],[-2.621732,42.98499,803.697],[-2.621796,42.984991,802.388],[-2.62187,42.985,801.123],[-2.621937,42.985006,799.931],[-2.622011,42.985025,798.615],[-2.622076,42.985048,797.156],[-2.622163,42.985067,795.738],[-2.622229,42.985085,794.27],[-2.622293,42.985094,792.617],[-2.62236,42.985108,791.208],[-2.622421,42.985121,790.148],[-2.622489,42.985146,789.137],[-2.622551,42.98517,788.231],[-2.622607,42.985191,787.232],[-2.62266,42.985215,786.137],[-2.622719,42.985238,784.975],[-2.622779,42.985257,784.019],[-2.622839,42.985268,783.14],[-2.622905,42.985274,782.247],[-2.622966,42.985279,781.429],[-2.623031,42.985291,780.421],[-2.623091,42.985304,779.208],[-2.623157,42.98531,777.979],[-2.623223,42.985325,776.758],[-2.623279,42.985348,775.462],[-2.623343,42.985384,774.363],[-2.623393,42.985418,773.438],[-2.623455,42.985452,772.426],[-2.623512,42.985477,771.41],[-2.62358,42.985496,770.471],[-2.623647,42.985508,769.474],[-2.62371,42.985518,768.456],[-2.623784,42.985532,767.421],[-2.623845,42.985542,766.408],[-2.623902,42.98556,765.272],[-2.623957,42.985581,764.231],[-2.624024,42.985597,763.185],[-2.624095,42.985603,762.126],[-2.624156,42.985614,761.491],[-2.624212,42.985645,760.879],[-2.624273,42.985672,760.333],[-2.624331,42.985701,759.864],[-2.624388,42.985722,759.592],[-2.624455,42.985738,759.373],[-2.624518,42.985752,759.22],[-2.624578,42.985775,759.108],[-2.624639,42.985795,758.924],[-2.624698,42.985812,758.273],[-2.624759,42.985829,757.617],[-2.624826,42.985857,757.028],[-2.624892,42.985879,756.463],[-2.624964,42.985896,755.881],[-2.625035,42.985922,755.315],[-2.625092,42.985948,754.856],[-2.625157,42.985981,754.467],[-2.6252,42.986016,754.381],[-2.625247,42.986055,754.619],[-2.625281,42.986095,755.008],[-2.625314,42.986135,755.331],[-2.625361,42.986185,755.51],[-2.625403,42.986225,755.844],[-2.625443,42.986261,756.035],[-2.625489,42.986293,756.15],[-2.625532,42.986331,756.248],[-2.62556,42.986376,756.312],[-2.625568,42.986433,756.533],[-2.625589,42.986486,756.925],[-2.625639,42.986523,757.426],[-2.6257,42.986557,757.808],[-2.625758,42.986594,757.908],[-2.625822,42.98662,757.737],[-2.625884,42.986645,757.026],[-2.625941,42.98667,756.18],[-2.626001,42.986688,755.281],[-2.626061,42.9867,754.646],[-2.626116,42.98672,754.284],[-2.62617,42.986746,753.938],[-2.626221,42.986782,753.669],[-2.626266,42.986815,753.418],[-2.626321,42.98684,753.298],[-2.626379,42.986866,752.817],[-2.626444,42.986884,752.208],[-2.62651,42.986901,751.316],[-2.626574,42.986914,750.565],[-2.626618,42.986948,749.689],[-2.626565,42.986914,748.61],[-2.62652,42.986861,748.065],[-2.626549,42.986904,747.323],[-2.626549,42.986904,747.317],[-2.626483,42.986925,747.358],[-2.626418,42.986918,746.958],[-2.626351,42.986903,746.552],[-2.626288,42.98689,746.217],[-2.626292,42.986939,745.808],[-2.62632,42.98698,745.15],[-2.626373,42.987005,742.799],[-2.62638,42.987051,741.313],[-2.626388,42.987098,740.424],[-2.626377,42.987146,739.679],[-2.62635,42.987187,739.037],[-2.62631,42.987221,738.471],[-2.626264,42.987257,738.122],[-2.626205,42.987278,737.989],[-2.626129,42.987267,737.506],[-2.626078,42.98723,736.826],[-2.626007,42.987235,736.208],[-2.625967,42.987271,735.533],[-2.625999,42.987314,734.992],[-2.626049,42.987368,734.776],[-2.626091,42.987403,734.867],[-2.626132,42.987439,735.032],[-2.626171,42.987477,735.38],[-2.626219,42.987506,735.514],[-2.626272,42.98753,735.735],[-2.626233,42.987567,734.353],[-2.626173,42.987598,733.704],[-2.626108,42.98762,733.414],[-2.626082,42.987663,732.408],[-2.626146,42.987654,731.59],[-2.626154,42.9877,729.039],[-2.62611,42.987734,728.073],[-2.626098,42.987798,726.894],[-2.626063,42.987757,725.669],[-2.626042,42.98771,724.957],[-2.626016,42.987668,724.691],[-2.625999,42.987624,724.252],[-2.625938,42.987618,724.164],[-2.625931,42.987663,724.406],[-2.62599,42.987683,725.116],[-2.62594,42.987655,725.508],[-2.625903,42.987619,725.731],[-2.625846,42.987594,726.03],[-2.625791,42.987567,726.344],[-2.625737,42.987544,726.535],[-2.625678,42.987526,726.73],[-2.62563,42.987555,726.218],[-2.625694,42.987545,725.092],[-2.625709,42.98759,724.483],[-2.625663,42.987631,724.143],[-2.625661,42.987683,724.064],[-2.625633,42.987728,724.11],[-2.625658,42.987686,724.208],[-2.625635,42.987733,723.899],[-2.625624,42.987778,723.178],[-2.625561,42.987777,721.732],[-2.625505,42.9878,720.453],[-2.625507,42.987849,719.358],[-2.625549,42.987883,718.436],[-2.625569,42.987932,717.83],[-2.625596,42.98798,717.221],[-2.625575,42.988028,716.752],[-2.625542,42.988068,715.853],[-2.625565,42.988113,715.008],[-2.625586,42.98816,714.908],[-2.625557,42.988119,714.09],[-2.625574,42.988072,712.149],[-2.625577,42.988119,710.433],[-2.625555,42.988163,708.934],[-2.625624,42.988168,707.819],[-2.625646,42.988216,707.037],[-2.625574,42.988222,706.441],[-2.625509,42.988214,705.892],[-2.625437,42.98822,705.197],[-2.625374,42.988234,704.423],[-2.625297,42.988234,703.725],[-2.625245,42.9882,703.108],[-2.625191,42.988172,702.344],[-2.625127,42.988159,701.153],[-2.625064,42.988146,700.577],[-2.624994,42.988135,700.438],[-2.624931,42.988134,700.653],[-2.624861,42.988132,700.631],[-2.624784,42.988145,700.345],[-2.62472,42.988148,700.146],[-2.624661,42.988125,699.973],[-2.624614,42.988091,699.885],[-2.624564,42.988052,699.913],[-2.624526,42.988014,700.208],[-2.624485,42.98798,700.432],[-2.624412,42.987953,701.151],[-2.624358,42.987924,701.825],[-2.624301,42.987896,702.696],[-2.62424,42.987875,703.321],[-2.624179,42.987863,703.969],[-2.624117,42.987861,704.413],[-2.624049,42.987836,704.594],[-2.624021,42.987793,704.593],[-2.623995,42.987835,705.265],[-2.623934,42.98785,705.221],[-2.623992,42.987877,705.408],[-2.624002,42.987925,705.174],[-2.624004,42.987971,704.233],[-2.624012,42.988019,703.947],[-2.624042,42.988072,703.998],[-2.624069,42.988115,703.793],[-2.624095,42.988158,703.751],[-2.624082,42.988213,704.385],[-2.624094,42.988265,705.356],[-2.624083,42.988316,706.482],[-2.624051,42.988374,707.643],[-2.624046,42.988423,708.617],[-2.624061,42.98847,709.308],[-2.624113,42.988508,709.953],[-2.624162,42.988539,710.082],[-2.624215,42.988566,709.476],[-2.624265,42.988607,708.787],[-2.62428,42.988652,708.472],[-2.624342,42.988649,707.69],[-2.624401,42.988692,707.164],[-2.624419,42.98874,706.855],[-2.624422,42.988797,706.657],[-2.624411,42.988843,706.8],[-2.624407,42.988894,707.22],[-2.624415,42.988942,707.308],[-2.624416,42.988991,707.03],[-2.624411,42.989046,706.629],[-2.624399,42.989094,706.233],[-2.624395,42.989145,705.634],[-2.624402,42.989193,705.029],[-2.624411,42.989239,704.537],[-2.624438,42.989287,704.021],[-2.624472,42.989329,703.662],[-2.624518,42.989373,703.097],[-2.624567,42.989412,702.323],[-2.624605,42.989453,701.725],[-2.624641,42.989494,701.208],[-2.624661,42.989546,700.664],[-2.624673,42.989591,700.273],[-2.624699,42.989637,700.047],[-2.624724,42.98969,700.018],[-2.624758,42.989739,699.913],[-2.624801,42.989776,699.861],[-2.624856,42.989807,699.755],[-2.624903,42.989839,699.526],[-2.624957,42.989866,699.114],[-2.625003,42.989899,698.454],[-2.625047,42.989931,697.609],[-2.62509,42.989971,696.708],[-2.625152,42.990009,696.016],[-2.625205,42.990036,695.175],[-2.625255,42.990064,694.099],[-2.625312,42.990086,693.13],[-2.625384,42.99011,692.035],[-2.625448,42.99013,691.093],[-2.625516,42.990148,690.397],[-2.625577,42.990163,689.568],[-2.625632,42.990184,688.668],[-2.625691,42.990211,687.642],[-2.625752,42.990245,686.626],[-2.625808,42.990274,685.708],[-2.625844,42.990317,684.161],[-2.625884,42.990351,682.53],[-2.625941,42.990382,681.324],[-2.626,42.990398,680.325],[-2.626061,42.990414,679.23],[-2.62612,42.990433,678.298],[-2.62618,42.990448,677.112],[-2.626244,42.990475,676.083],[-2.626301,42.990494,674.765],[-2.626372,42.990511,672.968],[-2.62643,42.990536,671.514],[-2.626492,42.990558,670.408],[-2.626554,42.990566,670.161],[-2.626605,42.990596,669.67],[-2.626648,42.990637,668.944],[-2.626681,42.990675,668.195],[-2.626722,42.990717,667.06],[-2.626758,42.990766,665.768],[-2.626784,42.990812,664.432],[-2.62683,42.990873,662.673],[-2.626869,42.990912,661.229],[-2.626914,42.990956,659.8],[-2.62696,42.990991,658.62],[-2.626994,42.991034,657.308],[-2.627041,42.991075,656.267],[-2.627076,42.991118,655.366],[-2.627121,42.991154,654.56],[-2.627175,42.991185,653.571],[-2.627229,42.991216,652.436],[-2.627271,42.991249,650.624],[-2.627308,42.991291,649.248],[-2.627347,42.99133,648.159],[-2.627388,42.99137,647.036],[-2.627431,42.991407,646.117],[-2.627475,42.991442,645.418],[-2.627532,42.991473,644.608],[-2.62757,42.991511,643.748],[-2.627598,42.991555,644.887],[-2.627653,42.991588,645.871],[-2.627716,42.991602,646.642],[-2.627786,42.991602,646.697],[-2.627842,42.991581,646.455],[-2.627909,42.991554,646.029],[-2.627965,42.991534,645.27],[-2.628036,42.991511,644.133],[-2.62811,42.991496,643.123],[-2.628175,42.99148,642.015],[-2.628243,42.99147,640.708],[-2.628308,42.991466,639.598],[-2.628373,42.991473,638.177],[-2.628442,42.991479,636.691],[-2.628505,42.991483,635.282],[-2.62857,42.991498,634.047],[-2.628643,42.991506,632.915],[-2.628667,42.99155,631.959],[-2.628694,42.991594,630.87],[-2.628736,42.991627,629.946],[-2.628752,42.991685,629.088],[-2.628739,42.99173,627.916],[-2.628681,42.991764,626.808],[-2.628638,42.991801,625.989],[-2.628606,42.991844,625.048],[-2.628608,42.99189,624.372],[-2.628606,42.991935,623.533],[-2.628628,42.991978,622.798],[-2.628689,42.991992,621.836],[-2.62875,42.992008,620.68],[-2.628808,42.992023,619.131],[-2.628872,42.992024,617.939],[-2.628942,42.992019,617.201],[-2.629006,42.992009,616.621],[-2.629081,42.991987,615.908],[-2.629133,42.991948,615.278],[-2.629185,42.991909,614.717],[-2.629247,42.991906,614.411],[-2.629312,42.991911,614.232],[-2.629383,42.991918,613.577],[-2.629462,42.991922,612.655],[-2.629516,42.991949,611.739]]}}]}