{"type":"FeatureCollection","features":[{"type":"Feature","properties":{"ruta_id":"55578517","nombre":"🏞️ COLA de CABALLO desde PRADERA de ORDESA por CASCADAS de la CUEVA y del ESTRECHO y GRADAS de SOASO","blog_url":"https://www.rutasporelmonte.com/cola-de-caballo-desde-pradera-de-ordesa/"},"geometry":{"type":"LineString","coordinates":[[-0.060015,42.649815,1364.455],[-0.060821,42.649986,1364.407],[-0.060773,42.650018,1364.417],[-0.060595,42.649977,1364.408],[-0.060595,42.649977,1364.49],[-0.060298,42.649842,1364.47],[-0.060131,42.649749,1364.44],[-0.060039,42.649693,1364.472],[-0.059977,42.649659,1364.463],[-0.05991,42.649628,1364.41],[-0.059844,42.64962,1364.486],[-0.059819,42.649668,1364.492],[-0.059808,42.649622,1364.461],[-0.059754,42.6496,1364.421],[-0.059696,42.649585,1364.413],[-0.059696,42.649585,1364.408],[-0.059632,42.649578,1364.461],[-0.059569,42.649576,1364.481],[-0.059503,42.649572,1364.451],[-0.059429,42.649563,1364.443],[-0.059366,42.649551,1364.464],[-0.059305,42.649533,1364.431],[-0.059226,42.649515,1364.467],[-0.059155,42.649505,1364.413],[-0.059089,42.649495,1364.413],[-0.059017,42.649489,1364.443],[-0.058954,42.649493,1364.407],[-0.058887,42.649495,1364.408],[-0.05881,42.649501,1364.436],[-0.058738,42.649516,1364.496],[-0.058671,42.649524,1360.476],[-0.058605,42.649517,1356.418],[-0.058536,42.649506,1352.429],[-0.058477,42.649519,1348.496],[-0.058448,42.649567,1344.412],[-0.058386,42.649579,1340.468],[-0.058293,42.649573,1336.489],[-0.05823,42.649545,1332.406],[-0.058169,42.649535,1328.426],[-0.058105,42.649518,1324.408],[-0.058032,42.649513,1320.443],[-0.057972,42.649476,1316.483],[-0.057901,42.649456,1312.463],[-0.057832,42.649452,1309.195],[-0.057802,42.64941,1308.486],[-0.057737,42.649404,1308.093],[-0.057655,42.649399,1307.869],[-0.057613,42.649363,1307.955],[-0.057549,42.649355,1307.815],[-0.057491,42.649336,1307.665],[-0.057422,42.649322,1307.811],[-0.057452,42.649282,1311.408],[-0.057403,42.649247,1311.636],[-0.057338,42.649222,1311.636],[-0.057269,42.64921,1312.186],[-0.0572,42.649188,1312.538],[-0.057103,42.649178,1312.329],[-0.057037,42.649166,1312.656],[-0.056974,42.649154,1313.632],[-0.056911,42.649139,1314.928],[-0.056854,42.649116,1316.032],[-0.056784,42.649118,1316.292],[-0.056721,42.649123,1316.311],[-0.056659,42.64913,1316.408],[-0.056589,42.649139,1316.578],[-0.056514,42.649138,1316.578],[-0.056444,42.649126,1317.348],[-0.056383,42.649118,1318.48],[-0.05632,42.649116,1319.621],[-0.056253,42.64911,1321.178],[-0.056187,42.649106,1322.394],[-0.056125,42.649099,1323.59],[-0.056058,42.649085,1325.018],[-0.055997,42.649069,1326.298],[-0.055937,42.649052,1327.517],[-0.055877,42.649033,1328.708],[-0.055819,42.649006,1329.976],[-0.055761,42.648983,1331.176],[-0.055693,42.648956,1332.336],[-0.055632,42.648937,1333.758],[-0.055568,42.648916,1335.549],[-0.055509,42.648899,1337.436],[-0.055447,42.648887,1339.482],[-0.055382,42.64889,1341.188],[-0.055312,42.6489,1342.629],[-0.055247,42.648914,1344.1],[-0.055179,42.648923,1345.52],[-0.055117,42.648929,1346.508],[-0.055057,42.648936,1346.927],[-0.054977,42.648932,1347.417],[-0.05491,42.648915,1347.787],[-0.054847,42.648894,1347.959],[-0.054786,42.64887,1348.15],[-0.054725,42.648843,1347.947],[-0.054667,42.648813,1347.773],[-0.054612,42.648792,1347.579],[-0.054556,42.648771,1347.387],[-0.054498,42.648754,1347.042],[-0.054438,42.64874,1346.826],[-0.054377,42.648734,1346.608],[-0.054312,42.648736,1346.373],[-0.054249,42.648741,1346.223],[-0.054188,42.648744,1346.253],[-0.054121,42.648752,1346.285],[-0.054055,42.64876,1346.386],[-0.053993,42.648766,1346.693],[-0.053916,42.648767,1346.979],[-0.053851,42.648765,1347.365],[-0.053772,42.64876,1348.161],[-0.053709,42.648756,1347.921],[-0.053646,42.648737,1346.813],[-0.053572,42.648733,1344.808],[-0.053504,42.648729,1342.941],[-0.053438,42.64873,1341.341],[-0.05336,42.648724,1339.961],[-0.053293,42.648709,1338.663],[-0.053226,42.648697,1337.254],[-0.053159,42.64868,1336.021],[-0.053095,42.648668,1335.127],[-0.053025,42.648663,1334.013],[-0.052959,42.648669,1333.055],[-0.05289,42.648676,1332.207],[-0.052823,42.648686,1331.517],[-0.052753,42.648691,1330.808],[-0.052692,42.6487,1330.58],[-0.052631,42.648709,1330.59],[-0.052565,42.648714,1330.98],[-0.052498,42.648707,1331.412],[-0.052433,42.648702,1332.053],[-0.052367,42.648711,1332.65],[-0.052292,42.648732,1333.346],[-0.052223,42.648746,1333.972],[-0.052162,42.648751,1334.451],[-0.052089,42.648752,1334.901],[-0.052022,42.648742,1335.411],[-0.051961,42.648728,1335.908],[-0.051898,42.648729,1336.45],[-0.051828,42.648738,1336.88],[-0.05176,42.648752,1337.35],[-0.051699,42.648761,1337.752],[-0.051632,42.648775,1338.233],[-0.051569,42.648791,1338.72],[-0.051495,42.648784,1339.576],[-0.051433,42.648765,1339.952],[-0.051366,42.648755,1340.131],[-0.051299,42.648752,1340.061],[-0.051219,42.648752,1339.507],[-0.051156,42.648752,1339.008],[-0.051102,42.648779,1338.258],[-0.051033,42.648776,1337.188],[-0.050982,42.648811,1335.918],[-0.050923,42.648841,1335.67],[-0.050872,42.648866,1335.071],[-0.050806,42.648847,1334.758],[-0.050735,42.648843,1334.934],[-0.050673,42.648831,1335.55],[-0.050611,42.648823,1335.728],[-0.050541,42.648818,1334.389],[-0.050477,42.648804,1333.217],[-0.050413,42.648786,1331.908],[-0.050344,42.648769,1330.617],[-0.050285,42.648755,1330.197],[-0.050216,42.648721,1329.687],[-0.050163,42.648695,1329.389],[-0.050111,42.648664,1328.64],[-0.05006,42.648636,1327.997],[-0.05,42.648614,1328.153],[-0.049942,42.648589,1328.529],[-0.049885,42.64856,1329.024],[-0.049835,42.648533,1329.404],[-0.04977,42.648504,1330.014],[-0.049717,42.648477,1330.908],[-0.049666,42.648442,1332.067],[-0.049613,42.648412,1333.487],[-0.049554,42.648386,1334.747],[-0.049501,42.648353,1335.979],[-0.049463,42.648316,1336.95],[-0.049422,42.648278,1337.967],[-0.049376,42.64824,1338.853],[-0.049332,42.648205,1339.829],[-0.049293,42.648164,1341.286],[-0.049266,42.648123,1342.66],[-0.049244,42.648081,1344.026],[-0.049221,42.648029,1345.608],[-0.049188,42.647991,1347.513],[-0.049144,42.647951,1349.253],[-0.049105,42.647913,1350.953],[-0.049071,42.647869,1352.245],[-0.049036,42.647832,1353.226],[-0.048984,42.647798,1353.963],[-0.048932,42.647765,1354.489],[-0.048879,42.647732,1354.855],[-0.048831,42.647702,1355.231],[-0.048777,42.647667,1355.661],[-0.048713,42.647653,1356.207],[-0.048647,42.647651,1357.108],[-0.048582,42.647655,1358.528],[-0.04852,42.64767,1360.098],[-0.048451,42.647658,1361.298],[-0.048393,42.647632,1362.23],[-0.048326,42.647608,1363.021],[-0.048256,42.647597,1363.728],[-0.048189,42.647585,1363.864],[-0.048126,42.647567,1364.05],[-0.048059,42.647549,1364.047],[-0.047997,42.64753,1364.029],[-0.047938,42.647507,1363.921],[-0.047884,42.647479,1363.708],[-0.047839,42.647445,1363.619],[-0.047797,42.64741,1363.429],[-0.047752,42.647377,1363.279],[-0.047695,42.647344,1362.631],[-0.047637,42.647324,1362.162],[-0.047578,42.6473,1361.849],[-0.047518,42.647285,1361.455],[-0.047449,42.647293,1360.991],[-0.047381,42.647295,1360.527],[-0.047319,42.647278,1359.968],[-0.047254,42.647266,1359.414],[-0.047191,42.647266,1358.808],[-0.0471,42.647254,1357.947],[-0.047034,42.647255,1355.727],[-0.046961,42.647264,1352.477],[-0.04689,42.647279,1348.569],[-0.046828,42.647285,1344.54],[-0.046756,42.647294,1341.297],[-0.046675,42.6473,1337.623],[-0.0466,42.647288,1334.569],[-0.046533,42.647275,1331.329],[-0.046472,42.647271,1329.1],[-0.046404,42.647269,1328.02],[-0.04634,42.647257,1327.508],[-0.046277,42.647242,1327.617],[-0.046212,42.647236,1328.177],[-0.046138,42.647232,1328.737],[-0.046075,42.647219,1329.399],[-0.046016,42.64719,1329.42],[-0.04597,42.647149,1329.417],[-0.045933,42.647113,1329.993],[-0.045886,42.647075,1330.889],[-0.045845,42.647033,1331.735],[-0.045817,42.646991,1332.586],[-0.045795,42.646946,1332.914],[-0.045776,42.646899,1333.608],[-0.045746,42.646853,1334.598],[-0.045713,42.646814,1335.288],[-0.04567,42.64678,1335.878],[-0.045614,42.646747,1336.55],[-0.045562,42.646713,1337.411],[-0.045514,42.646678,1338.418],[-0.045448,42.646643,1339.274],[-0.045395,42.646612,1340.07],[-0.045338,42.646582,1340.644],[-0.045284,42.646543,1341.305],[-0.045242,42.646509,1341.815],[-0.045177,42.646477,1342.608],[-0.045142,42.646435,1343.899],[-0.045126,42.64639,1345.049],[-0.045107,42.646346,1346.189],[-0.045078,42.646281,1347.131],[-0.045068,42.646229,1348.742],[-0.045072,42.646175,1350.069],[-0.045069,42.646124,1351.415],[-0.045047,42.646082,1353.151],[-0.045017,42.646037,1355.373],[-0.045001,42.645991,1356.585],[-0.044924,42.646027,1357.013],[-0.044898,42.646069,1356.608],[-0.044936,42.646031,1353.592],[-0.044878,42.646046,1349.872],[-0.044819,42.646011,1347.572],[-0.044794,42.645967,1345.354],[-0.044759,42.64593,1343.215],[-0.044708,42.6459,1341.642],[-0.044665,42.645861,1340.468],[-0.044614,42.645832,1339.594],[-0.044559,42.645802,1338.417],[-0.044516,42.64576,1337.887],[-0.044482,42.645713,1337.315],[-0.04444,42.645674,1336.908],[-0.044387,42.64564,1336.726],[-0.044328,42.64561,1336.886],[-0.044283,42.645579,1337.016],[-0.044235,42.645542,1337.418],[-0.044196,42.645503,1338.069],[-0.044162,42.645457,1338.656],[-0.044127,42.645413,1339.372],[-0.044087,42.645379,1339.758],[-0.044036,42.645337,1340.133],[-0.043986,42.645305,1340.623],[-0.043935,42.645278,1341.015],[-0.043868,42.645264,1341.308],[-0.043805,42.645255,1341.548],[-0.043742,42.645246,1341.818],[-0.043681,42.645238,1342.288],[-0.043611,42.645231,1341.35],[-0.043547,42.645244,1340.041],[-0.043486,42.645255,1339.388],[-0.043413,42.645273,1339.154],[-0.043354,42.645303,1339.31],[-0.043297,42.645322,1339.689],[-0.043219,42.64532,1340.006],[-0.043146,42.645298,1340.326],[-0.04309,42.645278,1340.508],[-0.043031,42.645255,1340.633],[-0.042965,42.645244,1340.893],[-0.042899,42.645237,1341.223],[-0.042836,42.645216,1341.635],[-0.042778,42.645194,1341.976],[-0.04272,42.645164,1342.273],[-0.042666,42.645131,1342.599],[-0.042622,42.645099,1342.725],[-0.042567,42.645062,1342.957],[-0.04252,42.645029,1343.0],[-0.042469,42.645001,1343.12],[-0.042415,42.644969,1343.408],[-0.042362,42.644941,1343.98],[-0.042299,42.644919,1344.34],[-0.042238,42.644894,1344.51],[-0.042187,42.644868,1344.442],[-0.042133,42.644845,1344.343],[-0.042073,42.64483,1344.05],[-0.042029,42.644795,1342.786],[-0.041991,42.644754,1341.682],[-0.041969,42.644706,1341.036],[-0.041958,42.644658,1340.717],[-0.041935,42.644609,1340.118],[-0.041918,42.644564,1338.608],[-0.041877,42.644527,1336.478],[-0.041827,42.644488,1333.638],[-0.041781,42.644453,1330.798],[-0.041735,42.644418,1328.16],[-0.04168,42.644389,1325.121],[-0.041625,42.644361,1322.048],[-0.041568,42.644341,1317.144],[-0.041568,42.644341,1317.18],[-0.04151,42.644319,1314.521],[-0.041472,42.644283,1311.741],[-0.041432,42.644241,1308.805],[-0.04139,42.644202,1306.008],[-0.041345,42.644169,1302.987],[-0.041316,42.644129,1300.327],[-0.041302,42.644085,1299.797],[-0.041291,42.644038,1299.379],[-0.041282,42.643992,1299.18],[-0.041267,42.643945,1298.917],[-0.041207,42.643903,1299.193],[-0.041167,42.643862,1299.959],[-0.041167,42.643862,1299.955],[-0.041135,42.643815,1300.507],[-0.041124,42.64377,1301.317],[-0.041099,42.643728,1302.108],[-0.041062,42.643685,1303.04],[-0.041029,42.643635,1303.82],[-0.041004,42.643592,1304.87],[-0.040968,42.643546,1305.712],[-0.040929,42.643497,1307.583],[-0.040886,42.643459,1309.11],[-0.040838,42.643426,1310.736],[-0.0408,42.64339,1312.452],[-0.040761,42.643355,1313.786],[-0.040728,42.643314,1314.96],[-0.040699,42.643266,1316.826],[-0.040699,42.643266,1316.808],[-0.040664,42.643216,1317.833],[-0.040624,42.643174,1319.433],[-0.040569,42.643144,1321.333],[-0.040519,42.643111,1322.975],[-0.040474,42.643077,1324.876],[-0.040413,42.643044,1327.323],[-0.040353,42.643005,1329.599],[-0.040325,42.642946,1331.255],[-0.040266,42.642921,1332.852],[-0.0402,42.642899,1334.453],[-0.040141,42.642877,1335.908],[-0.040086,42.642851,1336.908],[-0.040028,42.642828,1337.85],[-0.039974,42.642805,1338.73],[-0.039928,42.64277,1339.99],[-0.039872,42.642736,1341.222],[-0.039815,42.642717,1342.293],[-0.039754,42.642699,1343.42],[-0.039716,42.642663,1344.686],[-0.039665,42.642625,1345.842],[-0.039609,42.642604,1346.914],[-0.039544,42.642588,1347.954],[-0.039473,42.64257,1349.009],[-0.039412,42.64255,1350.108],[-0.039357,42.642527,1351.276],[-0.039298,42.642508,1352.476],[-0.039236,42.642497,1353.536],[-0.039174,42.6425,1354.488],[-0.039107,42.64249,1355.319],[-0.039046,42.642472,1356.346],[-0.038978,42.642471,1357.342],[-0.038909,42.642462,1358.218],[-0.038847,42.642449,1359.286],[-0.038791,42.64243,1360.36],[-0.038734,42.642413,1361.226],[-0.038677,42.642389,1362.008],[-0.038635,42.642355,1362.873],[-0.038596,42.642312,1363.583],[-0.038569,42.642261,1364.353],[-0.038539,42.642219,1365.035],[-0.0385,42.642178,1365.766],[-0.038464,42.642139,1366.313],[-0.038428,42.642099,1366.999],[-0.038392,42.642047,1367.435],[-0.03837,42.642002,1367.883],[-0.038347,42.641958,1368.225],[-0.03832,42.641916,1368.617],[-0.03828,42.641875,1368.908],[-0.038232,42.641839,1369.143],[-0.03819,42.641804,1369.453],[-0.03815,42.641769,1369.543],[-0.038111,42.641728,1369.755],[-0.038067,42.641689,1370.096],[-0.038005,42.641672,1370.193],[-0.037943,42.641652,1370.129],[-0.037897,42.641622,1370.035],[-0.037839,42.641594,1370.016],[-0.03778,42.641568,1370.176],[-0.037714,42.64156,1370.113],[-0.037646,42.641543,1370.108],[-0.03759,42.641523,1370.336],[-0.037538,42.641494,1370.656],[-0.037481,42.641472,1370.566],[-0.03742,42.64145,1370.238],[-0.037352,42.641421,1369.799],[-0.037293,42.641391,1369.196],[-0.037246,42.641359,1368.332],[-0.037203,42.641317,1367.358],[-0.037173,42.641269,1366.376],[-0.03713,42.64123,1365.29],[-0.037079,42.641191,1364.019],[-0.03703,42.641158,1362.808],[-0.036975,42.641132,1361.792],[-0.03692,42.64111,1361.012],[-0.036853,42.641094,1360.512],[-0.036787,42.641086,1359.824],[-0.036727,42.641069,1359.035],[-0.036672,42.641048,1358.082],[-0.036613,42.641021,1357.158],[-0.036559,42.640988,1356.044],[-0.036521,42.640952,1355.325],[-0.036485,42.640909,1354.826],[-0.03646,42.640864,1354.208],[-0.036441,42.64082,1353.708],[-0.036426,42.640773,1353.077],[-0.036385,42.640734,1352.677],[-0.036328,42.640705,1352.737],[-0.036287,42.640663,1353.229],[-0.036253,42.640623,1353.64],[-0.036217,42.64058,1354.187],[-0.036173,42.640549,1354.393],[-0.03612,42.640523,1354.659],[-0.036055,42.640513,1355.011],[-0.036007,42.640543,1355.721],[-0.036008,42.640592,1356.503],[-0.036039,42.640636,1357.008],[-0.036048,42.640685,1357.356],[-0.036014,42.640727,1357.466],[-0.035945,42.640737,1357.576],[-0.035883,42.640727,1357.838],[-0.035834,42.640698,1358.049],[-0.035781,42.640667,1358.326],[-0.035741,42.64063,1358.892],[-0.035704,42.640591,1359.378],[-0.03566,42.640558,1359.742],[-0.035614,42.640515,1360.422],[-0.035569,42.640482,1361.514],[-0.035506,42.640489,1362.208],[-0.035437,42.640511,1362.729],[-0.035382,42.640546,1363.449],[-0.035337,42.640577,1364.769],[-0.035282,42.640601,1365.841],[-0.035263,42.640644,1366.762],[-0.035316,42.64067,1367.499],[-0.035376,42.640682,1367.895],[-0.035415,42.640717,1369.181],[-0.035359,42.640739,1370.733],[-0.035286,42.640735,1372.323],[-0.035223,42.640736,1373.915],[-0.035162,42.640756,1375.808],[-0.035108,42.640781,1377.758],[-0.035048,42.640796,1379.558],[-0.034987,42.640808,1380.828],[-0.034921,42.640817,1381.61],[-0.034831,42.640828,1381.791],[-0.034779,42.640865,1381.858],[-0.034817,42.640828,1382.074],[-0.034798,42.640782,1382.18],[-0.034731,42.640754,1382.283],[-0.034678,42.640725,1382.025],[-0.034653,42.640669,1382.017],[-0.034666,42.640609,1383.308],[-0.034684,42.640557,1384.883],[-0.03465,42.64051,1386.313],[-0.03462,42.640467,1387.753],[-0.034611,42.64042,1390.295],[-0.034615,42.640371,1393.496],[-0.034614,42.640319,1395.443],[-0.034591,42.640276,1397.029],[-0.034545,42.640242,1399.035],[-0.034503,42.640203,1400.954],[-0.034462,42.640167,1402.856],[-0.034427,42.640129,1404.511],[-0.0344,42.640088,1406.308],[-0.03436,42.640045,1408.28],[-0.034301,42.640021,1410.47],[-0.034256,42.63999,1412.76],[-0.034219,42.639949,1415.322],[-0.03418,42.639907,1417.973],[-0.034134,42.639872,1420.74],[-0.034071,42.63986,1424.036],[-0.034009,42.639854,1427.292],[-0.033938,42.639847,1429.918],[-0.03388,42.63983,1432.198],[-0.033828,42.639801,1433.817],[-0.033777,42.639771,1435.308],[-0.033724,42.639741,1436.556],[-0.033688,42.639704,1437.696],[-0.033636,42.639662,1438.526],[-0.033578,42.639639,1439.228],[-0.033516,42.639616,1440.169],[-0.033466,42.639589,1440.726],[-0.033416,42.639558,1441.332],[-0.033361,42.639524,1442.138],[-0.033302,42.639498,1443.166],[-0.03324,42.639485,1444.029],[-0.033182,42.639469,1444.521],[-0.033122,42.63945,1445.308],[-0.03306,42.639438,1446.111],[-0.032993,42.639427,1446.861],[-0.032931,42.639411,1447.281],[-0.032875,42.639387,1447.483],[-0.032808,42.639391,1447.424],[-0.032739,42.639413,1447.341],[-0.032679,42.639436,1447.177],[-0.032621,42.639466,1447.133],[-0.032567,42.639493,1447.059],[-0.032505,42.639501,1446.403],[-0.032445,42.639482,1445.823],[-0.032385,42.639458,1445.108],[-0.032334,42.639432,1443.18],[-0.032286,42.639399,1440.37],[-0.032236,42.639366,1436.36],[-0.032173,42.639363,1432.372],[-0.032114,42.639384,1428.833],[-0.032056,42.639413,1426.98],[-0.031999,42.639445,1425.736],[-0.031997,42.639399,1425.112],[-0.031965,42.63936,1427.278],[-0.031942,42.639318,1428.633],[-0.031903,42.639278,1429.726],[-0.031855,42.639247,1430.908],[-0.031801,42.639225,1431.712],[-0.031747,42.639204,1432.432],[-0.031697,42.639169,1432.632],[-0.031658,42.639133,1432.464],[-0.031598,42.639105,1432.135],[-0.031529,42.639077,1431.892],[-0.031463,42.639081,1431.878],[-0.031429,42.639121,1432.194],[-0.031457,42.639163,1432.564],[-0.031497,42.639205,1432.906],[-0.031517,42.639248,1433.416],[-0.031453,42.639272,1433.608],[-0.0314,42.639247,1433.711],[-0.031351,42.63921,1434.081],[-0.031307,42.63917,1434.641],[-0.031259,42.639139,1435.233],[-0.031213,42.639105,1436.134],[-0.031175,42.639067,1437.431],[-0.031145,42.639023,1438.837],[-0.031096,42.638992,1440.043],[-0.031043,42.638967,1440.894],[-0.030982,42.638937,1441.557],[-0.030921,42.638901,1442.022],[-0.030867,42.638866,1442.608],[-0.030804,42.638841,1443.254],[-0.030736,42.638829,1443.934],[-0.030672,42.638818,1444.534],[-0.030605,42.638807,1445.196],[-0.030549,42.638787,1445.887],[-0.030501,42.638756,1446.654],[-0.030459,42.638717,1447.43],[-0.030442,42.638671,1448.246],[-0.030465,42.638623,1449.141],[-0.030491,42.638576,1449.981],[-0.030511,42.638533,1450.809],[-0.030524,42.638486,1451.608],[-0.030542,42.638428,1452.379],[-0.030567,42.638378,1453.029],[-0.030601,42.638339,1453.799],[-0.030633,42.638298,1454.371],[-0.03066,42.638256,1454.982],[-0.030679,42.638211,1455.549],[-0.030693,42.63816,1455.725],[-0.030747,42.63813,1455.541],[-0.03075,42.638084,1455.784],[-0.030722,42.638039,1456.107],[-0.030693,42.637998,1456.517],[-0.030669,42.637951,1456.908],[-0.030646,42.6379,1457.063],[-0.030627,42.637845,1456.763],[-0.030616,42.637794,1456.693],[-0.030596,42.637742,1456.725],[-0.030585,42.637692,1457.186],[-0.030572,42.637644,1457.843],[-0.030554,42.637595,1458.939],[-0.030508,42.637563,1459.735],[-0.030447,42.637541,1460.689],[-0.030385,42.637536,1461.706],[-0.03034,42.637501,1462.726],[-0.030354,42.637449,1464.208],[-0.030375,42.6374,1465.963],[-0.030374,42.637347,1467.943],[-0.03038,42.637294,1469.743],[-0.030372,42.637233,1471.215],[-0.030374,42.637184,1472.856],[-0.03039,42.637139,1473.643],[-0.030375,42.637091,1473.759],[-0.030458,42.637093,1470.895],[-0.030424,42.637056,1466.879],[-0.030349,42.637051,1462.805],[-0.030271,42.637029,1458.825],[-0.030225,42.637069,1454.808],[-0.030193,42.637111,1450.892],[-0.030211,42.637067,1446.852],[-0.030236,42.637025,1445.072],[-0.030277,42.63706,1442.784],[-0.030225,42.637099,1441.245],[-0.030263,42.637058,1440.052],[-0.030307,42.637023,1440.288],[-0.030347,42.636982,1441.414],[-0.030405,42.636959,1441.739],[-0.030374,42.637003,1441.801],[-0.030367,42.637055,1441.721],[-0.030352,42.637105,1441.708],[-0.030343,42.637153,1441.918],[-0.030329,42.637198,1442.488],[-0.030312,42.637247,1443.038],[-0.03031,42.637298,1443.72],[-0.030309,42.637345,1444.621],[-0.030278,42.63739,1445.748],[-0.030212,42.637399,1446.894],[-0.030141,42.637407,1447.75],[-0.030074,42.637423,1448.574],[-0.030007,42.637427,1449.356],[-0.029932,42.637427,1450.221],[-0.029869,42.637408,1451.108],[-0.029803,42.637398,1451.922],[-0.029747,42.63738,1452.372],[-0.029714,42.637332,1452.452],[-0.029695,42.637287,1452.434],[-0.029679,42.637243,1452.355],[-0.029693,42.637197,1452.232],[-0.029681,42.637153,1452.198],[-0.029701,42.637106,1452.044],[-0.029677,42.637063,1451.931],[-0.029677,42.637017,1452.161],[-0.029695,42.636968,1452.207],[-0.029704,42.636915,1452.308],[-0.029721,42.636855,1452.488],[-0.029724,42.636808,1452.668],[-0.029742,42.636756,1452.838],[-0.029756,42.636707,1453.28],[-0.029756,42.636707,1453.231],[-0.029774,42.636654,1453.288],[-0.029782,42.636608,1453.324],[-0.029793,42.636559,1453.59],[-0.029802,42.636505,1453.559],[-0.029821,42.636453,1453.503],[-0.029829,42.636405,1453.223],[-0.029846,42.636352,1452.308],[-0.029846,42.636352,1452.36],[-0.029907,42.636339,1452.26],[-0.029888,42.636385,1452.62],[-0.029888,42.636432,1452.642],[-0.029848,42.636472,1451.863],[-0.029815,42.63651,1451.44],[-0.029814,42.636555,1451.276],[-0.029872,42.636532,1451.232],[-0.029935,42.636518,1451.255],[-0.03,42.63653,1451.407],[-0.030028,42.636571,1451.817],[-0.030001,42.63662,1452.508],[-0.029959,42.636663,1454.23],[-0.029925,42.6367,1456.53],[-0.029872,42.636649,1458.13],[-0.029848,42.636586,1459.132],[-0.029829,42.636542,1459.743],[-0.029826,42.636591,1460.14],[-0.029845,42.636647,1460.336],[-0.029821,42.636693,1460.512],[-0.029807,42.636742,1461.379],[-0.029797,42.636792,1462.005],[-0.029784,42.636858,1462.625],[-0.029796,42.636909,1462.808],[-0.029812,42.636955,1463.222],[-0.029849,42.636993,1464.442],[-0.029822,42.636927,1466.172],[-0.029802,42.636879,1467.664],[-0.029797,42.636924,1464.755],[-0.029809,42.636974,1462.952],[-0.029811,42.637019,1461.818],[-0.029811,42.63707,1461.084],[-0.029815,42.637121,1460.491],[-0.029813,42.637171,1460.181],[-0.029842,42.637215,1460.419],[-0.029897,42.637242,1461.108],[-0.029954,42.637276,1461.924],[-0.030012,42.637293,1462.884],[-0.030065,42.637324,1463.814],[-0.030116,42.637358,1464.886],[-0.030164,42.637391,1465.647],[-0.030223,42.637412,1466.624],[-0.030273,42.637438,1467.42],[-0.030329,42.63746,1468.126],[-0.030388,42.63749,1468.575],[-0.030437,42.637526,1468.428],[-0.030474,42.637562,1468.32],[-0.0305,42.637606,1468.208],[-0.030533,42.637652,1467.922],[-0.030568,42.637695,1467.612],[-0.030593,42.637737,1467.362],[-0.030605,42.637787,1466.714],[-0.030623,42.637834,1465.965],[-0.030654,42.63788,1465.032],[-0.030691,42.637923,1464.348],[-0.03072,42.637966,1463.764],[-0.030737,42.63801,1463.279],[-0.030743,42.638061,1462.705],[-0.030705,42.638096,1462.325],[-0.030646,42.638077,1461.808],[-0.030595,42.638051,1461.372],[-0.030538,42.638028,1460.542],[-0.030479,42.638013,1459.662],[-0.030422,42.637991,1458.724],[-0.030371,42.637961,1458.045],[-0.030328,42.637927,1457.412],[-0.030291,42.637888,1457.088],[-0.03025,42.637842,1456.844],[-0.030208,42.637806,1456.549],[-0.030143,42.637781,1456.102],[-0.030089,42.637753,1455.722],[-0.030033,42.637732,1455.308],[-0.029974,42.637752,1454.819],[-0.029935,42.637793,1454.149],[-0.02992,42.637841,1453.579],[-0.029941,42.637891,1452.911],[-0.029979,42.637929,1452.482],[-0.029994,42.637979,1451.479],[-0.029996,42.638029,1450.835],[-0.030014,42.638077,1450.641],[-0.030023,42.638122,1450.756],[-0.03005,42.638166,1451.159],[-0.030091,42.638202,1451.314],[-0.030123,42.638245,1451.608],[-0.030147,42.63829,1451.97],[-0.030089,42.638311,1452.46],[-0.030024,42.63831,1452.93],[-0.029962,42.638308,1453.172],[-0.029902,42.638294,1453.023],[-0.029866,42.638253,1452.88],[-0.029837,42.638201,1452.586],[-0.029814,42.638157,1452.122],[-0.02979,42.638112,1451.629],[-0.029767,42.638059,1451.1],[-0.029727,42.638022,1450.62],[-0.029669,42.637998,1450.108],[-0.029605,42.637981,1449.797],[-0.029546,42.637962,1449.377],[-0.029489,42.637944,1448.837],[-0.029438,42.637915,1448.389],[-0.029393,42.637884,1447.94],[-0.029361,42.637843,1447.477],[-0.029329,42.637799,1447.033],[-0.029286,42.637764,1446.599],[-0.029231,42.637737,1446.286],[-0.029162,42.637727,1446.16],[-0.029078,42.637729,1446.226],[-0.029012,42.63774,1446.108],[-0.028967,42.637778,1445.993],[-0.028947,42.637822,1445.583],[-0.028966,42.637868,1445.053],[-0.02899,42.637915,1444.465],[-0.029017,42.637957,1443.856],[-0.029045,42.637998,1443.283],[-0.029079,42.638038,1442.779],[-0.029116,42.638081,1442.455],[-0.029137,42.638126,1442.398],[-0.029155,42.638176,1442.115],[-0.029176,42.638225,1441.926],[-0.029194,42.638271,1441.708],[-0.029206,42.638318,1441.564],[-0.029225,42.638372,1441.414],[-0.029257,42.638414,1441.384],[-0.029296,42.638456,1441.446],[-0.02934,42.638496,1441.857],[-0.029358,42.638544,1442.144],[-0.029328,42.638588,1442.41],[-0.029264,42.638593,1442.966],[-0.029202,42.63858,1443.576],[-0.029136,42.638578,1443.99],[-0.029075,42.638582,1444.119],[-0.029012,42.638588,1444.208],[-0.028945,42.638582,1444.372],[-0.028879,42.638569,1444.432],[-0.028822,42.63855,1444.342],[-0.028767,42.63853,1444.224],[-0.028708,42.638509,1444.125],[-0.028656,42.638478,1444.032],[-0.028602,42.638445,1443.868],[-0.02856,42.638406,1443.694],[-0.028532,42.638359,1443.312],[-0.028514,42.638313,1443.132],[-0.028495,42.638265,1442.905],[-0.028471,42.638219,1442.908],[-0.028444,42.638174,1442.996],[-0.028426,42.638131,1442.916],[-0.028408,42.638085,1442.896],[-0.028381,42.638043,1442.798],[-0.028345,42.638005,1442.539],[-0.028303,42.63797,1442.386],[-0.028273,42.63793,1442.172],[-0.02825,42.637887,1441.928],[-0.028217,42.637846,1441.799],[-0.028208,42.637794,1441.407],[-0.028197,42.637749,1441.127],[-0.02817,42.637706,1440.808],[-0.028136,42.637661,1440.584],[-0.02811,42.637612,1440.244],[-0.028094,42.637566,1440.134],[-0.028085,42.637516,1440.026],[-0.028095,42.637464,1439.967],[-0.028112,42.637418,1439.834],[-0.028144,42.637371,1439.77],[-0.02818,42.637329,1439.616],[-0.028205,42.637286,1439.519],[-0.028223,42.637242,1439.509],[-0.028244,42.637191,1439.419],[-0.028261,42.637146,1439.308],[-0.028282,42.637099,1439.266],[-0.028311,42.637053,1439.186],[-0.028335,42.637009,1439.036],[-0.028363,42.636962,1438.878],[-0.028388,42.636914,1438.659],[-0.028416,42.636869,1438.486],[-0.028428,42.636814,1438.262],[-0.028437,42.636761,1438.038],[-0.028452,42.636704,1437.847],[-0.028471,42.636653,1437.629],[-0.028482,42.636598,1437.621],[-0.028497,42.636551,1437.708],[-0.028513,42.636507,1437.819],[-0.028519,42.636458,1437.899],[-0.028517,42.636405,1437.789],[-0.028514,42.636357,1437.631],[-0.02851,42.636309,1437.672],[-0.028522,42.636265,1437.779],[-0.028536,42.636217,1438.095],[-0.028527,42.636162,1438.721],[-0.028517,42.636111,1440.212],[-0.028506,42.636066,1441.632],[-0.028467,42.636027,1442.105],[-0.028406,42.635998,1441.908],[-0.028339,42.636001,1441.646],[-0.028303,42.63604,1441.256],[-0.028251,42.636068,1440.386],[-0.028183,42.636068,1438.938],[-0.028104,42.636046,1437.489],[-0.028053,42.636008,1436.056],[-0.028026,42.635967,1434.622],[-0.028,42.635917,1433.718],[-0.027986,42.635872,1433.422],[-0.027956,42.635832,1435.962],[-0.027924,42.635791,1439.608],[-0.027936,42.635745,1443.608],[-0.027962,42.635704,1447.687],[-0.027951,42.635659,1451.617],[-0.027909,42.635622,1455.657],[-0.027843,42.635608,1459.679],[-0.027782,42.63561,1463.61],[-0.027713,42.635613,1467.637],[-0.027649,42.635614,1471.653],[-0.027582,42.635615,1475.649],[-0.027517,42.635632,1479.644],[-0.027467,42.635665,1483.605],[-0.027408,42.635685,1487.615],[-0.02735,42.635704,1491.608],[-0.027284,42.635698,1495.669],[-0.027219,42.635689,1499.649],[-0.027153,42.635674,1503.699],[-0.027086,42.635657,1507.631],[-0.027024,42.635659,1511.612],[-0.026961,42.635662,1515.649],[-0.026893,42.635657,1519.685],[-0.026835,42.635641,1523.651],[-0.026778,42.635618,1527.651],[-0.026704,42.635614,1531.601],[-0.026644,42.635593,1534.111],[-0.026577,42.635585,1535.408],[-0.026546,42.635627,1536.23],[-0.026551,42.635676,1536.47],[-0.026569,42.635727,1536.69],[-0.026596,42.635769,1536.962],[-0.026616,42.635818,1537.373],[-0.026642,42.63586,1537.53],[-0.026692,42.635888,1538.076],[-0.026755,42.635878,1538.682],[-0.026825,42.635881,1539.548],[-0.026872,42.635913,1540.861],[-0.026854,42.635957,1542.417],[-0.0268,42.635979,1543.708],[-0.026736,42.635999,1544.929],[-0.026674,42.63602,1546.149],[-0.026619,42.636054,1547.389],[-0.026562,42.636077,1548.411],[-0.026509,42.636105,1549.692],[-0.026467,42.636141,1551.669],[-0.026454,42.636189,1553.115],[-0.026513,42.636211,1554.381],[-0.026501,42.636264,1556.284],[-0.02645,42.636294,1557.807],[-0.026402,42.636323,1558.917],[-0.026357,42.636355,1559.808],[-0.026307,42.636391,1560.793],[-0.026262,42.636425,1561.983],[-0.026195,42.636425,1563.113],[-0.026132,42.636407,1564.125],[-0.02607,42.636378,1565.146],[-0.026014,42.636347,1566.193],[-0.025957,42.636329,1567.299],[-0.025914,42.636295,1568.365],[-0.025852,42.636325,1569.551],[-0.025852,42.636325,1569.501],[-0.025789,42.636334,1570.411],[-0.025731,42.636305,1570.808],[-0.02569,42.636271,1570.84],[-0.025631,42.636254,1571.48],[-0.025581,42.636213,1571.15],[-0.025522,42.636194,1572.032],[-0.025462,42.63618,1573.583],[-0.025399,42.63618,1575.12],[-0.025324,42.636187,1576.636],[-0.025259,42.636195,1578.282],[-0.025188,42.63622,1579.026],[-0.025129,42.636234,1579.147],[-0.025068,42.636244,1579.311],[-0.025006,42.636238,1579.908],[-0.02494,42.636221,1581.377],[-0.024883,42.636192,1583.187],[-0.024835,42.636159,1585.227],[-0.024803,42.636118,1587.239],[-0.024787,42.636068,1589.19],[-0.024784,42.636019,1591.227],[-0.02478,42.63596,1593.433],[-0.024763,42.63591,1595.569],[-0.024702,42.635903,1596.713],[-0.02464,42.635905,1597.843],[-0.024568,42.635898,1598.707],[-0.024498,42.635887,1599.108],[-0.024436,42.635885,1599.486],[-0.02437,42.635871,1599.466],[-0.024308,42.635848,1599.466],[-0.024255,42.635816,1599.678],[-0.024199,42.635792,1599.559],[-0.024138,42.635771,1599.236],[-0.024074,42.635767,1598.892],[-0.02401,42.635757,1598.348],[-0.02395,42.635745,1597.983],[-0.023892,42.635721,1597.625],[-0.023832,42.635698,1597.417],[-0.023773,42.635684,1597.308],[-0.023711,42.635673,1597.493],[-0.023661,42.635641,1597.693],[-0.02363,42.635598,1597.843],[-0.023585,42.635559,1597.965],[-0.023539,42.635526,1597.956],[-0.023481,42.635501,1597.813],[-0.023427,42.635478,1597.599],[-0.023373,42.635456,1597.325],[-0.023315,42.635436,1597.244],[-0.023263,42.635408,1597.205],[-0.023206,42.635391,1597.415],[-0.023143,42.635385,1597.708],[-0.02308,42.635402,1597.889],[-0.023015,42.63542,1597.929],[-0.022958,42.635437,1598.179],[-0.022896,42.635459,1598.441],[-0.02286,42.635498,1598.872],[-0.022875,42.635543,1599.499],[-0.022929,42.635579,1600.125],[-0.022991,42.635603,1600.791],[-0.023052,42.635621,1601.485],[-0.023116,42.635639,1602.189],[-0.023174,42.635653,1602.717],[-0.023227,42.635681,1603.208],[-0.023277,42.63572,1603.733],[-0.023323,42.63576,1604.143],[-0.02336,42.635798,1604.633],[-0.023401,42.635835,1605.195],[-0.023457,42.635868,1605.786],[-0.023508,42.635896,1606.473],[-0.023552,42.635932,1607.339],[-0.023586,42.635975,1608.395],[-0.023611,42.636016,1609.142],[-0.023631,42.636059,1609.922],[-0.02364,42.636111,1610.714],[-0.023655,42.63616,1611.508],[-0.023679,42.636205,1612.369],[-0.02371,42.636245,1613.089],[-0.023754,42.636281,1613.619],[-0.023799,42.636311,1614.311],[-0.023845,42.636342,1615.142],[-0.023892,42.636375,1615.829],[-0.023939,42.636408,1616.495],[-0.02399,42.636437,1616.861],[-0.024053,42.636459,1617.219],[-0.024114,42.636472,1617.609],[-0.024188,42.636457,1618.019],[-0.024242,42.636427,1618.408],[-0.024304,42.636426,1618.856],[-0.024373,42.636444,1619.116],[-0.024435,42.636465,1619.596],[-0.024493,42.636486,1619.848],[-0.02455,42.636514,1620.139],[-0.024611,42.636555,1620.436],[-0.024654,42.636588,1620.822],[-0.024696,42.636627,1621.218],[-0.024738,42.636669,1621.798],[-0.024783,42.636706,1622.115],[-0.024836,42.636748,1622.326],[-0.024892,42.636777,1622.408],[-0.024945,42.636802,1622.444],[-0.024989,42.636833,1622.574],[-0.025047,42.636861,1622.534],[-0.02507,42.636906,1622.616],[-0.025032,42.636942,1623.297],[-0.024973,42.636965,1623.914],[-0.024906,42.63698,1624.25],[-0.024842,42.636987,1624.246],[-0.024781,42.636997,1624.146],[-0.024715,42.637006,1623.888],[-0.024648,42.637014,1623.516],[-0.024577,42.637013,1623.108],[-0.024494,42.637009,1622.719],[-0.024426,42.637003,1622.499],[-0.024359,42.637002,1622.299],[-0.024294,42.637002,1622.211],[-0.024225,42.637004,1622.112],[-0.024154,42.637001,1621.969],[-0.024088,42.636988,1621.775],[-0.02403,42.636971,1621.661],[-0.02397,42.636957,1621.454],[-0.023897,42.636939,1621.256],[-0.023839,42.636922,1621.111],[-0.023777,42.636899,1620.908],[-0.02372,42.636878,1620.64],[-0.023659,42.63687,1620.32],[-0.023596,42.636867,1620.19],[-0.023519,42.636861,1620.092],[-0.023453,42.636856,1619.953],[-0.023383,42.636858,1619.82],[-0.023314,42.636851,1619.746],[-0.023255,42.636837,1619.612],[-0.023191,42.636823,1619.545],[-0.023126,42.63681,1619.547],[-0.023069,42.636791,1619.611],[-0.023016,42.636762,1619.608],[-0.022952,42.636745,1619.689],[-0.022887,42.636735,1619.729],[-0.022818,42.636721,1619.759],[-0.022758,42.636702,1619.731],[-0.022696,42.636686,1619.772],[-0.022635,42.636673,1619.769],[-0.022572,42.636671,1619.615],[-0.022505,42.636671,1619.521],[-0.022438,42.636669,1619.331],[-0.022364,42.636669,1619.261],[-0.022302,42.636674,1619.107],[-0.022237,42.636682,1619.108],[-0.022169,42.636684,1619.138],[-0.022099,42.636685,1619.048],[-0.022031,42.636685,1618.968],[-0.021959,42.63669,1618.87],[-0.021895,42.636695,1618.781],[-0.02183,42.636704,1618.668],[-0.021765,42.636699,1618.574],[-0.021709,42.636677,1618.44],[-0.021655,42.636652,1618.355],[-0.021601,42.636625,1618.207],[-0.021549,42.636597,1618.117],[-0.0215,42.636568,1618.008],[-0.021453,42.636535,1617.98],[-0.021413,42.636496,1617.96],[-0.02138,42.636458,1617.96],[-0.021334,42.636426,1617.992],[-0.021282,42.636396,1617.993],[-0.021217,42.636357,1617.98],[-0.021163,42.636332,1617.986],[-0.021099,42.636312,1617.822],[-0.021038,42.6363,1617.882],[-0.020975,42.636298,1617.743],[-0.020911,42.636297,1617.717],[-0.020849,42.636287,1617.708],[-0.020787,42.636274,1617.863],[-0.020744,42.636238,1617.853],[-0.020687,42.636196,1617.993],[-0.020627,42.636175,1618.335],[-0.020549,42.636153,1618.786],[-0.020488,42.636137,1619.083],[-0.02041,42.636121,1619.219],[-0.020347,42.63611,1619.315],[-0.020283,42.636092,1619.436],[-0.020225,42.636075,1619.517],[-0.020169,42.636052,1619.818],[-0.020115,42.636021,1620.108],[-0.020065,42.635989,1620.678],[-0.020017,42.63596,1621.388],[-0.019957,42.635932,1621.978],[-0.019899,42.635904,1622.53],[-0.019849,42.635877,1623.061],[-0.019805,42.635843,1623.568],[-0.019752,42.635812,1624.664],[-0.01969,42.635784,1625.87],[-0.019634,42.635759,1626.735],[-0.01958,42.635735,1627.786],[-0.019521,42.635718,1628.614],[-0.019454,42.635712,1629.608],[-0.019386,42.635717,1630.748],[-0.019325,42.635721,1631.828],[-0.019256,42.635725,1632.968],[-0.019187,42.635729,1634.38],[-0.019117,42.635727,1635.691],[-0.019041,42.635715,1637.588],[-0.018974,42.635727,1639.214],[-0.018906,42.635752,1640.91],[-0.018845,42.635774,1642.233],[-0.018775,42.635785,1643.323],[-0.01871,42.635785,1644.415],[-0.018641,42.635769,1645.508],[-0.018575,42.635746,1646.358],[-0.018521,42.635723,1646.968],[-0.018464,42.635703,1647.398],[-0.0184,42.635682,1647.79],[-0.018335,42.635663,1648.271],[-0.018261,42.635636,1648.758],[-0.018204,42.635619,1649.284],[-0.018144,42.635592,1650.01],[-0.018075,42.635567,1650.887],[-0.018012,42.635562,1651.742],[-0.017941,42.63556,1652.726],[-0.017874,42.635551,1653.608],[-0.01781,42.635539,1654.313],[-0.017744,42.635526,1654.833],[-0.017682,42.635507,1655.363],[-0.017622,42.635497,1655.645],[-0.017554,42.635485,1655.696],[-0.01749,42.635469,1655.573],[-0.017427,42.635466,1655.349],[-0.017362,42.635469,1655.015],[-0.017293,42.635466,1655.073],[-0.017226,42.635454,1655.485],[-0.017172,42.635431,1655.913],[-0.017109,42.635416,1656.808],[-0.017048,42.635425,1657.942],[-0.016986,42.63544,1659.162],[-0.016921,42.635452,1660.182],[-0.016856,42.635458,1661.244],[-0.016793,42.635464,1662.385],[-0.016725,42.635465,1663.632],[-0.016659,42.635457,1664.748],[-0.016593,42.635446,1665.844],[-0.016524,42.635441,1666.412],[-0.016459,42.635441,1666.732],[-0.016392,42.635443,1666.705],[-0.016324,42.635446,1666.708],[-0.016264,42.635457,1666.716],[-0.016201,42.635473,1666.866],[-0.01613,42.635493,1666.976],[-0.016082,42.635524,1667.028],[-0.016024,42.635542,1667.059],[-0.015962,42.635559,1667.176],[-0.0159,42.635568,1667.342],[-0.015834,42.635572,1667.528],[-0.01577,42.635574,1667.835],[-0.015701,42.635564,1668.386],[-0.015632,42.635566,1668.614],[-0.015565,42.635574,1668.808],[-0.015502,42.63557,1669.058],[-0.015438,42.635552,1669.118],[-0.015375,42.635535,1669.258],[-0.015309,42.635534,1669.11],[-0.015245,42.635537,1669.171],[-0.015184,42.635545,1669.118],[-0.015124,42.635556,1669.284],[-0.015059,42.635548,1669.34],[-0.015001,42.63553,1669.432],[-0.014934,42.635504,1669.292],[-0.014873,42.635478,1668.911],[-0.014806,42.635454,1668.808],[-0.014746,42.63544,1669.298],[-0.014674,42.635433,1669.438],[-0.01461,42.635428,1669.528],[-0.01454,42.635416,1669.79],[-0.014478,42.635398,1669.781],[-0.014418,42.635383,1669.568],[-0.014355,42.635378,1669.024],[-0.014286,42.635373,1668.19],[-0.014217,42.635366,1667.532],[-0.014149,42.635364,1667.392],[-0.014083,42.635355,1667.111],[-0.014022,42.635336,1667.008],[-0.013958,42.63532,1667.138],[-0.013885,42.635299,1667.138],[-0.013826,42.635274,1667.128],[-0.013764,42.635242,1667.26],[-0.013712,42.635205,1667.321],[-0.013657,42.635177,1667.558],[-0.013604,42.635144,1667.584],[-0.013556,42.635113,1667.32],[-0.01349,42.635094,1667.194],[-0.013428,42.635083,1666.657],[-0.013342,42.635082,1666.322],[-0.013268,42.635092,1665.808],[-0.01323,42.63513,1665.294],[-0.013209,42.635174,1664.964],[-0.013185,42.635127,1664.484],[-0.013124,42.635074,1664.286],[-0.013088,42.635012,1664.287],[-0.013088,42.635012,1664.234],[-0.013083,42.634967,1664.05],[-0.013043,42.63491,1664.136],[-0.012991,42.634884,1663.991],[-0.013006,42.634929,1664.581],[-0.013026,42.634974,1665.219],[-0.013063,42.635014,1665.408],[-0.012996,42.635022,1665.254],[-0.01292,42.635029,1664.684],[-0.012859,42.635051,1663.624],[-0.012795,42.635071,1662.816],[-0.012734,42.635091,1662.577],[-0.012669,42.635105,1662.374],[-0.012606,42.635117,1661.86],[-0.012545,42.635124,1661.396],[-0.012481,42.635134,1661.525],[-0.012406,42.635146,1662.426],[-0.012342,42.635151,1663.608],[-0.01227,42.635148,1665.008],[-0.012202,42.63514,1666.037],[-0.012131,42.635141,1666.877],[-0.012066,42.63515,1667.717],[-0.011997,42.635156,1668.349],[-0.011922,42.635154,1668.89],[-0.01185,42.635153,1669.287],[-0.011775,42.635141,1669.233],[-0.01172,42.635121,1668.989],[-0.011658,42.635126,1667.746],[-0.011604,42.635149,1665.688],[-0.011534,42.635151,1663.716],[-0.011474,42.635141,1662.008],[-0.01141,42.63513,1660.549],[-0.011348,42.635124,1658.889],[-0.011286,42.635128,1657.129],[-0.011222,42.63514,1655.771],[-0.011159,42.635155,1654.382],[-0.011098,42.635171,1653.369],[-0.011036,42.635192,1652.095],[-0.010976,42.635211,1651.071],[-0.010914,42.635229,1650.229],[-0.010851,42.635248,1649.8],[-0.010791,42.635264,1649.72],[-0.010727,42.635275,1649.708],[-0.010669,42.635291,1649.727],[-0.010599,42.635307,1649.957],[-0.010534,42.635319,1649.997],[-0.010472,42.635336,1650.379],[-0.010405,42.635357,1651.03],[-0.010338,42.635377,1652.047],[-0.010285,42.6354,1652.943],[-0.010225,42.635423,1653.669],[-0.010169,42.63545,1654.086],[-0.010117,42.635478,1654.46],[-0.010059,42.635503,1654.826],[-0.010003,42.635523,1655.108],[-0.009941,42.635542,1655.233],[-0.009878,42.635573,1655.273],[-0.00983,42.635603,1655.263],[-0.009771,42.635628,1655.015],[-0.009704,42.635655,1654.926],[-0.00964,42.635675,1655.053],[-0.009589,42.635701,1655.189],[-0.00954,42.635734,1655.695],[-0.009486,42.635762,1656.387],[-0.009438,42.63579,1657.142],[-0.009383,42.635823,1657.626],[-0.009325,42.635846,1657.808],[-0.009266,42.635862,1657.743],[-0.009193,42.635871,1657.573],[-0.009133,42.635863,1657.683],[-0.009071,42.635867,1657.835],[-0.00901,42.635887,1657.646],[-0.008944,42.635896,1657.563],[-0.008862,42.635917,1657.469],[-0.008802,42.635946,1657.355],[-0.008803,42.635992,1657.029],[-0.00878,42.636035,1656.8],[-0.008725,42.636067,1656.52],[-0.008675,42.636105,1656.308],[-0.008612,42.636125,1656.327],[-0.008551,42.636143,1656.427],[-0.00849,42.636161,1656.777],[-0.008433,42.636182,1657.059],[-0.008375,42.63621,1657.41],[-0.008317,42.636245,1658.077],[-0.008265,42.636272,1658.483],[-0.008206,42.636296,1658.699],[-0.008142,42.636324,1658.891],[-0.008079,42.636343,1659.281],[-0.008013,42.636354,1659.619],[-0.007954,42.636374,1660.108],[-0.007894,42.636385,1660.564],[-0.007834,42.636401,1660.824],[-0.007757,42.636411,1661.154],[-0.007688,42.636424,1661.496],[-0.007622,42.636439,1661.487],[-0.007559,42.636451,1661.494],[-0.007496,42.636461,1661.79],[-0.007428,42.63647,1662.126],[-0.007363,42.636469,1662.482],[-0.007294,42.636473,1662.643],[-0.007228,42.636484,1662.817],[-0.007167,42.636503,1662.908],[-0.007108,42.636522,1662.943],[-0.007055,42.636545,1663.013],[-0.006997,42.636574,1663.233],[-0.006941,42.6366,1663.555],[-0.006892,42.63663,1663.786],[-0.006835,42.636657,1663.933],[-0.006767,42.63667,1664.499],[-0.0067,42.636678,1665.095],[-0.006632,42.636688,1665.657],[-0.006564,42.636697,1666.0],[-0.006506,42.636711,1666.22],[-0.006441,42.636725,1666.408],[-0.006376,42.636738,1666.88],[-0.006308,42.636746,1667.17],[-0.006239,42.636754,1667.12],[-0.006179,42.636771,1667.332],[-0.006116,42.636761,1667.893],[-0.006052,42.636759,1668.44],[-0.005985,42.636748,1669.196],[-0.005923,42.636743,1669.632],[-0.005845,42.636743,1670.198],[-0.005781,42.636748,1670.415],[-0.005712,42.636763,1670.326],[-0.00565,42.636782,1670.108],[-0.005587,42.636797,1669.674],[-0.005535,42.636836,1668.994],[-0.005469,42.63685,1668.254],[-0.005406,42.63686,1667.456],[-0.005359,42.636891,1666.517],[-0.005301,42.636923,1665.484],[-0.005249,42.636951,1664.04],[-0.005191,42.636975,1662.586],[-0.005132,42.636992,1661.179],[-0.005068,42.637017,1659.905],[-0.005012,42.637042,1659.225],[-0.00494,42.637079,1658.508],[-0.004889,42.637106,1657.772],[-0.004829,42.637128,1657.122],[-0.004762,42.637138,1656.592],[-0.004699,42.637137,1656.234],[-0.004646,42.637166,1656.265],[-0.004583,42.637194,1656.912],[-0.00451,42.637199,1657.788],[-0.004447,42.637207,1658.494],[-0.004377,42.637204,1659.636],[-0.004309,42.637204,1660.917],[-0.004242,42.637208,1662.118],[-0.004171,42.637204,1663.108],[-0.00411,42.637194,1663.738],[-0.004048,42.637184,1664.098],[-0.003985,42.637175,1664.128],[-0.003916,42.637168,1664.15],[-0.003853,42.637171,1664.081],[-0.003789,42.637181,1664.068],[-0.003725,42.637186,1663.784],[-0.003659,42.637189,1663.27],[-0.0036,42.637201,1662.937],[-0.003544,42.637225,1662.749],[-0.003483,42.637254,1662.513],[-0.00342,42.637282,1662.308],[-0.003363,42.637306,1662.578],[-0.003304,42.637322,1662.848],[-0.00324,42.637324,1663.428],[-0.003173,42.637332,1664.28],[-0.003108,42.637346,1664.991],[-0.003045,42.63736,1665.798],[-0.002985,42.63738,1666.354],[-0.002947,42.637423,1666.92],[-0.002926,42.637471,1667.642],[-0.002914,42.63752,1668.322],[-0.002877,42.637556,1669.014],[-0.002815,42.637572,1669.508],[-0.00276,42.637592,1670.039],[-0.002694,42.637621,1670.519],[-0.002642,42.637646,1671.349],[-0.002579,42.637635,1672.191],[-0.002521,42.637652,1672.872],[-0.002461,42.637662,1673.589],[-0.0024,42.637676,1674.365],[-0.002355,42.637711,1675.131],[-0.002318,42.637673,1676.022],[-0.002244,42.637668,1677.062],[-0.002176,42.637678,1677.808],[-0.002105,42.637675,1678.808],[-0.002043,42.637679,1679.647],[-0.001981,42.637697,1680.347],[-0.001922,42.637729,1681.037],[-0.001855,42.637745,1681.749],[-0.001787,42.637754,1682.44],[-0.001723,42.637771,1683.597],[-0.001661,42.637782,1684.673],[-0.001596,42.637799,1685.619],[-0.001538,42.637819,1686.553],[-0.001471,42.637827,1687.204],[-0.001403,42.637828,1687.714],[-0.001336,42.63783,1688.108],[-0.001275,42.63784,1688.56],[-0.001217,42.637861,1689.07],[-0.001163,42.637894,1689.68],[-0.001131,42.637935,1690.362],[-0.001061,42.637947,1690.933],[-0.000996,42.637928,1691.31],[-0.000928,42.637923,1691.656],[-0.000862,42.637931,1691.782],[-0.000853,42.637884,1692.177],[-0.000806,42.637852,1692.861],[-0.000732,42.637867,1693.427],[-0.000678,42.637898,1694.708],[-0.000639,42.637938,1696.052],[-0.000607,42.637979,1697.432],[-0.000587,42.638037,1698.492],[-0.000525,42.638023,1699.454],[-0.000457,42.638019,1700.235],[-0.000377,42.638037,1701.372],[-0.000318,42.638058,1702.398],[-0.000253,42.638081,1703.464],[-0.000192,42.638092,1704.158],[-0.000129,42.638087,1705.252],[-6.7e-05,42.638075,1703.417],[1.7e-05,42.638073,1700.008],[5.3e-05,42.63812,1696.46],[0.000133,42.638139,1694.87],[0.000194,42.638155,1694.51],[0.000254,42.638171,1695.782],[0.000287,42.638209,1698.773],[0.000225,42.638212,1701.98],[0.000282,42.63823,1705.226],[0.000353,42.638226,1706.912],[0.000414,42.638218,1707.758],[0.000389,42.638175,1708.452],[0.000339,42.638141,1709.017],[0.000266,42.63816,1709.608],[0.000218,42.638191,1710.36],[0.000166,42.638218,1711.55],[9.9e-05,42.638235,1713.03],[5.3e-05,42.63827,1714.562],[-1.3e-05,42.638281,1716.143],[-7.3e-05,42.638267,1717.25],[-0.000137,42.638275,1717.426],[-0.000204,42.638269,1717.242],[-0.000269,42.63826,1716.534],[-0.000331,42.638276,1715.655],[-0.000299,42.638318,1715.21],[-0.000228,42.638342,1715.108],[-0.000157,42.638359,1715.258],[-8.6e-05,42.638366,1715.368],[-1.8e-05,42.638374,1715.478],[4.9e-05,42.638377,1715.46],[0.000118,42.638378,1715.631],[0.000188,42.638362,1715.728],[0.000246,42.638346,1715.734],[0.000305,42.638326,1715.91],[0.000369,42.63831,1716.226],[0.000431,42.638286,1716.447],[0.000494,42.638301,1716.411],[0.000546,42.638332,1716.408],[0.000595,42.638369,1716.677],[0.000593,42.638417,1717.127],[0.000633,42.638457,1719.027],[0.000682,42.638492,1720.549],[0.000745,42.638499,1721.81],[0.000808,42.638501,1723.187],[0.00087,42.6385,1724.033],[0.000934,42.63851,1724.359],[0.001009,42.638517,1724.353],[0.001081,42.638519,1724.304],[0.001144,42.638498,1724.214],[0.001168,42.63854,1723.908],[0.001102,42.638528,1723.98],[0.001042,42.63852,1725.05],[0.000995,42.638553,1726.36],[0.000997,42.638609,1727.492],[0.001045,42.638641,1728.283],[0.001098,42.638663,1729.09],[0.001147,42.638698,1729.956],[0.001195,42.638726,1730.782],[0.001233,42.638765,1731.318],[0.001249,42.63881,1731.998],[0.00128,42.638851,1732.517],[0.001346,42.638869,1733.208],[0.001406,42.638893,1733.856],[0.001419,42.638937,1734.436],[0.001409,42.638982,1734.966],[0.001468,42.638998,1735.288],[0.001529,42.639006,1735.469],[0.001587,42.639024,1735.186],[0.00163,42.639064,1735.492],[0.001699,42.639087,1735.218],[0.00176,42.639097,1735.867],[0.001816,42.639121,1735.581],[0.001861,42.639154,1735.319],[0.001902,42.6392,1735.208],[0.001928,42.639246,1735.211],[0.001959,42.639289,1735.131],[0.002004,42.639324,1735.031],[0.002068,42.639322,1734.813],[0.002097,42.639274,1734.664],[0.00216,42.639319,1734.211],[0.002219,42.639345,1734.257],[0.002269,42.639378,1734.443],[0.002335,42.639395,1734.953],[0.002402,42.639403,1735.404],[0.002471,42.639433,1735.214],[0.002521,42.639461,1735.108],[0.00257,42.63949,1735.63],[0.002614,42.639522,1736.28],[0.002668,42.639549,1736.72],[0.002731,42.639572,1736.932],[0.002791,42.639558,1737.243],[0.002848,42.63958,1736.43],[0.002904,42.639603,1735.796],[0.002964,42.639627,1735.392],[0.003021,42.639646,1734.635],[0.003077,42.639674,1734.786],[0.003122,42.63971,1734.814],[0.003176,42.639733,1734.908],[0.003241,42.639756,1735.468],[0.00331,42.639785,1736.388],[0.003347,42.639825,1737.978],[0.003404,42.63985,1739.14],[0.003477,42.639884,1740.061],[0.003535,42.639914,1740.478],[0.003573,42.639952,1740.374],[0.00363,42.639987,1739.83],[0.003676,42.640021,1738.976],[0.00372,42.640059,1738.19],[0.003766,42.640101,1737.319],[0.003814,42.640138,1736.808],[0.003865,42.640166,1736.462],[0.003918,42.640193,1736.272],[0.003973,42.640229,1735.952],[0.003992,42.640273,1735.744],[0.004009,42.640326,1735.645],[0.004015,42.640379,1735.692],[0.004021,42.640425,1735.768],[0.004034,42.640481,1736.314],[0.004072,42.640532,1737.119],[0.004111,42.640573,1737.409],[0.004149,42.64061,1738.119],[0.004185,42.640648,1739.308],[0.004221,42.640686,1740.116],[0.004264,42.64072,1740.836],[0.004306,42.640757,1741.226],[0.00436,42.640794,1741.038],[0.004416,42.640816,1740.199],[0.004476,42.640839,1739.516],[0.00454,42.640852,1739.522],[0.004608,42.640868,1739.268],[0.004666,42.640904,1739.186],[0.004714,42.640953,1738.86],[0.004747,42.640994,1739.626],[0.004824,42.641022,1740.008],[0.004897,42.641053,1740.693],[0.004966,42.641075,1741.223],[0.005041,42.641094,1742.273],[0.005118,42.641109,1743.745],[0.005165,42.641145,1745.376],[0.005219,42.641172,1745.213],[0.005271,42.641196,1744.449],[0.005304,42.641245,1743.845],[0.005361,42.641262,1743.351],[0.005412,42.641292,1742.101],[0.005478,42.641319,1740.511],[0.005539,42.641343,1738.808],[0.005591,42.64137,1737.94],[0.00564,42.641402,1737.79],[0.005698,42.641433,1738.07],[0.005762,42.641457,1738.782],[0.005823,42.641474,1739.533],[0.005889,42.641487,1739.85],[0.005955,42.641491,1739.526],[0.006012,42.641517,1738.832],[0.006062,42.641558,1737.866],[0.006099,42.641603,1737.429],[0.006128,42.641643,1737.921],[0.006189,42.641658,1738.708],[0.006233,42.641702,1739.751],[0.006259,42.641751,1740.391],[0.006279,42.641794,1740.731],[0.006322,42.641833,1741.033],[0.00636,42.641875,1741.124],[0.006388,42.641919,1741.191],[0.006413,42.641969,1741.347],[0.006446,42.642011,1741.753],[0.006488,42.642048,1742.345],[0.006536,42.642092,1742.847],[0.006572,42.642133,1743.211],[0.006613,42.642174,1743.408],[0.00664,42.642222,1743.479],[0.006666,42.642271,1743.489],[0.006709,42.642308,1743.779],[0.006776,42.642326,1744.241],[0.006844,42.642326,1744.752],[0.006892,42.642296,1743.989],[0.00693,42.642336,1743.115],[0.006987,42.642378,1742.461],[0.007057,42.642418,1741.674],[0.00712,42.642449,1740.856],[0.007188,42.642486,1740.121],[0.007255,42.642532,1739.408],[0.007296,42.64257,1739.062],[0.007336,42.642606,1739.122],[0.007387,42.642636,1740.392],[0.007391,42.642683,1741.434],[0.007432,42.64272,1742.175],[0.007495,42.642752,1742.572],[0.007532,42.642789,1743.028],[0.007583,42.642816,1743.324],[0.007618,42.642854,1743.545],[0.007632,42.6429,1743.447],[0.007656,42.642955,1743.311],[0.007702,42.642996,1742.908],[0.007742,42.643033,1742.779],[0.007784,42.643075,1743.049],[0.007823,42.643115,1743.599],[0.007855,42.643157,1744.041],[0.007882,42.643205,1744.612],[0.007901,42.643256,1745.069],[0.007929,42.643302,1745.255],[0.007979,42.64335,1745.391],[0.008038,42.643373,1745.554],[0.008088,42.643412,1746.056],[0.008124,42.643455,1746.411],[0.008167,42.643492,1746.808],[0.008206,42.643527,1747.47],[0.008254,42.64357,1748.19],[0.008299,42.643607,1748.79],[0.008321,42.643661,1749.232],[0.008355,42.643705,1749.413],[0.008394,42.643752,1749.37],[0.008416,42.643798,1749.716],[0.008444,42.643845,1750.292],[0.008481,42.643887,1750.694],[0.008518,42.643924,1751.457],[0.008555,42.643969,1751.822],[0.008597,42.644007,1752.108],[0.008641,42.644061,1751.564],[0.008683,42.644111,1750.534],[0.008692,42.644171,1749.774],[0.008708,42.644216,1749.066],[0.008741,42.644267,1748.687],[0.008798,42.644293,1748.784],[0.008838,42.644333,1749.26],[0.008876,42.644379,1749.336],[0.008929,42.644408,1749.622],[0.00899,42.644434,1749.762],[0.009053,42.644456,1749.908],[0.009111,42.64448,1750.208],[0.009157,42.644519,1750.427],[0.009201,42.644562,1750.527],[0.009238,42.6446,1750.157],[0.009278,42.64464,1749.429],[0.009331,42.644663,1748.62],[0.009396,42.644686,1747.827],[0.009435,42.644725,1747.773],[0.009466,42.644765,1748.229],[0.009506,42.644801,1749.052],[0.009561,42.644823,1749.553],[0.009614,42.644854,1749.708],[0.009656,42.644901,1750.008],[0.009675,42.644945,1750.24],[0.009701,42.644991,1750.42],[0.009714,42.645041,1750.71],[0.009722,42.645089,1750.952],[0.009748,42.645142,1751.193],[0.00975,42.645193,1751.47],[0.00974,42.645241,1751.836],[0.009745,42.645292,1752.692],[0.009748,42.645341,1753.249],[0.00976,42.645389,1753.802],[0.009774,42.64544,1754.322],[0.009783,42.645493,1754.508],[0.009822,42.645539,1754.759],[0.009839,42.645592,1754.849],[0.009876,42.645629,1754.739],[0.009911,42.645677,1754.661],[0.009916,42.645722,1754.492],[0.009924,42.645773,1754.239],[0.009943,42.645821,1754.185],[0.009963,42.645876,1754.011],[0.009988,42.645921,1753.799],[0.010007,42.645967,1753.307],[0.010046,42.646007,1752.927],[0.010075,42.646051,1752.808],[0.010104,42.646091,1753.094],[0.010137,42.64613,1753.144],[0.010187,42.646169,1753.374],[0.010228,42.646209,1753.446],[0.010279,42.646243,1753.587],[0.010327,42.646283,1753.454],[0.01036,42.646323,1753.39],[0.01041,42.64635,1753.356],[0.010461,42.646381,1753.688],[0.010506,42.646414,1753.924],[0.010572,42.646447,1754.426],[0.010637,42.646473,1755.008],[0.010707,42.646497,1755.573],[0.010771,42.646514,1755.933],[0.01083,42.646533,1756.243],[0.010894,42.646558,1756.265],[0.010951,42.646587,1755.896],[0.011005,42.646609,1755.563],[0.011066,42.646624,1755.349],[0.011133,42.646643,1754.915],[0.011195,42.646668,1754.452],[0.011246,42.646709,1753.853],[0.011283,42.646747,1753.308],[0.011343,42.646785,1753.108],[0.011398,42.64681,1753.38],[0.011451,42.646841,1753.53],[0.011496,42.646873,1753.65],[0.011544,42.646914,1753.812],[0.011574,42.646961,1753.953],[0.011607,42.647007,1753.93],[0.011637,42.647049,1753.936],[0.011678,42.647092,1753.652],[0.011715,42.647131,1753.193],[0.011768,42.647156,1752.865],[0.011835,42.647186,1752.521],[0.011887,42.64721,1751.908],[0.011945,42.647231,1751.584],[0.012007,42.647271,1751.244],[0.012062,42.647311,1750.934],[0.012112,42.647341,1750.526],[0.012158,42.647378,1750.297],[0.012201,42.647412,1750.184],[0.01225,42.647442,1749.98],[0.012304,42.647464,1749.686],[0.012362,42.647495,1749.232],[0.01242,42.647517,1748.892],[0.012482,42.647523,1748.511],[0.012547,42.64753,1748.208],[0.01261,42.647547,1748.048],[0.012665,42.647573,1747.758],[0.012716,42.647598,1747.628],[0.012766,42.647635,1747.57],[0.0128,42.647681,1747.591],[0.012848,42.647717,1747.418],[0.012904,42.647752,1747.224],[0.012952,42.647785,1746.94],[0.013,42.647813,1746.782],[0.013064,42.647839,1746.843],[0.013126,42.647858,1747.017],[0.013192,42.647875,1747.108],[0.013251,42.647895,1747.153],[0.013293,42.647935,1747.033],[0.013341,42.647966,1746.743],[0.013393,42.647989,1746.245],[0.013446,42.648013,1746.036],[0.013495,42.648044,1746.343],[0.013554,42.648078,1746.589],[0.013616,42.6481,1746.835],[0.013679,42.648123,1747.299],[0.01375,42.648145,1747.507],[0.013811,42.648169,1747.827],[0.013868,42.648192,1748.108],[0.013944,42.648211,1748.794],[0.014005,42.648221,1749.584],[0.014067,42.648237,1750.354],[0.01412,42.648266,1751.276],[0.014183,42.64828,1752.067],[0.014241,42.648299,1752.944],[0.014298,42.648327,1753.72],[0.014346,42.648363,1754.556],[0.014391,42.648397,1755.396],[0.01444,42.64843,1756.131],[0.014484,42.648466,1756.724],[0.014537,42.648493,1757.108],[0.014594,42.648529,1757.664],[0.014648,42.648552,1758.144],[0.01471,42.648571,1758.684],[0.014774,42.648595,1759.146],[0.014825,42.648623,1759.767],[0.014867,42.648665,1760.274],[0.014914,42.648702,1760.85],[0.014955,42.648746,1761.496],[0.015002,42.648785,1761.996],[0.01505,42.648825,1762.331],[0.015096,42.64886,1762.424],[0.015144,42.648889,1762.508],[0.015153,42.648938,1762.684],[0.015185,42.648983,1762.664],[0.015222,42.649027,1762.884],[0.01525,42.649071,1762.966],[0.015284,42.649109,1762.977],[0.015281,42.649155,1763.354],[0.015255,42.649196,1763.93],[0.015256,42.649241,1764.636],[0.015253,42.64929,1765.544],[0.015199,42.64932,1766.505],[0.015164,42.649358,1767.315],[0.01513,42.649397,1767.808],[0.015098,42.64944,1768.459],[0.01512,42.649487,1768.799],[0.01515,42.649532,1768.929],[0.015171,42.649574,1768.931],[0.015217,42.649606,1769.082],[0.015222,42.649658,1769.149],[0.015205,42.649705,1769.285],[0.015243,42.649747,1769.361],[0.015278,42.649788,1769.981],[0.015318,42.649839,1770.561],[0.015381,42.649864,1769.317],[0.015441,42.64988,1768.208],[0.015507,42.649906,1767.663]]}}]}