{"type":"FeatureCollection","features":[{"type":"Feature","properties":{"ruta_id":"56217516","nombre":"⛰️ BISAURIN (2668 m) desde REFUGIO de LIZARA ruta clásica","blog_url":"https://www.rutasporelmonte.com/bisaurin-2668-m-desde-refugio-de-lizara-ruta-clasica/"},"geometry":{"type":"LineString","coordinates":[[-0.633385,42.763207,1505.282],[-0.633425,42.76326,1505.243],[-0.633488,42.763263,1505.217],[-0.633551,42.763268,1505.208],[-0.633628,42.763258,1505.223],[-0.63372,42.763242,1505.224],[-0.633691,42.763195,1505.27],[-0.633691,42.763195,1505.249],[-0.633627,42.763202,1505.225],[-0.633605,42.763248,1505.263],[-0.633628,42.763296,1505.239],[-0.633676,42.76333,1505.234],[-0.633734,42.763351,1505.268],[-0.633805,42.763383,1505.242],[-0.633846,42.763417,1505.226],[-0.633862,42.763464,1506.508],[-0.633906,42.763499,1507.311],[-0.633942,42.763541,1507.822],[-0.633975,42.763582,1508.668],[-0.634002,42.763623,1509.467],[-0.634032,42.763664,1510.483],[-0.634057,42.763713,1511.481],[-0.634086,42.763758,1512.527],[-0.634121,42.763802,1513.672],[-0.634149,42.763845,1515.714],[-0.6342,42.763874,1517.554],[-0.634251,42.7639,1518.909],[-0.634308,42.763918,1519.708],[-0.634353,42.763952,1520.296],[-0.634406,42.763975,1520.427],[-0.634448,42.764013,1520.713],[-0.634505,42.764047,1520.822],[-0.634543,42.764083,1520.918],[-0.634585,42.764122,1521.386],[-0.634615,42.76417,1521.622],[-0.634656,42.764206,1522.497],[-0.634698,42.764241,1523.333],[-0.634758,42.764271,1524.123],[-0.634763,42.764319,1525.015],[-0.634754,42.76437,1525.808],[-0.63475,42.764418,1526.938],[-0.634756,42.764463,1528.149],[-0.634823,42.764475,1529.485],[-0.634837,42.764521,1531.444],[-0.634845,42.764567,1533.25],[-0.634884,42.764604,1534.898],[-0.634902,42.764649,1537.974],[-0.634907,42.764698,1540.079],[-0.634941,42.764737,1541.682],[-0.634914,42.764782,1543.043],[-0.634897,42.764827,1544.117],[-0.634903,42.764875,1544.908],[-0.634912,42.764929,1545.883],[-0.634932,42.764979,1546.924],[-0.634952,42.765023,1548.53],[-0.63493,42.765068,1550.479],[-0.634904,42.765113,1552.325],[-0.634859,42.765147,1554.023],[-0.634809,42.765181,1555.289],[-0.634782,42.765223,1556.124],[-0.634773,42.765272,1556.994],[-0.634762,42.765319,1557.657],[-0.634743,42.765369,1558.422],[-0.63472,42.765419,1559.308],[-0.634693,42.765462,1560.144],[-0.634657,42.765506,1560.725],[-0.634623,42.765552,1561.051],[-0.634595,42.765596,1561.35],[-0.634571,42.765641,1561.596],[-0.634543,42.765691,1561.934],[-0.634513,42.765735,1562.64],[-0.634487,42.765784,1563.265],[-0.634467,42.765827,1563.861],[-0.634462,42.765875,1564.321],[-0.634434,42.765918,1565.013],[-0.634405,42.76596,1565.908],[-0.634384,42.766007,1566.691],[-0.634348,42.766044,1567.422],[-0.63432,42.766087,1568.228],[-0.63429,42.766134,1569.137],[-0.634274,42.766181,1570.093],[-0.634248,42.766228,1570.961],[-0.634222,42.766281,1571.937],[-0.634205,42.76633,1572.912],[-0.634188,42.766376,1573.764],[-0.634177,42.766425,1574.506],[-0.634169,42.766477,1575.216],[-0.634166,42.766525,1575.808],[-0.634163,42.766574,1576.481],[-0.634173,42.766626,1577.122],[-0.634191,42.766673,1577.968],[-0.634189,42.766723,1578.897],[-0.634193,42.766773,1579.653],[-0.634173,42.766822,1580.521],[-0.634142,42.766867,1581.397],[-0.634121,42.76691,1582.012],[-0.634103,42.766954,1582.636],[-0.634087,42.767001,1583.117],[-0.634081,42.767049,1583.718],[-0.634081,42.767102,1584.408],[-0.634079,42.767161,1585.138],[-0.634077,42.767211,1585.889],[-0.634071,42.76726,1586.445],[-0.634059,42.767306,1586.934],[-0.634042,42.767355,1587.59],[-0.634031,42.767401,1588.038],[-0.634035,42.767448,1588.534],[-0.634039,42.767493,1589.199],[-0.634071,42.767539,1589.928],[-0.634112,42.767583,1590.289],[-0.634152,42.76762,1590.217],[-0.634187,42.767665,1590.008],[-0.634221,42.767709,1589.447],[-0.63423,42.767755,1589.288],[-0.63427,42.767789,1589.874],[-0.634318,42.76782,1590.283],[-0.634373,42.767852,1590.419],[-0.634416,42.767891,1590.567],[-0.634466,42.767929,1590.513],[-0.634519,42.767961,1590.548],[-0.634566,42.767992,1590.664],[-0.634609,42.768024,1591.006],[-0.634676,42.76804,1592.116],[-0.634726,42.768074,1593.308],[-0.634765,42.768116,1594.781],[-0.634794,42.768162,1595.852],[-0.634846,42.768188,1597.188],[-0.634882,42.768227,1598.617],[-0.634929,42.768266,1600.113],[-0.634929,42.768317,1601.531],[-0.634921,42.768362,1605.017],[-0.63489,42.768405,1607.972],[-0.63483,42.768428,1610.464],[-0.634782,42.768458,1612.206],[-0.634744,42.768497,1613.716],[-0.634731,42.768543,1614.708],[-0.634682,42.768571,1615.341],[-0.634628,42.7686,1616.132],[-0.634581,42.768638,1616.718],[-0.634543,42.768683,1617.317],[-0.634495,42.768718,1617.913],[-0.634436,42.768754,1618.691],[-0.634382,42.768778,1619.727],[-0.63433,42.768806,1620.882],[-0.634294,42.768844,1622.138],[-0.634237,42.768874,1623.47],[-0.634184,42.768905,1624.617],[-0.634138,42.76894,1625.708],[-0.63409,42.768973,1626.858],[-0.634038,42.768997,1628.049],[-0.633976,42.769006,1629.325],[-0.633923,42.768977,1630.334],[-0.63391,42.769022,1633.69],[-0.633953,42.769059,1636.638],[-0.634014,42.769082,1639.174],[-0.634065,42.769112,1641.139],[-0.634105,42.76915,1642.836],[-0.634137,42.769192,1644.317],[-0.634169,42.769233,1646.118],[-0.634211,42.769274,1648.008],[-0.634258,42.769307,1649.758],[-0.634308,42.769333,1651.189],[-0.634342,42.769371,1652.215],[-0.634379,42.769408,1653.264],[-0.634414,42.769449,1654.23],[-0.634459,42.76948,1655.268],[-0.634497,42.769525,1656.064],[-0.634511,42.769572,1656.569],[-0.634526,42.769616,1657.094],[-0.634554,42.769657,1657.357],[-0.634586,42.769703,1657.522],[-0.634615,42.769751,1657.908],[-0.634648,42.76979,1658.264],[-0.634693,42.769826,1658.765],[-0.63474,42.769861,1659.311],[-0.634783,42.769899,1659.75],[-0.634808,42.769946,1660.136],[-0.634837,42.769987,1660.424],[-0.634876,42.770028,1660.89],[-0.634933,42.770065,1661.425],[-0.634982,42.770102,1661.975],[-0.635038,42.770127,1662.428],[-0.635085,42.770158,1662.92],[-0.635143,42.770188,1663.408],[-0.635188,42.770223,1664.092],[-0.635242,42.770258,1664.653],[-0.635294,42.770289,1665.239],[-0.63534,42.770324,1665.868],[-0.635384,42.770361,1666.454],[-0.635423,42.770402,1667.082],[-0.635451,42.770447,1667.718],[-0.635473,42.770493,1668.973],[-0.635473,42.770493,1668.953],[-0.635466,42.770539,1669.804],[-0.63544,42.770586,1670.714],[-0.63544,42.770638,1671.608],[-0.63542,42.770682,1672.93],[-0.635455,42.770729,1673.451],[-0.635502,42.77076,1674.347],[-0.635535,42.770802,1675.496],[-0.635584,42.770839,1676.312],[-0.635636,42.770868,1677.14],[-0.63569,42.770897,1677.996],[-0.63574,42.770931,1678.581],[-0.635782,42.770964,1678.725],[-0.635825,42.770999,1679.126],[-0.635868,42.771037,1679.508],[-0.635914,42.771073,1680.508],[-0.63595,42.77111,1681.627],[-0.635995,42.771147,1682.868],[-0.636035,42.771184,1683.834],[-0.636067,42.771223,1684.753],[-0.636096,42.771264,1685.799],[-0.636135,42.771303,1686.567],[-0.636169,42.771345,1687.283],[-0.636211,42.771383,1688.038],[-0.636252,42.771417,1688.719],[-0.636299,42.77145,1689.309],[-0.636334,42.77149,1690.019],[-0.636387,42.771521,1690.708],[-0.636447,42.771546,1691.466],[-0.636496,42.771578,1692.027],[-0.636544,42.771611,1692.323],[-0.636591,42.771648,1692.632],[-0.636644,42.771679,1692.878],[-0.636686,42.771717,1693.076],[-0.636734,42.771753,1693.322],[-0.636784,42.771781,1693.677],[-0.636849,42.771802,1693.764],[-0.636909,42.771825,1693.706],[-0.636959,42.77186,1693.616],[-0.637021,42.77188,1693.408],[-0.63708,42.771909,1693.371],[-0.637129,42.771942,1693.312],[-0.637185,42.771962,1693.558],[-0.637243,42.77198,1693.767],[-0.637303,42.771995,1694.263],[-0.637377,42.772009,1694.791],[-0.637442,42.772019,1695.327],[-0.63752,42.772028,1695.882],[-0.637584,42.772033,1696.334],[-0.637644,42.772049,1696.855],[-0.637704,42.772065,1697.41],[-0.637767,42.772085,1698.108],[-0.63783,42.7721,1698.748],[-0.637898,42.772117,1699.299],[-0.637957,42.772144,1699.615],[-0.638014,42.772162,1699.944],[-0.638083,42.772175,1700.36],[-0.638144,42.772183,1700.838],[-0.638207,42.772185,1701.394],[-0.638267,42.772207,1701.889],[-0.638323,42.772234,1702.326],[-0.638383,42.772259,1702.747],[-0.638446,42.772275,1703.111],[-0.638509,42.772285,1703.508],[-0.63857,42.772296,1704.037],[-0.638632,42.772314,1704.648],[-0.638692,42.772329,1705.054],[-0.638755,42.77234,1705.343],[-0.638815,42.77235,1705.619],[-0.638875,42.772365,1705.977],[-0.638938,42.772375,1706.273],[-0.639006,42.772379,1706.528],[-0.639071,42.772395,1706.929],[-0.639142,42.772411,1707.5],[-0.639205,42.772427,1708.12],[-0.639272,42.772432,1708.608],[-0.639337,42.772424,1709.057],[-0.639398,42.772416,1709.428],[-0.639467,42.772421,1709.864],[-0.639528,42.772425,1710.353],[-0.639591,42.772417,1710.819],[-0.639659,42.77242,1711.557],[-0.639726,42.772426,1712.233],[-0.639793,42.772426,1712.998],[-0.639858,42.772425,1713.559],[-0.639925,42.772426,1713.903],[-0.639999,42.772431,1714.423],[-0.640067,42.77243,1714.908],[-0.640133,42.772431,1715.56],[-0.640199,42.77244,1715.931],[-0.640258,42.772453,1716.227],[-0.640319,42.772469,1716.716],[-0.640383,42.772488,1717.482],[-0.640444,42.772513,1718.09],[-0.640508,42.772533,1718.656],[-0.640577,42.772542,1719.741],[-0.640637,42.772566,1720.521],[-0.640702,42.772574,1720.941],[-0.640768,42.77258,1720.905],[-0.640839,42.772583,1720.808],[-0.640902,42.77258,1720.557],[-0.640947,42.772614,1719.828],[-0.640914,42.772654,1719.654],[-0.640956,42.772697,1719.933],[-0.641021,42.772721,1720.569],[-0.641083,42.772744,1720.957],[-0.641138,42.772767,1721.393],[-0.64119,42.772796,1721.618],[-0.641202,42.772843,1722.137],[-0.641234,42.772883,1722.549],[-0.641276,42.772918,1722.813],[-0.641338,42.772943,1723.008],[-0.6414,42.772953,1723.268],[-0.641465,42.772965,1723.539],[-0.641517,42.772989,1724.125],[-0.641581,42.773022,1724.914],[-0.641645,42.773037,1726.34],[-0.641689,42.773077,1729.158],[-0.64175,42.773085,1731.844],[-0.641839,42.773102,1733.919],[-0.641895,42.77313,1735.731],[-0.641941,42.77316,1736.661],[-0.642,42.773182,1736.807],[-0.642033,42.773221,1736.708],[-0.642091,42.773237,1736.498],[-0.642151,42.773257,1736.579],[-0.642205,42.773278,1736.545],[-0.642252,42.773309,1736.844],[-0.642306,42.773333,1737.04],[-0.642369,42.773354,1737.538],[-0.642441,42.77337,1738.394],[-0.642504,42.773373,1739.279],[-0.642569,42.773394,1740.073],[-0.642633,42.77341,1740.685],[-0.6427,42.773421,1741.113],[-0.642765,42.773438,1741.508],[-0.642825,42.773453,1742.072],[-0.642894,42.77346,1742.713],[-0.642969,42.773482,1743.239],[-0.643025,42.773503,1743.588],[-0.64308,42.773534,1743.744],[-0.643134,42.773557,1743.822],[-0.6432,42.773564,1744.018],[-0.64327,42.773561,1744.253],[-0.643343,42.773574,1744.558],[-0.643403,42.77359,1744.952],[-0.643459,42.773613,1745.517],[-0.643522,42.773605,1745.808],[-0.643588,42.773617,1746.01],[-0.643655,42.773609,1746.321],[-0.643717,42.773607,1746.517],[-0.643781,42.773629,1746.626],[-0.643842,42.773637,1746.692],[-0.643911,42.773629,1746.58],[-0.643973,42.77365,1746.426],[-0.644037,42.773652,1746.471],[-0.644099,42.77366,1746.479],[-0.644162,42.773676,1746.705],[-0.644227,42.773687,1747.225],[-0.644284,42.77367,1747.608],[-0.644354,42.773658,1747.752],[-0.644415,42.773665,1747.573],[-0.644478,42.773688,1747.299],[-0.644413,42.773668,1748.358],[-0.644406,42.773617,1749.854],[-0.644406,42.773567,1751.012],[-0.64439,42.773522,1751.738],[-0.644415,42.773481,1752.223],[-0.644457,42.773442,1752.583],[-0.644514,42.773404,1752.625],[-0.644576,42.773384,1752.817],[-0.64464,42.773378,1753.208],[-0.644706,42.77339,1754.123],[-0.644769,42.773412,1755.054],[-0.644805,42.773454,1756.64],[-0.644875,42.773473,1757.759],[-0.644938,42.773478,1758.455],[-0.645,42.773479,1758.813],[-0.645063,42.773471,1759.719],[-0.645125,42.77348,1760.734],[-0.645187,42.77348,1761.961],[-0.645255,42.773471,1763.221],[-0.645325,42.773473,1764.613],[-0.645386,42.773463,1766.108],[-0.64545,42.773463,1767.611],[-0.645516,42.77346,1769.042],[-0.64559,42.773451,1770.358],[-0.64565,42.773441,1771.587],[-0.645717,42.773453,1772.553],[-0.645782,42.773458,1772.941],[-0.645847,42.773464,1773.367],[-0.645906,42.773442,1773.982],[-0.645958,42.773409,1774.693],[-0.646022,42.773416,1775.365],[-0.64607,42.773445,1776.221],[-0.646117,42.773475,1777.108],[-0.646181,42.773493,1778.254],[-0.646237,42.77352,1779.745],[-0.646246,42.77357,1781.091],[-0.646258,42.773618,1781.84],[-0.6463,42.773651,1782.546],[-0.646362,42.773663,1783.384],[-0.646431,42.773669,1784.14],[-0.646501,42.773674,1785.085],[-0.646557,42.773697,1785.616],[-0.646625,42.773708,1786.176],[-0.646683,42.773692,1786.613],[-0.646748,42.773695,1787.208],[-0.64681,42.773706,1787.796],[-0.646871,42.773721,1788.217],[-0.646935,42.773732,1788.843],[-0.646999,42.773716,1789.652],[-0.647061,42.773695,1790.548],[-0.647128,42.773694,1791.996],[-0.647194,42.773685,1793.282],[-0.647257,42.773689,1794.597],[-0.647318,42.773709,1795.816],[-0.647381,42.773718,1797.176],[-0.647444,42.773727,1798.513],[-0.647506,42.773738,1799.908],[-0.647558,42.773763,1801.746],[-0.647625,42.773764,1803.427],[-0.647686,42.77378,1805.423],[-0.647747,42.773792,1807.372],[-0.647807,42.773812,1809.158],[-0.647861,42.773836,1810.796],[-0.647928,42.773849,1812.382],[-0.647986,42.773868,1813.217],[-0.648041,42.773895,1813.923],[-0.648075,42.773934,1814.383],[-0.648123,42.773964,1814.511],[-0.648185,42.773958,1814.608],[-0.648239,42.773932,1814.957],[-0.648291,42.773901,1815.218],[-0.648354,42.773903,1816.374],[-0.648412,42.773922,1817.683],[-0.64848,42.773913,1819.249],[-0.64854,42.773903,1821.277],[-0.648605,42.773887,1823.283],[-0.648669,42.773874,1825.168],[-0.648727,42.773851,1827.176],[-0.64878,42.773829,1828.69],[-0.64884,42.773805,1829.919],[-0.648891,42.773774,1830.908],[-0.648929,42.773732,1831.712],[-0.648939,42.773777,1833.823],[-0.648934,42.773823,1835.369],[-0.64893,42.773871,1836.698],[-0.648914,42.773919,1837.774],[-0.648879,42.773959,1838.812],[-0.648857,42.774006,1840.058],[-0.648811,42.774045,1841.123],[-0.648787,42.774087,1842.374],[-0.64875,42.774124,1843.256],[-0.648739,42.774168,1845.121],[-0.648723,42.774216,1846.708],[-0.648694,42.774256,1848.122],[-0.64865,42.774295,1849.343],[-0.648611,42.774341,1850.559],[-0.648578,42.774381,1851.728],[-0.648547,42.774423,1853.144],[-0.648523,42.774466,1854.612],[-0.648516,42.774515,1856.188],[-0.648517,42.774561,1857.883],[-0.648514,42.774607,1859.449],[-0.648576,42.774607,1861.002],[-0.648617,42.774642,1862.622],[-0.648644,42.774684,1864.108],[-0.648672,42.774725,1865.679],[-0.648682,42.774771,1867.66],[-0.648676,42.774817,1870.146],[-0.64866,42.774862,1872.165],[-0.648681,42.774904,1873.811],[-0.648751,42.774898,1875.229],[-0.64877,42.774941,1876.985],[-0.648736,42.774981,1878.62],[-0.648675,42.774999,1880.057],[-0.64865,42.775042,1881.6],[-0.648644,42.77509,1883.12],[-0.648626,42.775134,1884.808],[-0.648684,42.775156,1886.38],[-0.648718,42.775197,1887.861],[-0.648661,42.775222,1889.077],[-0.648601,42.775238,1889.886],[-0.648538,42.775238,1890.512],[-0.648475,42.775259,1891.13],[-0.648415,42.775276,1891.726],[-0.648345,42.775285,1892.231],[-0.648289,42.775303,1892.533],[-0.648289,42.775359,1900.523],[-0.648289,42.775359,1900.515],[-0.648269,42.775407,1903.608],[-0.648241,42.775452,1905.758],[-0.648206,42.775493,1907.489],[-0.648173,42.775531,1908.975],[-0.648138,42.775572,1910.114],[-0.64811,42.775615,1910.94],[-0.6481,42.77566,1911.548],[-0.648081,42.775717,1912.164],[-0.648041,42.775754,1912.869],[-0.647999,42.775794,1913.778],[-0.64796,42.775837,1914.633],[-0.647918,42.775875,1915.826],[-0.647869,42.775916,1917.208],[-0.647817,42.775945,1918.832],[-0.647757,42.775969,1920.173],[-0.647706,42.776002,1920.969],[-0.647646,42.776021,1921.738],[-0.647595,42.776056,1922.714],[-0.647559,42.776093,1923.752],[-0.647524,42.776132,1924.658],[-0.647489,42.776175,1925.413],[-0.647446,42.776213,1926.189],[-0.647397,42.776255,1927.106],[-0.647355,42.776291,1928.426],[-0.647301,42.77632,1929.708],[-0.647246,42.776341,1931.163],[-0.647191,42.776371,1932.774],[-0.647141,42.776399,1934.67],[-0.647079,42.776417,1936.519],[-0.647013,42.776427,1938.265],[-0.646947,42.776435,1939.733],[-0.646884,42.776441,1941.289],[-0.646828,42.776475,1942.834],[-0.646783,42.776514,1944.068],[-0.646732,42.776541,1945.142],[-0.646673,42.77656,1946.226],[-0.646615,42.776581,1947.208],[-0.64657,42.776613,1948.141],[-0.646511,42.776644,1948.782],[-0.646451,42.776674,1949.218],[-0.6464,42.776706,1949.837],[-0.64634,42.776722,1950.623],[-0.646282,42.776738,1951.441],[-0.646213,42.776742,1952.077],[-0.646157,42.776772,1952.432],[-0.646141,42.776822,1952.736],[-0.64611,42.776864,1953.117],[-0.646091,42.776909,1953.418],[-0.64605,42.776951,1953.808],[-0.646003,42.776982,1954.228],[-0.645956,42.777023,1954.789],[-0.645931,42.777075,1955.275],[-0.645922,42.777124,1955.534],[-0.645882,42.777161,1955.82],[-0.645863,42.777209,1956.218],[-0.645807,42.777233,1956.824],[-0.645755,42.777271,1957.569],[-0.645727,42.777312,1958.142],[-0.645697,42.777356,1959.022],[-0.645635,42.777353,1960.614],[-0.645589,42.777395,1961.708],[-0.645559,42.777439,1962.629],[-0.645511,42.777478,1963.41],[-0.645459,42.777517,1964.036],[-0.645426,42.777568,1964.485],[-0.645392,42.777611,1964.781],[-0.645373,42.777662,1964.879],[-0.645354,42.777705,1964.925],[-0.645351,42.777755,1965.11],[-0.645423,42.777765,1965.426],[-0.645429,42.777815,1965.847],[-0.645407,42.777866,1966.211],[-0.645354,42.777906,1966.708],[-0.645289,42.777939,1967.397],[-0.645235,42.777967,1967.948],[-0.645192,42.778001,1968.544],[-0.645155,42.778038,1969.413],[-0.645177,42.778084,1970.429],[-0.645234,42.778111,1971.427],[-0.6453,42.778135,1972.243],[-0.645363,42.778135,1973.068],[-0.645428,42.778122,1973.569],[-0.645486,42.7781,1973.804],[-0.645537,42.778061,1974.124],[-0.645585,42.778031,1974.408],[-0.645642,42.778012,1974.831],[-0.645691,42.777981,1975.212],[-0.645747,42.777955,1975.928],[-0.645804,42.777936,1976.937],[-0.645864,42.777919,1978.123],[-0.645925,42.777895,1979.351],[-0.645996,42.777885,1980.677],[-0.646058,42.777863,1981.942],[-0.646118,42.777846,1983.045],[-0.646178,42.777828,1984.147],[-0.646236,42.777813,1985.111],[-0.646286,42.777786,1986.008],[-0.646329,42.777745,1986.699],[-0.646391,42.777734,1987.29],[-0.646453,42.777715,1987.246],[-0.646518,42.777705,1987.095],[-0.646585,42.77769,1987.071],[-0.646621,42.77765,1987.129],[-0.646668,42.777618,1987.365],[-0.64673,42.777604,1987.79],[-0.646796,42.777587,1988.454],[-0.646859,42.777573,1988.956],[-0.646907,42.777539,1989.411],[-0.646953,42.777508,1989.608],[-0.647012,42.777485,1989.88],[-0.647069,42.777457,1990.081],[-0.647137,42.777443,1990.227],[-0.647193,42.777413,1989.976],[-0.647258,42.777398,1989.772],[-0.647318,42.777372,1989.85],[-0.64738,42.777362,1989.986],[-0.647447,42.777363,1990.021],[-0.647513,42.77736,1990.157],[-0.647577,42.777352,1990.1],[-0.647638,42.777338,1990.22],[-0.647697,42.777324,1990.708],[-0.647764,42.777304,1991.53],[-0.647836,42.777286,1992.581],[-0.647889,42.777261,1993.477],[-0.647954,42.777238,1994.276],[-0.648021,42.777227,1994.632],[-0.648091,42.7772,1995.05],[-0.648157,42.777179,1995.536],[-0.648216,42.777163,1996.281],[-0.648275,42.777147,1997.024],[-0.648338,42.777145,1997.904],[-0.648401,42.777136,1998.614],[-0.648464,42.777131,1999.408],[-0.648524,42.777119,2000.127],[-0.648592,42.777105,2000.898],[-0.648658,42.777104,2001.784],[-0.648719,42.777098,2002.653],[-0.648777,42.777079,2003.559],[-0.648846,42.777066,2004.667],[-0.648915,42.77706,2005.873],[-0.648988,42.777053,2007.238],[-0.649055,42.777049,2008.585],[-0.649112,42.777029,2009.889],[-0.649176,42.77702,2010.917],[-0.649239,42.777015,2011.808],[-0.649302,42.777012,2012.683],[-0.649362,42.777022,2013.644],[-0.649424,42.777007,2014.74],[-0.649481,42.776988,2015.739],[-0.649542,42.776978,2016.645],[-0.649599,42.776952,2017.623],[-0.649664,42.776939,2018.749],[-0.649725,42.776928,2020.084],[-0.649789,42.77693,2021.219],[-0.649863,42.776935,2022.509],[-0.649893,42.776976,2022.919],[-0.649917,42.776933,2024.008],[-0.649982,42.776922,2024.626],[-0.650044,42.776914,2025.017],[-0.650025,42.776958,2025.083],[-0.649984,42.776995,2024.992],[-0.649929,42.777032,2025.338],[-0.649881,42.777067,2026.536],[-0.649818,42.777091,2027.332],[-0.64978,42.77714,2028.157],[-0.649736,42.777176,2028.213],[-0.649697,42.777212,2028.643],[-0.649651,42.777252,2029.307],[-0.649599,42.777283,2030.308],[-0.649536,42.777306,2031.796],[-0.649488,42.777341,2033.117],[-0.64944,42.777374,2034.363],[-0.649386,42.777401,2035.432],[-0.649322,42.777416,2036.878],[-0.649267,42.777448,2037.966],[-0.649217,42.777478,2038.932],[-0.649155,42.777507,2039.687],[-0.6491,42.777537,2039.816],[-0.649037,42.777569,2039.776],[-0.648983,42.777604,2039.313],[-0.648933,42.777642,2038.208],[-0.64887,42.777664,2037.096],[-0.648809,42.777682,2036.487],[-0.648748,42.777698,2036.213],[-0.648687,42.777721,2036.372],[-0.648665,42.777763,2036.628],[-0.648682,42.77771,2036.976],[-0.648634,42.777743,2039.562],[-0.648597,42.77778,2040.687],[-0.648541,42.777811,2041.314],[-0.648478,42.777848,2041.454],[-0.648428,42.777876,2041.609],[-0.648379,42.777918,2041.908],[-0.64834,42.777953,2042.176],[-0.648297,42.777994,2042.657],[-0.648256,42.778033,2043.453],[-0.648226,42.778074,2044.412],[-0.648194,42.778118,2045.068],[-0.648142,42.778147,2045.116],[-0.648093,42.778176,2045.232],[-0.648052,42.778211,2045.647],[-0.648007,42.778244,2046.175],[-0.647949,42.778264,2046.728],[-0.647896,42.778292,2047.52],[-0.647851,42.778333,2048.308],[-0.647801,42.778365,2049.282],[-0.647754,42.7784,2050.063],[-0.647708,42.778432,2051.129],[-0.647654,42.778462,2051.798],[-0.647592,42.778476,2052.284],[-0.647527,42.778484,2052.662],[-0.647476,42.778512,2053.168],[-0.647426,42.778538,2053.883],[-0.647391,42.778575,2054.793],[-0.647368,42.778618,2055.765],[-0.647339,42.778659,2056.921],[-0.647324,42.778706,2058.108],[-0.647289,42.778744,2059.274],[-0.647253,42.778783,2060.515],[-0.647199,42.778813,2061.851],[-0.647163,42.77885,2063.15],[-0.647142,42.778896,2064.486],[-0.647114,42.77894,2065.624],[-0.647063,42.778971,2066.94],[-0.647014,42.779003,2068.355],[-0.646979,42.779044,2069.469],[-0.646944,42.779082,2070.404],[-0.646905,42.779118,2071.424],[-0.646865,42.779157,2072.808],[-0.646815,42.779187,2074.581],[-0.646773,42.77922,2076.122],[-0.646742,42.779263,2077.658],[-0.646744,42.779308,2079.137],[-0.646749,42.779363,2080.543],[-0.646751,42.779409,2081.511],[-0.646736,42.779458,2082.337],[-0.646731,42.779503,2083.082],[-0.646693,42.779538,2084.458],[-0.646659,42.779579,2085.452],[-0.646646,42.779627,2086.217],[-0.646682,42.779673,2087.308],[-0.646731,42.779712,2088.31],[-0.646764,42.779751,2089.271],[-0.646783,42.779794,2089.887],[-0.646793,42.77984,2090.936],[-0.646778,42.779888,2091.792],[-0.646752,42.779931,2092.77],[-0.646716,42.77997,2093.866],[-0.646695,42.780017,2094.941],[-0.646679,42.780062,2096.051],[-0.646672,42.78011,2097.001],[-0.646652,42.780155,2098.111],[-0.646635,42.7802,2099.408],[-0.646579,42.780229,2100.42],[-0.646593,42.780277,2101.481],[-0.646574,42.780321,2102.957],[-0.646542,42.78036,2104.496],[-0.646488,42.780392,2106.192],[-0.646429,42.780411,2108.26],[-0.646364,42.78042,2110.816],[-0.646303,42.780427,2113.651],[-0.646249,42.780456,2116.596],[-0.646241,42.780504,2118.931],[-0.646241,42.780549,2121.024],[-0.646214,42.780591,2123.208],[-0.64615,42.780591,2125.294],[-0.646131,42.780636,2127.245],[-0.646126,42.780684,2129.161],[-0.64611,42.780728,2130.87],[-0.646068,42.780762,2132.746],[-0.646045,42.780808,2134.624],[-0.646005,42.780843,2136.91],[-0.64596,42.780881,2139.555],[-0.645921,42.780916,2143.541],[-0.645868,42.780939,2147.281],[-0.645804,42.780947,2150.009],[-0.645743,42.780971,2152.508],[-0.645699,42.781012,2154.559],[-0.645646,42.781042,2156.99],[-0.645621,42.781085,2159.076],[-0.645589,42.781127,2161.115],[-0.64557,42.781172,2163.241],[-0.645608,42.78121,2165.479],[-0.64557,42.781248,2168.125],[-0.645542,42.781295,2171.97],[-0.64554,42.781341,2174.944],[-0.645474,42.781345,2177.305],[-0.645425,42.781377,2179.215],[-0.64537,42.781402,2181.008],[-0.645308,42.78141,2182.699],[-0.645246,42.781423,2184.53],[-0.645183,42.781427,2186.446],[-0.645124,42.781445,2188.095],[-0.645067,42.781471,2190.681],[-0.645085,42.781516,2193.139],[-0.645018,42.781518,2195.465],[-0.644979,42.781553,2197.78],[-0.644986,42.781599,2199.873],[-0.644925,42.78161,2202.485],[-0.644863,42.781618,2204.513],[-0.644821,42.781651,2206.108],[-0.644781,42.781685,2207.422],[-0.644808,42.781727,2209.053],[-0.644769,42.781763,2210.689],[-0.644782,42.781808,2212.578],[-0.644814,42.78185,2215.184],[-0.64483,42.781894,2217.882],[-0.644865,42.781931,2220.368],[-0.644833,42.781969,2222.763],[-0.644862,42.78201,2224.747],[-0.644827,42.782049,2226.629],[-0.64479,42.782088,2228.621],[-0.644807,42.782133,2230.508],[-0.644743,42.782141,2232.429],[-0.644677,42.782156,2234.15],[-0.644613,42.782154,2236.176],[-0.644579,42.782197,2237.955],[-0.644563,42.782245,2240.021],[-0.644515,42.782275,2242.299],[-0.644464,42.782307,2244.385],[-0.644414,42.782339,2246.19],[-0.644382,42.782379,2247.683],[-0.644353,42.78242,2249.225],[-0.644307,42.782456,2250.917],[-0.644265,42.782492,2252.708],[-0.644266,42.782537,2254.483],[-0.644262,42.782589,2256.254],[-0.644241,42.782635,2258.05],[-0.644201,42.782675,2259.569],[-0.644159,42.782714,2260.875],[-0.644144,42.782762,2261.983],[-0.644098,42.782794,2263.249],[-0.644086,42.782841,2265.014],[-0.644046,42.782886,2267.447],[-0.64402,42.782931,2269.129],[-0.64397,42.782968,2270.721],[-0.643939,42.783009,2272.408],[-0.643907,42.783048,2274.649],[-0.643909,42.783095,2277.17],[-0.64385,42.783108,2279.376],[-0.643875,42.783153,2281.655],[-0.643931,42.783187,2283.381],[-0.643899,42.783228,2284.869],[-0.64383,42.783238,2286.185],[-0.643845,42.783282,2287.86],[-0.643835,42.783328,2289.997],[-0.643841,42.783373,2292.123],[-0.643816,42.783417,2293.925],[-0.643856,42.783455,2295.508],[-0.643851,42.783503,2296.834],[-0.643848,42.783552,2298.245],[-0.643848,42.7836,2299.821],[-0.643825,42.783645,2301.74],[-0.643866,42.78368,2303.766],[-0.643894,42.783722,2305.814],[-0.643911,42.783767,2307.65],[-0.643943,42.783808,2309.555],[-0.643977,42.783845,2311.682],[-0.643929,42.783876,2313.443],[-0.643899,42.783921,2315.217],[-0.643929,42.783965,2317.308],[-0.643936,42.784013,2320.243],[-0.643912,42.784057,2322.954],[-0.643918,42.784103,2325.33],[-0.643887,42.784143,2327.359],[-0.643874,42.784189,2329.395],[-0.643865,42.784234,2331.173],[-0.643895,42.784276,2332.689],[-0.643845,42.784303,2334.234],[-0.643829,42.784352,2336.027],[-0.643867,42.784387,2337.768],[-0.643911,42.784419,2339.314],[-0.643916,42.784466,2341.208],[-0.643971,42.784498,2342.867],[-0.643938,42.784539,2344.228],[-0.643883,42.784563,2345.414],[-0.64386,42.784608,2347.123],[-0.643919,42.784634,2349.189],[-0.643895,42.784677,2351.297],[-0.643918,42.784721,2353.643],[-0.643945,42.784766,2357.478],[-0.64389,42.784789,2360.151],[-0.643857,42.784828,2362.301],[-0.643806,42.784856,2364.711],[-0.64375,42.784876,2366.708],[-0.64378,42.784916,2368.47],[-0.643812,42.784955,2370.721],[-0.643787,42.784996,2372.787],[-0.643783,42.785047,2374.476],[-0.643754,42.785087,2376.052],[-0.643748,42.785134,2378.52],[-0.643718,42.785173,2381.436],[-0.643676,42.785209,2384.141],[-0.643619,42.785226,2386.242],[-0.643559,42.785242,2388.222],[-0.643546,42.78529,2390.714],[-0.643598,42.785319,2393.208],[-0.643586,42.785364,2397.269],[-0.643601,42.785409,2401.25],[-0.643535,42.785422,2405.246],[-0.643475,42.785406,2408.235],[-0.64347,42.785451,2410.081],[-0.643424,42.785484,2412.679],[-0.643458,42.785522,2415.155],[-0.643456,42.785568,2417.33],[-0.643515,42.785582,2420.584],[-0.643563,42.785615,2423.207],[-0.643502,42.785633,2425.517],[-0.643445,42.785655,2427.508],[-0.643382,42.785642,2428.973],[-0.643426,42.785674,2430.434],[-0.643469,42.785706,2432.19],[-0.643403,42.785712,2432.919],[-0.643344,42.785736,2433.535],[-0.643293,42.785768,2434.353],[-0.643299,42.785813,2436.099],[-0.643341,42.785849,2437.794],[-0.643315,42.785891,2439.812],[-0.64331,42.785937,2442.132],[-0.643325,42.785984,2444.705],[-0.643295,42.786024,2448.708],[-0.643303,42.786074,2452.716],[-0.643284,42.786117,2456.727],[-0.643329,42.786153,2460.473],[-0.643318,42.786198,2464.412],[-0.643364,42.786229,2467.758],[-0.643362,42.786277,2470.116],[-0.643356,42.786324,2472.012],[-0.64337,42.786369,2473.017],[-0.643378,42.786415,2475.599],[-0.643387,42.786461,2478.207],[-0.643386,42.786506,2481.227],[-0.64342,42.786548,2484.308],[-0.643471,42.786576,2486.834],[-0.643461,42.786621,2489.855],[-0.643488,42.786661,2492.781],[-0.643457,42.786701,2495.13],[-0.643493,42.786738,2498.496],[-0.64349,42.786783,2501.764],[-0.643462,42.786823,2505.02],[-0.643471,42.786868,2507.635],[-0.64352,42.786896,2510.097],[-0.643537,42.78694,2511.923],[-0.643539,42.786985,2513.925],[-0.643551,42.787034,2515.208],[-0.643557,42.78708,2516.594],[-0.643525,42.787118,2519.645],[-0.643524,42.787163,2523.161],[-0.643536,42.787207,2527.11],[-0.643549,42.787252,2530.426],[-0.643571,42.787294,2533.334],[-0.643627,42.787321,2535.94],[-0.643689,42.78733,2538.375],[-0.643648,42.787363,2540.612],[-0.64367,42.787406,2542.932],[-0.643695,42.787448,2546.105],[-0.643693,42.787494,2548.908],[-0.643652,42.787528,2551.326],[-0.643592,42.787538,2553.547],[-0.643525,42.787545,2555.123],[-0.643465,42.787557,2556.792],[-0.643398,42.787564,2557.998],[-0.643334,42.787572,2558.976],[-0.643272,42.787573,2560.372],[-0.643208,42.787588,2562.057],[-0.643145,42.787605,2563.717],[-0.643083,42.787606,2565.487],[-0.643022,42.787591,2567.015],[-0.642964,42.787572,2568.408],[-0.642901,42.787568,2569.846],[-0.642838,42.787567,2571.237],[-0.642777,42.787576,2572.663],[-0.642715,42.787593,2573.942],[-0.642655,42.787612,2575.478],[-0.642591,42.787608,2577.196],[-0.642529,42.787617,2578.972],[-0.642463,42.787612,2581.047],[-0.642404,42.787629,2582.883],[-0.642348,42.787658,2585.725],[-0.642364,42.787703,2588.217],[-0.642298,42.78771,2589.908],[-0.642232,42.787708,2591.363],[-0.642216,42.787752,2592.974],[-0.642159,42.787771,2594.49],[-0.642146,42.787819,2596.259],[-0.642095,42.787844,2597.935],[-0.642101,42.787891,2599.613],[-0.642052,42.78792,2600.889],[-0.641993,42.787906,2601.754],[-0.641955,42.787945,2603.122],[-0.641948,42.787992,2605.062],[-0.641982,42.788033,2606.808],[-0.641989,42.788081,2608.508],[-0.641956,42.788119,2610.567],[-0.641901,42.78815,2614.188],[-0.641879,42.788194,2617.414],[-0.641819,42.78818,2619.173],[-0.641754,42.788171,2620.149],[-0.641685,42.788164,2620.827],[-0.64162,42.788151,2621.423],[-0.641554,42.788148,2622.178],[-0.641503,42.788177,2622.965],[-0.641441,42.788184,2623.668],[-0.641382,42.788195,2624.314],[-0.641354,42.788239,2625.808],[-0.641293,42.788262,2627.191],[-0.641242,42.788294,2628.332],[-0.641182,42.788312,2629.838],[-0.641118,42.788302,2631.397],[-0.641055,42.788307,2633.373],[-0.640992,42.788308,2635.221],[-0.640926,42.788303,2637.187],[-0.640867,42.788325,2639.022],[-0.640816,42.78835,2640.487],[-0.640751,42.788349,2641.842],[-0.640694,42.788366,2644.326],[-0.640631,42.788385,2646.708],[-0.640568,42.788399,2649.473],[-0.640505,42.788395,2652.064],[-0.640453,42.788425,2654.48],[-0.640415,42.788462,2656.959],[-0.640351,42.788458,2658.385],[-0.640289,42.788443,2659.153],[-0.640224,42.788449,2659.589],[-0.640159,42.788467,2659.884],[-0.640111,42.7885,2660.361],[-0.640048,42.788496,2660.821],[-0.639984,42.788504,2661.713],[-0.640004,42.788461,2665.508],[-0.639958,42.788431,2667.631],[-0.639974,42.788476,2668.082],[-0.640004,42.788518,2668.258],[-0.639975,42.788477,2668.537],[-0.640002,42.788519,2668.993],[-0.639953,42.788485,2669.411],[-0.640012,42.788463,2669.537],[-0.640079,42.788469,2669.662],[-0.640144,42.788464,2669.523],[-0.640188,42.788424,2669.183],[-0.640256,42.788408,2668.511],[-0.64032,42.788407,2667.808],[-0.640383,42.788425,2666.857],[-0.640444,42.788433,2665.918],[-0.640495,42.788402,2665.184],[-0.640542,42.78837,2664.453],[-0.640592,42.788341,2663.189],[-0.640638,42.788308,2661.047],[-0.640701,42.788319,2659.053],[-0.640767,42.788321,2657.158],[-0.640825,42.788337,2655.566],[-0.640886,42.788325,2654.029],[-0.640924,42.78829,2652.721],[-0.640985,42.788276,2651.508],[-0.641053,42.788284,2650.381],[-0.641118,42.788291,2649.372],[-0.641147,42.788249,2648.588],[-0.641213,42.788239,2647.897],[-0.641284,42.788234,2647.293],[-0.641346,42.788231,2646.661],[-0.641402,42.788211,2645.427],[-0.641433,42.788171,2643.662],[-0.641499,42.788157,2642.096],[-0.641549,42.788129,2639.731],[-0.641609,42.788148,2637.924],[-0.641673,42.788153,2636.508],[-0.641735,42.788154,2635.344],[-0.641797,42.788154,2634.175],[-0.641853,42.78813,2632.731],[-0.641921,42.788134,2631.36],[-0.641937,42.788085,2629.976],[-0.64189,42.788054,2628.044],[-0.641829,42.788034,2626.09],[-0.64189,42.788021,2624.325],[-0.641953,42.788015,2622.834],[-0.642017,42.788017,2621.455],[-0.641994,42.787975,2619.91],[-0.64195,42.787939,2618.208],[-0.641974,42.787894,2616.068],[-0.642036,42.787872,2613.969],[-0.642101,42.78788,2612.265],[-0.642166,42.787871,2610.534],[-0.642169,42.787824,2608.31],[-0.642194,42.787782,2606.268],[-0.642193,42.787737,2604.574],[-0.642251,42.78772,2602.789],[-0.642242,42.787676,2601.069],[-0.642307,42.787671,2599.604],[-0.64237,42.787675,2598.424],[-0.642433,42.787678,2597.408],[-0.64241,42.78763,2595.841],[-0.642472,42.787609,2594.322],[-0.642535,42.787596,2592.718],[-0.642604,42.787601,2591.367],[-0.642662,42.787579,2590.033],[-0.642725,42.787587,2588.831],[-0.642775,42.787555,2587.227],[-0.642841,42.787558,2585.392],[-0.642925,42.787563,2583.394],[-0.642993,42.787577,2581.457],[-0.643066,42.78759,2579.522],[-0.643129,42.787607,2577.908],[-0.643195,42.787607,2576.774],[-0.643249,42.78758,2575.315],[-0.643312,42.787558,2573.791],[-0.643372,42.787567,2572.39],[-0.64344,42.787556,2570.986],[-0.643503,42.787544,2569.884],[-0.643556,42.787517,2568.48],[-0.643623,42.787514,2566.355],[-0.643698,42.787521,2564.029],[-0.64371,42.787476,2561.5],[-0.643686,42.787433,2558.62],[-0.643643,42.787395,2556.208],[-0.643636,42.78735,2554.277],[-0.643581,42.787327,2552.448],[-0.643547,42.787289,2550.474],[-0.643549,42.787244,2548.533],[-0.643515,42.787205,2546.819],[-0.643473,42.78717,2545.257],[-0.643534,42.78716,2543.883],[-0.643543,42.787114,2542.158],[-0.643515,42.787072,2540.377],[-0.643481,42.787033,2538.661],[-0.64351,42.786991,2537.027],[-0.643486,42.786949,2534.708],[-0.643531,42.786913,2533.152],[-0.643588,42.786892,2531.553],[-0.643532,42.78686,2529.439],[-0.643487,42.786828,2527.858],[-0.643433,42.786803,2526.134],[-0.643441,42.786758,2524.582],[-0.643493,42.786731,2522.988],[-0.643533,42.786695,2520.493],[-0.643474,42.786675,2518.391],[-0.64342,42.786654,2516.181],[-0.643481,42.786635,2513.919],[-0.643476,42.786589,2511.208],[-0.643487,42.786544,2508.224],[-0.643433,42.786521,2505.675],[-0.643374,42.786503,2503.341],[-0.643406,42.786462,2501.16],[-0.643435,42.786421,2499.186],[-0.643383,42.786388,2497.174],[-0.643392,42.786341,2495.32],[-0.643383,42.786294,2493.255],[-0.643345,42.786254,2491.261],[-0.643316,42.786214,2487.921],[-0.643349,42.786176,2484.513],[-0.643298,42.78615,2481.108],[-0.643344,42.786114,2478.881],[-0.643299,42.78608,2477.242],[-0.643275,42.786037,2476.178],[-0.643309,42.785999,2474.547],[-0.643353,42.785966,2473.013],[-0.643342,42.785914,2469.921],[-0.643346,42.785866,2465.917],[-0.643322,42.785814,2461.952],[-0.643324,42.785767,2457.933],[-0.643305,42.785724,2454.123],[-0.643364,42.785707,2450.115],[-0.643423,42.785693,2446.508],[-0.643451,42.785653,2443.248],[-0.643423,42.785613,2440.689],[-0.643497,42.785607,2438.085],[-0.643558,42.785606,2435.944],[-0.643519,42.78557,2433.75],[-0.643462,42.785549,2432.088],[-0.643413,42.785513,2430.394],[-0.643461,42.785479,2428.429],[-0.643513,42.785451,2425.152],[-0.643482,42.785405,2422.353],[-0.643492,42.785451,2419.008],[-0.643562,42.785453,2416.408],[-0.643606,42.785419,2414.57],[-0.643629,42.785377,2413.111],[-0.643647,42.785327,2410.457],[-0.643634,42.785277,2408.316],[-0.643612,42.785227,2406.592],[-0.643662,42.785199,2404.38],[-0.643727,42.785185,2402.286],[-0.643783,42.785166,2400.141],[-0.643786,42.785116,2397.648],[-0.643738,42.785082,2395.161],[-0.643738,42.785037,2391.517],[-0.643798,42.785026,2388.308],[-0.643794,42.784976,2385.429],[-0.643856,42.784974,2382.61],[-0.643914,42.784958,2380.146],[-0.643924,42.784908,2377.715],[-0.643894,42.784865,2375.431],[-0.643849,42.784829,2374.069],[-0.643879,42.784784,2372.755],[-0.643878,42.784738,2370.85],[-0.643821,42.784701,2369.097],[-0.643817,42.784653,2366.923],[-0.643846,42.784611,2364.825],[-0.643905,42.784588,2362.708],[-0.643856,42.784553,2360.454],[-0.643845,42.784499,2357.135],[-0.643887,42.784465,2354.281],[-0.64388,42.784419,2351.33],[-0.64388,42.78437,2348.196],[-0.643879,42.784324,2345.484],[-0.643854,42.784282,2343.31],[-0.643897,42.784231,2341.225],[-0.643905,42.784186,2339.045],[-0.643928,42.784142,2336.847],[-0.643908,42.784095,2334.411],[-0.643896,42.784048,2332.108],[-0.643865,42.784,2329.419],[-0.643865,42.783951,2326.94],[-0.643876,42.783906,2324.916],[-0.643893,42.783858,2322.825],[-0.643922,42.783818,2321.191],[-0.64392,42.783769,2319.139],[-0.643885,42.783725,2317.195],[-0.643881,42.783671,2314.93],[-0.643858,42.783619,2312.998],[-0.643847,42.783566,2310.815],[-0.64386,42.783515,2308.526],[-0.643861,42.783467,2306.108],[-0.643854,42.783419,2303.474],[-0.643825,42.783377,2301.235],[-0.643856,42.783334,2298.581],[-0.643903,42.783305,2296.06],[-0.643909,42.783259,2293.616],[-0.643933,42.783217,2291.554],[-0.643902,42.783173,2289.62],[-0.643902,42.783128,2287.715],[-0.643855,42.783092,2285.722],[-0.643902,42.783055,2283.462],[-0.643929,42.783014,2280.908],[-0.643975,42.782979,2278.908],[-0.644014,42.782943,2277.447],[-0.644021,42.782894,2276.098],[-0.644033,42.782846,2274.844],[-0.644053,42.782797,2273.443],[-0.644098,42.782766,2272.269],[-0.644146,42.782726,2270.937],[-0.64419,42.782694,2269.563],[-0.644217,42.782651,2267.978],[-0.644276,42.782666,2264.564],[-0.644292,42.782617,2260.806],[-0.644285,42.78257,2257.416],[-0.644323,42.782534,2254.808],[-0.644403,42.782519,2252.791],[-0.64447,42.782494,2251.122],[-0.644529,42.782459,2249.768],[-0.644574,42.782423,2248.617],[-0.644624,42.782364,2247.773],[-0.644666,42.782308,2246.891],[-0.644675,42.782253,2245.977],[-0.644686,42.782203,2245.062],[-0.644684,42.782148,2243.919],[-0.64468,42.782102,2242.709],[-0.644745,42.782099,2240.819],[-0.644784,42.782054,2238.608],[-0.644772,42.782002,2236.876],[-0.644748,42.781957,2235.247],[-0.644732,42.781913,2233.543],[-0.644729,42.781865,2231.612],[-0.644747,42.781817,2229.338],[-0.644742,42.781771,2226.886],[-0.644705,42.781735,2224.292],[-0.644683,42.781691,2221.967],[-0.644743,42.7817,2219.958],[-0.644805,42.781703,2218.152],[-0.644879,42.781697,2216.117],[-0.64493,42.781667,2213.808],[-0.645,42.781655,2211.99],[-0.644998,42.781607,2209.821],[-0.644974,42.781564,2207.757],[-0.644943,42.781522,2205.726],[-0.645009,42.781512,2204.142],[-0.645061,42.781489,2202.63],[-0.645127,42.781485,2200.966],[-0.645122,42.781438,2199.521],[-0.645121,42.781392,2198.099],[-0.645178,42.781374,2196.407],[-0.645225,42.781344,2194.627],[-0.645257,42.781301,2192.708],[-0.645322,42.78131,2190.884],[-0.645384,42.781303,2189.285],[-0.645447,42.781285,2186.971],[-0.645518,42.781259,2184.67],[-0.645571,42.781231,2181.796],[-0.645638,42.78124,2179.444],[-0.645685,42.781208,2177.46],[-0.645666,42.781158,2175.675],[-0.645641,42.781113,2173.855],[-0.64565,42.781068,2171.907],[-0.645717,42.781047,2169.617],[-0.645776,42.781027,2167.108],[-0.64583,42.781003,2164.88],[-0.645891,42.780983,2162.851],[-0.645957,42.780977,2160.477],[-0.64602,42.780956,2158.256],[-0.64601,42.780909,2156.542],[-0.645988,42.780863,2154.65],[-0.646029,42.780823,2152.386],[-0.64605,42.780773,2149.361],[-0.64607,42.78073,2146.639],[-0.646088,42.780684,2144.201],[-0.646091,42.780638,2142.321],[-0.646136,42.780599,2140.308],[-0.646179,42.780558,2138.128],[-0.646237,42.780535,2136.039],[-0.64623,42.780489,2133.975],[-0.646247,42.780442,2131.634],[-0.646284,42.780406,2128.99],[-0.646342,42.78039,2126.778],[-0.646414,42.780396,2124.894],[-0.646475,42.780391,2122.879],[-0.646525,42.780361,2120.811],[-0.646558,42.780313,2118.921],[-0.646563,42.78026,2117.303],[-0.646557,42.780214,2115.408],[-0.646596,42.780172,2113.056],[-0.646532,42.780158,2109.077],[-0.646506,42.780113,2105.323],[-0.646513,42.780061,2102.712],[-0.646515,42.780012,2100.838],[-0.646539,42.779946,2099.136],[-0.646568,42.779903,2097.732],[-0.646611,42.779855,2096.397],[-0.646645,42.779814,2094.918],[-0.646639,42.77976,2093.498],[-0.646645,42.779714,2092.117],[-0.646647,42.779669,2091.208],[-0.646643,42.779618,2090.486],[-0.646639,42.779573,2089.677],[-0.646651,42.779525,2088.653],[-0.64667,42.779468,2087.532],[-0.646683,42.779424,2086.788],[-0.646698,42.779371,2086.186],[-0.646713,42.779327,2085.322],[-0.646714,42.779272,2084.137],[-0.646728,42.779221,2082.588],[-0.646753,42.779175,2081.224],[-0.646796,42.779135,2080.226],[-0.646854,42.779097,2079.008],[-0.646904,42.77906,2077.763],[-0.646922,42.779011,2076.634],[-0.64697,42.77898,2075.63],[-0.647019,42.778944,2074.239],[-0.647046,42.778903,2072.935],[-0.647064,42.778856,2072.123],[-0.64711,42.778816,2071.669],[-0.647137,42.778772,2070.714],[-0.647166,42.77873,2069.433],[-0.647198,42.778685,2068.223],[-0.647238,42.778648,2066.715],[-0.647272,42.77869,2064.308],[-0.647332,42.778666,2062.068],[-0.647396,42.778639,2059.989],[-0.647461,42.778606,2058.035],[-0.647523,42.778589,2056.614],[-0.647598,42.778535,2055.62],[-0.647621,42.778465,2054.838],[-0.64764,42.778408,2054.364],[-0.647649,42.77836,2053.989],[-0.647677,42.778316,2053.842],[-0.647714,42.77828,2053.322],[-0.647749,42.778242,2052.914],[-0.647803,42.778204,2052.208],[-0.647848,42.778173,2051.539],[-0.647888,42.778136,2050.43],[-0.647922,42.778097,2049.126],[-0.647963,42.778055,2048.055],[-0.648012,42.778025,2047.081],[-0.648066,42.778002,2046.199],[-0.648127,42.777973,2044.885],[-0.648179,42.777938,2043.23],[-0.648251,42.777917,2041.323],[-0.648309,42.777893,2039.683],[-0.648364,42.777859,2038.411],[-0.64841,42.777824,2037.208],[-0.648469,42.777789,2036.197],[-0.648524,42.777761,2035.098],[-0.648592,42.777747,2033.894],[-0.648653,42.777738,2032.433],[-0.648722,42.777721,2030.769],[-0.648777,42.777701,2029.537],[-0.648824,42.777667,2028.693],[-0.648865,42.777632,2028.068],[-0.64892,42.777604,2027.697],[-0.648982,42.777579,2026.923],[-0.649024,42.777541,2026.325],[-0.649073,42.777503,2025.608],[-0.649111,42.777468,2025.114],[-0.649146,42.77743,2024.515],[-0.649176,42.777387,2024.131],[-0.649244,42.777389,2023.87],[-0.649307,42.777372,2022.796],[-0.649353,42.777335,2022.164],[-0.649395,42.777294,2021.67],[-0.649445,42.777259,2021.435],[-0.649509,42.777242,2020.758],[-0.649567,42.777225,2020.052],[-0.649617,42.777189,2019.617],[-0.649676,42.777172,2019.408],[-0.649726,42.777146,2019.17],[-0.649762,42.777109,2018.771],[-0.649802,42.777074,2018.157],[-0.649846,42.777039,2017.486],[-0.649885,42.777002,2016.932],[-0.649849,42.776963,2015.92],[-0.649786,42.776926,2014.986],[-0.649723,42.776906,2014.131],[-0.649676,42.776869,2013.165],[-0.649598,42.776885,2012.068],[-0.649541,42.776943,2011.114],[-0.649491,42.776988,2010.308],[-0.649455,42.77703,2009.311],[-0.649402,42.777059,2008.312],[-0.649342,42.777073,2007.228],[-0.649274,42.777067,2006.037],[-0.649199,42.777055,2004.523],[-0.649137,42.777053,2003.241],[-0.649072,42.777069,2001.817],[-0.649009,42.777089,2000.272],[-0.648942,42.777086,1998.642],[-0.648881,42.777094,1997.422],[-0.648818,42.777083,1996.214],[-0.648744,42.777097,1994.908],[-0.648684,42.777117,1993.719],[-0.648624,42.777128,1992.87],[-0.648543,42.777133,1991.766],[-0.648476,42.777144,1990.365],[-0.648412,42.777156,1988.471],[-0.648341,42.777167,1986.749],[-0.648266,42.777176,1985.395],[-0.648202,42.777183,1984.24],[-0.648124,42.777191,1983.445],[-0.648061,42.777208,1982.947],[-0.647983,42.77723,1982.611],[-0.647924,42.777248,1982.308],[-0.64786,42.777272,1982.259],[-0.647798,42.777304,1982.22],[-0.647738,42.777329,1982.446],[-0.647675,42.777354,1982.765],[-0.647612,42.777369,1982.841],[-0.647543,42.777378,1983.059],[-0.647477,42.777381,1983.155],[-0.647405,42.777389,1983.02],[-0.647338,42.777389,1982.546],[-0.647266,42.777398,1981.988],[-0.647211,42.777426,1981.116],[-0.647144,42.77745,1980.408],[-0.647087,42.777477,1979.989],[-0.647022,42.777496,1980.09],[-0.646969,42.777521,1980.276],[-0.646917,42.777555,1980.525],[-0.64687,42.777589,1980.721],[-0.64681,42.777613,1980.749],[-0.646746,42.777618,1980.695],[-0.646681,42.77763,1980.58],[-0.646621,42.777646,1980.534],[-0.646562,42.777681,1980.555],[-0.646522,42.777718,1980.31],[-0.64646,42.777738,1979.808],[-0.646391,42.777751,1979.398],[-0.646313,42.777765,1978.929],[-0.646255,42.777794,1978.495],[-0.646215,42.777831,1978.094],[-0.646147,42.777858,1977.89],[-0.646073,42.777874,1977.398],[-0.646017,42.777904,1976.844],[-0.645957,42.777943,1976.379],[-0.645895,42.777954,1975.413],[-0.645826,42.777971,1974.743],[-0.645758,42.777987,1973.807],[-0.645682,42.777994,1973.008],[-0.645617,42.778004,1972.476],[-0.645554,42.778031,1972.027],[-0.645461,42.778059,1971.043],[-0.645405,42.778082,1970.092],[-0.645348,42.778102,1968.868],[-0.645279,42.778108,1967.826],[-0.645218,42.77813,1966.922],[-0.645171,42.77817,1965.897],[-0.645102,42.77817,1965.035],[-0.645063,42.778134,1964.686],[-0.645058,42.778065,1964.314],[-0.645081,42.778023,1964.008],[-0.645112,42.777959,1963.688],[-0.645161,42.777923,1962.949],[-0.645219,42.777891,1962.285],[-0.645285,42.777865,1961.354],[-0.645327,42.777817,1960.48],[-0.645357,42.777771,1959.578],[-0.6454,42.777721,1958.824],[-0.645433,42.777678,1958.549],[-0.645483,42.777631,1958.434],[-0.645519,42.777579,1958.655],[-0.645563,42.777538,1958.71],[-0.645595,42.777489,1958.808],[-0.645628,42.777451,1958.298],[-0.645649,42.777407,1957.489],[-0.645682,42.777363,1956.765],[-0.645705,42.777315,1955.824],[-0.645743,42.77727,1954.87],[-0.645774,42.777223,1953.778],[-0.645822,42.777194,1952.784],[-0.645852,42.777147,1952.139],[-0.645882,42.777099,1951.452],[-0.645916,42.777061,1950.753],[-0.645942,42.777002,1950.008],[-0.645963,42.776945,1949.008],[-0.646,42.7769,1948.17],[-0.646053,42.776874,1947.251],[-0.646092,42.776839,1946.437],[-0.646136,42.776804,1945.296],[-0.64617,42.776763,1943.872],[-0.646207,42.776727,1942.38],[-0.646274,42.776719,1941.176],[-0.646337,42.776719,1940.181],[-0.646387,42.776691,1939.325],[-0.646453,42.776669,1938.326],[-0.646521,42.776652,1937.308],[-0.646574,42.776625,1936.408],[-0.646635,42.776614,1935.517],[-0.646699,42.776592,1934.778],[-0.646751,42.776561,1933.624],[-0.646808,42.776536,1933.053],[-0.64686,42.776508,1932.429],[-0.646929,42.776489,1931.897],[-0.646993,42.776461,1931.343],[-0.647054,42.776437,1930.718],[-0.64711,42.776409,1930.046],[-0.647165,42.776376,1929.388],[-0.647228,42.776351,1928.416],[-0.647286,42.776316,1927.308],[-0.647341,42.776287,1925.939],[-0.647396,42.776232,1924.37],[-0.647432,42.776184,1922.826],[-0.647474,42.776146,1921.375],[-0.647527,42.776102,1920.111],[-0.647576,42.776064,1919.349],[-0.647633,42.776014,1918.615],[-0.647689,42.775981,1918.14],[-0.647739,42.775951,1917.136],[-0.647791,42.775922,1916.217],[-0.647853,42.775878,1915.218],[-0.647894,42.775837,1914.008],[-0.647929,42.775794,1912.988],[-0.647977,42.775744,1911.769],[-0.648019,42.775704,1910.365],[-0.648046,42.775663,1909.194],[-0.64807,42.77562,1907.97],[-0.648097,42.775574,1907.238],[-0.648133,42.775529,1906.624],[-0.648168,42.775479,1905.759],[-0.648211,42.775441,1904.364],[-0.64825,42.775406,1902.906],[-0.648276,42.775365,1901.316],[-0.648266,42.775315,1900.008],[-0.648293,42.775269,1899.181],[-0.648353,42.77525,1898.232],[-0.648421,42.775255,1897.538],[-0.648482,42.775263,1896.957],[-0.648542,42.775239,1896.213],[-0.648607,42.775242,1895.611],[-0.648661,42.775217,1895.027],[-0.648695,42.775178,1894.352],[-0.648718,42.775129,1893.339],[-0.648715,42.775079,1891.801],[-0.648732,42.775033,1890.021],[-0.648709,42.774987,1888.508],[-0.64864,42.774976,1887.468],[-0.648605,42.774932,1886.379],[-0.648615,42.774888,1885.445],[-0.648634,42.774844,1884.094],[-0.648698,42.774837,1882.36],[-0.64875,42.774806,1880.458],[-0.648745,42.774754,1878.454],[-0.648708,42.774712,1876.789],[-0.648663,42.774674,1874.614],[-0.648608,42.774648,1872.754],[-0.64858,42.774607,1871.109],[-0.648517,42.774599,1869.908],[-0.648497,42.774556,1868.786],[-0.648504,42.774499,1867.477],[-0.648558,42.774469,1866.463],[-0.648592,42.774429,1865.172],[-0.648635,42.774391,1863.518],[-0.648663,42.774337,1861.896],[-0.648688,42.774295,1860.042],[-0.648726,42.774246,1858.317],[-0.64874,42.7742,1856.518],[-0.648731,42.774151,1854.498],[-0.648702,42.774107,1852.517],[-0.648742,42.774071,1850.808],[-0.648783,42.774032,1849.556],[-0.648798,42.773988,1848.587],[-0.64874,42.774008,1847.643],[-0.648689,42.774033,1846.082],[-0.648665,42.773991,1844.498],[-0.648636,42.773946,1842.626],[-0.648571,42.773933,1840.562],[-0.648598,42.773892,1838.827],[-0.648542,42.773912,1837.683],[-0.648473,42.77393,1836.525],[-0.6484,42.773932,1835.417],[-0.648345,42.773905,1833.708],[-0.648282,42.7739,1832.063],[-0.64822,42.773902,1829.614],[-0.648159,42.773908,1827.37],[-0.64808,42.773936,1824.229],[-0.648011,42.77393,1821.335],[-0.647957,42.773885,1819.073],[-0.647883,42.773865,1816.769],[-0.64781,42.773862,1814.554],[-0.647747,42.773865,1812.694],[-0.647679,42.773859,1810.857],[-0.647618,42.773865,1809.322],[-0.647554,42.773852,1807.908],[-0.647501,42.773808,1806.594],[-0.647434,42.773793,1804.945],[-0.647371,42.773772,1803.251],[-0.647303,42.773757,1801.25],[-0.647246,42.773728,1799.966],[-0.647196,42.773762,1797.684],[-0.647125,42.773769,1796.03],[-0.647064,42.773776,1794.485],[-0.647001,42.773753,1793.264],[-0.64695,42.773722,1792.206],[-0.646895,42.773692,1791.316],[-0.64685,42.773729,1790.408],[-0.646825,42.773775,1789.271],[-0.646761,42.773785,1787.752],[-0.646689,42.773756,1786.118],[-0.646658,42.773713,1784.387],[-0.64662,42.773667,1782.763],[-0.646503,42.773654,1781.221],[-0.646414,42.773663,1780.327],[-0.646352,42.773664,1779.782],[-0.646279,42.773649,1779.144],[-0.646223,42.773623,1778.105],[-0.646197,42.773579,1777.215],[-0.646178,42.773524,1776.308],[-0.646102,42.773513,1775.229],[-0.646034,42.773497,1774.17],[-0.645988,42.773463,1773.056],[-0.645924,42.773448,1772.095],[-0.64586,42.77346,1771.351],[-0.645815,42.773491,1770.469],[-0.645752,42.773497,1769.535],[-0.645689,42.773495,1768.95],[-0.645624,42.773498,1768.349],[-0.645553,42.773496,1767.502],[-0.645482,42.773506,1766.822],[-0.645407,42.773512,1766.208],[-0.645336,42.773515,1765.459],[-0.645275,42.773516,1764.53],[-0.645213,42.773518,1763.896],[-0.645148,42.773503,1763.465],[-0.645079,42.7735,1762.851],[-0.645013,42.773484,1762.249],[-0.644946,42.773482,1761.745],[-0.644877,42.773474,1761.17],[-0.644813,42.773464,1760.488],[-0.644754,42.773443,1759.724],[-0.644687,42.773433,1758.926],[-0.644622,42.773435,1758.308],[-0.64456,42.773438,1757.883],[-0.644491,42.773446,1757.284],[-0.644432,42.773461,1755.98],[-0.644401,42.773514,1754.349],[-0.644379,42.773564,1752.655],[-0.644442,42.773575,1751.143],[-0.644449,42.77363,1749.899],[-0.644419,42.773673,1749.174],[-0.644341,42.773676,1748.832],[-0.644271,42.773685,1748.592],[-0.644206,42.773704,1748.311],[-0.644139,42.77371,1748.008],[-0.644072,42.773704,1747.688],[-0.64401,42.773696,1747.179],[-0.643942,42.773695,1746.715],[-0.643875,42.773676,1746.274],[-0.643814,42.773666,1745.75],[-0.643747,42.773657,1745.318],[-0.643681,42.773641,1744.944],[-0.643617,42.773644,1744.619],[-0.643584,42.773682,1744.352],[-0.643555,42.773723,1744.453],[-0.643494,42.773727,1744.308],[-0.64341,42.773707,1744.208],[-0.643341,42.773691,1743.94],[-0.643279,42.773681,1743.541],[-0.643214,42.773668,1743.087],[-0.643151,42.773649,1742.086],[-0.643097,42.773622,1740.662],[-0.643047,42.773596,1739.16],[-0.642986,42.773569,1738.046],[-0.642923,42.773549,1737.421],[-0.642841,42.77353,1736.985],[-0.642772,42.773516,1736.589],[-0.642705,42.773499,1735.917],[-0.642643,42.773481,1735.408],[-0.642569,42.773455,1734.643],[-0.642486,42.773439,1733.744],[-0.642425,42.773427,1733.03],[-0.642358,42.773419,1732.589],[-0.642315,42.773385,1732.135],[-0.642262,42.77336,1731.723],[-0.642205,42.773324,1731.639],[-0.642147,42.773295,1731.754],[-0.64208,42.773299,1731.982],[-0.642014,42.773295,1731.943],[-0.641951,42.7733,1731.617],[-0.641891,42.773277,1731.208],[-0.641825,42.773263,1730.543],[-0.6418,42.773221,1729.914],[-0.641767,42.773177,1729.49],[-0.641712,42.773153,1729.029],[-0.641638,42.773149,1728.395],[-0.641587,42.773124,1727.393],[-0.641527,42.773104,1726.559],[-0.641478,42.77307,1725.664],[-0.641426,42.77304,1724.685],[-0.641381,42.773008,1723.789],[-0.641312,42.772973,1722.817],[-0.641268,42.772932,1721.908],[-0.641223,42.772886,1720.973],[-0.641198,42.772844,1720.194],[-0.641161,42.772806,1719.69],[-0.641112,42.772773,1719.299],[-0.64106,42.772736,1718.495],[-0.641001,42.772698,1717.773],[-0.640937,42.772665,1717.059],[-0.640884,42.772641,1716.144],[-0.640821,42.772632,1715.784],[-0.640749,42.772622,1715.607],[-0.640673,42.772616,1715.817],[-0.640609,42.77261,1716.008],[-0.640539,42.772592,1715.873],[-0.640479,42.77257,1715.524],[-0.640423,42.772544,1715.18],[-0.640366,42.772525,1714.679],[-0.640294,42.772506,1714.025],[-0.640232,42.772496,1713.663],[-0.640162,42.772485,1713.159],[-0.640098,42.772479,1712.864],[-0.640029,42.772472,1712.519],[-0.639962,42.772468,1712.109],[-0.639898,42.77246,1711.519],[-0.63982,42.772449,1710.508],[-0.639759,42.772453,1709.366],[-0.63969,42.772454,1708.137],[-0.639619,42.772459,1706.993],[-0.639549,42.77245,1705.352],[-0.639488,42.772446,1703.638],[-0.639421,42.772444,1701.556],[-0.639347,42.772447,1699.842],[-0.639282,42.772463,1698.547],[-0.639212,42.772475,1697.262],[-0.639149,42.772481,1696.183],[-0.639087,42.772472,1695.911],[-0.639021,42.772447,1696.008],[-0.63896,42.772432,1696.241],[-0.638894,42.772414,1696.532],[-0.638825,42.772393,1697.058],[-0.638752,42.772398,1697.587],[-0.63869,42.772372,1697.813],[-0.638628,42.772348,1697.881],[-0.638558,42.772333,1697.737],[-0.638504,42.772311,1697.712],[-0.638437,42.772306,1697.629],[-0.63837,42.772312,1697.7],[-0.638305,42.772308,1697.82],[-0.638239,42.772292,1697.908],[-0.638186,42.772265,1698.367],[-0.63812,42.772238,1698.438],[-0.638045,42.772227,1698.184],[-0.637981,42.772189,1697.713],[-0.637912,42.772173,1697.049],[-0.637845,42.772162,1696.327],[-0.637783,42.772148,1695.933],[-0.637704,42.772132,1695.518],[-0.63763,42.772103,1694.718],[-0.637556,42.772077,1694.198],[-0.637498,42.77206,1693.717],[-0.637426,42.772057,1693.308],[-0.637332,42.772038,1692.716],[-0.637271,42.772027,1692.217],[-0.637211,42.772013,1691.623],[-0.637141,42.771988,1690.912],[-0.637067,42.771958,1690.268],[-0.637018,42.771931,1689.726],[-0.636967,42.771902,1688.942],[-0.636901,42.771876,1688.237],[-0.636831,42.771844,1687.435],[-0.63677,42.77183,1686.586],[-0.636707,42.771821,1685.514],[-0.636644,42.771802,1684.408],[-0.63657,42.771772,1683.458],[-0.636511,42.771749,1682.659],[-0.636461,42.771722,1682.115],[-0.636397,42.771738,1681.724],[-0.636334,42.771712,1681.39],[-0.63628,42.771685,1680.968],[-0.636227,42.771629,1680.494],[-0.636187,42.771587,1680.079],[-0.636152,42.771537,1680.024],[-0.636112,42.771485,1680.104],[-0.636071,42.771436,1680.414],[-0.636044,42.771391,1680.808],[-0.635997,42.771325,1681.287],[-0.635976,42.771276,1681.538],[-0.635952,42.771228,1681.534],[-0.635922,42.771186,1681.383],[-0.635892,42.77114,1680.699],[-0.635861,42.771093,1679.837],[-0.635838,42.771048,1678.953],[-0.635796,42.771005,1677.368],[-0.635756,42.770967,1675.933],[-0.635699,42.770928,1674.723],[-0.635643,42.770892,1674.115],[-0.635579,42.77087,1673.908],[-0.635521,42.770841,1674.028],[-0.63549,42.7708,1674.239],[-0.635457,42.770756,1674.315],[-0.635401,42.770734,1673.894],[-0.63539,42.770678,1673.23],[-0.635387,42.77063,1672.658],[-0.635398,42.770584,1672.044],[-0.635432,42.770541,1671.559],[-0.635441,42.770496,1671.288],[-0.635418,42.770446,1671.124],[-0.635381,42.770406,1671.026],[-0.635317,42.770363,1670.908],[-0.635275,42.770328,1670.963],[-0.635219,42.770279,1670.754],[-0.635174,42.770242,1670.32],[-0.63512,42.770214,1669.519],[-0.635079,42.770177,1668.865],[-0.635037,42.770132,1668.263],[-0.634996,42.770094,1667.759],[-0.634954,42.770059,1667.384],[-0.63489,42.770036,1667.162],[-0.634825,42.770007,1667.183],[-0.634786,42.769964,1667.311],[-0.63476,42.769916,1667.408],[-0.634716,42.769866,1667.281],[-0.634652,42.769807,1666.752],[-0.634604,42.769763,1666.218],[-0.634568,42.769721,1665.627],[-0.634519,42.769673,1665.223],[-0.634466,42.769622,1664.491],[-0.634407,42.769582,1663.217],[-0.634361,42.769542,1661.482],[-0.634341,42.769499,1659.933],[-0.634277,42.769464,1658.223],[-0.634225,42.769425,1656.615],[-0.634176,42.769394,1655.108],[-0.634124,42.769368,1653.628],[-0.634105,42.769321,1652.269],[-0.634078,42.769268,1650.975],[-0.634047,42.769228,1649.654],[-0.634007,42.769189,1648.48],[-0.633975,42.769148,1647.298],[-0.633956,42.7691,1646.124],[-0.633951,42.76905,1645.059],[-0.633967,42.769005,1643.679],[-0.634013,42.768973,1642.105],[-0.634059,42.768943,1640.425],[-0.634111,42.768899,1638.408],[-0.634158,42.768866,1636.712],[-0.634221,42.768831,1634.993],[-0.634273,42.7688,1633.269],[-0.634325,42.768772,1631.748],[-0.634378,42.768739,1629.914],[-0.634434,42.76871,1628.152],[-0.634483,42.768681,1625.998],[-0.634532,42.768639,1623.653],[-0.634579,42.768609,1621.754],[-0.634632,42.768584,1620.156],[-0.634682,42.768545,1618.211],[-0.634719,42.768503,1616.408],[-0.634776,42.768472,1614.88],[-0.634844,42.768445,1613.621],[-0.634889,42.768404,1612.827],[-0.634909,42.768361,1612.156],[-0.634916,42.768312,1611.332],[-0.634902,42.768268,1610.47],[-0.634859,42.768234,1609.546],[-0.634796,42.76822,1608.471],[-0.634722,42.768189,1606.942],[-0.634677,42.768154,1604.822],[-0.634624,42.768122,1602.514],[-0.634579,42.768086,1600.508],[-0.634532,42.768054,1598.899],[-0.63449,42.768015,1597.63],[-0.634441,42.767963,1596.476],[-0.634404,42.767922,1595.565],[-0.634355,42.767872,1594.371],[-0.634303,42.767833,1593.379],[-0.634248,42.767785,1591.895],[-0.634196,42.767756,1590.27],[-0.634144,42.767729,1588.936],[-0.634077,42.767702,1587.417],[-0.634045,42.767658,1585.918],[-0.634012,42.767614,1585.008],[-0.633981,42.767568,1584.378],[-0.633978,42.767509,1583.959],[-0.634,42.767458,1583.445],[-0.634015,42.767411,1583.024],[-0.634035,42.767368,1582.82],[-0.634036,42.767322,1582.658],[-0.634044,42.767276,1582.464],[-0.634044,42.767227,1582.259],[-0.634043,42.767175,1581.951],[-0.634039,42.767127,1581.801],[-0.634024,42.767077,1581.411],[-0.634032,42.767022,1580.708],[-0.634049,42.766977,1580.11],[-0.634059,42.766927,1579.731],[-0.634062,42.766876,1579.487],[-0.634072,42.766817,1579.276],[-0.634087,42.76676,1579.182],[-0.634095,42.766713,1578.82],[-0.634098,42.766655,1578.246],[-0.634106,42.766608,1577.651],[-0.634137,42.766565,1577.683],[-0.634156,42.766515,1576.725],[-0.634168,42.766464,1575.217],[-0.634179,42.766418,1574.008],[-0.63413,42.766387,1573.553],[-0.634072,42.766354,1573.144],[-0.634054,42.766305,1573.04],[-0.634004,42.766267,1573.239],[-0.63401,42.766214,1573.795],[-0.63406,42.766181,1573.463],[-0.634108,42.766144,1572.479],[-0.634163,42.766104,1571.114],[-0.634222,42.76607,1569.953],[-0.634298,42.766062,1569.004],[-0.634342,42.766015,1567.714],[-0.634399,42.765949,1565.708],[-0.634426,42.765906,1564.37],[-0.634452,42.765862,1563.441],[-0.634477,42.765818,1562.867],[-0.634498,42.765772,1562.546],[-0.634508,42.765725,1562.692],[-0.634523,42.765676,1563.08],[-0.63453,42.765627,1563.666],[-0.634548,42.765574,1563.841],[-0.63456,42.765526,1563.961],[-0.634612,42.765491,1563.421],[-0.634655,42.765452,1562.713],[-0.63468,42.765405,1562.308],[-0.634705,42.765363,1562.191],[-0.634735,42.765313,1561.882],[-0.634764,42.765266,1561.168],[-0.634778,42.765209,1559.917],[-0.634782,42.76516,1558.843],[-0.634802,42.765101,1557.641],[-0.634825,42.765054,1556.577],[-0.63486,42.765014,1555.562],[-0.634885,42.764968,1554.698],[-0.634902,42.764923,1553.915],[-0.634894,42.764863,1553.326],[-0.634913,42.76482,1552.608],[-0.63492,42.764774,1551.784],[-0.634905,42.764725,1550.425],[-0.634881,42.764682,1548.831],[-0.634847,42.764633,1547.39],[-0.63479,42.764608,1545.666],[-0.634739,42.764576,1544.654],[-0.634696,42.764543,1543.97],[-0.634655,42.7645,1542.025],[-0.634602,42.764473,1540.617],[-0.634598,42.76442,1544.687],[-0.634577,42.764372,1548.615],[-0.634537,42.764336,1552.608],[-0.63451,42.764284,1556.636],[-0.634486,42.76423,1560.647],[-0.634471,42.764181,1564.613],[-0.634459,42.764136,1568.662],[-0.634451,42.764085,1571.518],[-0.634421,42.764035,1573.396],[-0.634373,42.764001,1574.422],[-0.634319,42.763965,1575.067],[-0.634254,42.763953,1575.475],[-0.634194,42.763929,1575.628],[-0.634137,42.763902,1575.72],[-0.634102,42.763859,1575.808],[-0.634056,42.763812,1575.872],[-0.634012,42.76377,1575.863],[-0.633963,42.763723,1575.819],[-0.633903,42.763692,1575.838],[-0.633849,42.763642,1575.884],[-0.633811,42.763599,1575.842],[-0.633755,42.763567,1575.828],[-0.633678,42.763553,1575.843],[-0.633615,42.763548,1575.847],[-0.633565,42.763518,1575.829],[-0.633535,42.763471,1575.821],[-0.633532,42.763426,1575.808],[-0.633535,42.763372,1575.829],[-0.633511,42.76332,1571.87]]}}]}