{"type":"FeatureCollection","features":[{"type":"Feature","properties":{"ruta_id":"56814178","nombre":"⛰️ CABAÑA VERÓNICA y COLLADO de los HORCADOS ROJOS desde el CABLE (Teleférico de Fuente Dé)","blog_url":"https://www.rutasporelmonte.com/cabana-veronica-y-collado-de-los-horcados-rojos-desde-el-cable/"},"geometry":{"type":"LineString","coordinates":[[-4.805646,43.153685,1845.337],[-4.805746,43.153638,1845.349],[-4.805675,43.153672,1845.313],[-4.805675,43.153672,1845.308],[-4.805604,43.153655,1845.388],[-4.805604,43.153655,1845.329],[-4.805552,43.153629,1845.331],[-4.805572,43.153581,1845.374],[-4.805609,43.153544,1845.377],[-4.805713,43.153542,1845.394],[-4.805746,43.153585,1845.33],[-4.805736,43.153646,1845.341],[-4.80573,43.153695,1845.333],[-4.805748,43.153745,1845.323],[-4.805763,43.153797,1845.315],[-4.805763,43.153797,1845.308],[-4.805775,43.153845,1845.038],[-4.805821,43.153895,1844.749],[-4.805874,43.15393,1844.591],[-4.805919,43.153964,1844.534],[-4.805961,43.153999,1845.147],[-4.806005,43.154036,1846.184],[-4.806035,43.154083,1846.97],[-4.80605,43.154138,1847.511],[-4.806067,43.154189,1848.537],[-4.806048,43.154239,1849.849],[-4.805985,43.154272,1851.113],[-4.805936,43.154311,1852.208],[-4.805893,43.154346,1853.078],[-4.805844,43.154374,1853.529],[-4.805788,43.154397,1854.281],[-4.805726,43.15441,1854.724],[-4.805666,43.15442,1855.127],[-4.805612,43.154452,1855.374],[-4.805639,43.154497,1855.66],[-4.805643,43.154542,1856.261],[-4.805649,43.15459,1856.591],[-4.80565,43.154644,1856.581],[-4.805622,43.154702,1856.419],[-4.805589,43.154741,1856.308],[-4.80554,43.15477,1856.994],[-4.805478,43.154798,1857.345],[-4.805412,43.154818,1858.257],[-4.805359,43.154849,1858.77],[-4.805305,43.154876,1858.733],[-4.805281,43.154923,1858.56],[-4.805296,43.15497,1858.216],[-4.805321,43.155012,1858.067],[-4.805368,43.155061,1858.272],[-4.8054,43.1551,1858.213],[-4.805435,43.155143,1858.614],[-4.805482,43.155175,1859.808],[-4.805527,43.155207,1860.962],[-4.805559,43.155253,1861.353],[-4.805608,43.155285,1861.785],[-4.805678,43.155305,1862.118],[-4.805726,43.155348,1862.571],[-4.805769,43.155385,1863.148],[-4.805809,43.155428,1863.824],[-4.805853,43.155467,1864.725],[-4.805899,43.155497,1865.622],[-4.805954,43.155525,1866.662],[-4.806004,43.155559,1867.708],[-4.806035,43.155607,1868.708],[-4.806065,43.155663,1869.587],[-4.80608,43.155707,1870.228],[-4.806071,43.155755,1870.61],[-4.806059,43.1558,1870.943],[-4.806022,43.155839,1871.036],[-4.80597,43.155874,1870.973],[-4.805913,43.155895,1871.049],[-4.805856,43.155924,1870.84],[-4.80582,43.155962,1870.862],[-4.805776,43.155996,1871.183],[-4.805728,43.156026,1871.311],[-4.805664,43.156008,1871.608],[-4.805627,43.156053,1872.321],[-4.805657,43.156107,1872.872],[-4.805693,43.156146,1873.214],[-4.805745,43.156185,1873.427],[-4.805797,43.156209,1873.33],[-4.805863,43.156237,1873.357],[-4.805919,43.156262,1873.643],[-4.805972,43.156289,1874.164],[-4.806029,43.156315,1874.859],[-4.806078,43.15635,1875.203],[-4.806117,43.156388,1875.423],[-4.806143,43.156439,1875.508],[-4.806172,43.156486,1875.84],[-4.806232,43.156521,1876.071],[-4.806285,43.156547,1876.163],[-4.806355,43.156561,1876.666],[-4.806418,43.156567,1877.069],[-4.806485,43.156585,1877.336],[-4.806543,43.156614,1877.892],[-4.806616,43.156642,1878.283],[-4.806673,43.156669,1878.475],[-4.80673,43.156696,1878.528],[-4.806787,43.156725,1878.62],[-4.806849,43.156751,1878.608],[-4.806908,43.156781,1878.682],[-4.806959,43.156817,1878.863],[-4.807005,43.156848,1879.325],[-4.807059,43.156881,1879.788],[-4.807117,43.156908,1879.791],[-4.807172,43.156941,1879.668],[-4.807218,43.156975,1879.564],[-4.807262,43.157017,1879.475],[-4.807305,43.157051,1879.311],[-4.807367,43.15708,1879.421],[-4.807428,43.157105,1879.703],[-4.807488,43.157132,1879.908],[-4.807552,43.157151,1880.136],[-4.807604,43.157182,1880.267],[-4.807659,43.157221,1880.269],[-4.807695,43.157268,1880.142],[-4.807714,43.157315,1880.075],[-4.807713,43.157374,1880.082],[-4.807707,43.157419,1880.138],[-4.807709,43.157467,1880.289],[-4.807722,43.157516,1880.575],[-4.807752,43.157562,1881.028],[-4.807786,43.157602,1881.42],[-4.807815,43.157642,1881.808],[-4.807838,43.157689,1881.982],[-4.807859,43.157741,1881.813],[-4.807874,43.157787,1881.895],[-4.807891,43.157838,1881.828],[-4.807904,43.157889,1881.991],[-4.807918,43.157937,1882.048],[-4.807929,43.15799,1882.324],[-4.807928,43.158042,1882.545],[-4.80793,43.158092,1882.776],[-4.807931,43.158143,1883.19],[-4.80795,43.158198,1883.619],[-4.807981,43.15824,1884.008],[-4.808005,43.158282,1884.672],[-4.808021,43.158326,1885.273],[-4.808031,43.158378,1885.865],[-4.808045,43.158428,1886.498],[-4.808065,43.158472,1886.941],[-4.808108,43.158512,1887.218],[-4.808161,43.15854,1887.664],[-4.808227,43.158558,1888.265],[-4.808288,43.158572,1888.846],[-4.808346,43.158597,1889.688],[-4.808386,43.158634,1890.116],[-4.80842,43.158672,1890.408],[-4.808457,43.158711,1890.569],[-4.808499,43.158749,1890.61],[-4.80854,43.158785,1890.762],[-4.808582,43.158819,1890.685],[-4.808626,43.158852,1890.418],[-4.808665,43.158889,1890.095],[-4.808708,43.158927,1889.781],[-4.808749,43.158963,1889.652],[-4.808789,43.159006,1889.364],[-4.80883,43.159044,1888.906],[-4.808867,43.15908,1888.416],[-4.808908,43.159115,1887.808],[-4.80895,43.159148,1887.381],[-4.808995,43.159184,1886.992],[-4.80904,43.159225,1886.694],[-4.809069,43.159265,1886.497],[-4.809115,43.159297,1886.98],[-4.809172,43.159321,1887.847],[-4.809214,43.159357,1888.173],[-4.809252,43.159398,1888.444],[-4.809264,43.159453,1888.493],[-4.80927,43.159503,1888.465],[-4.809283,43.15955,1888.321],[-4.809316,43.159608,1887.908],[-4.809337,43.159658,1887.964],[-4.809365,43.159704,1888.275],[-4.809398,43.159745,1889.037],[-4.809435,43.159786,1890.06],[-4.80948,43.159823,1890.953],[-4.809499,43.159866,1891.96],[-4.809504,43.159912,1892.986],[-4.809496,43.159963,1894.187],[-4.809483,43.160014,1895.766],[-4.809452,43.160056,1897.229],[-4.809388,43.160079,1898.321],[-4.80933,43.160096,1899.208],[-4.809256,43.160109,1899.951],[-4.809204,43.160135,1900.782],[-4.809144,43.160158,1901.484],[-4.809084,43.160181,1902.087],[-4.809021,43.160187,1902.58],[-4.808957,43.160202,1903.287],[-4.808888,43.160208,1903.983],[-4.808826,43.160216,1904.414],[-4.808761,43.160224,1904.725],[-4.808699,43.160235,1905.026],[-4.808636,43.160252,1905.308],[-4.808572,43.160274,1905.908],[-4.80851,43.160295,1906.687],[-4.80844,43.160306,1907.238],[-4.808373,43.160296,1907.77],[-4.80831,43.160285,1908.423],[-4.808242,43.160291,1909.076],[-4.808171,43.1603,1909.793],[-4.808101,43.16031,1910.479],[-4.808038,43.160317,1911.27],[-4.807973,43.160328,1912.181],[-4.807906,43.160345,1912.961],[-4.80785,43.160365,1913.917],[-4.807781,43.160379,1915.108],[-4.807719,43.160377,1916.363],[-4.807648,43.160378,1917.664],[-4.807585,43.160379,1919.046],[-4.807504,43.16038,1920.299],[-4.807444,43.160397,1920.992],[-4.80738,43.160414,1921.129],[-4.807312,43.160431,1921.155],[-4.807241,43.160433,1921.536],[-4.807183,43.16045,1921.899],[-4.807123,43.160461,1921.907],[-4.807062,43.160474,1922.127],[-4.807,43.160486,1922.508],[-4.806939,43.16049,1923.374],[-4.806866,43.160483,1923.535],[-4.806798,43.160481,1923.237],[-4.80673,43.160497,1922.74],[-4.806673,43.160517,1921.553],[-4.806604,43.160501,1920.25],[-4.80654,43.160511,1919.656],[-4.806567,43.160554,1919.847],[-4.806635,43.160564,1920.518],[-4.806686,43.160597,1921.398],[-4.806749,43.160605,1921.417],[-4.806808,43.160625,1920.808],[-4.806861,43.160651,1920.776],[-4.806922,43.16066,1921.037],[-4.806995,43.160674,1921.969],[-4.807058,43.160678,1922.932],[-4.807125,43.160698,1924.075],[-4.807206,43.160699,1924.932],[-4.807283,43.160691,1925.528],[-4.807341,43.160712,1925.769],[-4.807383,43.160748,1925.531],[-4.807437,43.160783,1924.861],[-4.807481,43.160818,1924.007],[-4.807521,43.160862,1923.208],[-4.807557,43.160906,1922.568],[-4.807595,43.160945,1921.739],[-4.807635,43.160984,1921.111],[-4.80767,43.161031,1920.744],[-4.807712,43.16107,1920.757],[-4.80775,43.161108,1920.724],[-4.807777,43.161149,1920.64],[-4.8078,43.161196,1920.321],[-4.807828,43.161246,1919.917],[-4.807836,43.161296,1919.487],[-4.80786,43.16134,1919.115],[-4.807895,43.161384,1918.708],[-4.807928,43.161427,1918.546],[-4.807965,43.16147,1918.567],[-4.808007,43.161506,1918.789],[-4.808043,43.16155,1918.962],[-4.808112,43.16158,1919.215],[-4.808172,43.161596,1919.652],[-4.808224,43.161625,1920.028],[-4.808269,43.161668,1920.579],[-4.808305,43.161707,1920.844],[-4.808332,43.161748,1920.905],[-4.808378,43.161789,1921.015],[-4.808411,43.161827,1921.108],[-4.808449,43.161864,1921.159],[-4.808486,43.161907,1921.12],[-4.808522,43.161956,1920.962],[-4.808564,43.162002,1920.545],[-4.808599,43.162039,1920.098],[-4.808634,43.162091,1919.455],[-4.808662,43.162133,1919.041],[-4.808697,43.162171,1918.652],[-4.808746,43.162219,1918.424],[-4.808782,43.162261,1918.504],[-4.808813,43.162304,1918.614],[-4.808839,43.162346,1918.808],[-4.808866,43.162392,1919.187],[-4.808894,43.162437,1919.698],[-4.808911,43.162482,1920.23],[-4.808939,43.162531,1920.713],[-4.808965,43.162574,1920.996],[-4.808984,43.162622,1921.143],[-4.809007,43.162677,1921.389],[-4.809019,43.162721,1921.41],[-4.809029,43.162767,1921.592],[-4.809048,43.162819,1921.473],[-4.809066,43.162879,1921.22],[-4.809079,43.162933,1920.808],[-4.809098,43.16298,1920.664],[-4.809126,43.163028,1920.455],[-4.809159,43.163072,1920.537],[-4.809197,43.16311,1920.38],[-4.809246,43.163147,1919.893],[-4.809304,43.163183,1919.48],[-4.80935,43.163218,1919.326],[-4.809392,43.163253,1919.217],[-4.809435,43.16329,1918.989],[-4.809489,43.163322,1918.606],[-4.809547,43.163353,1918.526],[-4.809595,43.163383,1918.608],[-4.809635,43.163419,1918.833],[-4.809677,43.163456,1919.154],[-4.809725,43.163498,1919.416],[-4.809762,43.163536,1919.789],[-4.809797,43.163582,1920.142],[-4.809835,43.163633,1920.599],[-4.80987,43.163675,1921.075],[-4.809898,43.163721,1921.566],[-4.80992,43.163768,1921.715],[-4.809947,43.16382,1921.665],[-4.809963,43.163867,1921.311],[-4.80997,43.163915,1921.008],[-4.80998,43.163964,1920.826],[-4.810007,43.164005,1921.157],[-4.81005,43.164037,1921.779],[-4.81011,43.16406,1922.272],[-4.81018,43.164076,1922.675],[-4.810245,43.164091,1922.942],[-4.810308,43.164094,1923.258],[-4.810368,43.164115,1923.339],[-4.810427,43.164145,1923.467],[-4.810484,43.164176,1923.681],[-4.810523,43.164213,1923.919],[-4.810561,43.164251,1924.108],[-4.810606,43.164297,1924.461],[-4.810645,43.164339,1924.612],[-4.810701,43.164369,1924.734],[-4.810762,43.164394,1924.647],[-4.810823,43.164407,1924.37],[-4.810885,43.164421,1924.017],[-4.810955,43.164441,1923.713],[-4.81102,43.16447,1923.584],[-4.811074,43.164495,1923.497],[-4.811126,43.164519,1923.423],[-4.811177,43.164548,1923.425],[-4.811228,43.164579,1923.508],[-4.811276,43.164611,1923.694],[-4.81133,43.164639,1923.665],[-4.811382,43.164669,1923.677],[-4.811447,43.164694,1923.64],[-4.811503,43.164715,1923.583],[-4.811558,43.164738,1923.52],[-4.811616,43.164753,1923.676],[-4.811682,43.164762,1923.687],[-4.811743,43.164773,1923.536],[-4.811795,43.164798,1923.417],[-4.811851,43.164824,1923.218],[-4.811912,43.164845,1923.208],[-4.811983,43.164864,1923.148],[-4.812041,43.164889,1923.029],[-4.812092,43.164923,1923.281],[-4.812145,43.164954,1923.334],[-4.812198,43.164982,1923.377],[-4.812247,43.16501,1923.234],[-4.812294,43.165041,1923.25],[-4.812346,43.165076,1923.291],[-4.8124,43.165111,1923.075],[-4.812441,43.165146,1922.928],[-4.812488,43.165188,1922.82],[-4.812528,43.165231,1922.808],[-4.812558,43.165276,1922.722],[-4.812595,43.165314,1922.783],[-4.812623,43.165359,1922.935],[-4.812644,43.165404,1923.298],[-4.812669,43.165454,1923.441],[-4.812694,43.165502,1923.538],[-4.8127,43.16555,1923.374],[-4.812712,43.165605,1923.035],[-4.812729,43.165654,1922.597],[-4.812717,43.165704,1922.123],[-4.812679,43.165743,1921.825],[-4.812696,43.165788,1921.508],[-4.812709,43.165833,1921.444],[-4.812742,43.165878,1921.335],[-4.812733,43.165925,1921.337],[-4.812749,43.165972,1921.63],[-4.812778,43.166018,1922.253],[-4.812796,43.166066,1922.71],[-4.812823,43.166115,1923.216],[-4.812873,43.166151,1924.137],[-4.812929,43.166186,1924.952],[-4.812961,43.166228,1925.853],[-4.812977,43.166274,1926.408],[-4.813011,43.166321,1927.008],[-4.813042,43.16636,1927.18],[-4.813051,43.166412,1926.761],[-4.813058,43.166462,1926.133],[-4.813052,43.166513,1925.226],[-4.813047,43.166561,1924.449],[-4.813038,43.16662,1923.586],[-4.813028,43.166673,1922.742],[-4.813022,43.166718,1921.733],[-4.813018,43.166773,1920.927],[-4.813019,43.166821,1920.368],[-4.81304,43.16687,1920.114],[-4.813056,43.166921,1920.108],[-4.813075,43.166968,1920.477],[-4.813112,43.167011,1920.648],[-4.813137,43.167057,1920.92],[-4.813157,43.167101,1921.223],[-4.813173,43.16715,1921.496],[-4.813187,43.167196,1921.463],[-4.813209,43.167242,1921.569],[-4.813232,43.167291,1921.58],[-4.813267,43.167331,1921.519],[-4.813297,43.167383,1921.409],[-4.813321,43.167428,1921.419],[-4.813338,43.167471,1921.508],[-4.81335,43.167515,1921.766],[-4.81335,43.16756,1922.257],[-4.813345,43.167606,1923.119],[-4.813336,43.167655,1924.082],[-4.813331,43.167701,1924.785],[-4.813356,43.167744,1925.522],[-4.813397,43.167794,1926.248],[-4.813449,43.167823,1926.939],[-4.813514,43.167846,1927.311],[-4.813565,43.167881,1927.721],[-4.813597,43.167927,1928.103],[-4.813631,43.167974,1928.208],[-4.813668,43.168013,1928.446],[-4.813699,43.168056,1928.747],[-4.81374,43.168094,1929.089],[-4.81378,43.168129,1929.272],[-4.813826,43.168166,1929.955],[-4.813875,43.168193,1930.662],[-4.813927,43.168222,1931.298],[-4.813982,43.168258,1931.929],[-4.814022,43.168296,1932.393],[-4.814072,43.168328,1932.565],[-4.814123,43.168358,1932.621],[-4.814166,43.168391,1932.608],[-4.814226,43.168426,1932.814],[-4.814284,43.168453,1933.155],[-4.814333,43.168484,1933.547],[-4.814364,43.16853,1934.02],[-4.814389,43.168574,1934.453],[-4.814414,43.168625,1934.94],[-4.814448,43.168664,1935.546],[-4.814509,43.168682,1936.347],[-4.814561,43.168708,1937.148],[-4.814609,43.168744,1937.961],[-4.814651,43.16878,1938.617],[-4.814701,43.168807,1939.108],[-4.814747,43.168839,1939.469],[-4.814795,43.168882,1939.78],[-4.814839,43.168924,1940.032],[-4.814884,43.168966,1940.345],[-4.814928,43.16901,1940.718],[-4.814987,43.169038,1941.265],[-4.815044,43.169059,1941.911],[-4.815106,43.169071,1942.752],[-4.815169,43.169075,1943.418],[-4.815234,43.169087,1943.498],[-4.815305,43.16911,1943.017],[-4.815352,43.169141,1942.008],[-4.815357,43.169188,1941.156],[-4.815402,43.16922,1941.447],[-4.815422,43.169264,1941.719],[-4.815449,43.169312,1941.952],[-4.815462,43.16936,1942.595],[-4.815485,43.169403,1942.972],[-4.81548,43.169455,1943.278],[-4.81546,43.169502,1943.669],[-4.815449,43.169547,1944.135],[-4.815449,43.169594,1945.186],[-4.815498,43.169629,1945.914],[-4.815512,43.16968,1947.108],[-4.815538,43.16973,1948.298],[-4.815555,43.169778,1949.499],[-4.815576,43.169827,1950.251],[-4.815586,43.169874,1950.634],[-4.815583,43.169927,1950.777],[-4.815581,43.169973,1950.834],[-4.815554,43.170019,1951.31],[-4.815545,43.170071,1951.751],[-4.815545,43.170121,1952.047],[-4.815575,43.170161,1952.329],[-4.815586,43.170208,1952.621],[-4.815617,43.170254,1953.108],[-4.815652,43.170295,1953.639],[-4.815678,43.170336,1954.24],[-4.815729,43.170368,1955.082],[-4.815764,43.170408,1956.145],[-4.815787,43.170452,1957.288],[-4.815818,43.170494,1958.315],[-4.815821,43.170541,1959.531],[-4.815818,43.170587,1960.762],[-4.815842,43.170632,1962.279],[-4.815892,43.170671,1963.705],[-4.815955,43.170688,1965.125],[-4.816026,43.170695,1966.608],[-4.816092,43.170713,1968.022],[-4.816145,43.170746,1969.483],[-4.816157,43.170794,1970.785],[-4.816189,43.170837,1971.948],[-4.816239,43.170867,1973.081],[-4.81629,43.170898,1974.368],[-4.816349,43.170921,1975.474],[-4.816395,43.170952,1976.795],[-4.816452,43.170986,1977.936],[-4.816512,43.171017,1978.517],[-4.816554,43.171062,1978.618],[-4.816593,43.171102,1978.608],[-4.81663,43.17115,1978.488],[-4.816668,43.171186,1978.449],[-4.816719,43.171219,1978.751],[-4.81676,43.171254,1979.194],[-4.816786,43.171302,1979.727],[-4.816828,43.171341,1980.514],[-4.816861,43.17138,1981.52],[-4.816881,43.171427,1983.081],[-4.816891,43.171472,1984.855],[-4.81693,43.171512,1986.707],[-4.816957,43.171553,1988.817],[-4.816983,43.171597,1990.908],[-4.817028,43.171638,1993.17],[-4.817071,43.171679,1994.861],[-4.817117,43.171725,1996.113],[-4.817146,43.171769,1997.586],[-4.817174,43.171811,1999.129],[-4.817211,43.171854,2000.656],[-4.817242,43.171893,2002.292],[-4.817264,43.17194,2003.753],[-4.817304,43.171976,2005.379],[-4.817337,43.172019,2006.705],[-4.817358,43.172068,2008.025],[-4.817369,43.172114,2008.808],[-4.817372,43.172163,2009.512],[-4.817376,43.172212,2010.173],[-4.817405,43.172261,2010.645],[-4.817437,43.172302,2011.168],[-4.817472,43.172344,2011.871],[-4.817503,43.172386,2012.728],[-4.817556,43.172412,2015.764],[-4.817592,43.172451,2017.815],[-4.817653,43.172431,2019.758],[-4.817715,43.172458,2019.752],[-4.817787,43.172464,2020.017],[-4.817851,43.172478,2020.408],[-4.817914,43.172497,2020.81],[-4.817972,43.172519,2021.231],[-4.81804,43.172519,2021.883],[-4.818115,43.172526,2022.566],[-4.818175,43.172543,2023.779],[-4.818238,43.172543,2024.866],[-4.818292,43.172577,2026.142],[-4.818345,43.172606,2027.543],[-4.818411,43.172625,2029.084],[-4.818478,43.172635,2030.307],[-4.818541,43.172647,2031.517],[-4.818609,43.172644,2032.708],[-4.818674,43.172631,2034.053],[-4.818729,43.172655,2035.354],[-4.818788,43.172671,2036.646],[-4.818846,43.172687,2038.039],[-4.818914,43.172699,2039.532],[-4.818976,43.17271,2041.099],[-4.819034,43.172729,2042.665],[-4.819097,43.172753,2044.326],[-4.819148,43.172781,2045.817],[-4.819199,43.17281,2047.487],[-4.819256,43.172833,2048.915],[-4.819312,43.172852,2050.308],[-4.819356,43.172886,2051.816],[-4.819408,43.172917,2053.297],[-4.819462,43.172944,2054.549],[-4.819515,43.172971,2055.742],[-4.819568,43.172999,2056.915],[-4.819625,43.173021,2058.122],[-4.81968,43.173044,2059.538],[-4.819727,43.173074,2060.979],[-4.819792,43.173083,2062.273],[-4.819862,43.173088,2063.485],[-4.819926,43.173087,2064.413],[-4.819991,43.173095,2065.308],[-4.820054,43.173121,2066.392],[-4.820097,43.173159,2067.353],[-4.820145,43.173189,2068.295],[-4.820201,43.173211,2069.068],[-4.820262,43.173231,2069.971],[-4.820326,43.173259,2070.848],[-4.820395,43.173275,2071.734],[-4.820458,43.17328,2072.585],[-4.82051,43.173305,2072.945],[-4.820573,43.173328,2072.947],[-4.820613,43.173364,2072.811],[-4.820669,43.173395,2072.608],[-4.820726,43.173417,2072.389],[-4.820786,43.173448,2072.11],[-4.820843,43.173478,2072.142],[-4.820904,43.173498,2072.435],[-4.82096,43.17352,2073.178],[-4.821014,43.173545,2074.445],[-4.821068,43.173574,2076.211],[-4.821127,43.173599,2077.942],[-4.821188,43.17361,2079.518],[-4.821232,43.173642,2081.498],[-4.821292,43.173674,2083.317],[-4.821339,43.173708,2084.908],[-4.821386,43.17374,2086.446],[-4.821454,43.173752,2087.837],[-4.821511,43.173781,2089.159],[-4.82155,43.173818,2090.592],[-4.821592,43.173855,2091.865],[-4.821626,43.173893,2093.082],[-4.82169,43.173891,2094.328],[-4.821757,43.173898,2095.599],[-4.821813,43.173923,2096.899],[-4.821859,43.173955,2098.007],[-4.821922,43.173964,2099.427],[-4.821979,43.173982,2100.608],[-4.822041,43.173994,2101.874],[-4.822099,43.174013,2102.835],[-4.822162,43.174023,2103.777],[-4.822216,43.17405,2104.65],[-4.82228,43.174067,2105.653],[-4.822346,43.174083,2106.54],[-4.82241,43.174094,2107.596],[-4.822471,43.174111,2108.867],[-4.822532,43.174124,2110.397],[-4.822598,43.174124,2111.623],[-4.822543,43.174152,2113.025],[-4.82248,43.174164,2114.108],[-4.822425,43.174191,2114.934],[-4.822379,43.174226,2115.765],[-4.822351,43.174268,2116.487],[-4.822327,43.174315,2117.23],[-4.822303,43.174364,2117.923],[-4.822348,43.174401,2118.85],[-4.822408,43.174415,2119.836],[-4.82247,43.174421,2120.927],[-4.822547,43.174418,2122.055],[-4.822611,43.174401,2123.007],[-4.822676,43.174379,2124.217],[-4.82268,43.174429,2126.008],[-4.822648,43.174471,2127.58],[-4.822633,43.174517,2128.871],[-4.822609,43.174559,2130.283],[-4.822579,43.174599,2131.436],[-4.822556,43.174641,2132.449],[-4.822533,43.174689,2133.426],[-4.822526,43.174734,2134.542],[-4.822576,43.174763,2135.763],[-4.822643,43.174762,2137.113],[-4.822708,43.174751,2138.343],[-4.822666,43.174785,2140.107],[-4.822632,43.174833,2141.908],[-4.822649,43.174879,2143.416],[-4.822698,43.17491,2143.967],[-4.82276,43.174937,2144.059],[-4.822813,43.174964,2144.032],[-4.822847,43.175002,2144.365],[-4.822865,43.175047,2144.842],[-4.822885,43.175096,2145.428],[-4.822916,43.175138,2146.179],[-4.82293,43.175184,2146.761],[-4.822951,43.175232,2147.221],[-4.822985,43.175271,2147.613],[-4.823007,43.175319,2147.808],[-4.823015,43.175366,2148.131],[-4.823017,43.175417,2148.562],[-4.823023,43.175465,2149.264],[-4.823025,43.175513,2150.497],[-4.822995,43.175553,2151.71],[-4.822967,43.175594,2152.927],[-4.822929,43.175637,2154.153],[-4.822892,43.175678,2155.284],[-4.822879,43.175722,2156.192],[-4.822853,43.175764,2157.273],[-4.822813,43.175802,2158.22],[-4.822761,43.175833,2159.508],[-4.822706,43.175862,2160.994],[-4.822645,43.17587,2162.275],[-4.822587,43.175888,2163.667],[-4.822536,43.175915,2165.18],[-4.822564,43.175962,2166.873],[-4.822601,43.176002,2168.79],[-4.822655,43.176029,2170.886],[-4.822705,43.176062,2172.927],[-4.822767,43.176066,2174.587],[-4.82283,43.176074,2175.942],[-4.822892,43.176088,2177.126],[-4.822956,43.176084,2178.508],[-4.823024,43.176076,2180.073],[-4.823086,43.176072,2181.674],[-4.823149,43.176052,2183.346],[-4.823212,43.176052,2185.289],[-4.823273,43.176068,2187.612],[-4.823338,43.176059,2189.489],[-4.823412,43.17605,2190.825],[-4.823414,43.176097,2192.196],[-4.823378,43.176135,2193.246],[-4.823336,43.176173,2194.388],[-4.823289,43.17621,2195.516],[-4.823226,43.176224,2196.808],[-4.82318,43.176255,2197.999],[-4.823119,43.176287,2198.84],[-4.823058,43.176309,2199.652],[-4.823027,43.176357,2200.585],[-4.822987,43.176392,2201.638],[-4.823044,43.176417,2203.235],[-4.823107,43.176425,2204.531],[-4.823175,43.176434,2206.222],[-4.823237,43.176448,2207.841],[-4.823301,43.176464,2209.681],[-4.823364,43.176469,2211.209],[-4.823433,43.176476,2212.808],[-4.823503,43.176488,2214.329],[-4.823574,43.176505,2216.22],[-4.823637,43.176509,2218.272],[-4.823691,43.176534,2219.955],[-4.823748,43.176559,2221.588],[-4.823817,43.176555,2223.325],[-4.823884,43.176555,2224.891],[-4.823949,43.176572,2225.872],[-4.823962,43.176616,2226.746],[-4.823902,43.176696,2228.588],[-4.823929,43.176738,2227.316],[-4.823999,43.176758,2226.708],[-4.824061,43.176777,2226.899],[-4.824125,43.176797,2227.23],[-4.824188,43.176819,2228.152],[-4.824251,43.176827,2229.325],[-4.824302,43.176856,2230.258],[-4.824329,43.176899,2230.995],[-4.82436,43.176945,2232.061],[-4.824429,43.176971,2233.062],[-4.824501,43.176987,2234.092],[-4.82457,43.176985,2234.673],[-4.824638,43.177002,2235.22],[-4.824698,43.177017,2235.908],[-4.824762,43.177019,2236.454],[-4.82483,43.177016,2236.625],[-4.824893,43.177013,2236.247],[-4.82496,43.17702,2235.51],[-4.825006,43.17705,2235.043],[-4.825047,43.177093,2234.32],[-4.825109,43.177117,2233.676],[-4.825171,43.177124,2232.827],[-4.825238,43.177117,2232.083],[-4.825296,43.177135,2231.525],[-4.825351,43.177157,2231.317],[-4.825414,43.177157,2231.408],[-4.825479,43.177147,2231.573],[-4.825542,43.177145,2231.554],[-4.825607,43.177147,2231.566],[-4.825673,43.177153,2231.589],[-4.825743,43.177156,2231.692],[-4.825814,43.177151,2231.739],[-4.825878,43.177172,2231.945],[-4.825945,43.177192,2232.236],[-4.826007,43.177198,2232.644],[-4.826069,43.177192,2233.205],[-4.826134,43.177179,2233.915],[-4.826192,43.177162,2234.608],[-4.826265,43.177161,2235.379],[-4.826321,43.177141,2236.11],[-4.826379,43.177126,2236.822],[-4.826453,43.177119,2237.365],[-4.826521,43.177118,2237.678],[-4.826575,43.177145,2237.955],[-4.826607,43.177186,2238.211],[-4.82664,43.17723,2238.332],[-4.826661,43.177273,2238.354],[-4.82669,43.177327,2238.256],[-4.826745,43.177354,2238.211],[-4.82679,43.177389,2238.208],[-4.826841,43.177425,2238.33],[-4.826895,43.17746,2238.381],[-4.826957,43.177494,2238.233],[-4.827013,43.177522,2238.316],[-4.827067,43.177551,2238.549],[-4.827133,43.177569,2238.776],[-4.827205,43.17759,2238.732],[-4.827261,43.17761,2238.463],[-4.827284,43.177653,2238.215],[-4.827318,43.177692,2237.865],[-4.827364,43.177728,2237.211],[-4.827408,43.177761,2236.708],[-4.827448,43.177797,2236.596],[-4.827503,43.177825,2236.257],[-4.82756,43.177846,2235.769],[-4.827633,43.177867,2234.842],[-4.8277,43.177889,2233.475],[-4.827765,43.177908,2231.692],[-4.827822,43.177891,2230.588],[-4.827878,43.177914,2229.979],[-4.827933,43.177935,2229.895],[-4.827994,43.177961,2229.949],[-4.828057,43.177988,2231.123],[-4.828091,43.178043,2231.908],[-4.828115,43.178086,2231.394],[-4.828147,43.178128,2229.835],[-4.828184,43.178167,2227.657],[-4.828233,43.178201,2225.65],[-4.82827,43.178238,2224.143],[-4.828314,43.17828,2222.69],[-4.828394,43.178283,2221.626],[-4.828464,43.17827,2220.717],[-4.828508,43.17823,2219.555],[-4.82856,43.178194,2218.007],[-4.82863,43.178171,2217.017],[-4.828691,43.178153,2216.508],[-4.828749,43.178134,2216.57],[-4.828817,43.178121,2216.871],[-4.828883,43.178116,2217.293],[-4.828951,43.178106,2217.716],[-4.829014,43.178091,2218.559],[-4.829077,43.178078,2219.596],[-4.829153,43.17807,2220.242],[-4.829221,43.178062,2220.693],[-4.829283,43.17804,2220.628],[-4.829337,43.178015,2220.589],[-4.829389,43.177987,2220.517],[-4.829442,43.177949,2220.308],[-4.829501,43.177933,2220.417],[-4.829561,43.17791,2220.838],[-4.829617,43.177879,2221.17],[-4.829674,43.17786,2220.763],[-4.829732,43.177841,2220.796],[-4.829792,43.177822,2221.253],[-4.829865,43.177805,2221.669],[-4.829934,43.177809,2221.92],[-4.829996,43.177827,2222.132],[-4.830057,43.17785,2223.192],[-4.830105,43.177881,2223.811],[-4.830172,43.177907,2224.308],[-4.830238,43.177922,2224.548],[-4.830304,43.177934,2224.659],[-4.83037,43.177939,2224.581],[-4.830432,43.177947,2224.584],[-4.830493,43.177965,2224.717],[-4.830565,43.177976,2225.124],[-4.830629,43.177973,2225.55],[-4.830696,43.177973,2225.811],[-4.830759,43.177965,2226.375],[-4.830825,43.177962,2226.928],[-4.830894,43.177976,2227.92],[-4.830957,43.177979,2229.208],[-4.831025,43.17798,2230.632],[-4.831096,43.177969,2231.933],[-4.83116,43.177971,2233.385],[-4.831222,43.177964,2234.518],[-4.831291,43.177954,2236.121],[-4.831352,43.177969,2237.798],[-4.831417,43.177986,2239.374],[-4.831494,43.177992,2241.295],[-4.831557,43.178007,2242.978],[-4.831619,43.17802,2244.333],[-4.831682,43.178028,2245.426],[-4.831746,43.178032,2246.208],[-4.83181,43.178042,2247.092],[-4.831872,43.178057,2247.963],[-4.831934,43.178056,2248.895],[-4.831998,43.178067,2249.698],[-4.83206,43.17806,2250.121],[-4.832127,43.17806,2250.818],[-4.832203,43.178065,2251.614],[-4.832265,43.178058,2252.155],[-4.83232,43.178037,2252.447],[-4.832382,43.178028,2252.929],[-4.83245,43.178026,2253.621],[-4.832516,43.178013,2254.408],[-4.832582,43.178015,2255.259],[-4.83265,43.178006,2256.37],[-4.832714,43.177992,2257.352],[-4.832776,43.177988,2258.825],[-4.832832,43.177967,2260.288],[-4.832896,43.177978,2261.945],[-4.83296,43.177988,2263.671],[-4.833029,43.17798,2265.582],[-4.833086,43.177956,2267.284],[-4.83315,43.177946,2268.707],[-4.833208,43.177919,2270.117],[-4.833272,43.177896,2271.608],[-4.833231,43.17786,2272.653],[-4.833231,43.177813,2273.364],[-4.833222,43.177764,2273.726],[-4.833217,43.177714,2274.049],[-4.833234,43.177668,2274.522],[-4.833275,43.177632,2275.289],[-4.833333,43.177608,2276.225],[-4.833384,43.177573,2277.636],[-4.833416,43.177534,2278.352],[-4.833464,43.177504,2278.653],[-4.8335,43.177466,2279.108],[-4.833564,43.17744,2279.908],[-4.833607,43.177402,2280.77],[-4.833614,43.177355,2281.361],[-4.833625,43.177309,2281.793],[-4.833637,43.177264,2282.116],[-4.833654,43.17722,2282.659],[-4.833633,43.177173,2283.296],[-4.833662,43.17713,2284.072],[-4.833722,43.177119,2284.613],[-4.83374,43.177072,2285.185],[-4.833759,43.177022,2285.889],[-4.833774,43.176975,2286.917],[-4.833836,43.176946,2288.408],[-4.833894,43.176924,2289.733],[-4.833944,43.176895,2290.914],[-4.833988,43.17686,2292.196],[-4.83402,43.176813,2293.589],[-4.83405,43.176772,2295.282],[-4.834116,43.176761,2297.199],[-4.834169,43.176734,2298.965],[-4.834216,43.176704,2300.576],[-4.834254,43.176667,2302.145],[-4.834292,43.176631,2303.647],[-4.834332,43.176592,2305.111],[-4.834372,43.176555,2306.708],[-4.834427,43.176529,2308.629],[-4.8345,43.17652,2310.69],[-4.834467,43.176478,2312.762],[-4.834409,43.176457,2314.465],[-4.834356,43.176433,2315.488],[-4.834335,43.176384,2316.385],[-4.834365,43.176339,2317.311],[-4.834391,43.176291,2318.452],[-4.834346,43.17625,2319.677],[-4.834294,43.176218,2320.961],[-4.834241,43.176194,2321.727],[-4.834175,43.176186,2322.408],[-4.834144,43.176145,2323.732],[-4.834151,43.176098,2326.273],[-4.834183,43.176139,2327.585],[-4.834177,43.176186,2327.478],[-4.834222,43.17622,2329.131],[-4.834283,43.17623,2329.898],[-4.834322,43.17627,2330.164],[-4.834361,43.176305,2329.845],[-4.834316,43.176338,2328.945],[-4.834338,43.176386,2327.447],[-4.834367,43.176429,2326.011],[-4.834421,43.176456,2324.408],[-4.834459,43.176496,2322.819],[-4.834525,43.176498,2321.53],[-4.834518,43.176543,2319.952],[-4.834454,43.176566,2318.435],[-4.834392,43.176581,2317.278],[-4.834341,43.176608,2315.635],[-4.834277,43.176631,2314.061],[-4.834208,43.176656,2312.672],[-4.834145,43.176682,2311.027],[-4.834097,43.176714,2309.368],[-4.834048,43.176754,2307.714],[-4.833984,43.176769,2306.208],[-4.833953,43.176811,2304.617],[-4.833919,43.176851,2303.188],[-4.833868,43.176887,2301.88],[-4.833814,43.176911,2300.263],[-4.833765,43.176943,2298.586],[-4.833762,43.176989,2296.743],[-4.833748,43.17704,2294.939],[-4.833738,43.177084,2293.37],[-4.833705,43.177126,2291.348],[-4.833652,43.177151,2289.461],[-4.833636,43.177197,2287.917],[-4.833657,43.177246,2286.608],[-4.833618,43.177283,2285.929],[-4.833588,43.177323,2285.18],[-4.833582,43.177377,2284.212],[-4.833549,43.177422,2283.025],[-4.833502,43.17746,2281.578],[-4.833422,43.177471,2280.665],[-4.833393,43.177519,2279.611],[-4.833359,43.177561,2278.632],[-4.833323,43.1776,2277.643],[-4.833265,43.177624,2276.764],[-4.83323,43.177664,2275.81],[-4.833212,43.177708,2274.908],[-4.833224,43.177755,2274.249],[-4.833236,43.177799,2273.98],[-4.833294,43.177825,2273.872],[-4.833294,43.177872,2273.835],[-4.833304,43.177918,2274.368],[-4.833317,43.177968,2274.635],[-4.833318,43.178014,2274.871],[-4.833301,43.17806,2275.292],[-4.833324,43.178105,2275.687],[-4.83336,43.178143,2276.342],[-4.83338,43.178187,2277.426],[-4.833367,43.178234,2278.608],[-4.83337,43.178279,2279.853],[-4.833383,43.178326,2280.994],[-4.833391,43.178371,2281.916],[-4.833409,43.17842,2283.099],[-4.833404,43.178471,2283.982],[-4.833382,43.178514,2284.389],[-4.83335,43.178556,2285.285],[-4.833342,43.178603,2286.286],[-4.833345,43.178649,2286.852],[-4.833373,43.178696,2287.153],[-4.833365,43.178744,2287.208],[-4.833363,43.178795,2287.208],[-4.833358,43.178847,2287.18],[-4.833379,43.17889,2286.921],[-4.833418,43.178945,2287.143],[-4.833462,43.178978,2287.276],[-4.833511,43.179007,2286.689],[-4.83354,43.179056,2286.486],[-4.833541,43.179102,2286.392],[-4.833562,43.179147,2286.523],[-4.833608,43.179184,2287.197],[-4.833655,43.179217,2287.823],[-4.833712,43.179239,2288.625],[-4.833675,43.179279,2289.208],[-4.833639,43.17932,2290.164],[-4.833586,43.179352,2291.175],[-4.833541,43.179386,2292.157],[-4.833504,43.179426,2293.42],[-4.833561,43.179445,2295.153],[-4.8336,43.179488,2295.98],[-4.833638,43.179525,2297.566],[-4.833703,43.17955,2299.457],[-4.833746,43.179583,2300.995],[-4.833781,43.179623,2302.149],[-4.833736,43.179658,2303.223],[-4.833675,43.179674,2304.808],[-4.833624,43.1797,2306.684],[-4.833565,43.179684,2308.385],[-4.833502,43.179667,2309.727],[-4.83343,43.179649,2311.19],[-4.833359,43.179648,2312.833],[-4.833319,43.179689,2314.37],[-4.833345,43.17973,2315.886],[-4.833341,43.179776,2317.677],[-4.833296,43.179813,2319.244],[-4.833285,43.179863,2320.405],[-4.833287,43.17991,2321.215],[-4.833302,43.179955,2321.908],[-4.833314,43.180008,2322.429],[-4.833302,43.180053,2322.91],[-4.833303,43.1801,2323.652],[-4.833314,43.180149,2324.315],[-4.833324,43.180197,2324.968],[-4.833291,43.18024,2326.215],[-4.833267,43.180286,2327.511],[-4.833237,43.180328,2328.842],[-4.833204,43.180366,2329.948],[-4.833191,43.180412,2331.261],[-4.833129,43.180415,2333.417],[-4.833072,43.180433,2335.308],[-4.833036,43.180394,2337.179],[-4.832995,43.180353,2338.63],[-4.832942,43.180326,2340.172],[-4.832887,43.180353,2341.545],[-4.832839,43.180389,2343.068],[-4.832799,43.180423,2344.585],[-4.832744,43.180459,2346.831],[-4.832702,43.180494,2349.232],[-4.832668,43.180537,2350.633],[-4.832656,43.180584,2351.423],[-4.832716,43.180597,2352.815],[-4.832772,43.180576,2354.108],[-4.832751,43.18062,2354.958],[-4.83271,43.180585,2354.799],[-4.832747,43.180546,2354.411],[-4.83277,43.180503,2354.584],[-4.832786,43.180454,2354.637],[-4.832831,43.18042,2354.454],[-4.832858,43.180378,2354.36],[-4.832908,43.180348,2354.051],[-4.832966,43.18033,2352.924],[-4.833028,43.180346,2351.604],[-4.833091,43.180366,2350.714],[-4.833126,43.180327,2350.108],[-4.833192,43.180332,2349.297],[-4.83324,43.180365,2348.178],[-4.833262,43.180321,2346.19],[-4.833275,43.180274,2344.243],[-4.833263,43.18023,2342.476],[-4.833278,43.180182,2341.053],[-4.833285,43.180127,2339.379],[-4.833284,43.180081,2337.99],[-4.833301,43.180026,2336.732],[-4.833308,43.179978,2335.592],[-4.833323,43.179929,2334.511],[-4.83331,43.179885,2333.508],[-4.833308,43.179835,2332.478],[-4.833344,43.179792,2331.229],[-4.833376,43.179753,2330.151],[-4.83338,43.179704,2329.294],[-4.833365,43.179658,2328.127],[-4.833367,43.179612,2326.754],[-4.833433,43.179613,2325.46],[-4.83349,43.179633,2324.221],[-4.833548,43.179652,2322.798],[-4.83362,43.179653,2321.115],[-4.833624,43.179606,2318.226],[-4.833686,43.179597,2315.508],[-4.833688,43.17955,2313.434],[-4.833641,43.17952,2311.875],[-4.833572,43.179506,2310.547],[-4.833518,43.179471,2309.21],[-4.833526,43.179426,2307.123],[-4.833539,43.179381,2305.17],[-4.833575,43.17934,2303.486],[-4.833641,43.179327,2300.827],[-4.83364,43.17928,2298.877],[-4.833669,43.179239,2297.461],[-4.833622,43.179206,2296.227],[-4.833556,43.179193,2295.408],[-4.833502,43.179156,2294.912],[-4.833473,43.179111,2294.523],[-4.833443,43.179066,2294.085],[-4.833418,43.179021,2293.478],[-4.833363,43.178992,2292.231],[-4.833329,43.17895,2291.198],[-4.8333,43.178908,2289.814],[-4.833285,43.178863,2288.945],[-4.83327,43.178814,2288.432],[-4.833285,43.178769,2288.292],[-4.833304,43.178723,2287.411],[-4.833325,43.178675,2287.308],[-4.833326,43.178626,2287.968],[-4.833311,43.178578,2288.959],[-4.833308,43.178525,2290.361],[-4.83331,43.178476,2292.034],[-4.83333,43.178428,2293.087],[-4.833359,43.178382,2292.814],[-4.833341,43.178337,2292.44],[-4.833338,43.178286,2291.961],[-4.833356,43.178235,2291.041],[-4.833367,43.178179,2290.281],[-4.833388,43.178123,2289.309],[-4.833368,43.178067,2288.208],[-4.833336,43.178023,2286.799],[-4.833318,43.177976,2284.52],[-4.833272,43.177941,2281.952],[-4.833237,43.177897,2279.165],[-4.833171,43.177897,2276.648],[-4.833121,43.177926,2274.615],[-4.833067,43.177954,2273.021],[-4.833009,43.177969,2271.392],[-4.832952,43.178,2269.766],[-4.832889,43.178006,2267.829],[-4.832829,43.177989,2266.121],[-4.832756,43.177989,2264.008],[-4.832706,43.178023,2262.081],[-4.832645,43.178044,2261.222],[-4.83258,43.178052,2260.434],[-4.832512,43.178068,2259.747],[-4.83245,43.178079,2259.17],[-4.832395,43.178103,2258.697],[-4.832359,43.178066,2258.093],[-4.832297,43.178064,2257.524],[-4.832233,43.17808,2256.892],[-4.832176,43.178099,2256.273],[-4.832108,43.178113,2255.32],[-4.832042,43.1781,2253.908],[-4.831973,43.178101,2252.774],[-4.831902,43.178105,2251.635],[-4.831834,43.178104,2250.617],[-4.831765,43.178115,2249.44],[-4.831694,43.178107,2247.973],[-4.831631,43.178098,2246.19],[-4.831576,43.178076,2244.476],[-4.831515,43.178066,2243.097],[-4.831455,43.178047,2241.819],[-4.831391,43.178036,2240.809],[-4.831327,43.178028,2239.919],[-4.83125,43.17802,2238.708],[-4.831181,43.178028,2236.976],[-4.831131,43.178056,2235.087],[-4.831078,43.178082,2233.389],[-4.831014,43.178075,2231.942],[-4.830934,43.178073,2230.855],[-4.830869,43.178062,2230.052],[-4.830808,43.178078,2229.548],[-4.830742,43.178081,2228.979],[-4.830685,43.178053,2228.439],[-4.830626,43.17804,2227.801],[-4.830558,43.178036,2227.321],[-4.830494,43.178028,2226.708],[-4.830434,43.178008,2226.318],[-4.830382,43.17798,2226.069],[-4.830317,43.177967,2225.721],[-4.830252,43.177968,2225.394],[-4.830188,43.177964,2224.897],[-4.830123,43.177963,2223.974],[-4.830055,43.177951,2222.95],[-4.82999,43.177941,2221.991],[-4.829924,43.177937,2220.869],[-4.829868,43.177917,2219.704],[-4.829807,43.177893,2218.524],[-4.829736,43.177889,2216.908],[-4.829672,43.177892,2215.671],[-4.829607,43.177914,2214.332],[-4.829539,43.177947,2212.984],[-4.829487,43.177988,2211.537],[-4.829439,43.178017,2210.04],[-4.829412,43.178063,2208.347],[-4.829364,43.178098,2206.643],[-4.82932,43.178132,2205.214],[-4.829266,43.178164,2203.916],[-4.829215,43.178205,2202.676],[-4.829148,43.17823,2201.113],[-4.82908,43.178237,2199.508],[-4.829005,43.178252,2197.916],[-4.828944,43.178267,2196.857],[-4.828884,43.178289,2195.989],[-4.828819,43.178295,2195.082],[-4.828758,43.17831,2194.385],[-4.828699,43.178333,2193.472],[-4.828637,43.178362,2192.578],[-4.82859,43.178393,2191.759],[-4.82853,43.178411,2191.189],[-4.828467,43.178418,2190.506],[-4.828398,43.178415,2189.926],[-4.828313,43.178413,2189.408],[-4.82825,43.178424,2189.243],[-4.828182,43.178427,2188.914],[-4.828104,43.178412,2188.676],[-4.828034,43.178415,2188.989],[-4.827977,43.178391,2189.752],[-4.827921,43.178362,2190.429],[-4.827865,43.17833,2191.485],[-4.82781,43.1783,2192.446],[-4.827752,43.178269,2193.471],[-4.827709,43.17823,2194.441],[-4.827667,43.17819,2195.315],[-4.827626,43.178149,2196.508],[-4.827587,43.178108,2197.742],[-4.827533,43.178082,2198.643],[-4.827476,43.178055,2199.395],[-4.827417,43.178028,2199.948],[-4.827354,43.178,2200.861],[-4.82731,43.177967,2201.938],[-4.827273,43.17793,2203.334],[-4.827241,43.17789,2205.395],[-4.8272,43.177853,2207.988],[-4.827154,43.177812,2210.424],[-4.827132,43.177769,2213.026],[-4.827107,43.177726,2215.008],[-4.827089,43.177678,2217.243],[-4.82704,43.177644,2219.694],[-4.826993,43.17761,2221.736],[-4.826951,43.177571,2224.079],[-4.826929,43.177526,2226.662],[-4.826879,43.177497,2228.659],[-4.826818,43.177461,2230.355],[-4.826758,43.177436,2231.936],[-4.826715,43.177399,2233.545],[-4.826676,43.177359,2235.047],[-4.826647,43.177314,2236.511],[-4.82661,43.177274,2237.908],[-4.826575,43.17723,2239.489],[-4.826549,43.177185,2240.63],[-4.826518,43.177139,2241.652],[-4.826478,43.177103,2242.665],[-4.826397,43.177112,2243.518],[-4.826328,43.177113,2244.235],[-4.826253,43.177142,2244.261],[-4.826192,43.17717,2243.512],[-4.826135,43.177188,2242.625],[-4.826071,43.177204,2241.326],[-4.825996,43.177208,2239.808],[-4.825919,43.177212,2238.308],[-4.825857,43.177214,2237.157],[-4.825795,43.177216,2236.238],[-4.825717,43.177216,2235.33],[-4.825646,43.177216,2234.633],[-4.825579,43.177231,2234.126],[-4.825515,43.177235,2233.753],[-4.825453,43.177235,2233.459],[-4.825388,43.177232,2233.04],[-4.825325,43.177216,2232.651],[-4.825256,43.177188,2232.201],[-4.825182,43.177168,2231.811],[-4.825118,43.177165,2231.508],[-4.825058,43.177152,2231.15],[-4.825003,43.177128,2230.621],[-4.824952,43.177102,2230.043],[-4.824903,43.177072,2229.336],[-4.824832,43.177071,2228.759],[-4.824767,43.177077,2228.116],[-4.824695,43.177089,2227.422],[-4.824628,43.177083,2226.753],[-4.824564,43.177069,2226.036],[-4.8245,43.177065,2225.317],[-4.824448,43.177039,2224.218],[-4.824383,43.177034,2223.108],[-4.824322,43.177021,2222.578],[-4.82427,43.176994,2222.169],[-4.824227,43.176953,2221.791],[-4.824199,43.176911,2221.684],[-4.82416,43.176869,2221.647],[-4.824102,43.17683,2221.694],[-4.824045,43.176798,2221.44],[-4.823992,43.176766,2221.421],[-4.823943,43.176734,2221.593],[-4.823901,43.176697,2221.765],[-4.823849,43.176666,2222.121],[-4.823874,43.176621,2222.708],[-4.823822,43.176584,2222.594],[-4.823753,43.176569,2221.875],[-4.823695,43.176586,2221.167],[-4.823639,43.176562,2220.92],[-4.823602,43.176523,2220.813],[-4.823553,43.176489,2220.42],[-4.823531,43.176446,2219.836],[-4.823472,43.176429,2218.997],[-4.823398,43.176431,2217.622],[-4.823324,43.176446,2216.262],[-4.823264,43.17646,2214.808],[-4.823197,43.17648,2212.908],[-4.823129,43.176496,2210.847],[-4.82306,43.176496,2208.038],[-4.822996,43.176499,2205.42],[-4.822926,43.176492,2203.653],[-4.822893,43.176447,2202.576],[-4.822935,43.176401,2201.993],[-4.822984,43.176357,2201.529],[-4.823026,43.176319,2201.05],[-4.823087,43.176297,2200.427],[-4.823156,43.176286,2199.868],[-4.823191,43.176248,2199.114],[-4.823229,43.176203,2198.408],[-4.823291,43.17619,2197.417],[-4.823335,43.176154,2196.438],[-4.823397,43.176146,2193.81],[-4.823415,43.1761,2192.133],[-4.823431,43.176054,2191.446],[-4.823359,43.176054,2191.483],[-4.823303,43.176087,2191.589],[-4.823239,43.176107,2191.69],[-4.823175,43.176125,2191.572],[-4.823114,43.176138,2191.313],[-4.823042,43.176125,2190.714],[-4.822981,43.176116,2189.808],[-4.822921,43.176099,2188.892],[-4.822851,43.176084,2187.883],[-4.822795,43.176062,2186.855],[-4.822734,43.176039,2185.758],[-4.822663,43.176037,2184.661],[-4.822596,43.176031,2183.758],[-4.82255,43.175997,2181.944],[-4.82251,43.17596,2179.835],[-4.822479,43.175911,2178.094],[-4.822457,43.175862,2176.757],[-4.822519,43.175853,2175.422],[-4.822585,43.175862,2174.208],[-4.822649,43.175866,2172.964],[-4.822715,43.175861,2171.785],[-4.822778,43.175848,2170.557],[-4.822835,43.175821,2169.32],[-4.822877,43.17578,2168.123],[-4.822895,43.175729,2167.29],[-4.822902,43.175675,2166.396],[-4.822904,43.175621,2165.547],[-4.822888,43.175577,2164.542],[-4.822895,43.175531,2163.122],[-4.822947,43.175489,2161.514],[-4.822937,43.175444,2160.508],[-4.822891,43.175402,2159.449],[-4.822862,43.175357,2159.07],[-4.822833,43.175308,2158.932],[-4.8228,43.175264,2159.075],[-4.822772,43.175224,2159.068],[-4.822742,43.175177,2158.825],[-4.8227,43.175137,2158.661],[-4.822656,43.175101,2158.582],[-4.822606,43.17505,2158.228],[-4.822556,43.175013,2157.489],[-4.822543,43.174968,2156.117],[-4.822511,43.174925,2154.508],[-4.8225,43.174874,2152.647],[-4.822525,43.174821,2151.048],[-4.822543,43.174765,2149.59],[-4.822574,43.174722,2148.053],[-4.822621,43.174691,2146.696],[-4.822559,43.174675,2143.863],[-4.822496,43.174693,2141.049],[-4.822459,43.174733,2138.51],[-4.822441,43.174687,2136.359],[-4.822489,43.174639,2134.403],[-4.822504,43.174592,2132.623],[-4.822548,43.174558,2131.308],[-4.822572,43.174508,2130.35],[-4.822594,43.174459,2129.561],[-4.822612,43.174407,2128.533],[-4.822661,43.174378,2127.246],[-4.822604,43.174351,2125.979],[-4.822536,43.174359,2124.776],[-4.822477,43.174384,2123.522],[-4.822406,43.174397,2122.283],[-4.822336,43.17441,2120.612],[-4.822272,43.174428,2118.932],[-4.822278,43.174383,2117.505],[-4.82232,43.174348,2116.508],[-4.822326,43.174296,2115.836],[-4.822338,43.174252,2115.277],[-4.822378,43.174213,2114.649],[-4.822421,43.174177,2114.032],[-4.822489,43.174165,2113.265],[-4.822549,43.174144,2112.522],[-4.822599,43.174109,2111.678],[-4.822533,43.174098,2110.759],[-4.822467,43.174099,2109.962],[-4.822405,43.174098,2108.983],[-4.822333,43.174087,2107.811],[-4.822271,43.174074,2106.708],[-4.822205,43.174073,2105.581],[-4.822143,43.174073,2104.362],[-4.822069,43.174083,2103.024],[-4.822017,43.174054,2101.847],[-4.821948,43.174048,2100.49],[-4.821884,43.174036,2098.817],[-4.821824,43.174012,2097.143],[-4.821761,43.173994,2095.294],[-4.821706,43.173972,2093.156],[-4.82168,43.17392,2091.159],[-4.82164,43.17388,2089.414],[-4.821571,43.173875,2087.808],[-4.821525,43.173909,2086.36],[-4.821478,43.173873,2084.511],[-4.821445,43.173829,2082.833],[-4.821399,43.173787,2081.316],[-4.821356,43.173749,2079.739],[-4.821303,43.173724,2078.626],[-4.821246,43.173703,2077.822],[-4.821189,43.173683,2076.923],[-4.821133,43.173662,2075.923],[-4.82107,43.173646,2074.983],[-4.821004,43.173633,2074.011],[-4.820945,43.17362,2073.008],[-4.820901,43.173582,2071.877],[-4.820845,43.173557,2070.448],[-4.820778,43.173534,2069.34],[-4.820714,43.173527,2068.313],[-4.820667,43.173493,2067.586],[-4.820618,43.173444,2066.893],[-4.820557,43.1734,2066.319],[-4.820495,43.173369,2066.07],[-4.820445,43.173334,2065.944],[-4.820394,43.173306,2065.705],[-4.820333,43.173289,2065.315],[-4.820271,43.173264,2065.008],[-4.820225,43.173227,2064.669],[-4.820166,43.173197,2064.25],[-4.820105,43.173177,2063.742],[-4.820035,43.173169,2063.165],[-4.819967,43.173162,2062.678],[-4.819906,43.173138,2061.935],[-4.819844,43.173114,2061.141],[-4.819778,43.173101,2060.022],[-4.819714,43.173082,2058.914],[-4.81965,43.173083,2058.554],[-4.819588,43.173054,2058.709],[-4.81952,43.173048,2058.908],[-4.819463,43.173021,2059.296],[-4.819405,43.172992,2059.397],[-4.819356,43.172961,2059.379],[-4.819318,43.172925,2059.082],[-4.819272,43.172885,2058.395],[-4.819216,43.172853,2056.932],[-4.819169,43.17282,2055.258],[-4.819111,43.172802,2053.049],[-4.819057,43.172778,2051.136],[-4.819007,43.172747,2049.617],[-4.81895,43.17272,2048.118],[-4.818876,43.172728,2046.908],[-4.81881,43.172745,2045.948],[-4.818744,43.172759,2044.979],[-4.818691,43.172735,2044.041],[-4.818641,43.172704,2043.374],[-4.8186,43.172667,2042.447],[-4.818539,43.172662,2041.844],[-4.818474,43.172652,2041.11],[-4.818408,43.172645,2040.441],[-4.818346,43.172637,2039.494],[-4.81828,43.172619,2038.357],[-4.818233,43.172588,2037.022],[-4.818169,43.17258,2035.408],[-4.818107,43.172589,2034.244],[-4.818048,43.172568,2033.165],[-4.817994,43.172542,2031.927],[-4.817931,43.172554,2031.27],[-4.817869,43.172519,2030.833],[-4.817817,43.172494,2030.43],[-4.817753,43.172506,2030.166],[-4.817688,43.172525,2029.987],[-4.817621,43.172535,2029.846],[-4.817556,43.172523,2029.188],[-4.817499,43.1725,2028.416],[-4.81748,43.172454,2027.008],[-4.817461,43.17241,2024.699],[-4.817432,43.172367,2022.79],[-4.817418,43.172321,2021.592],[-4.817388,43.172279,2020.335],[-4.817347,43.172232,2019.258],[-4.817303,43.172199,2018.085],[-4.817258,43.172163,2016.911],[-4.817207,43.172136,2015.932],[-4.817186,43.17208,2014.697],[-4.817196,43.172029,2013.023],[-4.817167,43.171978,2011.525],[-4.817127,43.171944,2010.208],[-4.817105,43.171901,2009.124],[-4.81711,43.171853,2008.195],[-4.8171,43.171807,2006.917],[-4.81707,43.171761,2005.82],[-4.81705,43.171713,2004.493],[-4.817022,43.171669,2003.18],[-4.816973,43.171636,2002.176],[-4.816937,43.171596,2001.257],[-4.816898,43.171558,2000.284],[-4.816882,43.171508,1999.307],[-4.816821,43.171483,1998.317],[-4.816812,43.171435,1997.108],[-4.81679,43.171393,1996.143],[-4.816751,43.171354,1995.184],[-4.816728,43.171311,1994.046],[-4.816687,43.171277,1992.759],[-4.816661,43.17123,1991.552],[-4.816609,43.171204,1990.379],[-4.816551,43.171179,1989.235],[-4.816513,43.171138,1987.876],[-4.816491,43.171094,1987.131],[-4.816496,43.171049,1986.761],[-4.816442,43.171022,1986.707],[-4.816379,43.171005,1986.308],[-4.816315,43.171011,1985.968],[-4.816273,43.170974,1985.219],[-4.81624,43.170933,1984.611],[-4.816195,43.170898,1984.174],[-4.816141,43.170869,1983.427],[-4.816086,43.17084,1982.674],[-4.816031,43.170812,1981.74],[-4.81602,43.170765,1980.681],[-4.815962,43.170738,1979.425],[-4.815895,43.170739,1977.926],[-4.815834,43.170727,1976.408],[-4.815784,43.170695,1974.808],[-4.815747,43.170656,1973.567],[-4.815721,43.170607,1972.438],[-4.815698,43.170556,1971.41],[-4.81568,43.17051,1970.433],[-4.815647,43.170471,1969.586],[-4.815636,43.170425,1968.693],[-4.815607,43.170384,1967.749],[-4.815575,43.170343,1966.89],[-4.815549,43.170297,1966.087],[-4.815543,43.170248,1965.242],[-4.815542,43.170198,1964.226],[-4.815547,43.170139,1963.208],[-4.815555,43.170079,1962.363],[-4.815535,43.170032,1961.344],[-4.815517,43.169989,1960.596],[-4.815485,43.169945,1959.279],[-4.815451,43.169898,1957.972],[-4.815435,43.169854,1956.579],[-4.815423,43.169808,1955.265],[-4.815441,43.169759,1954.196],[-4.815461,43.169714,1952.984],[-4.815457,43.169667,1951.907],[-4.815402,43.169646,1950.917],[-4.815363,43.169607,1949.708],[-4.815378,43.169559,1948.443],[-4.815387,43.169512,1947.414],[-4.81537,43.169468,1946.666],[-4.815343,43.169423,1946.299],[-4.815299,43.16939,1946.092],[-4.81531,43.169344,1945.939],[-4.815355,43.16931,1945.915],[-4.815376,43.169266,1945.996],[-4.815365,43.169217,1945.753],[-4.815332,43.169176,1945.304],[-4.8153,43.169133,1944.914],[-4.815249,43.169103,1943.908],[-4.815196,43.169077,1943.42],[-4.815118,43.169054,1943.081],[-4.815058,43.169034,1942.733],[-4.814998,43.169012,1942.476],[-4.81494,43.168997,1942.119],[-4.814878,43.168969,1942.016],[-4.814838,43.168924,1942.042],[-4.814769,43.16889,1942.133],[-4.814722,43.168854,1942.255],[-4.814677,43.168811,1941.807],[-4.814613,43.168783,1940.917],[-4.814549,43.168761,1940.008],[-4.814488,43.168755,1939.24],[-4.814424,43.168735,1938.131],[-4.81437,43.168707,1937.163],[-4.814317,43.168671,1936.196],[-4.814264,43.168629,1935.169],[-4.814231,43.168587,1934.096],[-4.814205,43.168546,1933.032],[-4.814177,43.168506,1932.343],[-4.814138,43.168463,1931.923],[-4.814094,43.168414,1931.683],[-4.814054,43.168376,1931.411],[-4.813989,43.168359,1931.408],[-4.813936,43.168328,1931.157],[-4.813881,43.168301,1930.778],[-4.813848,43.16826,1930.62],[-4.813783,43.168235,1930.493],[-4.813725,43.168205,1930.366],[-4.813689,43.168165,1930.343],[-4.813636,43.168136,1930.289],[-4.813582,43.1681,1930.14],[-4.813523,43.168073,1930.267],[-4.813488,43.168031,1930.281],[-4.813449,43.167989,1930.219],[-4.813435,43.167937,1930.308],[-4.813398,43.167898,1930.471],[-4.813342,43.167867,1930.552],[-4.813278,43.167834,1930.574],[-4.81322,43.167807,1930.457],[-4.813186,43.167765,1930.48],[-4.813215,43.167711,1930.237],[-4.813247,43.167652,1930.093],[-4.813284,43.167608,1929.824],[-4.813291,43.167557,1929.614],[-4.813288,43.167512,1929.654],[-4.813272,43.167467,1929.609],[-4.81326,43.167416,1929.408],[-4.813241,43.16737,1928.736],[-4.813207,43.167324,1928.247],[-4.81318,43.167283,1928.089],[-4.81316,43.167235,1927.972],[-4.813141,43.167187,1927.835],[-4.813114,43.167123,1927.552],[-4.813093,43.167079,1927.148],[-4.813065,43.167038,1926.329],[-4.813028,43.166999,1925.632],[-4.812994,43.16696,1924.892],[-4.812969,43.166906,1924.011],[-4.81296,43.16686,1923.108],[-4.812933,43.166812,1922.148],[-4.812925,43.166765,1920.999],[-4.812896,43.16672,1919.461],[-4.812897,43.16667,1918.484],[-4.812909,43.166625,1917.777],[-4.812937,43.166568,1917.264],[-4.812946,43.166519,1916.81],[-4.812946,43.16647,1916.361],[-4.812941,43.166416,1915.848],[-4.812917,43.166368,1915.361],[-4.81287,43.166329,1914.617],[-4.812828,43.166295,1914.008],[-4.812783,43.166258,1913.449],[-4.812744,43.166219,1912.71],[-4.8127,43.166186,1912.212],[-4.812653,43.166156,1911.635],[-4.81263,43.166114,1911.098],[-4.812615,43.166068,1910.815],[-4.812614,43.166023,1911.091],[-4.812615,43.165969,1911.592],[-4.812618,43.16592,1912.053],[-4.812623,43.165867,1912.404],[-4.812618,43.16581,1912.814],[-4.812617,43.165759,1913.108],[-4.812629,43.165701,1913.41],[-4.812638,43.16565,1913.671],[-4.812631,43.165597,1913.883],[-4.812585,43.165554,1914.016],[-4.812534,43.16552,1914.329],[-4.81249,43.165475,1914.616],[-4.812461,43.165433,1914.962],[-4.812431,43.165385,1914.843],[-4.812397,43.165343,1914.531],[-4.812365,43.165296,1914.261],[-4.812329,43.165257,1913.907],[-4.812295,43.165215,1913.608],[-4.812266,43.165174,1913.388],[-4.812221,43.165138,1913.259],[-4.812163,43.165079,1913.521],[-4.812137,43.164994,1913.714],[-4.812191,43.165033,1913.817],[-4.812251,43.164971,1913.444],[-4.812234,43.16492,1913.38],[-4.812177,43.164955,1913.051],[-4.812088,43.164976,1913.113],[-4.812023,43.164979,1913.443],[-4.811951,43.164972,1913.807],[-4.811874,43.164972,1913.208],[-4.811807,43.16496,1911.476],[-4.811755,43.164928,1910.867],[-4.8117,43.164888,1910.719],[-4.811652,43.164857,1910.922],[-4.811592,43.164824,1911.395],[-4.811524,43.164799,1911.292],[-4.811467,43.164781,1911.028],[-4.811408,43.164759,1910.659],[-4.811351,43.164741,1910.128],[-4.811282,43.164724,1910.389],[-4.811224,43.1647,1910.817],[-4.811158,43.164705,1911.808],[-4.811088,43.164721,1911.577],[-4.811025,43.164702,1911.228],[-4.810952,43.164676,1910.65],[-4.81089,43.164641,1910.213],[-4.810841,43.164605,1909.666],[-4.810789,43.164573,1909.453],[-4.810734,43.164541,1909.459],[-4.810678,43.164514,1909.11],[-4.810633,43.164477,1908.919],[-4.810572,43.164455,1908.509],[-4.810506,43.164441,1908.319],[-4.810459,43.164405,1908.008],[-4.810429,43.164364,1907.816],[-4.810379,43.164331,1907.587],[-4.810322,43.164306,1907.419],[-4.81026,43.164289,1907.412],[-4.810217,43.164256,1907.365],[-4.81016,43.16423,1907.162],[-4.810093,43.164213,1907.078],[-4.810034,43.164195,1907.159],[-4.809981,43.164168,1907.345],[-4.809932,43.164134,1907.447],[-4.809901,43.164094,1907.611],[-4.809884,43.164048,1907.808],[-4.809868,43.163999,1908.019],[-4.809852,43.163954,1908.19],[-4.809829,43.163888,1908.352],[-4.809806,43.163832,1908.475],[-4.809785,43.163788,1908.418],[-4.809754,43.163745,1908.565],[-4.809736,43.163702,1908.751],[-4.809698,43.163658,1908.992],[-4.809647,43.163622,1908.788],[-4.809597,43.163585,1908.424],[-4.809538,43.163545,1908.626],[-4.80949,43.163512,1909.208],[-4.809431,43.163476,1909.763],[-4.8094,43.163428,1910.034],[-4.809353,43.163399,1910.166],[-4.809301,43.163366,1910.019],[-4.809254,43.16333,1909.862],[-4.809206,43.163292,1909.519],[-4.809168,43.163246,1909.115],[-4.809154,43.163198,1908.876],[-4.809087,43.163165,1908.913],[-4.809109,43.163123,1909.143],[-4.809128,43.16308,1909.207],[-4.809115,43.16303,1908.108],[-4.809064,43.162982,1906.196],[-4.809006,43.162949,1904.377],[-4.808952,43.162921,1902.349],[-4.808913,43.162875,1901.462],[-4.808893,43.162829,1900.345],[-4.80888,43.162785,1898.982],[-4.808861,43.162738,1897.368],[-4.808838,43.162692,1896.049],[-4.808816,43.162639,1895.371],[-4.808797,43.162591,1895.041],[-4.808778,43.162547,1894.815],[-4.808764,43.162501,1894.508],[-4.808746,43.162455,1893.962],[-4.808741,43.16241,1893.123],[-4.808713,43.162366,1892.065],[-4.808679,43.162322,1891.048],[-4.808643,43.162279,1890.141],[-4.808614,43.162234,1888.818],[-4.808584,43.162185,1887.614],[-4.808548,43.162143,1886.015],[-4.808502,43.1621,1884.574],[-4.808462,43.162054,1883.356],[-4.808419,43.162014,1882.021],[-4.808377,43.161973,1880.808],[-4.808324,43.161936,1879.792],[-4.808269,43.161896,1878.913],[-4.808225,43.161856,1877.985],[-4.808184,43.161813,1877.028],[-4.808144,43.161764,1876.311],[-4.808108,43.161722,1875.598],[-4.808066,43.161688,1875.084],[-4.808028,43.161643,1874.635],[-4.807986,43.161607,1874.425],[-4.807971,43.161559,1874.326],[-4.807954,43.161511,1874.108],[-4.807933,43.16146,1873.908],[-4.807899,43.161409,1873.667],[-4.807852,43.161368,1873.268],[-4.807813,43.16133,1872.83],[-4.807791,43.161287,1872.253],[-4.807745,43.161254,1871.516],[-4.807702,43.161214,1871.323],[-4.807663,43.161162,1871.829],[-4.80764,43.161117,1872.09],[-4.807607,43.161072,1871.913],[-4.807572,43.161033,1871.743],[-4.807528,43.160991,1871.307],[-4.807491,43.160947,1871.008],[-4.80744,43.160918,1870.766],[-4.80739,43.160887,1870.477],[-4.807374,43.160843,1870.419],[-4.80733,43.160802,1870.752],[-4.807294,43.160744,1871.215],[-4.807326,43.160694,1871.692],[-4.807359,43.160653,1873.558],[-4.807403,43.160621,1874.869],[-4.807461,43.160587,1876.293],[-4.807513,43.160548,1878.665],[-4.807554,43.16051,1880.721],[-4.807604,43.160473,1884.108],[-4.807669,43.16046,1888.174],[-4.807727,43.16044,1891.185],[-4.807786,43.160422,1892.687],[-4.807847,43.160404,1893.66],[-4.807911,43.160409,1894.813],[-4.807992,43.160397,1896.31],[-4.808051,43.16037,1899.126],[-4.808106,43.160337,1903.017],[-4.808167,43.160312,1906.396],[-4.80823,43.160306,1907.331],[-4.808311,43.160289,1907.424],[-4.808385,43.160278,1906.808],[-4.808474,43.16027,1905.884],[-4.808537,43.160273,1905.085],[-4.808594,43.160253,1904.337],[-4.808627,43.160208,1903.95],[-4.808671,43.160175,1903.433],[-4.808742,43.160152,1902.76],[-4.808805,43.16016,1902.136],[-4.80888,43.160151,1902.287],[-4.808941,43.160133,1902.358],[-4.809008,43.160124,1902.352],[-4.809073,43.16012,1902.217],[-4.80915,43.16012,1901.908],[-4.809218,43.160111,1901.37],[-4.809283,43.160099,1900.351],[-4.80935,43.160077,1899.553],[-4.809409,43.160059,1898.936],[-4.809465,43.160029,1897.999],[-4.809489,43.159986,1896.926],[-4.80951,43.159942,1896.182],[-4.809522,43.159891,1895.483],[-4.809516,43.159842,1894.636],[-4.809486,43.159799,1893.717],[-4.809453,43.159757,1892.918],[-4.809413,43.159708,1892.308],[-4.809369,43.159669,1891.678],[-4.809338,43.15963,1891.159],[-4.809324,43.159582,1890.771],[-4.809305,43.159538,1890.264],[-4.809278,43.159496,1889.867],[-4.809256,43.159452,1891.054],[-4.80923,43.159409,1891.34],[-4.809184,43.159371,1891.531],[-4.809141,43.159333,1891.849],[-4.809106,43.159295,1892.102],[-4.809067,43.159255,1892.322],[-4.809043,43.159211,1892.508],[-4.809007,43.159162,1892.829],[-4.808963,43.159131,1893.06],[-4.808911,43.159098,1893.242],[-4.808859,43.15906,1893.395],[-4.808808,43.15903,1893.338],[-4.808756,43.158995,1893.255],[-4.808702,43.158954,1893.071],[-4.808665,43.158918,1892.832],[-4.808621,43.158885,1892.766],[-4.808575,43.158854,1892.629],[-4.80851,43.15884,1892.721],[-4.808463,43.158811,1893.108],[-4.80843,43.15877,1892.731],[-4.808422,43.158715,1892.082],[-4.808401,43.158672,1891.234],[-4.808349,43.158629,1890.477],[-4.808297,43.158592,1889.56],[-4.808237,43.158577,1888.557],[-4.808177,43.158552,1887.593],[-4.808116,43.15854,1886.544],[-4.808057,43.158509,1885.579],[-4.808016,43.15846,1884.705],[-4.807998,43.158409,1884.225],[-4.807987,43.158361,1883.808],[-4.807977,43.158301,1883.662],[-4.807969,43.158256,1883.553],[-4.807922,43.158224,1883.235],[-4.807887,43.158186,1883.078],[-4.807866,43.158135,1882.781],[-4.807869,43.15807,1882.478],[-4.807873,43.158022,1882.074],[-4.807901,43.157978,1881.555],[-4.807869,43.157934,1880.888],[-4.807865,43.157872,1880.124],[-4.807844,43.157828,1879.426],[-4.807812,43.157788,1879.008],[-4.807789,43.157745,1879.313],[-4.807766,43.157698,1879.784],[-4.80774,43.15765,1879.756],[-4.807721,43.157599,1879.759],[-4.807704,43.157555,1879.752],[-4.807689,43.157509,1879.759],[-4.807673,43.157463,1879.785],[-4.807667,43.157415,1879.766],[-4.807666,43.157359,1879.789],[-4.807669,43.157312,1879.606],[-4.807654,43.157267,1879.426],[-4.807623,43.157223,1879.308],[-4.807578,43.157181,1879.153],[-4.807519,43.157154,1878.924],[-4.807474,43.157121,1878.576],[-4.807424,43.157078,1878.069],[-4.807355,43.157054,1877.372],[-4.807288,43.157029,1876.889],[-4.807214,43.157007,1876.695],[-4.807156,43.156981,1876.396],[-4.807092,43.15695,1876.055],[-4.807041,43.156913,1875.907],[-4.806997,43.156876,1875.917],[-4.806951,43.156841,1875.908],[-4.806906,43.156806,1875.83],[-4.806851,43.156779,1875.221],[-4.806784,43.156764,1874.683],[-4.806719,43.156738,1874.376],[-4.806672,43.1567,1874.389],[-4.806609,43.156686,1874.526],[-4.806557,43.156661,1874.912],[-4.806497,43.156639,1874.943],[-4.806434,43.156617,1874.288],[-4.806361,43.156598,1873.424],[-4.806293,43.156581,1872.826],[-4.806225,43.156572,1872.308],[-4.806166,43.156551,1871.933],[-4.806119,43.156518,1871.474],[-4.806075,43.156484,1871.126],[-4.806045,43.156434,1871.299],[-4.806019,43.156383,1871.262],[-4.80598,43.156345,1871.429],[-4.805936,43.156303,1871.465],[-4.805891,43.156272,1871.326],[-4.805844,43.156242,1871.115],[-4.805793,43.156216,1870.765],[-4.805739,43.156188,1870.211],[-4.805695,43.156142,1870.008],[-4.805665,43.156098,1870.076],[-4.805648,43.156053,1870.267],[-4.805665,43.156008,1870.189],[-4.805679,43.155963,1869.032],[-4.805723,43.155923,1868.515],[-4.805781,43.155897,1868.462],[-4.805835,43.155871,1868.388],[-4.805894,43.155844,1868.119],[-4.805961,43.155821,1867.885],[-4.805993,43.155782,1867.589],[-4.805991,43.155732,1867.117],[-4.806013,43.155687,1866.508],[-4.805967,43.155644,1866.553],[-4.805935,43.155602,1866.294],[-4.805883,43.155555,1865.816],[-4.805848,43.155515,1865.029],[-4.805808,43.155471,1864.192],[-4.805769,43.15542,1862.949],[-4.805738,43.155375,1861.785],[-4.805705,43.155334,1860.766],[-4.805665,43.155298,1860.147],[-4.805631,43.155255,1859.529],[-4.805576,43.155231,1859.021],[-4.805549,43.155178,1858.308],[-4.805522,43.155134,1857.669],[-4.805468,43.155102,1857.09],[-4.805413,43.155066,1856.562],[-4.805366,43.155034,1856.395],[-4.805325,43.154996,1856.228],[-4.805281,43.154957,1856.115],[-4.805271,43.154899,1856.021],[-4.805289,43.154851,1856.042],[-4.805327,43.154813,1856.117],[-4.805375,43.154777,1856.287],[-4.805441,43.154751,1856.315],[-4.805505,43.154739,1856.408],[-4.805558,43.154715,1856.336],[-4.805596,43.154679,1855.937],[-4.805601,43.15463,1855.459],[-4.805611,43.154585,1854.992],[-4.805607,43.154533,1854.225],[-4.805601,43.15448,1853.612],[-4.805596,43.154432,1853.058],[-4.805611,43.154372,1852.589],[-4.80568,43.154341,1851.869],[-4.805751,43.154336,1851.204],[-4.805813,43.154341,1850.824],[-4.805878,43.154318,1850.508],[-4.805943,43.15429,1849.991],[-4.806013,43.154269,1849.392],[-4.80607,43.154245,1849.494],[-4.806082,43.154195,1849.797],[-4.806055,43.15415,1850.07],[-4.806026,43.154101,1850.017],[-4.806008,43.154045,1849.453],[-4.805972,43.154005,1849.674],[-4.805972,43.154005,1849.652],[-4.805926,43.153964,1849.253],[-4.805907,43.153916,1848.708],[-4.805878,43.153873,1848.008],[-4.805859,43.153829,1847.52],[-4.805828,43.15378,1847.091],[-4.805786,43.153738,1846.923],[-4.805756,43.153695,1846.956],[-4.80573,43.153644,1847.199]]}}]}