{"type":"FeatureCollection","features":[{"type":"Feature","properties":{"ruta_id":"59926185","nombre":"🌊 CASCADA de AIZPUN","blog_url":"https://www.rutasporelmonte.com/cascada-de-aizpun-ruta-en-artazul/"},"geometry":{"type":"LineString","coordinates":[[-1.87528,42.832977,774.264],[-1.875342,42.832976,775.606],[-1.875385,42.83294,775.616],[-1.875394,42.832987,775.008],[-1.875433,42.833035,774.771],[-1.875481,42.83307,774.565],[-1.875469,42.833118,774.435],[-1.875511,42.833162,774.378],[-1.875572,42.833197,774.372],[-1.875612,42.833232,774.377],[-1.875635,42.833279,774.334],[-1.875641,42.833326,774.321],[-1.875666,42.833368,774.359],[-1.875688,42.833414,774.303],[-1.875734,42.833469,774.323],[-1.875758,42.833514,774.308],[-1.875792,42.833562,774.35],[-1.875844,42.833601,774.374],[-1.875883,42.83364,774.374],[-1.875896,42.833688,774.347],[-1.875926,42.833729,774.391],[-1.875976,42.833778,774.316],[-1.876019,42.833812,774.313],[-1.876055,42.833857,774.31],[-1.876088,42.8339,774.351],[-1.876109,42.833943,774.301],[-1.876139,42.833986,774.311],[-1.876168,42.834029,774.308],[-1.876199,42.834085,774.31],[-1.876221,42.834132,774.374],[-1.876241,42.834182,774.344],[-1.876259,42.834239,774.317],[-1.876274,42.834294,770.371],[-1.876294,42.83435,766.376],[-1.876315,42.834406,762.363],[-1.876333,42.83445,758.39],[-1.876349,42.834493,754.351],[-1.876375,42.834549,750.301],[-1.876396,42.834603,746.311],[-1.876415,42.834651,742.308],[-1.876445,42.834693,738.39],[-1.876502,42.834711,734.314],[-1.876546,42.834757,730.374],[-1.876583,42.83481,726.387],[-1.876615,42.834857,722.381],[-1.876643,42.834902,718.336],[-1.876667,42.834948,714.383],[-1.876706,42.835004,712.08],[-1.876736,42.835047,710.795],[-1.876772,42.835084,709.849],[-1.876807,42.835126,709.323],[-1.876857,42.835177,709.208],[-1.876902,42.835213,709.374],[-1.876948,42.835248,709.618],[-1.876995,42.835282,709.778],[-1.877041,42.835312,709.761],[-1.877098,42.835352,710.085],[-1.87715,42.835376,710.77],[-1.877222,42.835399,711.017],[-1.877279,42.83542,711.624],[-1.877352,42.835446,711.596],[-1.877408,42.835469,711.131],[-1.877474,42.835487,710.724],[-1.877538,42.835496,710.108],[-1.877594,42.835516,709.244],[-1.877664,42.835534,708.218],[-1.877727,42.835546,707.458],[-1.877794,42.835571,706.591],[-1.87785,42.835598,705.855],[-1.877914,42.835628,705.45],[-1.877973,42.835658,705.677],[-1.878038,42.835689,706.124],[-1.878104,42.835721,706.672],[-1.878166,42.83574,707.013],[-1.878232,42.835757,707.314],[-1.878304,42.835758,707.308],[-1.87837,42.835762,706.192],[-1.878423,42.835789,705.096],[-1.878485,42.835826,704.476],[-1.878532,42.835855,704.269],[-1.878601,42.8359,704.493],[-1.878665,42.835935,704.778],[-1.878724,42.835972,705.165],[-1.878774,42.836002,705.192],[-1.878821,42.836039,705.145],[-1.878866,42.836076,704.647],[-1.878905,42.836117,703.711],[-1.878935,42.836157,702.408],[-1.878967,42.836198,701.439],[-1.878995,42.836248,700.563],[-1.879029,42.836316,699.523],[-1.879065,42.836365,698.876],[-1.879095,42.836418,698.46],[-1.879121,42.836461,698.115],[-1.879156,42.836523,697.992],[-1.87919,42.836576,697.929],[-1.879212,42.836621,698.018],[-1.879232,42.836665,698.598],[-1.879221,42.836716,699.117],[-1.879255,42.836758,699.808],[-1.879287,42.836805,700.396],[-1.879312,42.836847,700.64],[-1.879341,42.836899,701.07],[-1.879385,42.836938,701.263],[-1.879435,42.836982,701.437],[-1.879462,42.837031,702.022],[-1.879497,42.83707,702.779],[-1.879542,42.83711,703.766],[-1.879574,42.837148,704.336],[-1.879631,42.837178,703.917],[-1.879676,42.837209,703.418],[-1.879723,42.837248,702.908],[-1.879771,42.837292,702.478],[-1.879814,42.837343,702.092],[-1.879857,42.837398,701.532],[-1.879893,42.837434,701.185],[-1.879931,42.837476,700.789],[-1.879972,42.837514,700.374],[-1.880019,42.837552,700.111],[-1.880063,42.837597,700.298],[-1.880123,42.837625,699.826],[-1.880155,42.837667,699.447],[-1.880175,42.837714,699.511],[-1.880212,42.837751,699.908],[-1.880233,42.837793,700.237],[-1.880258,42.837844,700.691],[-1.880313,42.837879,700.441],[-1.880342,42.837922,700.174],[-1.880406,42.837923,699.948],[-1.880472,42.83791,699.563],[-1.880541,42.83792,699.04],[-1.880595,42.837947,698.557],[-1.880672,42.837945,697.921],[-1.880742,42.837964,697.141],[-1.880797,42.837991,696.305],[-1.880865,42.838008,695.508],[-1.880929,42.838027,694.837],[-1.880983,42.838057,694.081],[-1.881013,42.8381,693.321],[-1.881062,42.838133,692.524],[-1.881134,42.838121,691.678],[-1.881195,42.838146,690.653],[-1.881187,42.838191,689.53],[-1.88116,42.838234,688.737],[-1.881142,42.838277,688.291],[-1.881145,42.838331,688.281],[-1.881117,42.838377,688.219],[-1.881138,42.83843,688.708],[-1.881138,42.838479,689.154],[-1.881141,42.838531,689.338],[-1.881083,42.838508,690.348],[-1.881039,42.838475,691.731],[-1.881091,42.838509,692.255],[-1.881099,42.838562,692.67],[-1.881111,42.838612,692.827],[-1.881132,42.838654,693.274],[-1.881154,42.838699,693.518],[-1.881128,42.838743,693.998],[-1.881149,42.838788,694.217],[-1.881189,42.838825,694.608],[-1.881199,42.838872,695.046],[-1.881227,42.838912,695.39],[-1.881268,42.838947,695.56],[-1.881307,42.838991,695.973],[-1.881374,42.839027,696.317],[-1.881418,42.839061,696.882],[-1.881454,42.839109,697.449],[-1.881502,42.839143,697.956],[-1.88153,42.839194,698.532],[-1.881561,42.839235,698.992],[-1.881604,42.83927,699.311],[-1.881655,42.839299,699.708],[-1.88171,42.839333,700.128],[-1.881772,42.839347,700.622],[-1.881793,42.839397,701.022],[-1.881801,42.839442,701.565],[-1.881845,42.839488,701.779],[-1.881905,42.839525,701.944],[-1.881951,42.839556,702.131],[-1.882018,42.839588,702.338],[-1.882101,42.839598,702.141],[-1.882164,42.839578,701.681],[-1.882231,42.839568,701.109],[-1.882299,42.839559,701.008],[-1.882363,42.839544,700.919],[-1.882433,42.839543,700.733],[-1.882482,42.839578,700.583],[-1.882544,42.839607,700.396],[-1.882611,42.83964,700.36],[-1.882675,42.839669,700.165],[-1.882733,42.839703,699.882],[-1.882794,42.839719,699.389],[-1.882859,42.839744,698.723],[-1.882907,42.839792,698.983],[-1.88293,42.839835,698.711],[-1.882976,42.839876,697.308],[-1.882997,42.839925,696.297],[-1.88304,42.839958,695.961],[-1.883094,42.839984,695.531],[-1.883145,42.840015,694.954],[-1.883226,42.840043,694.428],[-1.883281,42.840066,693.833],[-1.883343,42.840082,693.35],[-1.883406,42.840117,692.827],[-1.883465,42.840143,692.421],[-1.883523,42.84017,691.941],[-1.883579,42.840211,691.405],[-1.883615,42.840255,691.508],[-1.883658,42.840305,691.417],[-1.883636,42.840363,691.451],[-1.883588,42.840392,691.091],[-1.883518,42.840381,689.964],[-1.883458,42.840357,688.978],[-1.883396,42.840345,688.093],[-1.883331,42.840324,687.47],[-1.883276,42.840345,686.397],[-1.883218,42.840322,685.284],[-1.883135,42.840317,684.007],[-1.883069,42.840305,682.717],[-1.883007,42.840277,681.508],[-1.882957,42.840242,680.643],[-1.882897,42.84021,679.747],[-1.88284,42.840189,678.957],[-1.88277,42.8402,678.39],[-1.882708,42.840189,677.994],[-1.882643,42.840208,676.899],[-1.882584,42.840194,676.226],[-1.882519,42.840173,676.123],[-1.882453,42.840163,676.415],[-1.882391,42.840156,676.365],[-1.882331,42.840131,676.611],[-1.88227,42.840153,677.808],[-1.882215,42.840179,679.386],[-1.882152,42.840203,680.94],[-1.882082,42.840218,682.81],[-1.882026,42.840239,684.383],[-1.881978,42.840281,685.127],[-1.881921,42.840301,686.092],[-1.881872,42.840336,686.739],[-1.881787,42.840334,687.396],[-1.88171,42.840335,687.811],[-1.881658,42.840304,688.321],[-1.881628,42.840259,688.803],[-1.881609,42.840215,689.208],[-1.881534,42.84019,689.726],[-1.881468,42.840162,690.12],[-1.881413,42.840128,690.59],[-1.881368,42.840088,690.813],[-1.881313,42.840049,690.957],[-1.881254,42.840033,690.952],[-1.88116,42.840022,690.829],[-1.88109,42.840015,690.786],[-1.88103,42.839991,690.563],[-1.880972,42.839964,690.244],[-1.880914,42.839947,689.618],[-1.88084,42.839933,688.908],[-1.880777,42.83992,688.351],[-1.880702,42.839898,687.685],[-1.880638,42.839889,686.745],[-1.880571,42.839884,685.568],[-1.880511,42.839871,684.412],[-1.880441,42.839861,683.497],[-1.880366,42.839847,682.444],[-1.880297,42.839854,681.741],[-1.880227,42.839875,681.297],[-1.880157,42.839887,680.723],[-1.880097,42.839896,680.025],[-1.880031,42.839901,679.308],[-1.879972,42.839918,678.784],[-1.87991,42.839928,677.748],[-1.879845,42.839945,677.138],[-1.879795,42.839981,676.781],[-1.879744,42.840016,676.475],[-1.879682,42.840055,675.97],[-1.879688,42.840009,675.517],[-1.879739,42.839982,675.184],[-1.879794,42.839958,674.796],[-1.879731,42.839966,674.631],[-1.879675,42.84004,674.624],[-1.879739,42.840028,675.208],[-1.879807,42.840013,675.634],[-1.879756,42.839987,675.438],[-1.879728,42.839947,675.348],[-1.879696,42.839905,674.251],[-1.8797,42.839858,673.355],[-1.879699,42.83981,672.41],[-1.879698,42.839759,671.197],[-1.879657,42.839723,670.254],[-1.879592,42.839715,668.953],[-1.879527,42.839743,667.504],[-1.879468,42.839759,666.214],[-1.879396,42.839766,664.908],[-1.879356,42.83973,664.16],[-1.879311,42.839695,663.664],[-1.879279,42.839655,664.134],[-1.879312,42.839605,664.357],[-1.87934,42.839561,664.471],[-1.879365,42.839517,664.396],[-1.879381,42.83946,664.233],[-1.879398,42.839409,664.47],[-1.879422,42.839361,664.655],[-1.879478,42.839337,664.507],[-1.879524,42.8393,664.117],[-1.879523,42.839251,662.008],[-1.879455,42.839271,661.25],[-1.879446,42.839224,661.434],[-1.879456,42.839176,661.144],[-1.879443,42.839131,660.627],[-1.879441,42.839184,660.161],[-1.879503,42.839176,657.146],[-1.879464,42.839219,656.193],[-1.879526,42.839259,654.57],[-1.87952,42.839305,653.673],[-1.879475,42.83927,653.185],[-1.879428,42.839241,652.813],[-1.879412,42.839196,652.808],[-1.879419,42.839149,652.382],[-1.879408,42.839091,651.716],[-1.879406,42.839036,650.956],[-1.87938,42.838994,650.249],[-1.8793,42.83901,651.333],[-1.879251,42.839038,651.928],[-1.879339,42.839045,653.055],[-1.879338,42.838989,652.622],[-1.879397,42.839005,651.158],[-1.879352,42.838972,649.852],[-1.879313,42.838931,648.817],[-1.879265,42.838894,648.508],[-1.879219,42.838851,648.87],[-1.879186,42.838809,649.484],[-1.879158,42.838766,649.924],[-1.879107,42.838735,650.797],[-1.879066,42.83869,651.791],[-1.879015,42.838645,652.636],[-1.878976,42.838609,653.313],[-1.878934,42.838574,653.97],[-1.87891,42.838527,655.548],[-1.878906,42.838477,656.761],[-1.878917,42.838427,657.717],[-1.878923,42.83838,658.308],[-1.878919,42.838333,658.879],[-1.878902,42.838287,659.553],[-1.878901,42.838236,660.653],[-1.878912,42.83819,661.776],[-1.878922,42.838142,662.97],[-1.878906,42.838091,664.165],[-1.878889,42.838044,664.982],[-1.878866,42.837991,665.399],[-1.878856,42.83794,665.575],[-1.87885,42.837875,665.828],[-1.878838,42.837826,666.02],[-1.878826,42.83778,666.208],[-1.878817,42.837733,666.482],[-1.878815,42.837687,666.936],[-1.878766,42.83766,668.396],[-1.878707,42.83768,670.679],[-1.878643,42.83765,671.413],[-1.878601,42.837612,671.338],[-1.878557,42.837564,670.195],[-1.878541,42.837511,668.422],[-1.878504,42.837464,665.726],[-1.878497,42.837417,663.647],[-1.878502,42.837372,662.211],[-1.878546,42.837404,661.308],[-1.87854,42.837451,660.817],[-1.878567,42.837501,660.631],[-1.878548,42.83755,660.761],[-1.878543,42.837603,660.944],[-1.878485,42.837711,661.338],[-1.878532,42.837654,661.633],[-1.878445,42.837767,661.96],[-1.87839,42.837826,662.177],[-1.878352,42.837864,662.559],[-1.878353,42.837916,663.003],[-1.878377,42.837964,663.623],[-1.878436,42.837995,664.408],[-1.878506,42.838037,665.25],[-1.878541,42.838077,665.824],[-1.878471,42.838103,669.054],[-1.87841,42.83809,671.697],[-1.878423,42.838018,673.431],[-1.878425,42.837967,674.496],[-1.878411,42.83792,675.063],[-1.878385,42.837878,675.31],[-1.87833,42.837854,675.637],[-1.878387,42.837881,676.349],[-1.878471,42.83787,677.013],[-1.878534,42.837856,676.808],[-1.87859,42.837835,677.488],[-1.878639,42.837796,677.442],[-1.878681,42.837763,677.222],[-1.8787,42.837719,676.925],[-1.878798,42.837536,676.629],[-1.878826,42.837481,676.324],[-1.878817,42.83754,675.641],[-1.878804,42.837603,674.548],[-1.878716,42.83769,673.276],[-1.878666,42.837645,672.09],[-1.878666,42.837577,670.919],[-1.878657,42.837466,669.808],[-1.87866,42.8373,668.792],[-1.878673,42.837193,667.726],[-1.878691,42.837141,666.966],[-1.878739,42.837099,665.739],[-1.878741,42.837161,664.773],[-1.878712,42.837231,663.948]]}}]}