{"type":"FeatureCollection","features":[{"type":"Feature","properties":{"ruta_id":"60310797","nombre":"⛰️ MORTXE (1123 m) y PEÑA SALDISE desde EGUILLOR","blog_url":"https://www.rutasporelmonte.com/mortxe-1123-m-y-pena-saldise-desde-eguillor/"},"geometry":{"type":"LineString","coordinates":[[-1.810095,42.848728,454.026],[-1.810075,42.848677,454.047],[-1.810075,42.848677,454.011],[-1.810049,42.848635,454.008],[-1.81007,42.848592,454.048],[-1.810088,42.848543,450.022],[-1.810106,42.848489,446.075],[-1.810116,42.848443,442.313],[-1.810131,42.848399,440.142],[-1.810125,42.848348,438.879],[-1.810139,42.848296,438.011],[-1.810166,42.848248,437.529],[-1.81016,42.848195,437.289],[-1.810137,42.848153,434.806],[-1.810121,42.848104,433.426],[-1.810101,42.84806,432.508],[-1.810073,42.84802,434.264],[-1.810062,42.847965,433.768],[-1.810031,42.847923,431.771],[-1.809965,42.847886,430.559],[-1.809911,42.847857,429.878],[-1.809877,42.847811,429.445],[-1.809871,42.847765,429.127],[-1.809882,42.847714,430.775],[-1.809885,42.847661,431.663],[-1.809886,42.847609,432.244],[-1.809854,42.847567,434.118],[-1.809814,42.847523,435.208],[-1.809778,42.847477,435.912],[-1.809762,42.847431,436.366],[-1.809757,42.847383,436.549],[-1.809741,42.847336,436.647],[-1.809731,42.847283,436.786],[-1.80974,42.847232,436.893],[-1.809768,42.847192,436.865],[-1.809827,42.847168,436.853],[-1.809882,42.847148,436.884],[-1.809949,42.847128,436.807],[-1.810026,42.84712,436.817],[-1.810088,42.847105,436.808],[-1.810158,42.847093,433.454],[-1.810221,42.847094,431.498],[-1.810286,42.847088,430.251],[-1.81035,42.847088,429.569],[-1.810414,42.847097,429.118],[-1.810471,42.847074,428.875],[-1.810545,42.847072,428.637],[-1.810615,42.847077,428.545],[-1.810682,42.847063,428.496],[-1.81076,42.847043,428.431],[-1.810825,42.84702,428.424],[-1.810885,42.847006,428.408],[-1.81096,42.846998,428.465],[-1.811028,42.846983,432.419],[-1.811095,42.846966,436.492],[-1.811161,42.846952,438.87],[-1.811228,42.846938,440.349],[-1.811293,42.84693,441.256],[-1.811367,42.846918,441.718],[-1.81143,42.846909,442.086],[-1.8115,42.846904,442.249],[-1.811568,42.846903,442.302],[-1.811633,42.846899,442.422],[-1.8117,42.846897,442.408],[-1.811768,42.846901,442.49],[-1.811837,42.846898,442.424],[-1.811899,42.846897,442.497],[-1.811966,42.846877,442.445],[-1.812028,42.846867,442.454],[-1.812089,42.846857,442.461],[-1.812149,42.846848,442.423],[-1.812225,42.846833,442.421],[-1.812305,42.846827,438.414],[-1.812373,42.846815,434.454],[-1.812449,42.846798,430.409],[-1.812528,42.846778,426.408],[-1.812593,42.846758,422.447],[-1.812652,42.846737,418.461],[-1.81272,42.846725,414.434],[-1.812781,42.846701,410.442],[-1.812834,42.846663,406.441],[-1.812897,42.846644,402.448],[-1.812959,42.846633,398.47],[-1.813021,42.84662,394.468],[-1.813086,42.84661,390.471],[-1.81316,42.84659,386.441],[-1.813226,42.846564,384.015],[-1.813293,42.846548,383.008],[-1.813357,42.846525,382.833],[-1.813419,42.846506,383.177],[-1.813478,42.84649,383.75],[-1.813544,42.846468,384.818],[-1.813605,42.846453,385.697],[-1.813666,42.846431,386.064],[-1.813724,42.846415,386.156],[-1.813782,42.846383,386.274],[-1.813852,42.846359,386.395],[-1.813933,42.846337,386.549],[-1.813993,42.846324,387.123],[-1.814053,42.846311,388.008],[-1.814118,42.846297,389.325],[-1.814185,42.846287,390.419],[-1.814248,42.846266,391.572],[-1.814309,42.846258,392.77],[-1.814375,42.84625,393.889],[-1.814453,42.846242,394.666],[-1.814516,42.846238,395.068],[-1.814571,42.846195,395.146],[-1.814622,42.846148,395.472],[-1.814642,42.846105,395.813],[-1.814624,42.846054,396.214],[-1.814604,42.846007,396.408],[-1.814583,42.845961,396.373],[-1.814556,42.845915,395.887],[-1.81454,42.845856,395.61],[-1.814542,42.845808,395.778],[-1.814525,42.845761,396.217],[-1.81449,42.84572,397.184],[-1.814434,42.845688,398.016],[-1.814367,42.845687,398.764],[-1.814304,42.845707,399.147],[-1.814239,42.845718,399.329],[-1.814173,42.845712,399.821],[-1.814105,42.845722,400.508],[-1.814044,42.845737,400.78],[-1.813981,42.845716,400.714],[-1.813929,42.845691,401.287],[-1.813864,42.845686,401.995],[-1.813797,42.845679,402.324],[-1.813731,42.845675,402.471],[-1.81367,42.845655,402.563],[-1.813604,42.84564,402.731],[-1.813535,42.845629,402.923],[-1.813472,42.845619,403.083],[-1.813406,42.845627,403.211],[-1.813341,42.845628,403.508],[-1.813275,42.845625,403.818],[-1.813206,42.845639,404.082],[-1.81314,42.845651,404.185],[-1.813076,42.845652,404.263],[-1.813007,42.84565,404.252],[-1.812938,42.84565,404.369],[-1.812866,42.84565,404.471],[-1.812794,42.845634,404.899],[-1.812794,42.845634,404.879],[-1.812726,42.845651,405.705],[-1.812726,42.845651,405.725],[-1.812663,42.845663,406.508],[-1.812599,42.845652,406.843],[-1.812541,42.845624,406.427],[-1.81249,42.845597,405.69],[-1.812433,42.845572,404.988],[-1.812369,42.845558,404.527],[-1.812307,42.845559,404.374],[-1.812234,42.845556,404.666],[-1.812171,42.845552,405.244],[-1.812103,42.845546,405.663],[-1.81203,42.845528,406.144],[-1.811964,42.84551,406.618],[-1.811895,42.845507,407.208],[-1.811829,42.845504,407.922],[-1.81178,42.845477,408.796],[-1.811712,42.845466,410.229],[-1.811712,42.845466,410.237],[-1.811643,42.845471,411.146],[-1.811572,42.845485,412.033],[-1.81151,42.845459,412.625],[-1.811454,42.845432,413.263],[-1.811388,42.845419,413.762],[-1.811324,42.845411,414.283],[-1.811261,42.845405,414.811],[-1.81119,42.845404,415.708],[-1.811128,42.845396,416.212],[-1.811068,42.845386,416.416],[-1.811007,42.845371,416.889],[-1.810943,42.845351,417.497],[-1.810879,42.845331,418.426],[-1.810821,42.845314,419.133],[-1.810754,42.845297,419.675],[-1.810693,42.84528,420.143],[-1.81063,42.845266,420.774],[-1.810567,42.84525,421.756],[-1.810507,42.845233,422.921],[-1.810435,42.84523,423.608],[-1.81037,42.845212,424.093],[-1.810322,42.84518,428.047],[-1.810266,42.845158,432.01],[-1.810192,42.845145,436.058],[-1.810127,42.84514,438.717],[-1.810063,42.845132,440.354],[-1.809992,42.845128,441.376],[-1.80993,42.845118,441.974],[-1.809853,42.845105,442.375],[-1.809785,42.845093,442.528],[-1.809703,42.845083,442.62],[-1.809618,42.84508,442.708],[-1.809561,42.845051,442.793],[-1.809495,42.845037,438.797],[-1.809439,42.845005,435.63],[-1.809398,42.84497,433.898],[-1.809332,42.844962,432.737],[-1.80929,42.844927,431.914],[-1.809291,42.844878,431.146],[-1.809336,42.844848,430.364],[-1.809397,42.844845,430.469],[-1.809454,42.844863,430.104],[-1.809522,42.844874,429.724],[-1.809585,42.844867,429.608],[-1.809648,42.844858,430.062],[-1.809712,42.844865,430.656],[-1.809713,42.844802,433.629],[-1.809719,42.844747,436.047],[-1.809728,42.844702,437.676],[-1.80977,42.844666,438.873],[-1.809836,42.844662,439.735],[-1.809897,42.844679,440.213],[-1.809966,42.844687,440.763],[-1.810038,42.844695,441.344],[-1.810099,42.844683,442.018],[-1.810163,42.844658,442.608],[-1.810211,42.84463,443.492],[-1.810262,42.844602,444.246],[-1.81033,42.844589,445.389],[-1.810385,42.844564,445.967],[-1.810397,42.844519,446.766],[-1.81043,42.844475,447.513],[-1.810477,42.844437,448.125],[-1.810535,42.844422,448.853],[-1.810599,42.844429,449.521],[-1.81066,42.844448,450.141],[-1.810722,42.844468,450.805],[-1.810783,42.844474,451.308],[-1.810842,42.844453,452.098],[-1.810902,42.844433,452.622],[-1.81096,42.844412,453.265],[-1.810996,42.844371,455.183],[-1.811063,42.844366,456.982],[-1.811127,42.844352,458.379],[-1.811197,42.844337,460.321],[-1.811197,42.844337,460.349],[-1.811247,42.84431,460.785],[-1.811297,42.844274,461.089],[-1.811347,42.844247,461.217],[-1.81141,42.844231,461.308],[-1.811473,42.844207,461.434],[-1.811522,42.844179,461.418],[-1.811578,42.844154,465.471],[-1.811635,42.84412,469.469],[-1.811682,42.844084,473.498],[-1.811711,42.84404,477.455],[-1.811775,42.844014,481.487],[-1.811839,42.843985,485.475],[-1.811873,42.843942,489.436],[-1.811908,42.843895,493.417],[-1.811964,42.843869,489.418],[-1.812016,42.843839,485.408],[-1.812054,42.8438,481.439],[-1.812101,42.843756,478.853],[-1.812138,42.843713,477.256],[-1.81217,42.843669,476.314],[-1.812213,42.843636,480.323],[-1.812279,42.843619,484.31],[-1.8123,42.843577,488.332],[-1.812351,42.843537,492.31],[-1.812379,42.843496,496.379],[-1.812413,42.843449,500.305],[-1.812452,42.84341,504.325],[-1.812501,42.843382,507.908],[-1.81256,42.843353,510.053],[-1.812596,42.843312,511.317],[-1.812623,42.843266,512.14],[-1.812657,42.843226,508.118],[-1.812672,42.843176,504.897],[-1.812685,42.843131,503.264],[-1.812709,42.843088,502.846],[-1.812753,42.843053,503.184],[-1.8128,42.843022,503.918],[-1.812853,42.842996,504.998],[-1.812915,42.842998,506.217],[-1.812989,42.843015,507.308],[-1.813055,42.843027,508.257],[-1.81312,42.843038,508.771],[-1.813177,42.843059,509.154],[-1.813219,42.843024,509.762],[-1.81327,42.842986,510.321],[-1.813299,42.842945,510.638],[-1.81335,42.84291,510.91],[-1.813391,42.842876,511.518],[-1.81345,42.842862,512.738],[-1.813509,42.842841,514.27],[-1.813579,42.842818,516.017],[-1.813633,42.842792,517.708],[-1.813686,42.842764,519.729],[-1.813733,42.842724,521.913],[-1.813786,42.842692,524.396],[-1.813832,42.842657,526.824],[-1.813887,42.842637,528.913],[-1.813954,42.842627,530.74],[-1.814019,42.84261,532.412],[-1.814044,42.842562,533.11],[-1.814061,42.842514,533.683],[-1.814078,42.84247,534.225],[-1.814126,42.84243,534.917],[-1.814186,42.842407,535.708],[-1.81423,42.842375,536.534],[-1.814269,42.842338,539.038],[-1.814307,42.842302,540.881],[-1.814353,42.842267,542.229],[-1.814376,42.842219,543.438],[-1.814444,42.842207,544.265],[-1.814505,42.842191,544.897],[-1.814552,42.842155,545.615],[-1.8146,42.842124,546.614],[-1.814608,42.842077,547.754],[-1.814623,42.842027,549.009],[-1.814649,42.841985,550.108],[-1.814677,42.841941,551.377],[-1.814701,42.841891,552.451],[-1.814754,42.841867,553.434],[-1.814817,42.841856,554.962],[-1.814886,42.841855,556.861],[-1.814941,42.841881,558.528],[-1.815013,42.841901,560.17],[-1.815077,42.841918,561.568],[-1.815129,42.841945,563.036],[-1.815191,42.841953,564.217],[-1.815253,42.84197,565.618],[-1.815317,42.841956,567.308],[-1.815369,42.84193,568.999],[-1.81543,42.841905,570.473],[-1.815479,42.841869,572.296],[-1.815521,42.841833,574.194],[-1.815568,42.8418,576.253],[-1.815595,42.841757,578.08],[-1.81563,42.841715,578.932],[-1.815685,42.841682,579.28],[-1.815739,42.841652,579.381],[-1.815768,42.841608,579.061],[-1.815788,42.841558,579.017],[-1.815823,42.84152,579.208],[-1.815864,42.841482,579.574],[-1.815826,42.841445,580.458],[-1.815789,42.841409,581.421],[-1.815845,42.841383,583.169],[-1.815911,42.841367,584.618],[-1.815954,42.841333,585.765],[-1.816023,42.841305,586.587],[-1.816062,42.841268,587.295],[-1.816083,42.841215,587.624],[-1.816099,42.841169,588.004],[-1.816155,42.841139,588.214],[-1.816216,42.841115,588.608],[-1.816249,42.841063,588.898],[-1.816298,42.841094,590.232],[-1.816358,42.841067,591.425],[-1.816422,42.841058,591.533],[-1.816481,42.841039,589.352],[-1.816528,42.841004,587.249],[-1.816556,42.840954,585.591],[-1.816579,42.840906,584.479],[-1.816593,42.840857,583.522],[-1.816617,42.84081,582.862],[-1.81663,42.840758,582.408],[-1.816637,42.840713,582.408],[-1.816635,42.840667,582.598],[-1.816631,42.840619,583.112],[-1.816614,42.840573,583.825],[-1.816617,42.840523,586.923],[-1.81665,42.840479,589.752],[-1.816643,42.840431,592.039],[-1.816649,42.840385,594.121],[-1.816681,42.84034,595.599],[-1.816719,42.840297,597.157],[-1.816754,42.840257,598.4],[-1.816781,42.84021,599.62],[-1.816813,42.840165,600.608],[-1.816867,42.840123,601.911],[-1.816906,42.840088,603.635],[-1.816932,42.840046,605.178],[-1.816971,42.84,606.386],[-1.817026,42.839969,607.075],[-1.81707,42.839936,607.622],[-1.817081,42.839887,608.124],[-1.817102,42.83984,608.412],[-1.817131,42.839799,608.643],[-1.817168,42.839756,608.964],[-1.817216,42.839724,609.41],[-1.817255,42.839686,609.908],[-1.817295,42.839642,610.46],[-1.817335,42.839608,611.274],[-1.817375,42.839569,612.437],[-1.817403,42.839523,613.735],[-1.817475,42.839518,614.774],[-1.817523,42.839483,615.881],[-1.817585,42.839481,617.053],[-1.817659,42.839472,618.141],[-1.817718,42.839443,619.263],[-1.817781,42.839413,620.344],[-1.817823,42.839367,621.018],[-1.817856,42.839323,621.108],[-1.817899,42.839281,620.762],[-1.817956,42.839249,620.096],[-1.817998,42.839211,619.259],[-1.818033,42.839171,618.397],[-1.818062,42.83912,617.686],[-1.818081,42.839073,617.343],[-1.818117,42.839035,617.535],[-1.818169,42.838998,617.533],[-1.818215,42.838966,618.723],[-1.818162,42.838942,619.783],[-1.818208,42.838864,620.711],[-1.818248,42.838828,621.608],[-1.818307,42.83879,622.138],[-1.81835,42.838754,622.382],[-1.81835,42.838754,622.345],[-1.818403,42.838731,621.323],[-1.818468,42.838729,621.132],[-1.818541,42.838728,620.979],[-1.818616,42.838726,620.711],[-1.818681,42.838722,620.679],[-1.818744,42.838704,620.968],[-1.818808,42.838694,621.142],[-1.81887,42.838669,621.626],[-1.818939,42.838666,622.008],[-1.819005,42.838673,622.232],[-1.81907,42.83869,622.776],[-1.819123,42.838715,623.589],[-1.819178,42.838741,624.597],[-1.819235,42.838761,625.696],[-1.819299,42.83877,626.873],[-1.81937,42.838764,627.825],[-1.819426,42.838742,628.893],[-1.819489,42.83872,629.795],[-1.819555,42.838726,630.849],[-1.819608,42.83877,632.123],[-1.819673,42.838774,633.108],[-1.81973,42.838798,633.825],[-1.819786,42.838817,634.269],[-1.819848,42.838833,634.442],[-1.819925,42.838844,634.73],[-1.819993,42.838844,635.169],[-1.820057,42.83885,636.016],[-1.820117,42.838863,636.968],[-1.820182,42.83886,637.746],[-1.820239,42.838894,638.417],[-1.820307,42.838895,639.287],[-1.820371,42.838908,639.915],[-1.82043,42.838928,640.708],[-1.82049,42.838943,641.447],[-1.820551,42.838961,642.251],[-1.820621,42.838977,643.354],[-1.820685,42.838985,644.512],[-1.820745,42.839014,646.151],[-1.820807,42.839028,647.238],[-1.820876,42.839028,648.05],[-1.820954,42.839018,648.818],[-1.821025,42.839018,649.734],[-1.82109,42.839043,650.555],[-1.821166,42.839062,651.51],[-1.821231,42.839082,652.408],[-1.821285,42.839113,653.449],[-1.821357,42.839132,654.383],[-1.821424,42.839127,655.266],[-1.82146,42.839088,656.444],[-1.82151,42.839056,658.153],[-1.821555,42.839023,659.63],[-1.821616,42.839006,661.082],[-1.821664,42.838975,662.59],[-1.821718,42.838953,664.094],[-1.821772,42.838928,665.757],[-1.821826,42.838891,667.522],[-1.821854,42.838846,669.508],[-1.821886,42.838806,671.585],[-1.821923,42.838769,673.899],[-1.821966,42.838733,676.062],[-1.822014,42.838703,677.88],[-1.822071,42.838675,679.339],[-1.822136,42.838666,680.956],[-1.822203,42.838672,682.428],[-1.82226,42.838651,684.286],[-1.822323,42.838642,686.118],[-1.82238,42.838617,688.098],[-1.822447,42.838607,689.817],[-1.822512,42.838603,691.308],[-1.822567,42.838581,692.577],[-1.822629,42.838596,693.551],[-1.822694,42.838611,694.664],[-1.82275,42.838636,695.632],[-1.822804,42.838666,696.581],[-1.82287,42.838687,697.688],[-1.822933,42.838711,699.16],[-1.822976,42.838744,700.418],[-1.823035,42.838761,701.229],[-1.823076,42.838798,701.8],[-1.823125,42.838827,702.32],[-1.823184,42.838845,702.708],[-1.823245,42.838855,703.428],[-1.823312,42.838852,704.572],[-1.82334,42.838811,705.385],[-1.823373,42.838772,706.273],[-1.823413,42.838732,707.362],[-1.823464,42.8387,708.679],[-1.823526,42.838686,709.931],[-1.823602,42.838686,711.029],[-1.823666,42.838698,712.233],[-1.823702,42.838656,713.423],[-1.823744,42.838619,714.215],[-1.823804,42.8386,714.808],[-1.823862,42.83858,715.339],[-1.82392,42.838556,715.813],[-1.823977,42.838539,716.146],[-1.824039,42.838553,716.584],[-1.824106,42.838558,717.413],[-1.824148,42.838521,719.03],[-1.824143,42.838476,720.842],[-1.824172,42.838433,722.48],[-1.824233,42.838424,724.261],[-1.8243,42.838444,725.821],[-1.824363,42.838462,727.413],[-1.824431,42.838468,729.008],[-1.824503,42.838493,730.532],[-1.824549,42.838528,732.026],[-1.824612,42.83854,733.399],[-1.824664,42.838574,734.477],[-1.824725,42.838585,735.616],[-1.824785,42.838597,736.633],[-1.824845,42.838607,737.385],[-1.82491,42.838606,738.033],[-1.824974,42.838612,738.929],[-1.825041,42.838616,739.9],[-1.825109,42.838633,740.82],[-1.825175,42.83863,741.708],[-1.825244,42.838635,742.538],[-1.825308,42.838643,743.532],[-1.825356,42.838672,744.465],[-1.825399,42.838706,745.173],[-1.825456,42.838726,745.522],[-1.825526,42.838726,745.629],[-1.825587,42.838738,745.631],[-1.825663,42.838748,745.839],[-1.825723,42.838761,746.036],[-1.825755,42.83872,746.217],[-1.825809,42.838694,746.518],[-1.825865,42.83872,746.908],[-1.825925,42.83874,747.369],[-1.825997,42.838752,748.283],[-1.826042,42.838785,749.476],[-1.826071,42.838827,750.664],[-1.826123,42.838853,751.483],[-1.826168,42.838884,751.75],[-1.826227,42.838907,751.842],[-1.826297,42.838928,751.64],[-1.826359,42.838953,751.548],[-1.826418,42.838973,751.561],[-1.826469,42.838999,751.717],[-1.82653,42.839014,752.208],[-1.826588,42.839041,752.86],[-1.826625,42.839095,753.624],[-1.826672,42.839131,753.847],[-1.826735,42.839161,754.155],[-1.826801,42.839194,754.624],[-1.826851,42.839225,755.311],[-1.826907,42.83926,756.183],[-1.826948,42.839294,757.221],[-1.826999,42.839326,758.489],[-1.827069,42.839335,759.606],[-1.827134,42.839341,760.526],[-1.827191,42.839363,761.108],[-1.827251,42.839388,761.844],[-1.827286,42.839427,762.428],[-1.827344,42.839445,763.111],[-1.827405,42.839468,763.499],[-1.827469,42.839505,763.538],[-1.827527,42.839532,763.555],[-1.827584,42.839551,763.497],[-1.827625,42.839601,763.635],[-1.827687,42.839628,763.695],[-1.827748,42.839655,763.749],[-1.827815,42.839653,764.123],[-1.827876,42.839675,764.508],[-1.827932,42.839701,764.845],[-1.827991,42.839725,765.049],[-1.828052,42.83973,765.442],[-1.828122,42.839728,766.04],[-1.828185,42.839722,766.429],[-1.82824,42.839745,767.096],[-1.82824,42.839745,767.078],[-1.82832,42.839732,767.146],[-1.828366,42.8397,767.274],[-1.828401,42.839657,767.556],[-1.828452,42.839623,768.221],[-1.828524,42.839625,769.008],[-1.828589,42.83964,770.143],[-1.828668,42.839632,770.957],[-1.828732,42.839638,772.03],[-1.828793,42.839661,773.568],[-1.828842,42.839689,775.097],[-1.828897,42.83971,776.654],[-1.828952,42.839735,778.516],[-1.829006,42.83976,780.134],[-1.82906,42.83979,781.735],[-1.829103,42.839828,783.086],[-1.82916,42.839856,784.214],[-1.829211,42.839887,785.308],[-1.829264,42.839915,786.369],[-1.829322,42.839932,787.513],[-1.829375,42.839955,788.686],[-1.829424,42.839984,789.494],[-1.829484,42.84001,790.133],[-1.829546,42.840045,791.04],[-1.829609,42.840062,791.892],[-1.829663,42.840106,792.59],[-1.829717,42.840132,793.398],[-1.829787,42.840147,794.415],[-1.829861,42.840153,795.626],[-1.829921,42.840173,796.608],[-1.829977,42.840207,797.515],[-1.830031,42.84023,798.499],[-1.830087,42.84025,799.592],[-1.830144,42.840268,800.61],[-1.830201,42.840288,801.789],[-1.830269,42.84032,802.836],[-1.830342,42.840355,803.668],[-1.830389,42.840395,804.156],[-1.830414,42.840439,804.563],[-1.830431,42.840487,804.644],[-1.830461,42.840537,804.918],[-1.830495,42.840586,805.508],[-1.830519,42.84063,806.342],[-1.830538,42.840679,806.916],[-1.830586,42.840709,807.539],[-1.830627,42.840745,808.337],[-1.830674,42.840778,809.036],[-1.830726,42.84081,809.333],[-1.830782,42.840852,809.585],[-1.830851,42.84088,809.663],[-1.830903,42.840909,810.095],[-1.830943,42.840945,810.749],[-1.831002,42.840964,811.723],[-1.831035,42.841003,812.608],[-1.831093,42.841025,813.465],[-1.831163,42.841035,813.819],[-1.831226,42.841051,814.082],[-1.831304,42.841069,814.46],[-1.831381,42.841095,815.219],[-1.831434,42.841118,816.156],[-1.831489,42.841138,817.028],[-1.831541,42.841164,818.176],[-1.831604,42.841184,819.451],[-1.831658,42.84121,820.901],[-1.831714,42.841233,820.911],[-1.831774,42.841248,821.208],[-1.831835,42.841273,821.591],[-1.831894,42.841295,822.215],[-1.831958,42.841303,823.358],[-1.832009,42.84133,824.456],[-1.832061,42.84136,825.915],[-1.832123,42.841388,827.362],[-1.832185,42.841414,828.484],[-1.832238,42.841437,829.542],[-1.832301,42.841462,830.153],[-1.83234,42.841507,830.504],[-1.832397,42.841525,830.814],[-1.832459,42.841545,831.208],[-1.832514,42.84157,831.411],[-1.832574,42.841584,831.995],[-1.832633,42.841603,832.518],[-1.832687,42.841626,833.166],[-1.832742,42.841652,833.925],[-1.832742,42.841652,833.982],[-1.832803,42.841665,834.524],[-1.832866,42.84168,835.852],[-1.832931,42.841678,837.218],[-1.832981,42.841647,838.998],[-1.833003,42.841601,840.617],[-1.83301,42.841551,842.208],[-1.83299,42.841503,843.667],[-1.832987,42.841453,844.991],[-1.83299,42.841405,846.214],[-1.832976,42.841357,847.312],[-1.832973,42.841306,848.161],[-1.832966,42.841255,848.748],[-1.832947,42.841211,849.39],[-1.832969,42.841153,849.818],[-1.833009,42.841116,850.119],[-1.833074,42.841116,850.609],[-1.833074,42.841116,850.619],[-1.833143,42.841105,851.008],[-1.833213,42.841098,851.747],[-1.83328,42.841094,852.471],[-1.833341,42.841091,853.444],[-1.833404,42.841079,854.612],[-1.833467,42.841069,856.221],[-1.833529,42.841056,857.798],[-1.833596,42.841068,859.25],[-1.833658,42.84106,860.698],[-1.833718,42.841045,862.121],[-1.833776,42.841028,864.041],[-1.833842,42.841039,865.805],[-1.833906,42.841036,867.408],[-1.833962,42.841008,868.388],[-1.834023,42.840998,869.232],[-1.834085,42.841013,869.985],[-1.834138,42.84104,870.753],[-1.834196,42.841058,871.442],[-1.834254,42.84108,872.269],[-1.834315,42.841087,873.481],[-1.834378,42.841084,874.159],[-1.834439,42.841101,875.044],[-1.834497,42.84112,876.405],[-1.834558,42.841138,877.315],[-1.834624,42.84114,878.308],[-1.834683,42.84116,879.29],[-1.834743,42.841177,880.174],[-1.834812,42.841178,881.377],[-1.83488,42.841166,882.835],[-1.834952,42.841165,884.614],[-1.835016,42.841172,886.441],[-1.835078,42.841163,888.433],[-1.835138,42.841185,890.581],[-1.835207,42.841193,892.532],[-1.835263,42.841214,894.292],[-1.835319,42.841195,895.711],[-1.835388,42.841189,897.308],[-1.835454,42.841177,898.749],[-1.835518,42.841191,900.013],[-1.835583,42.841195,901.126],[-1.835647,42.841184,902.134],[-1.835711,42.8412,903.153],[-1.835772,42.84122,904.09],[-1.83584,42.841224,905.192],[-1.835903,42.841225,906.38],[-1.835965,42.841224,907.548],[-1.836029,42.841217,908.761],[-1.836093,42.841215,909.817],[-1.836155,42.841214,911.008],[-1.836215,42.8412,912.21],[-1.836278,42.841201,913.674],[-1.836342,42.841205,915.677],[-1.836415,42.841205,917.095],[-1.83648,42.841208,918.034],[-1.836548,42.841205,918.911],[-1.836612,42.8412,920.063],[-1.836681,42.841206,921.381],[-1.836752,42.841213,922.687],[-1.836819,42.841222,924.042],[-1.836881,42.841217,925.526],[-1.836963,42.841211,927.108],[-1.837032,42.841211,929.194],[-1.837093,42.841226,931.048],[-1.837155,42.841235,932.941],[-1.83722,42.841241,934.559],[-1.837282,42.841247,936.178],[-1.837356,42.841257,937.665],[-1.837421,42.841261,938.897],[-1.83749,42.841264,939.565],[-1.837557,42.84126,940.097],[-1.837626,42.841254,940.723],[-1.837688,42.841268,941.325],[-1.83776,42.841275,942.108],[-1.837822,42.841294,942.845],[-1.837885,42.841311,943.599],[-1.837938,42.841336,944.522],[-1.837979,42.841374,945.46],[-1.838024,42.841407,946.179],[-1.838081,42.841435,946.736],[-1.838134,42.841462,947.448],[-1.838189,42.841489,947.876],[-1.83825,42.841503,948.464],[-1.838319,42.841517,949.206],[-1.838375,42.841538,950.116],[-1.838439,42.841572,950.708],[-1.838474,42.841615,951.162],[-1.83852,42.84165,951.246],[-1.838586,42.84168,951.529],[-1.838654,42.841703,951.887],[-1.838707,42.841726,952.176],[-1.838772,42.841741,952.783],[-1.838827,42.841768,953.495],[-1.838888,42.841803,954.353],[-1.838925,42.841851,955.081],[-1.83896,42.841892,955.561],[-1.838993,42.841934,955.917],[-1.839054,42.841965,956.208],[-1.839112,42.841981,956.794],[-1.839156,42.842016,957.298],[-1.839201,42.842052,957.811],[-1.839266,42.842058,958.579],[-1.839331,42.842064,959.538],[-1.839397,42.842068,960.395],[-1.839458,42.842053,961.077],[-1.839532,42.842059,961.975],[-1.839595,42.842063,962.968],[-1.839654,42.842045,964.242],[-1.839727,42.842049,965.626],[-1.839794,42.842061,966.908],[-1.839855,42.842074,968.572],[-1.839919,42.842071,969.946],[-1.83998,42.842055,971.769],[-1.840041,42.842072,973.377],[-1.840104,42.84207,974.776],[-1.840175,42.842062,977.713],[-1.840175,42.842062,977.765],[-1.840232,42.842045,978.663],[-1.840286,42.842018,979.477],[-1.840339,42.841979,979.861],[-1.8404,42.841972,980.527],[-1.840452,42.841944,981.808],[-1.840478,42.8419,982.993],[-1.840493,42.841849,983.777],[-1.840502,42.841798,984.28],[-1.840522,42.841753,984.638],[-1.840552,42.84171,985.117],[-1.840577,42.841661,985.674],[-1.840606,42.841618,985.886],[-1.840621,42.841574,985.624],[-1.840644,42.841531,985.531],[-1.840653,42.841486,985.461],[-1.840657,42.841441,985.607],[-1.840672,42.841393,986.408],[-1.84068,42.841348,987.319],[-1.840657,42.841302,987.933],[-1.840697,42.841257,988.726],[-1.840716,42.841212,989.774],[-1.840727,42.841165,990.743],[-1.840736,42.841117,992.77],[-1.84078,42.841073,994.562],[-1.840829,42.841032,996.28],[-1.840815,42.840987,996.866],[-1.840831,42.840937,997.229],[-1.840855,42.840893,997.521],[-1.840875,42.840848,997.808],[-1.840895,42.8408,998.582],[-1.840912,42.840753,999.286],[-1.840927,42.840709,1000.299],[-1.840952,42.840667,1001.447],[-1.840972,42.840611,1002.546],[-1.840997,42.840564,1003.623],[-1.841023,42.84052,1004.955],[-1.841041,42.840477,1005.893],[-1.84107,42.840426,1006.896],[-1.841093,42.840381,1007.831],[-1.841086,42.840333,1008.724],[-1.841107,42.840283,1009.408],[-1.841121,42.840234,1010.325],[-1.841147,42.840181,1011.119],[-1.841175,42.840138,1012.052],[-1.841204,42.840092,1012.82],[-1.841231,42.840051,1013.399],[-1.841266,42.840013,1013.826],[-1.841297,42.839966,1014.678],[-1.841322,42.839922,1015.736],[-1.841331,42.839873,1016.799],[-1.841294,42.839909,1017.207],[-1.841341,42.839872,1018.227],[-1.841369,42.839832,1018.908],[-1.841401,42.839791,1019.525],[-1.841419,42.83974,1020.169],[-1.841433,42.839688,1020.782],[-1.841433,42.839638,1021.48],[-1.841445,42.839589,1022.359],[-1.841472,42.839547,1023.316],[-1.841477,42.839498,1024.458],[-1.841522,42.839459,1025.256],[-1.841547,42.839417,1026.579],[-1.841575,42.839374,1028.005],[-1.841598,42.839331,1029.525],[-1.841622,42.839286,1031.008],[-1.84163,42.839238,1032.743],[-1.841627,42.839191,1034.587],[-1.841609,42.839139,1036.31],[-1.84158,42.839094,1037.958],[-1.841565,42.839047,1039.227],[-1.841575,42.839,1040.314],[-1.841587,42.838954,1041.376],[-1.841614,42.838913,1042.424],[-1.841607,42.838866,1043.512],[-1.841617,42.838821,1044.432],[-1.84166,42.838785,1045.405],[-1.841706,42.838745,1046.508],[-1.841711,42.8387,1047.937],[-1.841775,42.838683,1048.811],[-1.841793,42.838639,1049.164],[-1.841836,42.838602,1049.742],[-1.84189,42.838556,1050.641],[-1.841941,42.838521,1051.358],[-1.84199,42.838484,1051.85],[-1.842029,42.838444,1051.888],[-1.842081,42.83841,1052.198],[-1.84211,42.838367,1053.315],[-1.84217,42.838344,1054.426],[-1.842205,42.838303,1055.208],[-1.842216,42.838256,1055.925],[-1.842256,42.838219,1056.579],[-1.842277,42.83817,1057.132],[-1.842321,42.838134,1057.68],[-1.842353,42.838089,1058.379],[-1.842389,42.838052,1058.786],[-1.842406,42.838026,1068.348],[-1.842356,42.838069,1058.596],[-1.842299,42.838098,1058.378],[-1.842251,42.83814,1058.033],[-1.842228,42.838183,1057.526],[-1.842188,42.838227,1056.608],[-1.842178,42.838278,1055.733],[-1.842169,42.838328,1054.727],[-1.842138,42.838368,1053.66],[-1.842087,42.838407,1052.368],[-1.842024,42.838418,1051.777],[-1.841956,42.838424,1051.584],[-1.841941,42.838375,1051.156],[-1.841895,42.838332,1050.554],[-1.841834,42.838298,1049.643],[-1.841766,42.838271,1048.664],[-1.841695,42.838267,1047.61],[-1.841635,42.838246,1046.508],[-1.841632,42.838197,1045.54],[-1.841604,42.838157,1044.654],[-1.841559,42.838121,1044.057],[-1.841497,42.838089,1044.195],[-1.841439,42.83807,1044.384],[-1.841376,42.838059,1044.631],[-1.841305,42.838064,1044.883],[-1.841238,42.83807,1044.631],[-1.841173,42.838074,1043.998],[-1.841117,42.838096,1043.315],[-1.841056,42.838118,1042.426],[-1.841002,42.838146,1041.508],[-1.840972,42.838187,1040.395],[-1.840939,42.838228,1039.129],[-1.840898,42.838268,1037.912],[-1.840865,42.838311,1036.12],[-1.840883,42.838358,1034.389],[-1.840944,42.838373,1033.286],[-1.841006,42.838384,1032.268],[-1.841074,42.838395,1031.686],[-1.841134,42.838404,1031.357],[-1.841175,42.838441,1031.8],[-1.841236,42.838454,1032.62],[-1.841257,42.838409,1034.108],[-1.841269,42.838457,1035.961],[-1.841302,42.838496,1036.775],[-1.841241,42.838512,1037.698],[-1.841301,42.838547,1038.446],[-1.841367,42.838571,1038.985],[-1.841433,42.838568,1039.312],[-1.841501,42.838588,1039.814],[-1.841565,42.838609,1040.852],[-1.84163,42.838625,1042.096],[-1.841693,42.838637,1043.431],[-1.841756,42.838651,1044.724],[-1.841806,42.83868,1045.708],[-1.841799,42.838729,1046.485],[-1.841762,42.838765,1047.069],[-1.841704,42.83879,1047.342],[-1.841645,42.838826,1047.49],[-1.841596,42.838865,1046.879],[-1.8416,42.838918,1045.786],[-1.841661,42.838934,1044.378],[-1.841698,42.83899,1042.826],[-1.84167,42.83903,1041.356],[-1.841619,42.839067,1039.559],[-1.841618,42.839125,1038.014],[-1.841606,42.839182,1036.908],[-1.841647,42.839224,1035.731],[-1.84164,42.839279,1035.055],[-1.841614,42.839337,1034.358],[-1.84161,42.839385,1033.766],[-1.841549,42.839405,1033.135],[-1.841521,42.83945,1032.692],[-1.841503,42.839502,1031.244],[-1.841491,42.839547,1030.062],[-1.841471,42.83959,1029.043],[-1.841456,42.83964,1027.664],[-1.84143,42.839683,1025.81],[-1.841403,42.839728,1023.708],[-1.841399,42.839774,1021.45],[-1.841393,42.839822,1019.534],[-1.841375,42.839868,1017.917],[-1.841328,42.839898,1016.835],[-1.841313,42.839958,1015.864],[-1.841298,42.840005,1014.831],[-1.841261,42.840046,1014.073],[-1.841227,42.840085,1013.791],[-1.8412,42.840134,1013.223],[-1.841173,42.840179,1012.783],[-1.841157,42.840223,1012.311],[-1.841122,42.84027,1011.608],[-1.841092,42.840311,1011.238],[-1.841064,42.840355,1010.242],[-1.841054,42.840413,1008.795],[-1.841033,42.840465,1007.623],[-1.841016,42.840519,1006.832],[-1.841014,42.84057,1005.469],[-1.841002,42.840627,1004.031],[-1.840976,42.840675,1002.939],[-1.840938,42.840729,1001.885],[-1.840901,42.840788,1001.189],[-1.840862,42.84084,1000.617],[-1.840835,42.840883,1000.208],[-1.840818,42.840932,997.694],[-1.840789,42.840989,995.748],[-1.840757,42.841035,994.231],[-1.840731,42.841079,993.069],[-1.840699,42.841138,991.958],[-1.84068,42.841196,991.075],[-1.840665,42.84124,990.137],[-1.840677,42.841295,988.625],[-1.840699,42.841349,987.453],[-1.840686,42.841408,986.404],[-1.840683,42.841456,985.714],[-1.840671,42.841521,985.008],[-1.840651,42.841565,984.541],[-1.840622,42.841616,984.055],[-1.840586,42.84167,983.868],[-1.840554,42.841723,983.896],[-1.840551,42.84177,983.745],[-1.840563,42.841816,983.182],[-1.840582,42.841871,982.574],[-1.840588,42.841917,982.132],[-1.840568,42.841975,981.312],[-1.840563,42.842028,981.032],[-1.840558,42.842085,980.705],[-1.840515,42.842118,979.908],[-1.840494,42.842171,979.427],[-1.840523,42.842215,979.271],[-1.840545,42.842266,979.124],[-1.840507,42.842305,979.092],[-1.840471,42.842346,979.021],[-1.840476,42.842396,979.088],[-1.840484,42.842442,979.02],[-1.840484,42.842501,979.028],[-1.840467,42.842549,979.032],[-1.840462,42.8426,978.692],[-1.840476,42.842649,978.111],[-1.840491,42.842699,977.908],[-1.840505,42.842754,977.849],[-1.840505,42.842803,977.733],[-1.840501,42.842852,977.546],[-1.840507,42.842897,977.214],[-1.84051,42.842944,976.933],[-1.84049,42.84299,976.23],[-1.84047,42.843033,975.342],[-1.840406,42.843063,974.64],[-1.840353,42.843108,974.047],[-1.840324,42.843156,973.629],[-1.840294,42.843201,973.321],[-1.840283,42.84325,972.908],[-1.840296,42.843295,972.42],[-1.840256,42.843335,971.584],[-1.840227,42.843377,970.487],[-1.84022,42.843425,969.415],[-1.84021,42.843473,968.624],[-1.84021,42.843524,967.541],[-1.840184,42.84357,966.613],[-1.840194,42.843616,965.761],[-1.840227,42.84366,965.248],[-1.840261,42.843698,964.861],[-1.840261,42.843698,964.817],[-1.840287,42.843739,964.908],[-1.840325,42.843781,965.66],[-1.840381,42.843822,966.824],[-1.840431,42.843852,968.267],[-1.84048,42.843887,969.765],[-1.840524,42.843935,971.374],[-1.840572,42.843971,972.831],[-1.840621,42.844004,974.643],[-1.840649,42.84405,976.581],[-1.840693,42.844088,978.569],[-1.840712,42.844144,979.804],[-1.840748,42.84419,980.824],[-1.840793,42.844242,981.808],[-1.840857,42.844236,982.372],[-1.840909,42.844206,982.366],[-1.840854,42.844185,982.339],[-1.840784,42.844206,982.427],[-1.840768,42.844194,988.136],[-1.840733,42.844155,981.933],[-1.840693,42.844111,981.485],[-1.84065,42.844077,981.053],[-1.840624,42.844035,980.341],[-1.840568,42.844004,979.481],[-1.840538,42.843963,978.409],[-1.84054,42.843907,977.708],[-1.840533,42.843857,977.32],[-1.840516,42.843808,977.064],[-1.840502,42.843762,976.777],[-1.840493,42.843709,976.065],[-1.840485,42.843663,975.444],[-1.840444,42.843615,974.991],[-1.84042,42.843567,974.773],[-1.840378,42.843534,974.271],[-1.840393,42.843482,973.827],[-1.840399,42.843435,973.668],[-1.840384,42.843391,973.414],[-1.840338,42.843351,973.308],[-1.840306,42.843306,973.198],[-1.840284,42.843264,972.812],[-1.840287,42.843218,972.515],[-1.840311,42.843174,972.553],[-1.840301,42.843123,972.222],[-1.840328,42.843069,972.159],[-1.840356,42.84302,972.371],[-1.84037,42.842961,972.759],[-1.840374,42.842911,973.128],[-1.840371,42.842864,973.489],[-1.840367,42.842812,974.017],[-1.84034,42.842767,974.908],[-1.84031,42.842721,975.698],[-1.840286,42.842676,976.252],[-1.840258,42.842633,976.445],[-1.840239,42.842587,976.523],[-1.84024,42.842537,976.682],[-1.840227,42.842485,976.899],[-1.840216,42.842439,977.171],[-1.840177,42.842398,977.489],[-1.840154,42.842351,977.621],[-1.840144,42.842293,978.241],[-1.840112,42.842242,979.105],[-1.840086,42.842199,980.408],[-1.840049,42.842157,981.368],[-1.840009,42.842121,981.682],[-1.839945,42.842106,981.195],[-1.839871,42.842079,979.913],[-1.839798,42.842059,978.412],[-1.83973,42.84206,975.839],[-1.839667,42.842054,973.781],[-1.839602,42.842044,972.239],[-1.839533,42.842073,970.148],[-1.839464,42.842068,967.361],[-1.839398,42.842067,964.817],[-1.83933,42.842067,963.008],[-1.839252,42.842059,961.49],[-1.839172,42.842058,959.434],[-1.839126,42.842024,957.537],[-1.839093,42.841975,955.875],[-1.839054,42.84194,954.194],[-1.838995,42.841915,953.131],[-1.838934,42.841891,952.433],[-1.838907,42.84185,951.731],[-1.838858,42.841805,951.258],[-1.838802,42.841778,950.952],[-1.838741,42.841755,950.517],[-1.838667,42.841739,950.108],[-1.838611,42.841714,950.061],[-1.838539,42.841683,950.065],[-1.838474,42.841654,949.778],[-1.838428,42.841623,949.146],[-1.838389,42.841578,948.665],[-1.838338,42.841548,948.182],[-1.838279,42.841527,947.284],[-1.838223,42.84149,946.682],[-1.838172,42.841462,945.788],[-1.838114,42.841442,945.024],[-1.83805,42.841438,944.126],[-1.837988,42.841419,942.308],[-1.837988,42.841419,942.364],[-1.837932,42.841388,941.928],[-1.837883,42.841353,941.621],[-1.837838,42.841317,941.299],[-1.837782,42.841291,941.058],[-1.837719,42.841266,940.885],[-1.837643,42.841259,940.577],[-1.837577,42.841246,940.165],[-1.837512,42.841234,939.671],[-1.837445,42.841232,938.941],[-1.837379,42.841253,937.815],[-1.837314,42.841253,936.608],[-1.837253,42.841243,935.453],[-1.837185,42.84124,934.537],[-1.837123,42.841228,933.55],[-1.837057,42.841211,932.538],[-1.836996,42.841227,931.647],[-1.836922,42.841219,930.254],[-1.836859,42.841209,928.776],[-1.836795,42.841199,927.164],[-1.836736,42.841185,925.477],[-1.836673,42.841197,923.661],[-1.836614,42.841174,921.827],[-1.836549,42.841176,920.108],[-1.836494,42.841156,918.953],[-1.83642,42.841156,918.317],[-1.836356,42.841141,917.79],[-1.836307,42.841113,917.338],[-1.836242,42.841095,916.887],[-1.83617,42.841088,916.134],[-1.836109,42.841072,915.386],[-1.836042,42.841083,914.634],[-1.835979,42.841087,913.765],[-1.835922,42.841111,912.568],[-1.835851,42.841131,910.714],[-1.835789,42.841127,909.208],[-1.835738,42.841154,907.582],[-1.835669,42.841169,906.076],[-1.835605,42.841169,904.269],[-1.835533,42.841183,902.137],[-1.835459,42.841198,900.376],[-1.835388,42.841202,898.183],[-1.835322,42.841204,896.195],[-1.83525,42.841201,894.113],[-1.83518,42.841193,891.861],[-1.835116,42.84119,890.021],[-1.835057,42.841178,888.613],[-1.834995,42.841157,887.108],[-1.834927,42.841154,886.192],[-1.834858,42.841154,885.426],[-1.834797,42.841175,884.849],[-1.834735,42.841166,884.157],[-1.834675,42.841146,883.476],[-1.834608,42.841135,882.893],[-1.834544,42.841124,882.145],[-1.834476,42.841119,881.123],[-1.834418,42.841103,879.973],[-1.834356,42.841097,878.785],[-1.83429,42.841093,877.613],[-1.834229,42.841086,876.808],[-1.834174,42.841059,876.433],[-1.834115,42.841034,876.057],[-1.834043,42.841028,877.47],[-1.833972,42.84102,878.568],[-1.833925,42.841049,879.137],[-1.833853,42.841043,878.234],[-1.833784,42.84104,876.116],[-1.833717,42.841037,873.424],[-1.833649,42.841037,870.874],[-1.833579,42.841037,868.056],[-1.83352,42.841051,865.021],[-1.833446,42.841058,862.508],[-1.833385,42.841053,860.033],[-1.833316,42.841049,857.887],[-1.833246,42.841057,856.03],[-1.833183,42.841066,854.678],[-1.833118,42.841078,853.257],[-1.833074,42.841117,851.884],[-1.833015,42.841138,850.456],[-1.832975,42.841173,849.274],[-1.832958,42.841217,848.368],[-1.83298,42.841261,847.342],[-1.832989,42.84131,846.226],[-1.832978,42.841359,845.108],[-1.832984,42.841404,844.292],[-1.832988,42.841458,843.426],[-1.833004,42.84151,842.479],[-1.833019,42.84156,841.587],[-1.83303,42.841608,840.476],[-1.832988,42.841648,839.043],[-1.832924,42.841685,837.975],[-1.83285,42.841679,837.083],[-1.832784,42.841657,836.376],[-1.832724,42.841634,835.49],[-1.832658,42.841609,834.419],[-1.832602,42.841586,833.708],[-1.832532,42.841565,832.923],[-1.83247,42.84154,832.447],[-1.832411,42.841514,831.81],[-1.832349,42.841497,831.178],[-1.832295,42.841474,830.537],[-1.83224,42.841438,829.744],[-1.832186,42.841411,829.126],[-1.832129,42.841394,828.684],[-1.832062,42.841376,828.187],[-1.832004,42.841354,827.842],[-1.831948,42.841335,827.426],[-1.831891,42.841318,826.908],[-1.831841,42.841289,826.554],[-1.831778,42.841267,826.048],[-1.831723,42.841234,825.171],[-1.831664,42.841205,824.369],[-1.831606,42.84118,823.358],[-1.831547,42.841147,821.625],[-1.831547,42.841147,821.697],[-1.831472,42.841121,820.815],[-1.831401,42.841105,820.116],[-1.831318,42.841089,819.776],[-1.831271,42.841058,819.113],[-1.831223,42.841025,818.308],[-1.831161,42.841008,817.677],[-1.831092,42.840988,816.721],[-1.831041,42.84096,816.054],[-1.830984,42.840934,815.442],[-1.830934,42.840902,814.771],[-1.830881,42.840877,814.078],[-1.830819,42.840851,813.46],[-1.83076,42.840821,813.078],[-1.830713,42.840786,812.579],[-1.830667,42.840753,812.005],[-1.830627,42.840708,811.525],[-1.830583,42.84066,810.908],[-1.830537,42.840619,810.183],[-1.830491,42.840587,809.317],[-1.830464,42.840546,808.53],[-1.830445,42.840501,807.928],[-1.830436,42.840449,807.317],[-1.830409,42.840407,807.214],[-1.830362,42.840373,807.326],[-1.830313,42.840339,807.714],[-1.830261,42.840308,807.958],[-1.830206,42.840281,808.452],[-1.830157,42.840251,809.117],[-1.830102,42.840225,809.608],[-1.83003,42.84022,809.761],[-1.829967,42.840209,808.835],[-1.829898,42.840189,807.678],[-1.829831,42.840168,805.616],[-1.829769,42.840156,803.185],[-1.829711,42.840136,800.832],[-1.829657,42.840112,798.494],[-1.829604,42.840088,796.532],[-1.82954,42.840052,794.948],[-1.829488,42.840009,793.861],[-1.829432,42.839973,793.117],[-1.829373,42.839961,792.008],[-1.829296,42.839924,791.04],[-1.829234,42.839885,789.964],[-1.829169,42.83984,789.047],[-1.829124,42.839798,788.685],[-1.829073,42.83977,788.164],[-1.829005,42.839758,787.051],[-1.828946,42.839731,786.173],[-1.828887,42.839707,785.351],[-1.828824,42.839691,784.661],[-1.828775,42.839664,783.821],[-1.828713,42.839649,782.913],[-1.828644,42.839631,781.908],[-1.828576,42.839623,780.092],[-1.828509,42.839616,778.246],[-1.828436,42.839621,776.559],[-1.828379,42.839649,774.787],[-1.828342,42.839688,772.756],[-1.828329,42.839737,770.313],[-1.828275,42.839759,768.765],[-1.828268,42.839809,767.223],[-1.828251,42.839853,766.111],[-1.828238,42.839906,765.021],[-1.828223,42.839958,764.103],[-1.828195,42.839999,762.908],[-1.828173,42.840047,762.077],[-1.828174,42.840093,761.791],[-1.828196,42.840143,760.944],[-1.82821,42.840192,760.382],[-1.828218,42.840243,759.951],[-1.828206,42.840292,759.718],[-1.828195,42.840345,759.26],[-1.828187,42.840394,758.148],[-1.828195,42.840439,757.413],[-1.828207,42.840483,756.543],[-1.828226,42.840535,755.107],[-1.828235,42.840588,753.708],[-1.828242,42.840635,752.677],[-1.828261,42.840687,751.621],[-1.828271,42.840736,750.764],[-1.828296,42.840778,749.342],[-1.82832,42.840825,748.291],[-1.828327,42.840878,747.078],[-1.828338,42.840924,746.14],[-1.828333,42.840974,745.558],[-1.828338,42.841027,745.257],[-1.828352,42.841078,744.4],[-1.828403,42.841111,743.12],[-1.828385,42.841157,742.208],[-1.828349,42.841202,741.861],[-1.828356,42.841249,741.575],[-1.828366,42.84131,740.768],[-1.82836,42.841369,739.726],[-1.828366,42.841422,738.855],[-1.828382,42.841469,738.392],[-1.828382,42.84152,738.014],[-1.82836,42.84158,737.512],[-1.828361,42.841634,737.061],[-1.828384,42.841686,736.021],[-1.828384,42.841686,736.013],[-1.828401,42.841738,735.708],[-1.828435,42.841793,735.322],[-1.828457,42.841847,734.736],[-1.828459,42.841901,733.849],[-1.828468,42.841948,732.997],[-1.828491,42.842002,731.936],[-1.828528,42.842052,731.273],[-1.828533,42.842098,730.645],[-1.828514,42.842142,729.893],[-1.828521,42.84219,728.814],[-1.82855,42.842236,727.854],[-1.828586,42.842287,726.609],[-1.828604,42.842337,725.408],[-1.828618,42.842384,724.217],[-1.828634,42.842432,722.751],[-1.828649,42.842476,721.594],[-1.828665,42.842527,720.372],[-1.828665,42.842527,720.311],[-1.828679,42.842583,720.088],[-1.828693,42.842631,719.67],[-1.828688,42.842676,719.188],[-1.828696,42.842733,718.458],[-1.828717,42.842779,717.652],[-1.828729,42.84283,716.817],[-1.828719,42.842884,716.108],[-1.828736,42.842928,715.281],[-1.828758,42.84299,714.645],[-1.828774,42.843038,714.018],[-1.828797,42.843087,713.526],[-1.828813,42.843134,713.085],[-1.828827,42.843182,712.442],[-1.828845,42.84323,711.614],[-1.828871,42.843285,710.742],[-1.828876,42.843335,710.366],[-1.828871,42.843385,710.429],[-1.828888,42.843431,710.921],[-1.828861,42.843475,711.108],[-1.828891,42.843519,711.192],[-1.828934,42.843568,710.866],[-1.828985,42.843607,709.699],[-1.828985,42.843607,709.667],[-1.82899,42.843662,708.846],[-1.828983,42.843708,707.883],[-1.828997,42.843765,706.445],[-1.82901,42.84381,704.863],[-1.829022,42.843861,703.443],[-1.829033,42.843914,702.264],[-1.829052,42.843962,701.21],[-1.829068,42.84401,700.308],[-1.829087,42.844058,699.74],[-1.829107,42.844109,699.194],[-1.829122,42.844162,698.257],[-1.829157,42.844215,697.585],[-1.829189,42.844261,696.984],[-1.829196,42.844311,696.711],[-1.829187,42.844365,696.563],[-1.829199,42.844417,695.881],[-1.829217,42.844472,694.771],[-1.829241,42.844518,693.841],[-1.82927,42.844566,693.215],[-1.829281,42.84462,692.708],[-1.829326,42.844673,692.173],[-1.829355,42.844719,691.357],[-1.829369,42.844774,690.55],[-1.829395,42.844825,689.678],[-1.829411,42.84487,688.667],[-1.829427,42.844921,687.454],[-1.82946,42.844977,686.216],[-1.829487,42.845024,685.134],[-1.829522,42.84507,684.058],[-1.82955,42.845112,683.452],[-1.829573,42.84516,682.917],[-1.82959,42.845204,682.508],[-1.829599,42.845251,682.051],[-1.829643,42.845294,680.675],[-1.82968,42.845335,679.288],[-1.829753,42.845341,678.176],[-1.829801,42.845376,677.195],[-1.829831,42.845421,676.082],[-1.82987,42.845468,674.974],[-1.829914,42.845516,673.652],[-1.829953,42.845568,672.644],[-1.829997,42.845609,672.005],[-1.83003,42.845651,671.715],[-1.83006,42.845692,671.408],[-1.830091,42.845733,671.19],[-1.83013,42.845768,670.864],[-1.830187,42.845808,670.367],[-1.830221,42.845846,669.885],[-1.830257,42.845896,669.314],[-1.83031,42.845934,668.681],[-1.830353,42.845969,668.183],[-1.830386,42.846012,667.721],[-1.830419,42.846053,667.667],[-1.830451,42.846092,667.581],[-1.830485,42.846134,667.319],[-1.830515,42.846185,667.108],[-1.830546,42.846229,666.832],[-1.830579,42.846282,666.546],[-1.830586,42.846328,665.519],[-1.830631,42.846373,664.377],[-1.830675,42.84641,663.286],[-1.830689,42.846455,662.513],[-1.830723,42.846501,661.665],[-1.830765,42.846537,660.933],[-1.830816,42.846573,660.358],[-1.830856,42.846609,659.852],[-1.830874,42.846656,659.517],[-1.830881,42.846705,659.208],[-1.830916,42.846756,658.861],[-1.83095,42.846797,658.355],[-1.831002,42.846832,658.088],[-1.831048,42.84688,657.636],[-1.831073,42.846922,657.255],[-1.831093,42.846972,656.212],[-1.831118,42.84702,655.284],[-1.831168,42.847059,654.512],[-1.831206,42.847107,653.974],[-1.83121,42.847154,652.856],[-1.831226,42.847204,652.021],[-1.831255,42.84725,651.308],[-1.831277,42.847305,650.723],[-1.831305,42.847353,649.367],[-1.831343,42.847399,647.78],[-1.831385,42.847449,646.578],[-1.831418,42.847496,645.417],[-1.831382,42.847458,644.324],[-1.831403,42.847503,642.926],[-1.831452,42.847568,642.214],[-1.831527,42.847629,641.757],[-1.831567,42.847669,641.3],[-1.831591,42.847716,640.72],[-1.831615,42.847768,640.208],[-1.831636,42.847824,640.271],[-1.83167,42.847868,640.475],[-1.83171,42.847913,640.688],[-1.831765,42.847954,640.796],[-1.831787,42.847996,640.775],[-1.831843,42.848025,640.432],[-1.831884,42.84806,639.644],[-1.831893,42.848108,638.432],[-1.831899,42.848158,637.038],[-1.831927,42.848209,635.97],[-1.831958,42.848253,635.117],[-1.831999,42.8483,634.608],[-1.832038,42.848349,633.919],[-1.832068,42.84839,632.833],[-1.832092,42.848432,631.496],[-1.832126,42.848474,629.894],[-1.83216,42.848515,628.273],[-1.832196,42.848561,626.82],[-1.832219,42.84861,625.672],[-1.832257,42.848664,624.41],[-1.832292,42.848705,622.962],[-1.832322,42.848752,621.783],[-1.832358,42.848794,620.711],[-1.832384,42.848849,619.608],[-1.832415,42.848889,618.782],[-1.832449,42.848938,617.576],[-1.832483,42.84899,616.449],[-1.832522,42.849037,615.717],[-1.832545,42.849087,615.096],[-1.832587,42.849131,614.293],[-1.832624,42.849171,613.555],[-1.832657,42.849212,612.993],[-1.832701,42.849257,612.491],[-1.832738,42.849298,612.281],[-1.832771,42.84934,611.919],[-1.832814,42.849374,611.408],[-1.832848,42.849412,610.955],[-1.832878,42.849463,610.539],[-1.832911,42.849507,610.322],[-1.832934,42.849553,610.34],[-1.832956,42.849597,610.029],[-1.832983,42.84964,609.516],[-1.833022,42.84969,608.358],[-1.833049,42.849732,607.426],[-1.83308,42.849777,606.636],[-1.833123,42.849818,605.517],[-1.833161,42.849853,604.418],[-1.833187,42.849897,603.608],[-1.833216,42.849941,602.929],[-1.833242,42.849987,602.593],[-1.833287,42.850026,601.786],[-1.833318,42.850068,600.844],[-1.833349,42.850121,599.433],[-1.833395,42.850171,598.39],[-1.833422,42.850214,597.992],[-1.833461,42.850255,597.77],[-1.833503,42.850295,597.484],[-1.833522,42.85034,597.207],[-1.833544,42.850387,596.817],[-1.833572,42.85043,596.208],[-1.833602,42.850472,595.114],[-1.83363,42.85052,594.368],[-1.833675,42.850556,593.751],[-1.833707,42.850599,592.959],[-1.833733,42.850645,592.318],[-1.833763,42.850699,591.685],[-1.833784,42.850743,590.857],[-1.833815,42.85079,589.945],[-1.833845,42.850838,589.036],[-1.833876,42.850883,588.317],[-1.833902,42.850925,587.918],[-1.833925,42.850969,587.608],[-1.83395,42.851017,587.459],[-1.833969,42.851062,586.993],[-1.833997,42.85111,586.396],[-1.834039,42.851154,585.914],[-1.834079,42.851208,585.553],[-1.834101,42.851255,585.03],[-1.83413,42.851299,585.132],[-1.834167,42.851337,585.04],[-1.834207,42.851374,584.866],[-1.834198,42.851407,595.929],[-1.834177,42.851453,582.821],[-1.834198,42.851498,581.508],[-1.834226,42.851542,580.722],[-1.83426,42.851587,579.856],[-1.83426,42.851587,579.849],[-1.834304,42.85162,579.437],[-1.834371,42.851617,578.776],[-1.83443,42.851637,577.833],[-1.834458,42.851684,577.255],[-1.834458,42.851734,576.763],[-1.834449,42.851785,576.178],[-1.834417,42.851826,576.033],[-1.834373,42.851862,575.326],[-1.834317,42.851886,573.908],[-1.834255,42.851905,572.313],[-1.834182,42.851914,570.727],[-1.834107,42.851907,569.12],[-1.834038,42.851895,567.778],[-1.833969,42.851886,566.557],[-1.833912,42.851866,565.764],[-1.833846,42.851845,565.276],[-1.833785,42.851831,564.964],[-1.833708,42.85182,564.938],[-1.833633,42.851813,565.27],[-1.833559,42.851819,565.517],[-1.833498,42.851829,565.808],[-1.833434,42.851836,566.019],[-1.833373,42.851815,565.853],[-1.833306,42.851806,565.186],[-1.833243,42.851801,564.454],[-1.833174,42.85178,563.553],[-1.833108,42.851775,562.34],[-1.83304,42.851769,561.162],[-1.832978,42.851755,560.09],[-1.832916,42.851737,559.151],[-1.832858,42.851716,558.301],[-1.832795,42.851697,557.711],[-1.83274,42.851672,557.608],[-1.83267,42.851636,558.231],[-1.832606,42.851611,559.175],[-1.832529,42.851586,560.158],[-1.832474,42.851564,560.916],[-1.832412,42.851544,561.145],[-1.832356,42.851519,561.112],[-1.832297,42.851493,559.524],[-1.832231,42.851468,558.462],[-1.83215,42.851451,557.572],[-1.832072,42.85143,556.913],[-1.83199,42.851411,556.614],[-1.831932,42.851396,556.408],[-1.831868,42.851384,555.753],[-1.8318,42.851378,554.387],[-1.831734,42.85134,553.86],[-1.831669,42.851311,553.718],[-1.831619,42.851283,553.767],[-1.831558,42.851263,553.424],[-1.831491,42.851246,552.596],[-1.831446,42.851214,551.884],[-1.831383,42.851184,550.969],[-1.831312,42.851153,550.004],[-1.831257,42.851133,549.224],[-1.831192,42.85111,548.308],[-1.831138,42.851088,547.472],[-1.831078,42.85106,546.716],[-1.831026,42.851031,545.949],[-1.830973,42.851005,545.087],[-1.830906,42.850965,544.186],[-1.830856,42.850927,543.373],[-1.830799,42.850876,542.615],[-1.830755,42.850835,541.913],[-1.83071,42.850792,541.046],[-1.830665,42.850752,540.288],[-1.830609,42.850714,539.516],[-1.830559,42.850688,539.208],[-1.830505,42.850666,539.19],[-1.830432,42.850647,539.364],[-1.830365,42.850625,539.797],[-1.830308,42.850597,539.475],[-1.830247,42.850581,537.984],[-1.830199,42.850553,536.421],[-1.830167,42.850505,535.473],[-1.830127,42.85046,534.261],[-1.830127,42.85046,534.277],[-1.830078,42.850428,534.561],[-1.830078,42.850428,534.527],[-1.830081,42.850382,534.608],[-1.830034,42.850332,534.513],[-1.829974,42.850318,533.937],[-1.829905,42.850297,533.53],[-1.829842,42.850293,533.678],[-1.829782,42.850269,534.127],[-1.829717,42.850258,534.184],[-1.829654,42.850246,534.036],[-1.829587,42.850222,533.854],[-1.829525,42.850204,533.431],[-1.829462,42.8502,532.761],[-1.829401,42.850189,531.907],[-1.829333,42.850214,530.808],[-1.829275,42.850254,529.639],[-1.829214,42.850274,528.683],[-1.8292,42.850323,525.846],[-1.82925,42.850369,523.294],[-1.829294,42.85041,521.393],[-1.829314,42.850456,519.98],[-1.829314,42.850456,519.952],[-1.829315,42.850505,520.56],[-1.829338,42.850551,520.826],[-1.829371,42.850595,521.147],[-1.829398,42.850645,521.611],[-1.829423,42.850691,522.008],[-1.829422,42.850744,522.548],[-1.829418,42.850802,523.122],[-1.829422,42.850857,523.495],[-1.82944,42.850909,523.673],[-1.82948,42.850954,523.642],[-1.829509,42.850995,523.519],[-1.829547,42.851039,523.461],[-1.829581,42.851077,523.479],[-1.829614,42.851117,522.989],[-1.829644,42.851157,522.206],[-1.829676,42.851198,521.426],[-1.829725,42.851251,520.708],[-1.829757,42.851293,520.264],[-1.82978,42.851336,519.948],[-1.829803,42.851382,520.081],[-1.829833,42.851441,520.379],[-1.82986,42.851487,520.738],[-1.829884,42.851537,521.185],[-1.829914,42.851581,521.467],[-1.829935,42.851635,521.585],[-1.829951,42.851686,521.032],[-1.82996,42.851733,519.892],[-1.829998,42.851787,518.411],[-1.830006,42.851842,517.008],[-1.830012,42.851893,515.699],[-1.830014,42.851942,514.533],[-1.830015,42.851988,513.336],[-1.830023,42.852037,512.334],[-1.830031,42.852082,511.643],[-1.830043,42.852133,510.99],[-1.830064,42.852187,510.152],[-1.830091,42.852232,509.05],[-1.830116,42.852274,507.554],[-1.83015,42.852326,505.956],[-1.830185,42.852367,504.411],[-1.830217,42.852416,503.108],[-1.830246,42.852457,501.821],[-1.830285,42.852499,500.675],[-1.830312,42.852547,499.238],[-1.830339,42.852603,497.626],[-1.830381,42.852655,496.345],[-1.830411,42.852696,495.332],[-1.830448,42.852738,494.874],[-1.830488,42.852777,494.492],[-1.830523,42.852821,494.014],[-1.830558,42.852869,493.854],[-1.830594,42.852921,493.709],[-1.830605,42.852969,493.608],[-1.830609,42.853019,493.537],[-1.830645,42.853057,493.421],[-1.830652,42.853108,492.134],[-1.830585,42.8531,490.172],[-1.830528,42.853069,488.921],[-1.830455,42.853063,487.938],[-1.830461,42.853018,487.47],[-1.830417,42.852984,487.448],[-1.830359,42.852946,488.138],[-1.830303,42.852918,488.77],[-1.830237,42.852916,489.017],[-1.830189,42.852882,489.408],[-1.830128,42.852877,489.849],[-1.830069,42.852863,490.033],[-1.830007,42.852839,490.126],[-1.829969,42.852801,490.234],[-1.829938,42.852755,490.293],[-1.829887,42.852706,494.23],[-1.829847,42.852671,498.222],[-1.82979,42.85264,502.24],[-1.829724,42.852621,506.245],[-1.829664,42.852596,510.247],[-1.829608,42.852562,514.211],[-1.829575,42.85252,517.508],[-1.829534,42.852478,519.52],[-1.829491,42.852439,520.714],[-1.829432,42.852413,521.467],[-1.829377,42.852393,521.895],[-1.829326,42.852366,522.144],[-1.829278,42.852333,522.381],[-1.829243,42.852293,522.453],[-1.829212,42.852245,522.591],[-1.829184,42.852203,522.583],[-1.829158,42.85216,518.525],[-1.829135,42.85211,514.517],[-1.829106,42.852066,510.508],[-1.829076,42.852023,506.514],[-1.829042,42.851978,502.588],[-1.829016,42.851929,498.571],[-1.828988,42.851886,494.949],[-1.828936,42.851843,492.968],[-1.828899,42.851799,491.795],[-1.828867,42.85176,491.167],[-1.828815,42.851727,490.865],[-1.828769,42.851688,490.744],[-1.828729,42.851653,490.605],[-1.828688,42.851613,490.615],[-1.828625,42.851583,490.908],[-1.828595,42.851543,491.26],[-1.828545,42.851504,491.714],[-1.828479,42.851493,492.077],[-1.828461,42.85144,492.375],[-1.828441,42.851397,492.694],[-1.82839,42.851365,493.011],[-1.828339,42.851333,493.263],[-1.82827,42.851311,493.381],[-1.828237,42.85126,493.335],[-1.828221,42.851203,493.386],[-1.828179,42.851157,493.314],[-1.828122,42.851135,493.508],[-1.828062,42.851116,493.439],[-1.828012,42.851075,493.353],[-1.827991,42.851025,493.236],[-1.82794,42.850977,493.174],[-1.827893,42.850933,492.963],[-1.827853,42.850894,492.65],[-1.827811,42.850853,492.462],[-1.827791,42.850807,492.22],[-1.827753,42.850772,491.935],[-1.827697,42.85074,491.586],[-1.827636,42.850697,491.114],[-1.827574,42.850663,490.908],[-1.827528,42.850633,490.959],[-1.827482,42.850601,491.053],[-1.827432,42.850565,491.336],[-1.827381,42.850527,492.034],[-1.827334,42.850489,492.873],[-1.827315,42.850446,493.53],[-1.827274,42.850405,494.162],[-1.827214,42.850383,493.42],[-1.827214,42.850383,493.424],[-1.827181,42.850344,493.704],[-1.827131,42.850313,494.614],[-1.82706,42.850307,496.008],[-1.827004,42.850282,497.178],[-1.826942,42.850265,497.992],[-1.826879,42.850227,498.235],[-1.826838,42.850189,498.463],[-1.826779,42.850161,498.472],[-1.826727,42.850132,498.539],[-1.826679,42.850101,498.751],[-1.826638,42.850063,499.059],[-1.826607,42.85002,499.139],[-1.826564,42.849982,499.201],[-1.826531,42.849936,499.421],[-1.82649,42.849891,499.508],[-1.826446,42.849855,499.729],[-1.826409,42.849813,500.113],[-1.826352,42.849782,500.266],[-1.826287,42.849753,500.124],[-1.826228,42.849737,500.083],[-1.826175,42.849708,499.78],[-1.826134,42.849671,499.472],[-1.826079,42.849646,499.31],[-1.826019,42.849615,499.194],[-1.825959,42.849598,499.057],[-1.825892,42.849581,499.422],[-1.825841,42.849551,499.808],[-1.825773,42.849513,500.075],[-1.825732,42.849471,500.229],[-1.825686,42.849423,500.642],[-1.825642,42.849386,500.92],[-1.825582,42.849362,501.049],[-1.825517,42.84934,501.186],[-1.825459,42.84932,501.348],[-1.825398,42.849304,501.826],[-1.825318,42.849297,502.487],[-1.825245,42.84928,503.342],[-1.825189,42.849242,504.326],[-1.825119,42.849204,504.908],[-1.825065,42.849177,505.544],[-1.825008,42.849153,505.998],[-1.824949,42.849133,506.321],[-1.824889,42.849114,506.359],[-1.824816,42.849105,506.268],[-1.824765,42.849078,506.185],[-1.824684,42.849048,506.027],[-1.824626,42.84903,505.965],[-1.824568,42.849012,505.759],[-1.82451,42.848992,505.503],[-1.824448,42.848972,505.223],[-1.824404,42.848938,504.908],[-1.824344,42.84891,504.511],[-1.824291,42.84888,504.375],[-1.824252,42.848833,504.148],[-1.824215,42.848793,504.096],[-1.824177,42.848755,503.965],[-1.824139,42.848706,503.632],[-1.824094,42.84867,503.444],[-1.824064,42.848624,503.392],[-1.824031,42.848582,503.149],[-1.824011,42.84853,503.002],[-1.823996,42.848484,502.922],[-1.823974,42.848432,502.808],[-1.823946,42.848377,502.64],[-1.823914,42.848338,502.384],[-1.823866,42.848309,501.877],[-1.823791,42.848282,501.395],[-1.823758,42.848242,501.044],[-1.823716,42.848199,500.511],[-1.823689,42.848135,499.773],[-1.823678,42.848087,499.071],[-1.823662,42.848033,498.329],[-1.82362,42.847983,497.4],[-1.823556,42.847967,496.42],[-1.823519,42.848003,495.808],[-1.823469,42.84797,495.438],[-1.823411,42.847939,495.262],[-1.823326,42.84792,495.245],[-1.823285,42.847883,495.123],[-1.823285,42.847883,495.182],[-1.823243,42.847847,495.169],[-1.823191,42.847811,494.941],[-1.823161,42.847771,494.639],[-1.823127,42.847734,493.963],[-1.823083,42.847695,492.644],[-1.823083,42.847695,492.618],[-1.823039,42.847657,492.808],[-1.823039,42.847657,492.822],[-1.822972,42.847634,493.186],[-1.822926,42.847601,493.539],[-1.822866,42.847581,493.867],[-1.8228,42.847547,494.116],[-1.822748,42.847513,494.363],[-1.822703,42.847481,494.415],[-1.82266,42.847448,494.673],[-1.822615,42.847405,495.082],[-1.822569,42.847373,495.443],[-1.822513,42.847346,495.917],[-1.82246,42.847323,496.108],[-1.822404,42.847292,496.124],[-1.822345,42.847257,495.828],[-1.822295,42.847226,495.491],[-1.822229,42.847195,495.029],[-1.822165,42.847159,494.838],[-1.822107,42.847175,495.185],[-1.822093,42.847222,495.347],[-1.822141,42.847265,495.415],[-1.822175,42.847308,495.571],[-1.822199,42.847351,495.741],[-1.822219,42.847399,495.915],[-1.82224,42.847445,496.108],[-1.82223,42.847506,495.873],[-1.822212,42.847553,495.487],[-1.822215,42.847601,494.81],[-1.822225,42.847649,494.398],[-1.822235,42.847694,494.037],[-1.822247,42.847757,493.824],[-1.822251,42.847824,493.436],[-1.822254,42.84787,493.024],[-1.822259,42.847919,492.794],[-1.822287,42.847962,492.257],[-1.822313,42.848012,491.522],[-1.822332,42.848055,490.508],[-1.822345,42.848113,489.565],[-1.822346,42.848159,488.469],[-1.822342,42.848212,487.322],[-1.822357,42.848263,486.26],[-1.822366,42.848308,485.349],[-1.822343,42.848359,484.486],[-1.822344,42.848409,483.628],[-1.822352,42.848454,483.166],[-1.822349,42.8485,482.618],[-1.822362,42.848553,482.298],[-1.822332,42.848599,482.117],[-1.822299,42.84864,482.108],[-1.822232,42.84865,482.157],[-1.822174,42.848621,481.981],[-1.822132,42.848582,481.794],[-1.822085,42.848547,481.142],[-1.822035,42.848506,480.331],[-1.82198,42.848474,479.638],[-1.821935,42.84844,479.09],[-1.821877,42.848398,478.328],[-1.821834,42.848354,477.797],[-1.821807,42.848313,477.223],[-1.821756,42.848276,476.625],[-1.821689,42.848267,475.908],[-1.821627,42.848278,475.125],[-1.821565,42.848293,474.229],[-1.821494,42.848306,473.032],[-1.821437,42.848352,471.84],[-1.821393,42.848387,471.159],[-1.821329,42.848377,470.796],[-1.821329,42.848427,470.618],[-1.821316,42.848484,470.926],[-1.821285,42.848527,471.297],[-1.82125,42.848566,471.423],[-1.821213,42.848609,471.725],[-1.821165,42.84864,471.908],[-1.821123,42.848682,471.915],[-1.821065,42.848732,471.659],[-1.820998,42.848765,470.782],[-1.820938,42.848783,469.62],[-1.820878,42.848802,467.899],[-1.820821,42.848819,465.016],[-1.820755,42.848842,462.318],[-1.820701,42.848873,459.756],[-1.82065,42.848902,457.232],[-1.820595,42.848934,453.992],[-1.820588,42.848988,451.411],[-1.820586,42.84904,449.908],[-1.820592,42.849098,449.019],[-1.820584,42.849146,448.453],[-1.820561,42.84919,448.156],[-1.820556,42.849236,448.374],[-1.820561,42.849292,449.143],[-1.820567,42.84935,449.58],[-1.820588,42.849394,449.632],[-1.82063,42.849435,450.01],[-1.820645,42.849494,450.441],[-1.820673,42.849542,450.181],[-1.8207,42.849587,449.509],[-1.8207,42.849638,448.508],[-1.820703,42.849683,447.41],[-1.820751,42.849726,446.374],[-1.820765,42.849775,445.277],[-1.820776,42.849822,444.675],[-1.820788,42.849879,444.034],[-1.820809,42.84993,443.861],[-1.820846,42.849978,443.873],[-1.820855,42.850025,443.781],[-1.820858,42.850081,443.718],[-1.820877,42.85013,444.098],[-1.820899,42.850172,444.317],[-1.820885,42.850231,444.708],[-1.82089,42.850289,445.567],[-1.8209,42.850334,446.061],[-1.8209,42.850391,446.714],[-1.82091,42.850445,447.172],[-1.820926,42.850493,447.281],[-1.820927,42.850541,447.368],[-1.820931,42.85059,447.78],[-1.820934,42.850643,448.248],[-1.820939,42.850693,448.523],[-1.820941,42.850747,448.983],[-1.820914,42.850793,449.211],[-1.820908,42.850857,449.208],[-1.820917,42.850903,449.278],[-1.820925,42.850954,448.372],[-1.820903,42.851003,447.855],[-1.820893,42.851048,447.563],[-1.820869,42.851102,447.272],[-1.820834,42.851147,447.089],[-1.820789,42.851188,446.621],[-1.820769,42.851232,446.059],[-1.82076,42.85128,445.532],[-1.820713,42.851314,444.992],[-1.820697,42.85136,444.311],[-1.820676,42.851313,444.108],[-1.820648,42.851355,443.039],[-1.820582,42.851368,443.353],[-1.820527,42.851396,444.076],[-1.820469,42.85142,445.094],[-1.820415,42.851452,446.313],[-1.82037,42.851493,447.82],[-1.820323,42.851524,447.992],[-1.820274,42.851564,448.06],[-1.820249,42.851617,448.019],[-1.820195,42.851656,448.009],[-1.82015,42.851693,448.119],[-1.820116,42.85174,448.408],[-1.82006,42.851773,448.887],[-1.820027,42.851817,449.531],[-1.819973,42.851852,450.494],[-1.819951,42.851896,450.932],[-1.820013,42.851891,450.891],[-1.820001,42.85194,450.848],[-1.819971,42.851987,450.99],[-1.819911,42.852004,451.088],[-1.819822,42.85202,451.164],[-1.81976,42.852033,450.706],[-1.819709,42.852072,449.916],[-1.819647,42.852082,449.508],[-1.819581,42.852097,449.292],[-1.819519,42.852104,449.136],[-1.819456,42.852125,448.859],[-1.819383,42.852143,448.187],[-1.819325,42.852126,448.356],[-1.819257,42.852145,448.713],[-1.819183,42.852141,448.835],[-1.819117,42.852131,448.283],[-1.819045,42.852117,446.716],[-1.818971,42.852106,445.076],[-1.818895,42.852112,443.713],[-1.818834,42.852101,442.708],[-1.818769,42.85209,441.927],[-1.818699,42.852061,441.211],[-1.818631,42.85203,440.514],[-1.81857,42.852014,440.092],[-1.818499,42.851986,439.711],[-1.818438,42.851954,439.718],[-1.818381,42.851934,439.82],[-1.818323,42.851914,440.148],[-1.818251,42.851892,440.335],[-1.818176,42.851875,440.486],[-1.818115,42.851861,440.314],[-1.818056,42.85184,440.208],[-1.817994,42.851819,439.949],[-1.817933,42.851799,439.543],[-1.817875,42.851779,439.056],[-1.817813,42.851756,438.564],[-1.817763,42.851725,437.963],[-1.817703,42.851687,436.92],[-1.817634,42.851666,435.752],[-1.817579,42.851643,434.82],[-1.817524,42.851621,434.187],[-1.817465,42.851593,433.842],[-1.817413,42.851562,433.626],[-1.817364,42.851533,433.508],[-1.817318,42.8515,433.354],[-1.817269,42.85147,433.248],[-1.817211,42.851447,433.131],[-1.817146,42.851427,433.069],[-1.817077,42.851417,432.798],[-1.817012,42.851406,432.485],[-1.816951,42.851403,431.977],[-1.816883,42.851401,431.395],[-1.816816,42.851385,430.441],[-1.816757,42.851361,429.381],[-1.816694,42.851348,428.209],[-1.816625,42.851333,427.208],[-1.816564,42.851324,426.45],[-1.81649,42.851318,425.824],[-1.816424,42.851322,425.197],[-1.816353,42.851305,424.735],[-1.816297,42.851284,424.414],[-1.816244,42.85126,424.161],[-1.816186,42.851232,423.853],[-1.816127,42.851201,423.841],[-1.816083,42.851165,424.074],[-1.816029,42.85113,423.256],[-1.815982,42.85109,422.021],[-1.815969,42.851041,421.008],[-1.81593,42.850996,420.323],[-1.815881,42.850957,419.767],[-1.815824,42.850927,419.26],[-1.815755,42.850905,418.848],[-1.815746,42.850851,418.587],[-1.815696,42.850814,418.294],[-1.815609,42.850806,418.126],[-1.815537,42.850793,418.094],[-1.815477,42.85078,417.879],[-1.815413,42.850757,417.605],[-1.815347,42.850723,417.725],[-1.815291,42.850691,417.808],[-1.815247,42.850659,417.763],[-1.815195,42.85063,417.647],[-1.815137,42.850603,417.74],[-1.815087,42.850567,416.918],[-1.815048,42.850517,415.627],[-1.815013,42.85048,414.744],[-1.814962,42.850443,413.926],[-1.814902,42.850405,413.264],[-1.814843,42.850372,412.845],[-1.81479,42.850333,412.947],[-1.814717,42.850317,413.511],[-1.814643,42.850289,414.308],[-1.814592,42.850251,415.19],[-1.814527,42.850206,415.764],[-1.814479,42.850172,416.017],[-1.814426,42.850126,416.165],[-1.814363,42.850134,416.624],[-1.814301,42.850134,417.761],[-1.814301,42.850134,417.713],[-1.814232,42.850117,417.541],[-1.81417,42.850088,417.085],[-1.81412,42.850047,415.989],[-1.814088,42.850001,414.717],[-1.814048,42.849963,413.708],[-1.814006,42.849929,412.554],[-1.81396,42.849891,411.578],[-1.813916,42.849845,410.871],[-1.813876,42.849805,410.189],[-1.813821,42.849764,409.618],[-1.813766,42.849737,409.385],[-1.813712,42.849706,409.447],[-1.813667,42.849673,409.655],[-1.813613,42.849648,409.949],[-1.813562,42.849618,410.102],[-1.813503,42.849591,410.622],[-1.813435,42.849569,411.108],[-1.813381,42.849547,411.71],[-1.813314,42.849523,412.254],[-1.813254,42.84949,412.617],[-1.813191,42.849458,413.115],[-1.813138,42.849433,413.434],[-1.813084,42.849404,413.511],[-1.813039,42.849369,413.243],[-1.812978,42.849352,412.591],[-1.81292,42.849369,410.467],[-1.812861,42.849356,408.081],[-1.812801,42.849341,405.819],[-1.81273,42.849339,404.208],[-1.812669,42.849325,403.152],[-1.812603,42.849311,402.256],[-1.812544,42.849282,401.539],[-1.812486,42.849258,400.887],[-1.81242,42.849233,400.226],[-1.812344,42.849202,399.823],[-1.812286,42.849179,399.175],[-1.812209,42.849147,398.583],[-1.812153,42.849124,397.822],[-1.812075,42.849103,397.062],[-1.812013,42.849073,396.408],[-1.811964,42.849032,395.808],[-1.811919,42.848995,395.248],[-1.811887,42.848957,394.652],[-1.811848,42.848918,393.965],[-1.811795,42.84887,393.353],[-1.81175,42.848834,392.972],[-1.811688,42.8488,392.739],[-1.811638,42.848758,392.691],[-1.811598,42.848723,392.539],[-1.811541,42.848666,392.563],[-1.811495,42.848627,392.544],[-1.811424,42.84861,392.518],[-1.811358,42.848583,396.508],[-1.811311,42.848552,400.582],[-1.811259,42.848517,404.576],[-1.811211,42.848486,408.569],[-1.811154,42.848448,412.577],[-1.811103,42.848414,416.536],[-1.811058,42.848379,420.583],[-1.811017,42.848343,424.555],[-1.810989,42.848297,432.593],[-1.810989,42.848297,432.537],[-1.810946,42.848262,436.549],[-1.810893,42.848238,440.013],[-1.810835,42.848203,442.108],[-1.810776,42.848181,443.479],[-1.810699,42.848164,444.223],[-1.810635,42.848156,444.776],[-1.810561,42.848161,445.054],[-1.810498,42.848144,445.253],[-1.81044,42.848121,445.33],[-1.810375,42.848091,445.412],[-1.810309,42.848065,441.45],[-1.810245,42.848074,438.097],[-1.810208,42.84813,435.923],[-1.810163,42.848185,434.725],[-1.810152,42.848235,434.008],[-1.810153,42.848284,433.625],[-1.81015,42.848339,435.539],[-1.810138,42.848385,436.752],[-1.81012,42.848431,437.46],[-1.810108,42.848477,437.899],[-1.810099,42.848536,438.296],[-1.810099,42.848536,438.218],[-1.810103,42.848588,438.346],[-1.810105,42.848647,438.448],[-1.81011,42.848693,438.461],[-1.810105,42.848739,438.417]]}}]}