{"type":"FeatureCollection","features":[{"type":"Feature","properties":{"ruta_id":"62277039","nombre":"⛰️ ZURIAIN (1410 m) desde ARTESIAGA","blog_url":"https://www.rutasporelmonte.com/zuriain-1410-m-desde-artesiaga/"},"geometry":{"type":"LineString","coordinates":[[-1.539098,43.050152,980.291],[-1.539098,43.050152,980.281],[-1.539037,43.050131,979.619],[-1.538975,43.050119,979.408],[-1.539049,43.050128,978.645],[-1.539026,43.050172,979.781],[-1.539068,43.050209,979.671],[-1.539102,43.050248,979.666],[-1.539167,43.05027,980.116],[-1.539225,43.050286,980.469],[-1.539286,43.050297,979.892],[-1.539347,43.050286,979.338],[-1.539407,43.050267,979.166],[-1.53947,43.050244,979.229],[-1.539517,43.050214,979.521],[-1.539579,43.050179,980.008],[-1.53963,43.050147,980.462],[-1.539685,43.050115,981.048],[-1.539743,43.050095,981.548],[-1.539792,43.050067,981.553],[-1.539856,43.050045,981.853],[-1.539932,43.050034,982.416],[-1.539998,43.050022,984.039],[-1.540061,43.050009,985.365],[-1.540123,43.049986,986.579],[-1.540174,43.049956,987.105],[-1.540241,43.049933,987.325],[-1.540318,43.049944,987.408],[-1.540388,43.04994,987.473],[-1.540431,43.049907,987.239],[-1.540492,43.04989,987.269],[-1.540567,43.04988,987.464],[-1.540625,43.049861,987.694],[-1.54069,43.049857,988.277],[-1.540722,43.049804,989.39],[-1.540775,43.049779,990.326],[-1.540837,43.04976,991.315],[-1.540903,43.04976,992.265],[-1.540973,43.049748,993.311],[-1.541027,43.049721,994.008],[-1.541091,43.049692,994.687],[-1.541154,43.049671,995.083],[-1.541228,43.049659,995.213],[-1.54128,43.049632,995.698],[-1.541338,43.049607,996.138],[-1.541407,43.049598,996.681],[-1.541482,43.049595,997.164],[-1.54154,43.049577,997.82],[-1.54159,43.049546,998.364],[-1.541646,43.049519,998.606],[-1.541705,43.049501,998.816],[-1.541769,43.049502,999.108],[-1.541821,43.049469,999.572],[-1.541862,43.049431,1000.468],[-1.541923,43.049409,1001.138],[-1.541986,43.049391,1001.713],[-1.542051,43.049395,1002.463],[-1.542117,43.049373,1003.416],[-1.542175,43.049351,1004.559],[-1.542211,43.049314,1005.345],[-1.542263,43.049284,1006.074],[-1.542318,43.049253,1006.556],[-1.542367,43.049208,1007.021],[-1.542425,43.049186,1007.408],[-1.542489,43.049174,1007.883],[-1.542554,43.049157,1008.289],[-1.542624,43.049136,1008.559],[-1.542691,43.049127,1008.754],[-1.54276,43.0491,1008.884],[-1.542824,43.049072,1008.847],[-1.542885,43.049052,1008.83],[-1.54295,43.049046,1008.996],[-1.543017,43.049057,1009.196],[-1.543078,43.049062,1009.431],[-1.543146,43.049068,1009.824],[-1.543213,43.049071,1010.308],[-1.543275,43.049067,1011.095],[-1.543337,43.049052,1011.521],[-1.543405,43.049059,1012.061],[-1.543468,43.049075,1012.466],[-1.543534,43.049087,1012.776],[-1.543596,43.04911,1013.029],[-1.543657,43.049128,1013.442],[-1.543719,43.04914,1013.668],[-1.543792,43.049149,1014.076],[-1.543854,43.049168,1014.49],[-1.543932,43.049185,1014.719],[-1.543987,43.049209,1015.108],[-1.544032,43.049241,1015.333],[-1.544072,43.04928,1015.719],[-1.544115,43.049326,1016.019],[-1.544152,43.049364,1016.574],[-1.544203,43.049389,1017.064],[-1.544248,43.049432,1017.677],[-1.544284,43.049477,1018.03],[-1.544317,43.049525,1018.396],[-1.544341,43.049575,1018.578],[-1.544388,43.049614,1018.633],[-1.544429,43.04966,1019.026],[-1.544472,43.049698,1019.408],[-1.544558,43.04971,1020.293],[-1.544626,43.049716,1021.039],[-1.544688,43.049723,1021.529],[-1.544741,43.049764,1021.554],[-1.544805,43.049791,1021.414],[-1.544856,43.049818,1021.267],[-1.544899,43.049854,1021.88],[-1.544943,43.049896,1022.236],[-1.544997,43.049927,1022.671],[-1.545051,43.049952,1023.141],[-1.545112,43.049972,1023.415],[-1.545181,43.049989,1023.708],[-1.545234,43.050016,1023.943],[-1.545275,43.050051,1024.479],[-1.545337,43.050079,1025.469],[-1.545402,43.050106,1026.174],[-1.545463,43.050137,1026.994],[-1.545526,43.050157,1027.927],[-1.545582,43.050182,1028.77],[-1.545633,43.050222,1029.336],[-1.545688,43.050247,1029.982],[-1.545739,43.050276,1030.743],[-1.545804,43.050296,1030.617],[-1.545873,43.050307,1030.208],[-1.545929,43.050327,1029.594],[-1.545988,43.050347,1028.89],[-1.546053,43.050341,1028.55],[-1.546118,43.050332,1029.225],[-1.546186,43.050338,1030.415],[-1.546237,43.050377,1031.978],[-1.546297,43.050393,1033.211],[-1.546373,43.050392,1034.377],[-1.546439,43.050411,1034.974],[-1.546493,43.050433,1035.656],[-1.546554,43.050451,1036.121],[-1.546615,43.050473,1036.708],[-1.546656,43.050507,1037.193],[-1.546665,43.050556,1037.549],[-1.546704,43.050608,1038.059],[-1.546759,43.050651,1038.674],[-1.546801,43.050694,1039.164],[-1.546849,43.05073,1039.857],[-1.546902,43.050758,1040.89],[-1.546946,43.050801,1041.566],[-1.547001,43.050844,1042.335],[-1.547046,43.050878,1043.586],[-1.547097,43.050914,1044.414],[-1.547131,43.050955,1045.108],[-1.54717,43.050992,1045.849],[-1.547225,43.051018,1046.435],[-1.54727,43.051053,1047.155],[-1.547311,43.051087,1047.66],[-1.547356,43.051121,1048.11],[-1.547422,43.051153,1048.583],[-1.547476,43.051177,1049.296],[-1.547538,43.051209,1049.962],[-1.547571,43.051247,1050.466],[-1.547595,43.05129,1050.929],[-1.547641,43.051324,1051.621],[-1.547677,43.051363,1052.308],[-1.547724,43.051393,1053.162],[-1.547778,43.051423,1053.888],[-1.547824,43.051459,1054.738],[-1.547871,43.051491,1055.433],[-1.547919,43.05152,1056.263],[-1.547982,43.051546,1056.936],[-1.548045,43.051567,1057.749],[-1.548098,43.051596,1058.355],[-1.548146,43.051625,1058.825],[-1.548188,43.051658,1059.626],[-1.548228,43.051692,1060.308],[-1.548272,43.051732,1060.908],[-1.548337,43.051754,1061.688],[-1.548398,43.051766,1062.224],[-1.548466,43.051754,1062.854],[-1.548524,43.051736,1063.269],[-1.548577,43.051711,1063.599],[-1.548627,43.051685,1063.912],[-1.548681,43.051657,1064.355],[-1.548734,43.051631,1064.931],[-1.548784,43.051597,1065.756],[-1.54882,43.051553,1066.559],[-1.548863,43.051517,1067.114],[-1.5489,43.051481,1067.708],[-1.548947,43.051451,1068.381],[-1.548996,43.051418,1068.997],[-1.549049,43.051384,1069.757],[-1.549109,43.051353,1070.422],[-1.549164,43.051326,1070.932],[-1.549204,43.051292,1071.375],[-1.549251,43.05125,1071.698],[-1.54928,43.051205,1072.124],[-1.549276,43.05116,1072.694],[-1.549313,43.051114,1073.257],[-1.549341,43.051067,1073.622],[-1.549339,43.051016,1074.208],[-1.549336,43.050963,1074.975],[-1.54935,43.050916,1075.681],[-1.54935,43.050871,1076.481],[-1.549375,43.050828,1077.036],[-1.549384,43.050775,1078.176],[-1.549407,43.050723,1078.999],[-1.549407,43.050667,1079.362],[-1.5494,43.050618,1079.458],[-1.549416,43.050562,1079.452],[-1.549463,43.050523,1079.753],[-1.549494,43.050463,1080.108],[-1.549515,43.050417,1080.908],[-1.549539,43.05037,1081.871],[-1.549569,43.05033,1082.577],[-1.549595,43.050271,1083.357],[-1.549617,43.050221,1084.722],[-1.549624,43.05017,1085.962],[-1.549608,43.050125,1087.325],[-1.549612,43.050077,1088.748],[-1.549613,43.050025,1090.374],[-1.549628,43.049976,1091.743],[-1.549634,43.049931,1093.164],[-1.549633,43.049877,1094.41],[-1.549626,43.049831,1095.908],[-1.549615,43.049783,1097.19],[-1.549608,43.049734,1097.846],[-1.5496,43.049687,1098.386],[-1.549597,43.049637,1098.521],[-1.549592,43.049592,1098.711],[-1.549622,43.049548,1099.164],[-1.549616,43.0495,1099.567],[-1.549598,43.04945,1099.573],[-1.549602,43.049399,1099.352],[-1.549614,43.049352,1099.253],[-1.549625,43.049302,1099.408],[-1.549647,43.049251,1099.808],[-1.54965,43.049206,1100.281],[-1.549649,43.049161,1100.517],[-1.549664,43.049111,1100.917],[-1.549676,43.049061,1101.472],[-1.54968,43.049015,1102.032],[-1.549679,43.048962,1102.515],[-1.549698,43.048912,1103.258],[-1.549716,43.048863,1104.024],[-1.549748,43.048814,1104.768],[-1.549795,43.048775,1105.342],[-1.549841,43.048737,1105.826],[-1.549882,43.048703,1106.008],[-1.549941,43.048689,1106.382],[-1.550007,43.048672,1106.768],[-1.550048,43.048624,1107.758],[-1.550097,43.048597,1108.813],[-1.550163,43.048577,1110.013],[-1.550224,43.048557,1111.396],[-1.550263,43.048521,1112.959],[-1.550292,43.04848,1114.075],[-1.550327,43.048441,1114.816],[-1.550334,43.048396,1115.476],[-1.55037,43.048352,1115.713],[-1.550413,43.048314,1116.008],[-1.550467,43.048287,1116.337],[-1.550525,43.048259,1116.833],[-1.550578,43.04823,1117.363],[-1.550617,43.048192,1118.098],[-1.550633,43.048138,1119.198],[-1.55062,43.048083,1120.241],[-1.550607,43.048035,1121.334],[-1.550607,43.047985,1122.45],[-1.550617,43.047938,1123.484],[-1.550617,43.047893,1124.607],[-1.550602,43.047846,1125.617],[-1.550596,43.047801,1126.808],[-1.550587,43.047756,1127.714],[-1.550577,43.047706,1128.61],[-1.550574,43.047659,1129.65],[-1.550592,43.047612,1130.915],[-1.550593,43.047566,1132.185],[-1.550582,43.047518,1133.118],[-1.550573,43.047469,1133.841],[-1.550591,43.047422,1134.127],[-1.550615,43.04738,1134.348],[-1.550634,43.047335,1134.561],[-1.550662,43.047294,1134.817],[-1.550709,43.047252,1135.008],[-1.550756,43.047208,1135.46],[-1.550808,43.047169,1136.166],[-1.550866,43.047145,1136.986],[-1.550922,43.047112,1138.081],[-1.55098,43.047077,1139.381],[-1.551021,43.04704,1140.994],[-1.551081,43.047016,1142.567],[-1.551112,43.046972,1144.093],[-1.551127,43.046924,1145.311],[-1.551143,43.046875,1146.321],[-1.551149,43.046818,1147.103],[-1.551173,43.046769,1147.508],[-1.551196,43.04672,1147.547],[-1.551207,43.046675,1147.593],[-1.551225,43.046626,1147.783],[-1.551261,43.046577,1147.748],[-1.55131,43.046535,1148.138],[-1.551372,43.046507,1148.741],[-1.551411,43.046466,1149.554],[-1.551474,43.046449,1150.57],[-1.55152,43.046419,1151.354],[-1.551573,43.046392,1151.856],[-1.551523,43.04636,1153.511],[-1.551529,43.046308,1156.608],[-1.551529,43.046308,1156.661],[-1.551571,43.046272,1157.117],[-1.551618,43.046241,1157.077],[-1.551679,43.046218,1156.722],[-1.551743,43.046207,1156.582],[-1.551811,43.046209,1156.365],[-1.551875,43.046197,1155.918],[-1.551936,43.04621,1155.614],[-1.551976,43.046174,1155.218],[-1.551973,43.046125,1155.198],[-1.551956,43.046074,1155.317],[-1.551951,43.046028,1155.908],[-1.551948,43.045979,1156.527],[-1.551944,43.045931,1156.863],[-1.551916,43.045889,1156.633],[-1.551862,43.045862,1156.328],[-1.551799,43.045836,1156.588],[-1.551757,43.045781,1156.871],[-1.55174,43.045733,1157.014],[-1.551707,43.04569,1157.28],[-1.55166,43.04565,1157.072],[-1.551626,43.045607,1156.213],[-1.551594,43.045554,1154.814],[-1.551564,43.045507,1153.708],[-1.551532,43.045462,1152.813],[-1.55149,43.045424,1152.279],[-1.551448,43.045379,1152.119],[-1.551433,43.045332,1152.274],[-1.551428,43.045282,1152.444],[-1.551423,43.045234,1152.897],[-1.551447,43.045187,1153.49],[-1.551459,43.045134,1153.786],[-1.551501,43.045094,1154.426],[-1.551513,43.04505,1155.347],[-1.551553,43.045012,1156.511],[-1.551611,43.04499,1157.808],[-1.551672,43.044973,1159.348],[-1.551737,43.044965,1160.584],[-1.551794,43.044945,1161.574],[-1.551847,43.044919,1162.719],[-1.551911,43.044905,1163.749],[-1.551972,43.044898,1164.442],[-1.552033,43.044884,1164.855],[-1.5521,43.04487,1165.031],[-1.552164,43.044864,1164.525],[-1.552222,43.044833,1163.926],[-1.552266,43.044798,1163.308],[-1.552316,43.044753,1162.308],[-1.552325,43.044708,1161.318],[-1.552358,43.044661,1160.454],[-1.552401,43.044618,1159.494],[-1.552448,43.044574,1158.629],[-1.552506,43.044516,1157.859],[-1.552528,43.044469,1157.352],[-1.552539,43.044415,1156.885],[-1.552574,43.04437,1156.151],[-1.552606,43.044328,1155.691],[-1.552634,43.044285,1155.281],[-1.552649,43.044239,1154.919],[-1.552676,43.044193,1154.608],[-1.552733,43.044152,1154.975],[-1.552788,43.044121,1155.321],[-1.552848,43.044094,1155.761],[-1.5529,43.044058,1156.056],[-1.552917,43.044007,1155.866],[-1.552959,43.043972,1155.819],[-1.552995,43.043932,1155.942],[-1.553009,43.043884,1156.168],[-1.553027,43.043839,1156.641],[-1.553069,43.043801,1156.881],[-1.5531,43.043761,1157.009],[-1.55312,43.043714,1157.408],[-1.553156,43.043675,1157.63],[-1.553181,43.043629,1157.526],[-1.553224,43.043589,1157.026],[-1.553261,43.043552,1156.721],[-1.553301,43.043516,1156.721],[-1.553323,43.043474,1157.114],[-1.553368,43.043443,1157.727],[-1.553398,43.043404,1158.073],[-1.553431,43.043366,1158.214],[-1.553477,43.043328,1158.754],[-1.553537,43.043291,1159.009],[-1.553595,43.043269,1159.308],[-1.553644,43.043235,1159.547],[-1.55369,43.043201,1159.353],[-1.553751,43.043192,1158.263],[-1.553793,43.043154,1157.768],[-1.553854,43.043123,1157.868],[-1.55388,43.043082,1159.811],[-1.553916,43.043045,1161.594],[-1.553941,43.043002,1163.06],[-1.553969,43.04296,1164.343],[-1.554004,43.042922,1165.364],[-1.554042,43.04288,1166.11],[-1.554099,43.042857,1166.808],[-1.554097,43.042811,1167.38],[-1.554131,43.042766,1167.736],[-1.554153,43.042712,1168.276],[-1.554153,43.042664,1168.541],[-1.554145,43.042615,1168.791],[-1.554179,43.04257,1168.614],[-1.554181,43.042508,1168.447],[-1.554184,43.042462,1168.483],[-1.554206,43.042412,1168.679],[-1.554201,43.04236,1168.505],[-1.554204,43.042312,1168.125],[-1.554198,43.042262,1168.708],[-1.554221,43.042216,1169.963],[-1.554238,43.042172,1171.299],[-1.554253,43.042123,1172.349],[-1.554272,43.04207,1173.444],[-1.554302,43.042028,1175.494],[-1.554365,43.042031,1177.197],[-1.554418,43.042,1178.36],[-1.554432,43.041952,1179.416],[-1.554453,43.041906,1180.161],[-1.554465,43.041855,1180.521],[-1.554484,43.04181,1180.913],[-1.554486,43.041759,1181.208],[-1.554499,43.041702,1181.622],[-1.554493,43.041656,1182.128],[-1.554506,43.041611,1183.288],[-1.554537,43.04157,1184.333],[-1.554553,43.041517,1185.633],[-1.554585,43.041477,1187.076],[-1.554623,43.041429,1188.949],[-1.554661,43.041381,1191.215],[-1.554661,43.041332,1193.642],[-1.554629,43.041283,1195.822],[-1.554613,43.041239,1197.714],[-1.554611,43.041194,1199.508],[-1.554594,43.041146,1201.86],[-1.554614,43.041103,1203.876],[-1.554635,43.041058,1206.426],[-1.554625,43.041006,1208.451],[-1.554628,43.04096,1209.841],[-1.554625,43.040914,1211.234],[-1.554615,43.040865,1212.657],[-1.554589,43.04082,1213.913],[-1.554585,43.040775,1215.157],[-1.554605,43.040727,1215.1],[-1.554624,43.040682,1214.72],[-1.554629,43.040632,1214.708],[-1.554613,43.040581,1214.741],[-1.554635,43.040536,1214.727],[-1.554679,43.040494,1214.877],[-1.554704,43.04045,1215.452],[-1.554708,43.040403,1216.632],[-1.554725,43.04036,1217.255],[-1.554755,43.040315,1217.528],[-1.554806,43.040284,1218.274],[-1.554861,43.040258,1219.172],[-1.554897,43.040217,1220.013],[-1.554913,43.040173,1221.014],[-1.554938,43.04013,1222.208],[-1.554959,43.040082,1223.453],[-1.554997,43.040044,1224.459],[-1.555023,43.039993,1225.599],[-1.555049,43.039951,1226.314],[-1.555085,43.039913,1227.324],[-1.555102,43.039861,1228.367],[-1.55513,43.039821,1229.54],[-1.555183,43.039784,1230.826],[-1.555243,43.039772,1232.743],[-1.555293,43.03974,1233.764],[-1.555254,43.039699,1233.61],[-1.555189,43.039681,1233.808],[-1.555148,43.039633,1234.31],[-1.555129,43.039584,1235.116],[-1.555112,43.039538,1237.216],[-1.555077,43.039488,1238.751],[-1.555069,43.039431,1239.991],[-1.555061,43.039385,1240.984],[-1.555054,43.039334,1241.797],[-1.55505,43.039285,1242.283],[-1.555027,43.039238,1242.777],[-1.555012,43.039191,1243.361],[-1.554997,43.039144,1243.927],[-1.554967,43.039096,1244.408],[-1.55492,43.039064,1245.263],[-1.554864,43.039044,1246.059],[-1.554812,43.039016,1246.629],[-1.554758,43.038989,1247.294],[-1.554716,43.038956,1248.064],[-1.554655,43.038941,1249.137],[-1.55459,43.038922,1250.11],[-1.554539,43.038892,1250.956],[-1.554498,43.038855,1251.944],[-1.554453,43.038823,1253.105],[-1.554424,43.038778,1254.515],[-1.554368,43.038753,1255.908],[-1.554352,43.038703,1257.64],[-1.554352,43.038652,1259.096],[-1.554351,43.038604,1260.326],[-1.554331,43.03856,1261.491],[-1.554346,43.038512,1262.711],[-1.554337,43.038463,1263.784],[-1.554288,43.03843,1264.647],[-1.554278,43.038379,1265.193],[-1.554296,43.038333,1265.586],[-1.554311,43.038284,1265.96],[-1.554335,43.038241,1266.426],[-1.55434,43.038196,1267.108],[-1.554345,43.038149,1268.264],[-1.554346,43.0381,1269.51],[-1.554322,43.038054,1270.82],[-1.554301,43.038006,1272.185],[-1.554279,43.037964,1273.185],[-1.554264,43.037913,1274.368],[-1.554251,43.037869,1276.171],[-1.554259,43.03782,1278.037],[-1.554277,43.037768,1279.486],[-1.554281,43.037722,1280.46],[-1.554286,43.037676,1281.326],[-1.554282,43.037629,1282.808],[-1.554282,43.037629,1282.894],[-1.554278,43.037578,1283.61],[-1.554269,43.037523,1285.05],[-1.554249,43.037479,1286.635],[-1.554275,43.037431,1288.235],[-1.554273,43.037379,1289.548],[-1.554255,43.037329,1290.651],[-1.554223,43.037287,1291.867],[-1.554212,43.037239,1293.164],[-1.554221,43.037189,1294.106],[-1.554238,43.037136,1295.016],[-1.554259,43.03709,1296.008],[-1.554242,43.03704,1297.092],[-1.554244,43.036987,1298.098],[-1.554249,43.036939,1298.838],[-1.554245,43.036885,1299.813],[-1.554246,43.036835,1301.013],[-1.554266,43.036791,1302.346],[-1.554263,43.036743,1303.549],[-1.554241,43.0367,1304.775],[-1.554229,43.036651,1305.813],[-1.554209,43.036605,1307.043],[-1.554199,43.03656,1308.107],[-1.554169,43.036512,1309.308],[-1.55413,43.036473,1310.797],[-1.554086,43.036436,1312.333],[-1.554042,43.036404,1313.753],[-1.554002,43.036368,1315.238],[-1.553934,43.036348,1316.728],[-1.553896,43.036309,1318.321],[-1.553842,43.036281,1319.794],[-1.553789,43.036256,1321.15],[-1.553739,43.036221,1322.478],[-1.553706,43.036181,1323.533],[-1.553677,43.036137,1324.526],[-1.553659,43.036091,1325.308],[-1.553636,43.036049,1326.373],[-1.553637,43.035998,1327.229],[-1.553601,43.035953,1328.269],[-1.553553,43.035913,1329.284],[-1.553503,43.035884,1330.754],[-1.553515,43.035836,1332.237],[-1.553481,43.035796,1332.83],[-1.553432,43.035756,1333.086],[-1.553429,43.035704,1333.391],[-1.553423,43.035651,1334.181],[-1.553421,43.035598,1335.419],[-1.553419,43.03555,1336.908],[-1.553418,43.035505,1338.835],[-1.5534,43.035458,1340.371],[-1.553389,43.035411,1341.491],[-1.553373,43.035363,1342.246],[-1.55336,43.035308,1342.946],[-1.553342,43.035261,1343.039],[-1.553316,43.035218,1343.062],[-1.553295,43.035169,1343.088],[-1.553261,43.035129,1343.152],[-1.553243,43.035083,1343.353],[-1.553201,43.03504,1343.408],[-1.55316,43.035001,1343.608],[-1.553105,43.034969,1343.951],[-1.55307,43.034927,1344.087],[-1.553076,43.034879,1343.987],[-1.553048,43.034837,1343.882],[-1.553015,43.034795,1343.722],[-1.552977,43.034749,1343.425],[-1.552948,43.034705,1343.168],[-1.552925,43.034659,1342.754],[-1.552906,43.034616,1342.543],[-1.55287,43.034571,1342.864],[-1.552832,43.034527,1342.71],[-1.552798,43.034488,1342.408],[-1.55275,43.034448,1342.05],[-1.552729,43.034397,1341.816],[-1.552706,43.034352,1341.156],[-1.55268,43.034307,1340.151],[-1.552622,43.034284,1338.851],[-1.552577,43.034244,1337.874],[-1.552566,43.034195,1337.147],[-1.552561,43.034144,1336.953],[-1.552554,43.034094,1337.175],[-1.55254,43.034049,1337.428],[-1.552547,43.033999,1338.12],[-1.552529,43.033951,1338.908],[-1.552502,43.033904,1340.013],[-1.552484,43.033854,1340.819],[-1.552463,43.033807,1341.299],[-1.552443,43.03376,1341.444],[-1.55241,43.03372,1341.264],[-1.552372,43.033682,1341.037],[-1.55235,43.033635,1340.51],[-1.552334,43.033588,1339.876],[-1.552306,43.033533,1338.824],[-1.55228,43.033486,1338.004],[-1.552245,43.033443,1337.614],[-1.552183,43.033428,1337.508],[-1.552116,43.033399,1338.048],[-1.552065,43.033369,1338.694],[-1.55204,43.033322,1339.154],[-1.552033,43.033267,1339.959],[-1.552046,43.033223,1340.459],[-1.552074,43.033177,1340.712],[-1.55209,43.03313,1341.065],[-1.552084,43.033083,1341.311],[-1.552114,43.03304,1341.958],[-1.552137,43.032997,1342.452],[-1.552161,43.032948,1342.517],[-1.552186,43.032897,1342.108],[-1.552246,43.032864,1341.811],[-1.552292,43.032822,1341.367],[-1.552292,43.032773,1341.227],[-1.552269,43.032727,1341.072],[-1.55227,43.032681,1340.982],[-1.552291,43.032633,1340.965],[-1.552302,43.032589,1341.038],[-1.552314,43.032539,1341.244],[-1.552317,43.03249,1341.824],[-1.552329,43.03244,1342.404],[-1.552346,43.032391,1343.414],[-1.552359,43.032342,1344.808],[-1.552382,43.032298,1345.618],[-1.552416,43.03225,1346.794],[-1.552442,43.032205,1347.744],[-1.552438,43.032156,1348.749],[-1.55246,43.032107,1349.759],[-1.552492,43.032064,1350.492],[-1.552533,43.032025,1350.815],[-1.552574,43.03199,1351.291],[-1.552602,43.031946,1351.419],[-1.552623,43.031891,1351.409],[-1.55267,43.031852,1351.519],[-1.552674,43.031801,1351.708],[-1.552666,43.03175,1351.777],[-1.552703,43.031706,1351.423],[-1.552736,43.031666,1350.843],[-1.552773,43.031621,1350.228],[-1.552806,43.031579,1349.788],[-1.552821,43.031531,1349.111],[-1.552844,43.031488,1348.614],[-1.552883,43.031436,1348.04],[-1.552903,43.031392,1347.277],[-1.552863,43.031355,1346.361],[-1.552886,43.031305,1345.727],[-1.552941,43.031259,1345.308],[-1.552986,43.031225,1344.983],[-1.553002,43.031173,1344.329],[-1.553049,43.031141,1343.699],[-1.553088,43.03109,1343.094],[-1.553106,43.031043,1342.934],[-1.553141,43.030995,1342.847],[-1.553167,43.030951,1342.45],[-1.553208,43.030897,1341.926],[-1.553217,43.030841,1341.917],[-1.553202,43.030788,1341.987],[-1.553227,43.030736,1342.115],[-1.553252,43.030686,1342.408],[-1.553302,43.030638,1342.677],[-1.553334,43.030596,1343.043],[-1.553377,43.030541,1343.563],[-1.553427,43.030501,1343.548],[-1.553481,43.030478,1343.568],[-1.553538,43.030431,1343.961],[-1.553572,43.030385,1344.214],[-1.553608,43.030343,1344.63],[-1.553627,43.030297,1344.921],[-1.553602,43.030252,1345.441],[-1.553581,43.030208,1345.905],[-1.553557,43.030166,1346.908],[-1.553579,43.030122,1347.958],[-1.553611,43.030078,1349.134],[-1.553631,43.030032,1350.364],[-1.55365,43.029988,1351.159],[-1.553688,43.029945,1351.649],[-1.553747,43.02992,1352.152],[-1.553807,43.029899,1352.655],[-1.553853,43.029867,1353.121],[-1.553917,43.029838,1353.548],[-1.553973,43.029813,1354.261],[-1.55403,43.029789,1355.017],[-1.55407,43.029748,1355.908],[-1.554106,43.029709,1356.73],[-1.554151,43.029675,1357.946],[-1.554203,43.029638,1359.556],[-1.554263,43.029619,1360.871],[-1.55432,43.029597,1362.071],[-1.554384,43.029572,1363.114],[-1.55444,43.029547,1363.977],[-1.5545,43.029536,1364.873],[-1.554572,43.029524,1365.524],[-1.554639,43.029512,1366.004],[-1.554701,43.0295,1366.614],[-1.554759,43.029481,1367.308],[-1.554822,43.029465,1367.978],[-1.554878,43.029443,1368.554],[-1.55493,43.029408,1369.054],[-1.554978,43.029379,1369.349],[-1.555036,43.029361,1369.679],[-1.555092,43.02934,1370.112],[-1.555143,43.029308,1370.665],[-1.555202,43.029287,1371.341],[-1.555254,43.02926,1372.082],[-1.55531,43.029239,1372.743],[-1.555367,43.029209,1373.517],[-1.555432,43.029172,1374.308],[-1.555478,43.029138,1375.164],[-1.555544,43.029124,1376.03],[-1.555596,43.029099,1376.88],[-1.555658,43.029093,1377.895],[-1.555728,43.029068,1378.965],[-1.555775,43.029039,1380.248],[-1.555841,43.029015,1381.711],[-1.555894,43.028991,1383.197],[-1.555956,43.028993,1384.773],[-1.555999,43.02896,1386.285],[-1.556056,43.028941,1388.213],[-1.55612,43.028944,1390.208],[-1.556188,43.028942,1392.193],[-1.55625,43.02893,1394.259],[-1.556246,43.028884,1397.059],[-1.556269,43.028841,1399.774],[-1.556322,43.028818,1402.134],[-1.556382,43.028831,1403.067],[-1.55639,43.028876,1402.15],[-1.556352,43.028914,1400.846],[-1.556405,43.028937,1399.669],[-1.556404,43.028988,1398.504],[-1.556454,43.029017,1398.024],[-1.55651,43.028991,1398.908],[-1.556563,43.028969,1401.182],[-1.55651,43.028992,1403.018],[-1.556546,43.028995,1409.568],[-1.556534,43.028949,1403.713],[-1.556522,43.028897,1404.153],[-1.556466,43.028874,1404.386],[-1.556426,43.028837,1405.339],[-1.556403,43.028793,1406.115],[-1.556347,43.028813,1404.826],[-1.556285,43.028798,1404.147],[-1.556254,43.028839,1403.911],[-1.556258,43.028884,1404.008],[-1.556245,43.028835,1403.698],[-1.556246,43.028891,1402.624],[-1.556189,43.02891,1401.784],[-1.556129,43.02892,1400.619],[-1.556094,43.028961,1399.199],[-1.556038,43.028985,1397.672],[-1.555977,43.028966,1396.165],[-1.555911,43.028991,1394.721],[-1.555867,43.029029,1393.392],[-1.555791,43.029029,1391.973],[-1.555726,43.029028,1389.92],[-1.555652,43.029032,1387.608],[-1.555596,43.02906,1385.375],[-1.555547,43.029093,1383.151],[-1.555498,43.029125,1380.991],[-1.555462,43.029165,1378.586],[-1.555409,43.029189,1376.396],[-1.555376,43.029227,1374.789],[-1.555312,43.029234,1373.392],[-1.555247,43.029228,1371.918],[-1.555182,43.029251,1370.194],[-1.555117,43.029269,1368.757],[-1.555058,43.02929,1367.522],[-1.555018,43.029332,1366.808],[-1.554965,43.029369,1366.675],[-1.554898,43.029403,1366.731],[-1.554843,43.029439,1367.091],[-1.554776,43.029441,1367.136],[-1.55471,43.029469,1367.426],[-1.554688,43.029518,1367.649],[-1.554655,43.029558,1367.522],[-1.554634,43.02961,1367.028],[-1.554611,43.029663,1366.631],[-1.554549,43.029686,1365.961],[-1.554502,43.029724,1365.307],[-1.554475,43.029771,1364.608],[-1.554438,43.029815,1364.089],[-1.554374,43.029841,1363.125],[-1.55429,43.029836,1362.195],[-1.554228,43.029825,1361.02],[-1.55416,43.029835,1359.81],[-1.554109,43.029861,1358.663],[-1.554061,43.02989,1357.646],[-1.553987,43.029886,1356.872],[-1.553916,43.029895,1355.839],[-1.553866,43.029922,1355.201],[-1.553812,43.029944,1354.721],[-1.553748,43.029967,1354.408],[-1.553673,43.029984,1354.329],[-1.553606,43.030006,1354.175],[-1.553547,43.03003,1353.985],[-1.553486,43.03005,1353.74],[-1.553469,43.030104,1353.38],[-1.553434,43.030147,1352.613],[-1.553383,43.030177,1352.196],[-1.55333,43.030219,1351.482],[-1.553272,43.030251,1350.819],[-1.553221,43.030288,1350.109],[-1.553174,43.03033,1349.219],[-1.553146,43.030372,1348.408],[-1.553108,43.030422,1347.937],[-1.553073,43.030462,1347.623],[-1.553036,43.030502,1347.533],[-1.553,43.030538,1347.468],[-1.552977,43.03059,1347.248],[-1.552959,43.030636,1346.951],[-1.552947,43.030684,1346.684],[-1.552949,43.030736,1346.31],[-1.552956,43.030782,1345.926],[-1.552931,43.030825,1345.747],[-1.552886,43.030857,1346.011],[-1.552855,43.030896,1346.508],[-1.552857,43.030946,1347.218],[-1.552851,43.030997,1347.914],[-1.552827,43.031045,1348.634],[-1.552791,43.031093,1349.669],[-1.552774,43.031139,1350.519],[-1.552785,43.031187,1351.442],[-1.552769,43.03124,1352.435],[-1.55274,43.031285,1353.151],[-1.552715,43.03133,1353.688],[-1.552706,43.031381,1354.024],[-1.552692,43.031426,1354.226],[-1.552667,43.031469,1354.308],[-1.552655,43.031517,1354.434],[-1.552646,43.031562,1354.42],[-1.552609,43.031605,1354.27],[-1.552599,43.031653,1354.065],[-1.552592,43.031701,1353.945],[-1.552582,43.031749,1353.658],[-1.55257,43.031797,1353.151],[-1.552539,43.031845,1352.627],[-1.552529,43.031893,1352.118],[-1.552501,43.031937,1351.698],[-1.552499,43.031986,1351.317],[-1.55248,43.032039,1351.008],[-1.55245,43.032089,1350.767],[-1.552421,43.03213,1349.643],[-1.552421,43.03213,1349.673],[-1.552392,43.032179,1348.888],[-1.552366,43.032231,1348.188],[-1.552346,43.032274,1347.761],[-1.55232,43.032321,1347.244],[-1.552291,43.032367,1346.72],[-1.552271,43.032412,1346.372],[-1.552299,43.032458,1345.713],[-1.552336,43.032501,1345.114],[-1.552323,43.032546,1344.108],[-1.552303,43.03259,1343.233],[-1.552296,43.032638,1342.379],[-1.552281,43.032687,1341.699],[-1.552276,43.032735,1341.134],[-1.552291,43.032783,1340.594],[-1.552274,43.032833,1339.877],[-1.552216,43.032858,1339.46],[-1.552173,43.032899,1339.296],[-1.552155,43.032943,1339.092],[-1.552145,43.032997,1338.973],[-1.552132,43.033046,1339.12],[-1.552111,43.033094,1339.508],[-1.552102,43.033147,1340.045],[-1.552087,43.033197,1340.321],[-1.552066,43.033239,1340.661],[-1.552057,43.033289,1340.886],[-1.552065,43.033336,1340.916],[-1.552077,43.033395,1341.169],[-1.552064,43.03344,1341.372],[-1.552064,43.03349,1341.618],[-1.552083,43.033533,1341.797],[-1.552106,43.033581,1341.723],[-1.552127,43.033625,1342.025],[-1.552141,43.033675,1342.408],[-1.552172,43.033723,1342.635],[-1.552196,43.033766,1342.741],[-1.552211,43.033811,1342.971],[-1.552238,43.033853,1343.266],[-1.552272,43.033892,1343.436],[-1.552315,43.033929,1343.799],[-1.552356,43.033968,1343.972],[-1.552378,43.034014,1344.058],[-1.552409,43.034064,1344.182],[-1.55244,43.034105,1344.043],[-1.552482,43.034148,1343.817],[-1.552517,43.034195,1343.408],[-1.552548,43.034245,1343.154],[-1.552595,43.034286,1343.08],[-1.552633,43.034323,1342.93],[-1.552671,43.034367,1342.875],[-1.552728,43.034395,1342.725],[-1.552773,43.034432,1342.478],[-1.552799,43.034476,1342.281],[-1.552834,43.034517,1341.917],[-1.552864,43.034564,1341.852],[-1.552909,43.034605,1341.953],[-1.55294,43.034657,1342.008],[-1.552967,43.034702,1342.108],[-1.552982,43.034748,1342.221],[-1.553014,43.034789,1342.217],[-1.553046,43.034833,1342.287],[-1.553083,43.034883,1342.422],[-1.553112,43.034927,1342.632],[-1.553145,43.034966,1342.865],[-1.553182,43.035005,1342.938],[-1.553206,43.03505,1343.234],[-1.553231,43.035094,1343.615],[-1.553254,43.035136,1343.865],[-1.553272,43.035185,1344.111],[-1.553296,43.035236,1344.308],[-1.553314,43.035279,1344.397],[-1.553338,43.035321,1344.253],[-1.553367,43.035364,1344.123],[-1.553396,43.035411,1343.988],[-1.553416,43.035467,1343.878],[-1.553441,43.035509,1343.731],[-1.553463,43.035556,1343.884],[-1.553452,43.035603,1343.97],[-1.553441,43.035649,1343.977],[-1.553438,43.035699,1343.661],[-1.553454,43.035748,1342.927],[-1.553456,43.035796,1341.708],[-1.553485,43.035845,1340.593],[-1.55352,43.035896,1339.019],[-1.553569,43.035937,1337.559],[-1.553605,43.035979,1335.854],[-1.553644,43.036019,1334.494],[-1.553649,43.036065,1332.937],[-1.553677,43.036108,1331.74],[-1.553701,43.036154,1330.556],[-1.553716,43.036206,1329.288],[-1.553751,43.036244,1328.024],[-1.553801,43.036287,1327.026],[-1.553847,43.036322,1326.308],[-1.553904,43.036352,1325.424],[-1.553959,43.036374,1324.57],[-1.55402,43.036389,1323.55],[-1.554076,43.036416,1322.235],[-1.554119,43.03645,1321.185],[-1.554161,43.036488,1319.768],[-1.554188,43.03653,1318.281],[-1.554208,43.036588,1316.567],[-1.554225,43.036637,1314.899],[-1.554236,43.036687,1313.307],[-1.554244,43.036735,1312.027],[-1.554251,43.036786,1311.008],[-1.554246,43.036841,1310.055],[-1.554237,43.036889,1308.621],[-1.554232,43.036938,1307.481],[-1.554237,43.036984,1306.266],[-1.554234,43.037035,1305.356],[-1.55423,43.037089,1304.399],[-1.554226,43.037136,1303.462],[-1.554227,43.037185,1302.638],[-1.554228,43.037233,1301.639],[-1.554239,43.03728,1300.601],[-1.55425,43.037329,1299.221],[-1.554263,43.03738,1297.608],[-1.554304,43.037421,1296.199],[-1.554305,43.037473,1294.895],[-1.554319,43.037533,1293.845],[-1.554334,43.037584,1292.79],[-1.554337,43.037636,1291.48],[-1.554333,43.037683,1290.183],[-1.554335,43.037734,1288.766],[-1.554343,43.037779,1287.682],[-1.554339,43.037827,1286.376],[-1.554332,43.037872,1285.19],[-1.55432,43.037921,1283.719],[-1.554307,43.037967,1282.408],[-1.554306,43.038021,1281.043],[-1.554314,43.038072,1279.569],[-1.554336,43.03812,1277.919],[-1.554348,43.038183,1276.494],[-1.554351,43.038238,1275.184],[-1.554338,43.038298,1273.777],[-1.554335,43.038358,1272.48],[-1.554327,43.038415,1271.076],[-1.554343,43.03846,1269.744],[-1.554362,43.038507,1268.505],[-1.554388,43.03855,1267.515],[-1.554402,43.0386,1266.408],[-1.554381,43.038645,1265.14],[-1.554376,43.038695,1263.836],[-1.554365,43.038742,1262.746],[-1.55436,43.038791,1261.611],[-1.554432,43.038817,1260.511],[-1.55448,43.038847,1259.624],[-1.554544,43.038885,1258.937],[-1.554604,43.038921,1257.933],[-1.554661,43.038947,1257.054],[-1.554743,43.038968,1255.856],[-1.554806,43.039003,1254.511],[-1.554869,43.039028,1253.008],[-1.554933,43.039061,1251.591],[-1.554987,43.039102,1250.227],[-1.555024,43.039141,1248.877],[-1.555038,43.039191,1247.722],[-1.555057,43.039248,1246.692],[-1.555079,43.0393,1245.875],[-1.555092,43.03935,1245.318],[-1.555108,43.039395,1244.964],[-1.555118,43.039445,1244.595],[-1.555118,43.039502,1244.049],[-1.555136,43.03956,1243.423],[-1.555142,43.039613,1242.808],[-1.555167,43.039655,1242.495],[-1.555208,43.039693,1242.051],[-1.555247,43.039729,1241.481],[-1.555275,43.039769,1240.996],[-1.555233,43.039811,1240.626],[-1.555167,43.039836,1240.469],[-1.555114,43.039867,1240.122],[-1.555063,43.039894,1239.568],[-1.555021,43.039942,1238.565],[-1.554992,43.039988,1237.468],[-1.554962,43.040032,1235.814],[-1.554962,43.040032,1235.808],[-1.554944,43.04008,1234.892],[-1.554935,43.040136,1233.868],[-1.554918,43.040183,1232.518],[-1.554895,43.040232,1231.043],[-1.55484,43.040261,1229.513],[-1.554789,43.040294,1228.286],[-1.554742,43.040329,1226.919],[-1.554713,43.040375,1225.555],[-1.554698,43.04042,1223.628],[-1.554685,43.040464,1222.289],[-1.554681,43.040512,1220.917],[-1.554657,43.040554,1219.308],[-1.554634,43.040599,1218.258],[-1.55463,43.040649,1217.154],[-1.554597,43.040688,1215.784],[-1.554588,43.040737,1215.399],[-1.554603,43.040782,1215.259],[-1.554602,43.04083,1215.282],[-1.554604,43.040879,1215.125],[-1.55462,43.040924,1214.891],[-1.554645,43.04097,1214.416],[-1.554667,43.041014,1214.076],[-1.554657,43.041066,1213.513],[-1.554635,43.041114,1212.908],[-1.55463,43.041162,1212.177],[-1.55464,43.041207,1211.093],[-1.554643,43.04126,1210.253],[-1.554652,43.041313,1209.668],[-1.554657,43.041366,1209.048],[-1.554642,43.041411,1208.291],[-1.554615,43.041459,1207.694],[-1.554587,43.041506,1206.77],[-1.554554,43.041551,1204.929],[-1.554539,43.041599,1203.2],[-1.554508,43.041639,1201.42],[-1.554484,43.041683,1200.408],[-1.554472,43.041733,1200.028],[-1.55446,43.041781,1199.694],[-1.554452,43.041831,1199.254],[-1.55444,43.041882,1198.649],[-1.554413,43.041923,1197.879],[-1.554373,43.04196,1196.622],[-1.554351,43.042002,1195.385],[-1.554313,43.042048,1194.131],[-1.554278,43.042087,1192.864],[-1.554233,43.042119,1191.206],[-1.5542,43.042158,1189.516],[-1.554186,43.042206,1187.808],[-1.554182,43.042255,1186.372],[-1.554193,43.042299,1184.788],[-1.554197,43.042345,1183.278],[-1.5542,43.042401,1181.723],[-1.5542,43.042447,1180.293],[-1.554195,43.042493,1178.736],[-1.554183,43.042538,1177.549],[-1.554179,43.042584,1176.665],[-1.554153,43.042629,1176.017],[-1.554143,43.042674,1175.587],[-1.554133,43.042719,1175.115],[-1.554113,43.042765,1174.508],[-1.554091,43.04281,1173.917],[-1.554075,43.042858,1173.133],[-1.554047,43.042905,1172.353],[-1.554028,43.042949,1171.518],[-1.553989,43.042991,1170.788],[-1.55397,43.043035,1169.811],[-1.553918,43.043066,1169.154],[-1.553866,43.043114,1168.31],[-1.553823,43.043147,1167.554],[-1.553772,43.043173,1166.756],[-1.553715,43.043209,1166.011],[-1.55364,43.043244,1165.508],[-1.553583,43.04328,1165.151],[-1.553538,43.043315,1164.747],[-1.553472,43.04333,1164.587],[-1.553445,43.043377,1164.262],[-1.55341,43.043417,1164.152],[-1.553387,43.043463,1163.335],[-1.553331,43.043491,1162.498],[-1.553283,43.043527,1162.064],[-1.553245,43.043571,1162.087],[-1.55321,43.043616,1161.842],[-1.553168,43.043656,1161.226],[-1.553125,43.043697,1160.208],[-1.553113,43.043743,1159.434],[-1.553087,43.043784,1159.12],[-1.553054,43.043828,1158.47],[-1.553021,43.043866,1157.375],[-1.553007,43.043913,1156.485],[-1.552981,43.043965,1155.568],[-1.552952,43.044008,1154.891],[-1.552934,43.044055,1154.367],[-1.552901,43.044104,1154.139],[-1.552841,43.044131,1154.301],[-1.552794,43.044164,1154.521],[-1.552754,43.044203,1154.608],[-1.552707,43.044241,1154.619],[-1.552669,43.04429,1154.925],[-1.552651,43.044333,1155.045],[-1.552624,43.044379,1154.78],[-1.552585,43.044421,1154.16],[-1.552541,43.044454,1153.683],[-1.552517,43.044498,1153.226],[-1.552517,43.044498,1153.292],[-1.5525,43.044553,1153.694],[-1.5525,43.044553,1153.657],[-1.552477,43.044595,1153.322],[-1.55245,43.044639,1152.508],[-1.552436,43.044689,1151.785],[-1.552396,43.044739,1150.711],[-1.552345,43.044772,1149.611],[-1.552345,43.044772,1149.676],[-1.5523,43.044803,1149.016],[-1.552239,43.044833,1148.469],[-1.552184,43.044859,1147.752],[-1.552126,43.044893,1147.268],[-1.552084,43.044926,1146.677],[-1.552026,43.044955,1146.061],[-1.551967,43.04494,1145.627],[-1.551894,43.044932,1146.408],[-1.551831,43.044931,1147.943],[-1.551771,43.044947,1150.049],[-1.551703,43.04496,1152.429],[-1.551626,43.044966,1154.564],[-1.551556,43.044971,1156.464],[-1.551486,43.044981,1158.437],[-1.551431,43.045001,1160.15],[-1.551374,43.045024,1161.996],[-1.55135,43.04508,1164.049],[-1.551372,43.045125,1166.102],[-1.551361,43.045171,1167.822],[-1.551332,43.045219,1169.608],[-1.551313,43.045262,1171.11],[-1.551312,43.04532,1172.396],[-1.551327,43.04537,1173.426],[-1.55136,43.045418,1174.441],[-1.551388,43.04546,1175.051],[-1.551425,43.045514,1175.474],[-1.551464,43.045553,1175.517],[-1.551505,43.045598,1175.773],[-1.551547,43.045636,1175.575],[-1.551591,43.045676,1175.028],[-1.551625,43.045721,1174.22],[-1.551678,43.045755,1173.308],[-1.551734,43.045787,1172.143],[-1.551787,43.045813,1170.629],[-1.551833,43.045843,1169.289],[-1.551888,43.04587,1168.184],[-1.551928,43.045907,1166.784],[-1.551979,43.045948,1165.547],[-1.552022,43.045981,1164.36],[-1.552061,43.046017,1163.286],[-1.55207,43.046065,1162.451],[-1.552029,43.046113,1161.801],[-1.551984,43.046149,1161.311],[-1.552004,43.046192,1160.208],[-1.551968,43.046242,1158.821],[-1.551944,43.046289,1157.977],[-1.551897,43.046258,1156.917],[-1.551839,43.046297,1156.492],[-1.551781,43.046321,1156.292],[-1.551731,43.046351,1156.225],[-1.551676,43.046388,1156.268],[-1.551622,43.04642,1156.514],[-1.551539,43.046423,1156.557],[-1.55148,43.046403,1156.4],[-1.551413,43.046399,1156.22],[-1.55137,43.046434,1156.508],[-1.551324,43.046465,1156.621],[-1.551278,43.046498,1156.827],[-1.551228,43.046537,1157.187],[-1.551187,43.046581,1157.592],[-1.55115,43.046626,1158.192],[-1.551151,43.046675,1158.685],[-1.551157,43.046726,1158.918],[-1.551177,43.046782,1158.894],[-1.551161,43.046831,1158.246],[-1.551127,43.046877,1157.488],[-1.5511,43.046921,1156.716],[-1.551059,43.046964,1156.108],[-1.551011,43.046995,1155.53],[-1.550965,43.047038,1154.966],[-1.550915,43.047065,1154.596],[-1.550848,43.047077,1153.971],[-1.550779,43.047108,1153.021],[-1.550734,43.047147,1151.874],[-1.550686,43.047186,1150.347],[-1.550654,43.047228,1148.983],[-1.550616,43.04728,1147.216],[-1.550592,43.047327,1145.676],[-1.550588,43.047378,1143.813],[-1.550589,43.047431,1141.708],[-1.550604,43.047475,1139.527],[-1.550615,43.047524,1137.643],[-1.550612,43.047571,1135.793],[-1.55061,43.047623,1134.198],[-1.550615,43.04767,1132.658],[-1.55063,43.047726,1131.291],[-1.550654,43.047769,1130.084],[-1.550672,43.047812,1129.03],[-1.550655,43.047864,1128.426],[-1.550626,43.047908,1128.447],[-1.550631,43.047956,1128.811],[-1.550639,43.048013,1129.308],[-1.550628,43.048068,1129.598],[-1.550608,43.048113,1129.624],[-1.550588,43.048156,1129.564],[-1.550559,43.048196,1129.499],[-1.550513,43.048228,1129.479],[-1.550464,43.048275,1128.912],[-1.550422,43.048309,1128.375],[-1.550378,43.048356,1127.491],[-1.550353,43.048398,1126.462],[-1.550329,43.048445,1125.283],[-1.550291,43.048488,1124.011],[-1.55024,43.048521,1122.908],[-1.550187,43.048549,1121.862],[-1.550129,43.048583,1120.828],[-1.550064,43.048625,1120.198],[-1.550013,43.048655,1119.473],[-1.549954,43.048685,1118.593],[-1.549916,43.048731,1117.356],[-1.549841,43.048754,1115.779],[-1.549782,43.048783,1114.675],[-1.549728,43.048826,1114.017],[-1.54968,43.048876,1113.587],[-1.549652,43.048934,1113.015],[-1.549639,43.048981,1112.508],[-1.549645,43.049027,1112.177],[-1.549632,43.049077,1111.633],[-1.549624,43.049128,1110.853],[-1.549625,43.04918,1109.778],[-1.54961,43.049233,1108.328],[-1.549602,43.049283,1107.191],[-1.549598,43.049329,1105.894],[-1.549586,43.049383,1104.64],[-1.549578,43.049429,1103.646],[-1.54957,43.049485,1102.788],[-1.549571,43.049537,1101.816],[-1.549587,43.049588,1101.208],[-1.54961,43.049639,1100.84],[-1.549619,43.049686,1100.346],[-1.54961,43.049735,1099.796],[-1.549613,43.049781,1099.161],[-1.549616,43.049828,1098.581],[-1.549627,43.049874,1097.844],[-1.549634,43.049926,1097.237],[-1.549638,43.049979,1096.753],[-1.549632,43.050027,1096.248],[-1.549632,43.050079,1095.761],[-1.549624,43.050129,1094.917],[-1.549605,43.050181,1094.108],[-1.549591,43.050231,1093.45],[-1.549576,43.050278,1092.856],[-1.549557,43.050337,1092.186],[-1.549556,43.05039,1091.321],[-1.54954,43.050434,1090.711],[-1.549506,43.050475,1090.084],[-1.54947,43.050513,1089.287],[-1.549451,43.050561,1088.363],[-1.549433,43.050615,1087.649],[-1.549415,43.050667,1087.102],[-1.549387,43.050714,1086.822],[-1.549383,43.050767,1086.308],[-1.54937,43.050814,1085.89],[-1.54938,43.050866,1085.416],[-1.549362,43.05091,1084.956],[-1.549354,43.050955,1084.471],[-1.549361,43.051,1084.121],[-1.549365,43.05105,1083.764],[-1.549365,43.051104,1083.167],[-1.549372,43.051149,1082.283],[-1.549311,43.051185,1081.163],[-1.549267,43.05123,1080.044],[-1.549229,43.051277,1078.918],[-1.549182,43.051309,1077.908],[-1.549134,43.051353,1076.952],[-1.549089,43.051392,1075.948],[-1.549033,43.051434,1074.858],[-1.548981,43.051465,1073.943],[-1.548923,43.051503,1072.483],[-1.548923,43.051503,1072.486],[-1.548871,43.051543,1071.829],[-1.548822,43.051579,1071.315],[-1.548772,43.05161,1070.866],[-1.548725,43.051649,1070.329],[-1.548675,43.051681,1069.621],[-1.548615,43.051713,1068.908],[-1.548571,43.051751,1068.052],[-1.548506,43.051778,1067.118],[-1.548432,43.051797,1066.468],[-1.548366,43.051794,1065.973],[-1.548304,43.051794,1065.583],[-1.548236,43.051757,1065.396],[-1.54817,43.051719,1065.139],[-1.548124,43.05168,1065.025],[-1.548072,43.051645,1064.912],[-1.547997,43.051605,1064.632],[-1.547955,43.051571,1064.305],[-1.547911,43.051524,1064.008],[-1.547858,43.051487,1063.627],[-1.547815,43.051453,1063.283],[-1.547772,43.051412,1062.793],[-1.547719,43.051369,1062.028],[-1.547662,43.051323,1061.128],[-1.547617,43.051288,1060.181],[-1.547572,43.051253,1059.184],[-1.547527,43.051214,1057.95],[-1.547485,43.051178,1057.127],[-1.547439,43.051147,1056.068],[-1.547376,43.051103,1055.214],[-1.547325,43.051072,1054.508],[-1.547267,43.05104,1053.938],[-1.547197,43.051001,1053.474],[-1.547136,43.05095,1053.054],[-1.547083,43.050899,1052.369],[-1.547038,43.050847,1051.779],[-1.546988,43.050793,1050.822],[-1.546936,43.050743,1049.855],[-1.546893,43.050696,1049.231],[-1.546856,43.050659,1048.347],[-1.546817,43.050614,1047.429],[-1.546783,43.050571,1046.421],[-1.546736,43.050525,1045.508],[-1.546689,43.050483,1044.14],[-1.546624,43.050431,1043.076],[-1.54657,43.050408,1042.476],[-1.546508,43.050387,1041.581],[-1.546424,43.050367,1040.921],[-1.546344,43.050352,1040.344],[-1.546267,43.050338,1039.447],[-1.546201,43.050334,1038.953],[-1.546124,43.050335,1038.397],[-1.54606,43.050332,1037.723],[-1.545988,43.050332,1037.525],[-1.545904,43.050332,1037.208],[-1.54584,43.05033,1036.965],[-1.545759,43.050321,1036.411],[-1.545693,43.050302,1035.911],[-1.54562,43.050273,1035.486],[-1.545551,43.050244,1034.846],[-1.5455,43.050216,1034.489],[-1.545444,43.050181,1034.192],[-1.545375,43.05014,1034.038],[-1.545317,43.050103,1034.059],[-1.545248,43.050058,1034.103],[-1.545178,43.050019,1033.923],[-1.545121,43.049982,1034.008],[-1.545063,43.049939,1034.261],[-1.544998,43.049906,1034.317],[-1.544936,43.049872,1034.117],[-1.544872,43.049842,1033.642],[-1.544826,43.049812,1033.112],[-1.544773,43.049779,1032.415],[-1.544698,43.049743,1031.848],[-1.544612,43.04972,1031.424],[-1.544531,43.049699,1030.567],[-1.544476,43.049674,1029.681],[-1.544421,43.04963,1028.619],[-1.544386,43.049589,1027.608],[-1.544352,43.049547,1026.872],[-1.54432,43.049494,1025.968],[-1.544279,43.04945,1025.128],[-1.544238,43.049405,1024.523],[-1.544184,43.049354,1023.793],[-1.544122,43.049312,1022.976],[-1.544061,43.049283,1022.559],[-1.54398,43.049245,1021.965],[-1.543915,43.049209,1021.334],[-1.543854,43.049184,1020.755],[-1.543782,43.049165,1020.01],[-1.543722,43.04915,1019.508],[-1.543661,43.049138,1019.269],[-1.543596,43.049129,1019.045],[-1.543517,43.049121,1019.125],[-1.543448,43.049101,1019.49],[-1.543385,43.04909,1019.75],[-1.543316,43.049092,1019.833],[-1.543237,43.049097,1019.666],[-1.543173,43.049093,1018.912],[-1.5431,43.049096,1018.115],[-1.543033,43.049092,1017.365],[-1.542966,43.049091,1016.411],[-1.542901,43.049102,1015.508],[-1.542835,43.049104,1014.697],[-1.542772,43.049118,1014.113],[-1.542697,43.049139,1013.733],[-1.542621,43.049152,1013.638],[-1.542554,43.049176,1013.768],[-1.542482,43.049189,1013.431],[-1.542426,43.049215,1012.564],[-1.542372,43.049256,1011.34],[-1.542327,43.049298,1009.841],[-1.542269,43.049323,1008.481],[-1.542211,43.049349,1007.109],[-1.54213,43.049391,1005.908],[-1.542072,43.049416,1005.03],[-1.542002,43.049449,1004.436],[-1.54192,43.049483,1003.966],[-1.541828,43.04952,1003.431],[-1.541731,43.04955,1002.921],[-1.541659,43.049564,1002.444],[-1.541557,43.049592,1001.827],[-1.541462,43.049612,1001.243],[-1.541379,43.049626,1000.516],[-1.541286,43.049643,999.976],[-1.541218,43.049655,999.513],[-1.541138,43.049676,999.008],[-1.541064,43.049699,998.777],[-1.540992,43.049719,998.543],[-1.540928,43.049735,998.393],[-1.540853,43.049753,998.158],[-1.540799,43.049775,997.898],[-1.540729,43.0498,997.641],[-1.540671,43.049819,997.424],[-1.5406,43.049833,997.26],[-1.540539,43.049847,997.041],[-1.540462,43.049861,996.781],[-1.540403,43.049881,996.509],[-1.540331,43.049903,996.308],[-1.540269,43.04992,996.02],[-1.540198,43.049934,995.726],[-1.540138,43.04995,995.316],[-1.540068,43.049971,994.871],[-1.539998,43.049988,994.231],[-1.539938,43.050004,993.234],[-1.539887,43.05004,991.327],[-1.53983,43.050067,989.583],[-1.539767,43.05009,988.042],[-1.539704,43.050114,986.522],[-1.53963,43.050141,985.314],[-1.539571,43.05016,984.008],[-1.539515,43.05019,983.28],[-1.539465,43.050219,982.446],[-1.539428,43.050268,981.546],[-1.539375,43.050308,980.821],[-1.539309,43.05033,980.271],[-1.539235,43.050336,979.774],[-1.539158,43.050316,979.647],[-1.539117,43.050278,979.393],[-1.539117,43.050278,979.339],[-1.539082,43.050233,979.301]]}}]}