{"type":"FeatureCollection","features":[{"type":"Feature","properties":{"ruta_id":"62416560","nombre":"⛰️ MENDITXURI (1194 m) desde RONCESVALLES - ORREAGA","blog_url":"https://www.rutasporelmonte.com/menditxuri-1194-m-desde-roncesvalles-orreaga/"},"geometry":{"type":"LineString","coordinates":[[-1.319204,43.009019,943.342],[-1.319376,43.009029,947.022],[-1.319405,43.00907,947.814],[-1.319405,43.00907,947.808],[-1.319327,43.009094,946.02],[-1.319294,43.009136,945.246],[-1.319209,43.009203,943.238],[-1.319133,43.009147,941.815],[-1.319107,43.009195,941.65],[-1.319132,43.009306,942.239],[-1.319196,43.009375,943.52],[-1.319259,43.009378,945.174],[-1.319327,43.009364,946.814],[-1.31937,43.009401,948.054],[-1.319434,43.009377,949.509],[-1.319456,43.009331,949.608],[-1.31946,43.009286,949.517],[-1.31945,43.009237,949.383],[-1.319444,43.00919,949.125],[-1.319443,43.009143,948.992],[-1.31944,43.009092,948.697],[-1.31948,43.009057,948.946],[-1.319544,43.009052,949.337],[-1.319578,43.00901,949.491],[-1.3196,43.008965,949.441],[-1.319637,43.008927,949.581],[-1.319685,43.008895,949.809],[-1.319745,43.008856,949.808],[-1.319816,43.008816,949.71],[-1.319877,43.008792,949.776],[-1.319874,43.008742,949.278],[-1.319741,43.008792,949.315],[-1.319694,43.008829,949.46],[-1.319656,43.00878,948.899],[-1.31967,43.008735,948.64],[-1.31971,43.008687,948.534],[-1.319736,43.008646,948.328],[-1.319755,43.008601,948.089],[-1.319768,43.008552,947.817],[-1.320058,43.008574,947.508],[-1.320132,43.008581,947.258],[-1.320205,43.008584,946.994],[-1.320261,43.008607,947.026],[-1.320329,43.008605,946.543],[-1.320362,43.008654,946.998],[-1.320407,43.008687,947.077],[-1.320465,43.008715,947.038],[-1.320533,43.008746,947.152],[-1.320591,43.008774,947.281],[-1.320646,43.008795,947.261],[-1.320699,43.008819,947.317],[-1.320768,43.008843,947.408],[-1.320845,43.008854,947.434],[-1.320907,43.008868,948.15],[-1.320973,43.008859,948.432],[-1.321031,43.008836,948.219],[-1.321084,43.008812,947.934],[-1.321149,43.008791,947.643],[-1.321149,43.008791,947.614],[-1.321209,43.00878,947.538],[-1.321267,43.008805,948.312],[-1.321342,43.008809,948.632],[-1.321405,43.008784,948.005],[-1.321473,43.008763,947.308],[-1.321537,43.008754,947.147],[-1.3216,43.008746,946.943],[-1.321662,43.008736,946.745],[-1.321729,43.00876,947.472],[-1.321793,43.008747,947.467],[-1.321857,43.00873,947.436],[-1.321926,43.008705,947.377],[-1.321978,43.008674,947.181],[-1.322035,43.008655,947.256],[-1.322102,43.008636,947.459],[-1.322102,43.008636,947.414],[-1.322166,43.008614,947.608],[-1.322166,43.008614,947.641],[-1.322226,43.00859,947.887],[-1.32228,43.008562,947.959],[-1.322338,43.008529,948.176],[-1.322388,43.008497,948.211],[-1.322428,43.008459,948.22],[-1.322479,43.008424,948.551],[-1.322479,43.008424,948.575],[-1.322526,43.008382,948.748],[-1.322572,43.008344,949.161],[-1.322614,43.008306,949.317],[-1.322669,43.008278,949.808],[-1.322726,43.008241,950.39],[-1.322775,43.008205,950.676],[-1.322816,43.008171,950.868],[-1.322869,43.00813,951.145],[-1.32293,43.008098,951.69],[-1.322976,43.008066,952.069],[-1.323023,43.008028,952.47],[-1.323054,43.007983,952.734],[-1.323111,43.007943,953.198],[-1.323174,43.007917,953.615],[-1.323242,43.007913,954.226],[-1.323301,43.00793,954.808],[-1.323374,43.007925,954.885],[-1.323411,43.007972,954.871],[-1.323468,43.007995,954.683],[-1.323528,43.008017,954.32],[-1.323572,43.008052,954.395],[-1.323619,43.00809,954.174],[-1.32366,43.008126,953.695],[-1.323702,43.008165,953.289],[-1.323741,43.008204,952.769],[-1.323769,43.008252,952.604],[-1.323807,43.008302,952.224],[-1.323842,43.008341,951.908],[-1.323877,43.008382,951.452],[-1.323903,43.008437,951.218],[-1.323936,43.008491,951.03],[-1.323966,43.008531,950.897],[-1.324002,43.00857,950.652],[-1.324047,43.008607,950.371],[-1.324097,43.008649,950.272],[-1.324143,43.008687,950.166],[-1.324185,43.008728,950.255],[-1.324222,43.008766,950.507],[-1.324262,43.008805,950.817],[-1.32431,43.008847,951.008],[-1.324361,43.008888,951.341],[-1.324424,43.008907,951.457],[-1.324478,43.008951,952.029],[-1.324517,43.008993,952.556],[-1.324569,43.009018,952.771],[-1.324636,43.009038,952.66],[-1.324698,43.009061,952.671],[-1.324757,43.009084,953.055],[-1.324824,43.009098,953.696],[-1.324887,43.009104,954.131],[-1.324927,43.009142,954.624],[-1.324963,43.009102,954.508],[-1.325014,43.009064,954.815],[-1.325049,43.009015,955.061],[-1.325088,43.008975,955.033],[-1.325127,43.008934,954.96],[-1.325174,43.008903,954.845],[-1.325225,43.008936,955.544],[-1.325212,43.008985,956.225],[-1.325204,43.009035,956.829],[-1.325222,43.009086,957.846],[-1.325249,43.009128,958.888],[-1.325292,43.009165,960.116],[-1.325301,43.009213,960.408],[-1.32531,43.009264,960.71],[-1.325333,43.009309,961.376],[-1.325394,43.009308,962.238],[-1.325423,43.009266,962.275],[-1.325474,43.009232,962.38],[-1.325524,43.009204,962.449],[-1.325579,43.009175,962.46],[-1.325639,43.009145,962.474],[-1.325689,43.009112,962.254],[-1.325743,43.00908,961.956],[-1.325805,43.009047,961.711],[-1.325859,43.009014,961.408],[-1.325905,43.008976,961.081],[-1.325932,43.008931,960.177],[-1.325975,43.008892,959.689],[-1.326041,43.008859,959.476],[-1.32612,43.008863,960.381],[-1.326192,43.008853,960.39],[-1.326264,43.008846,960.351],[-1.326325,43.008843,960.415],[-1.326392,43.008842,960.714],[-1.326456,43.008844,961.454],[-1.326521,43.008847,962.109],[-1.326581,43.008825,961.908],[-1.326663,43.008816,962.357],[-1.326754,43.008817,961.913],[-1.326819,43.008814,961.525],[-1.326876,43.008797,960.752],[-1.326937,43.008777,959.847],[-1.327007,43.008752,959.556],[-1.327079,43.008743,959.857],[-1.327139,43.008731,959.951],[-1.327209,43.008714,960.188],[-1.327264,43.008689,960.324],[-1.327321,43.008664,960.626],[-1.327366,43.008626,960.408],[-1.32741,43.008587,960.274],[-1.327464,43.008553,960.42],[-1.32754,43.008554,961.352],[-1.327609,43.00854,961.769],[-1.327664,43.008517,961.774],[-1.327713,43.008489,961.433],[-1.327755,43.008455,960.964],[-1.327793,43.008409,960.098],[-1.327858,43.008385,959.917],[-1.327927,43.008371,960.087],[-1.327996,43.008342,959.815],[-1.328041,43.008309,959.508],[-1.328107,43.008266,959.777],[-1.328159,43.008217,959.643],[-1.328201,43.008165,959.395],[-1.328222,43.008119,958.742],[-1.328265,43.008076,958.487],[-1.328307,43.008035,958.366],[-1.32836,43.007993,958.177],[-1.328418,43.007972,957.751],[-1.32848,43.007968,957.653],[-1.328543,43.00795,957.204],[-1.328599,43.007922,956.614],[-1.328665,43.007909,956.608],[-1.328726,43.00792,957.241],[-1.328784,43.007889,956.977],[-1.328826,43.007854,956.459],[-1.328854,43.007803,955.466],[-1.328854,43.007756,954.551],[-1.328853,43.007708,953.83],[-1.328849,43.00766,953.011],[-1.328837,43.007601,952.035],[-1.328824,43.007547,951.172],[-1.32882,43.0075,950.313],[-1.328816,43.007454,949.514],[-1.328817,43.007406,948.908],[-1.328815,43.007354,948.183],[-1.328825,43.007296,947.469],[-1.328831,43.007248,946.791],[-1.328833,43.007203,946.328],[-1.328839,43.007152,946.083],[-1.328857,43.007099,945.892],[-1.328881,43.007057,945.733],[-1.328954,43.007033,945.247],[-1.329011,43.007015,944.765],[-1.329076,43.006998,944.268],[-1.329148,43.00699,943.614],[-1.329209,43.006985,943.208],[-1.329274,43.006975,942.692],[-1.329345,43.006966,942.068],[-1.32941,43.006975,941.79],[-1.329476,43.006977,941.797],[-1.329535,43.006959,941.962],[-1.329607,43.006948,942.211],[-1.329675,43.006938,942.692],[-1.329742,43.006927,942.726],[-1.329807,43.00692,942.682],[-1.329882,43.006915,942.643],[-1.329944,43.006911,942.517],[-1.330008,43.0069,942.308],[-1.330078,43.006908,941.624],[-1.330148,43.006915,941.04],[-1.330209,43.006933,940.672],[-1.330268,43.006946,940.179],[-1.330333,43.006963,940.634],[-1.330401,43.006965,940.833],[-1.330469,43.00695,940.884],[-1.330531,43.006942,940.938],[-1.330614,43.006935,940.829],[-1.330677,43.00694,940.9],[-1.330746,43.006941,940.92],[-1.330831,43.006938,940.908],[-1.330903,43.006935,939.948],[-1.330973,43.006954,939.114],[-1.331035,43.006977,938.656],[-1.331101,43.007011,938.383],[-1.331161,43.007037,938.538],[-1.331239,43.007069,938.867],[-1.331316,43.00709,938.968],[-1.331375,43.007102,938.922],[-1.331412,43.007063,938.389],[-1.331465,43.007025,938.006],[-1.331535,43.00701,938.226],[-1.3316,43.006994,938.408],[-1.331665,43.006969,938.444],[-1.331739,43.006953,937.99],[-1.331801,43.006935,937.482],[-1.331874,43.006921,936.929],[-1.331937,43.006925,936.744],[-1.331977,43.006961,937.113],[-1.33203,43.006989,937.124],[-1.332106,43.006998,936.758],[-1.332167,43.007021,936.635],[-1.33224,43.007043,936.686],[-1.332297,43.00706,937.514],[-1.332367,43.007065,938.508],[-1.332433,43.007063,939.249],[-1.332511,43.007061,940.015],[-1.332582,43.007046,940.377],[-1.332656,43.00703,940.754],[-1.332723,43.007018,941.019],[-1.33279,43.007008,941.428],[-1.332853,43.007,941.179],[-1.332914,43.00699,940.963],[-1.332983,43.006992,940.921],[-1.333045,43.006995,940.941],[-1.333109,43.006998,940.605],[-1.33318,43.006985,939.808],[-1.333245,43.006985,939.418],[-1.333326,43.006986,938.844],[-1.333406,43.006988,938.546],[-1.33348,43.00699,938.393],[-1.333544,43.007,938.288],[-1.333613,43.00699,937.857],[-1.333682,43.006984,937.258],[-1.333749,43.006997,937.092],[-1.333812,43.007012,936.859],[-1.333884,43.007028,936.503],[-1.333953,43.007048,936.923],[-1.334024,43.007072,937.308],[-1.334079,43.0071,937.891],[-1.334152,43.007096,937.747],[-1.334213,43.007107,937.779],[-1.334288,43.007133,937.796],[-1.334333,43.007169,938.011],[-1.334381,43.007199,938.15],[-1.334436,43.007238,938.381],[-1.334502,43.007254,938.045],[-1.334567,43.007277,937.758],[-1.334641,43.007294,937.452],[-1.334703,43.007308,937.017],[-1.334768,43.007322,936.808],[-1.334831,43.007324,936.421],[-1.334905,43.007334,936.117],[-1.334971,43.007344,935.819],[-1.335043,43.007347,935.966],[-1.335119,43.007344,936.261],[-1.335199,43.007331,936.34],[-1.335256,43.007313,936.251],[-1.335305,43.007275,935.555],[-1.335317,43.007226,934.433],[-1.335357,43.007186,934.223],[-1.335396,43.007148,934.015],[-1.335425,43.007106,933.808],[-1.335459,43.007063,933.669],[-1.335489,43.00702,933.335],[-1.335538,43.00699,933.457],[-1.33559,43.006965,933.144],[-1.335564,43.006912,932.789],[-1.335594,43.006853,932.238],[-1.335617,43.006808,931.989],[-1.335677,43.006786,931.723],[-1.335737,43.00677,931.596],[-1.335776,43.006735,931.331],[-1.335815,43.006689,931.124],[-1.335857,43.006653,930.708],[-1.335916,43.006632,930.075],[-1.335963,43.00659,929.221],[-1.335985,43.006543,928.613],[-1.335995,43.00649,927.94],[-1.335989,43.006443,927.585],[-1.335986,43.006394,927.024],[-1.336026,43.006359,926.225],[-1.336055,43.00631,925.429],[-1.336102,43.00628,924.982],[-1.336137,43.00624,924.243],[-1.336172,43.00619,923.417],[-1.336208,43.006145,922.708],[-1.336244,43.006097,921.944],[-1.336282,43.006056,921.18],[-1.336315,43.00601,920.372],[-1.336334,43.005965,919.719],[-1.336378,43.005921,919.064],[-1.33642,43.005879,918.393],[-1.336446,43.005827,917.774],[-1.336477,43.005781,917.378],[-1.33651,43.005733,916.892],[-1.336551,43.005684,916.373],[-1.336585,43.005639,915.92],[-1.336602,43.005588,915.508],[-1.336622,43.005544,915.095],[-1.336658,43.005499,914.461],[-1.336703,43.005466,913.893],[-1.336768,43.005445,913.21],[-1.336815,43.005408,912.685],[-1.336865,43.005368,912.074],[-1.336892,43.005321,911.515],[-1.336927,43.005278,911.159],[-1.336955,43.00523,910.858],[-1.336987,43.00518,910.652],[-1.337014,43.005139,910.517],[-1.337061,43.0051,910.408],[-1.337107,43.005058,910.221],[-1.337148,43.005016,910.197],[-1.337176,43.004974,910.029],[-1.337199,43.004932,910.036],[-1.337253,43.004892,909.951],[-1.337301,43.004856,909.78],[-1.337353,43.004819,909.581],[-1.337394,43.004774,909.415],[-1.337412,43.004726,909.324],[-1.337432,43.004672,909.104],[-1.337461,43.004618,908.814],[-1.337508,43.004575,908.408],[-1.337487,43.004533,908.498],[-1.337507,43.00449,908.184],[-1.337552,43.004454,907.866],[-1.337585,43.004405,907.673],[-1.337609,43.00436,907.398],[-1.337645,43.004305,907.017],[-1.337674,43.004253,906.798],[-1.33771,43.004204,906.472],[-1.337749,43.004168,906.132],[-1.337805,43.004144,905.792],[-1.337844,43.004101,905.311],[-1.337908,43.004076,905.008],[-1.33795,43.004039,904.719],[-1.337993,43.004,904.525],[-1.338035,43.003963,904.357],[-1.338075,43.003921,904.184],[-1.338053,43.003876,904.049],[-1.337999,43.003848,903.918],[-1.338027,43.003791,903.639],[-1.338049,43.003746,903.523],[-1.338077,43.003705,903.398],[-1.338143,43.003674,903.215],[-1.338208,43.003646,903.126],[-1.338256,43.003613,903.008],[-1.338258,43.003565,903.025],[-1.338305,43.003532,903.021],[-1.338369,43.003521,903.023],[-1.338411,43.003478,902.91],[-1.338439,43.003434,902.875],[-1.33847,43.00339,902.664],[-1.338504,43.003351,902.495],[-1.338546,43.003311,902.289],[-1.338585,43.003262,902.133],[-1.338646,43.003254,901.523],[-1.338664,43.003299,901.315],[-1.338679,43.003348,901.108],[-1.338685,43.003402,901.289],[-1.338686,43.003447,901.465],[-1.338686,43.003447,901.477],[-1.338705,43.003494,901.434],[-1.338705,43.00354,901.649],[-1.33869,43.003592,902.148],[-1.338676,43.003639,902.319],[-1.338675,43.003695,902.283],[-1.338671,43.003758,902.232],[-1.338654,43.003805,902.492],[-1.33865,43.003855,902.511],[-1.338636,43.0039,902.608],[-1.338637,43.003949,902.449],[-1.33863,43.003998,902.445],[-1.338604,43.004045,902.517],[-1.338577,43.004097,902.584],[-1.33856,43.004154,902.449],[-1.338545,43.004203,902.238],[-1.33852,43.004254,902.189],[-1.338488,43.004311,902.153],[-1.338499,43.004365,901.784],[-1.338522,43.004412,901.207],[-1.338524,43.004459,901.017],[-1.338528,43.004505,901.108],[-1.338538,43.004551,901.264],[-1.338547,43.004599,901.25],[-1.338576,43.004649,901.182],[-1.338585,43.004695,901.269],[-1.33861,43.004737,901.094],[-1.338628,43.004783,901.033],[-1.338657,43.004831,900.924],[-1.338682,43.004879,900.938],[-1.33872,43.004927,900.982],[-1.338742,43.004972,901.043],[-1.338758,43.005027,901.217],[-1.338797,43.005083,901.508],[-1.338851,43.005119,901.524],[-1.3389,43.005152,901.59],[-1.338951,43.005188,901.512],[-1.338984,43.005233,901.559],[-1.339018,43.005283,901.644],[-1.33905,43.005327,901.813],[-1.33905,43.005327,901.874],[-1.339069,43.005372,902.038],[-1.339089,43.00542,902.214],[-1.339105,43.005465,902.354],[-1.339119,43.005518,902.509],[-1.339152,43.005573,902.408],[-1.339191,43.005609,902.537],[-1.339235,43.005645,902.763],[-1.339263,43.00569,902.955],[-1.339287,43.005739,903.112],[-1.339302,43.005793,903.357],[-1.339324,43.005836,903.396],[-1.339334,43.005884,903.697],[-1.339325,43.00593,904.081],[-1.339313,43.005976,904.429],[-1.339339,43.006021,904.5],[-1.339402,43.006037,903.92],[-1.339425,43.006084,904.008],[-1.339454,43.006126,904.088],[-1.3395,43.006172,904.164],[-1.339515,43.006217,904.246],[-1.339555,43.006253,904.383],[-1.339607,43.006291,904.478],[-1.339634,43.006338,904.797],[-1.339663,43.006382,905.028],[-1.339696,43.006424,905.452],[-1.339744,43.006468,905.812],[-1.33979,43.006501,905.932],[-1.339845,43.006531,905.905],[-1.339893,43.006562,905.908],[-1.33994,43.006606,905.957],[-1.339995,43.006637,905.893],[-1.340041,43.006675,905.925],[-1.340093,43.006713,906.192],[-1.340126,43.006757,906.457],[-1.340158,43.006806,906.776],[-1.340197,43.006854,906.847],[-1.340215,43.0069,907.171],[-1.340252,43.006948,907.238],[-1.340286,43.006994,907.17],[-1.340314,43.007046,907.217],[-1.340351,43.007088,907.308],[-1.340391,43.007125,907.279],[-1.34042,43.007166,907.395],[-1.34044,43.007218,907.497],[-1.340464,43.007262,907.724],[-1.340515,43.007304,908.069],[-1.340576,43.007327,908.198],[-1.340622,43.007361,908.489],[-1.340658,43.007401,908.773],[-1.340696,43.007438,908.934],[-1.340756,43.007463,909.055],[-1.340795,43.007502,909.21],[-1.340836,43.007541,909.308],[-1.34089,43.007571,909.349],[-1.340939,43.007606,909.425],[-1.340989,43.00764,909.447],[-1.341023,43.007685,909.614],[-1.341035,43.00773,909.939],[-1.341062,43.007774,910.138],[-1.341117,43.007797,910.129],[-1.341172,43.007821,909.753],[-1.341206,43.00787,909.636],[-1.341217,43.007915,909.817],[-1.341222,43.007962,910.118],[-1.341232,43.008019,910.408],[-1.341246,43.008066,910.789],[-1.341284,43.00811,910.795],[-1.341318,43.008152,910.887],[-1.341358,43.008195,910.814],[-1.341412,43.008228,910.659],[-1.341446,43.008274,910.828],[-1.341487,43.00831,910.759],[-1.341519,43.008362,910.823],[-1.341552,43.008409,910.844],[-1.341575,43.008451,910.805],[-1.341588,43.008499,911.015],[-1.341613,43.008541,911.108],[-1.341623,43.008588,911.36],[-1.341671,43.008618,911.096],[-1.341721,43.008651,910.788],[-1.341726,43.008707,911.015],[-1.341711,43.008754,911.57],[-1.341723,43.008802,911.819],[-1.34175,43.008845,911.83],[-1.34178,43.008886,911.894],[-1.341817,43.008936,911.784],[-1.341859,43.008979,911.607],[-1.341892,43.009024,911.517],[-1.341913,43.00907,911.608],[-1.341946,43.00911,911.624],[-1.341995,43.00914,911.47],[-1.342052,43.009163,911.222],[-1.342119,43.009177,910.889],[-1.342164,43.009212,910.994],[-1.342203,43.009247,911.043],[-1.342233,43.009289,911.324],[-1.342275,43.009328,911.498],[-1.342324,43.00937,911.628],[-1.34238,43.009405,911.589],[-1.342422,43.009444,911.617],[-1.342451,43.009488,911.708],[-1.342463,43.009534,911.918],[-1.342477,43.009589,912.284],[-1.342491,43.009642,912.546],[-1.342543,43.009689,912.693],[-1.342587,43.009722,912.758],[-1.34264,43.009756,912.747],[-1.342697,43.009776,912.698],[-1.342747,43.00981,912.592],[-1.342795,43.009844,912.548],[-1.342837,43.009882,912.761],[-1.342871,43.009926,913.017],[-1.34291,43.009971,913.308],[-1.342956,43.01002,913.82],[-1.342981,43.010066,914.116],[-1.343016,43.010106,914.318],[-1.343071,43.010141,914.545],[-1.3431,43.010187,914.54],[-1.34313,43.010227,914.529],[-1.343179,43.010269,914.58],[-1.343223,43.010306,914.774],[-1.343263,43.010341,915.044],[-1.343291,43.010387,915.405],[-1.34333,43.010426,915.615],[-1.343382,43.010461,915.708],[-1.343443,43.010484,915.59],[-1.343484,43.01052,915.686],[-1.343517,43.010563,915.848],[-1.343561,43.010601,915.965],[-1.343606,43.010641,916.02],[-1.343656,43.010683,915.929],[-1.34368,43.010738,916.16],[-1.343712,43.010783,916.174],[-1.343759,43.010822,915.831],[-1.343801,43.010867,915.761],[-1.343842,43.010902,915.507],[-1.343879,43.010952,915.408],[-1.343928,43.010986,915.429],[-1.34398,43.01102,915.595],[-1.344022,43.011057,915.637],[-1.344064,43.011098,915.674],[-1.3441,43.011148,915.969],[-1.344137,43.011191,916.148],[-1.344179,43.011226,916.229],[-1.344214,43.011268,916.373],[-1.344254,43.011312,916.417],[-1.344294,43.011347,916.387],[-1.344344,43.011376,916.015],[-1.344367,43.011424,916.308],[-1.344392,43.011478,916.787],[-1.344415,43.01152,916.913],[-1.344461,43.011558,916.725],[-1.344509,43.011598,916.792],[-1.344548,43.01164,916.767],[-1.344581,43.011685,916.936],[-1.34462,43.011726,917.227],[-1.344663,43.011759,917.281],[-1.344717,43.011787,916.814],[-1.344769,43.011813,916.854],[-1.34482,43.011848,916.909],[-1.344865,43.01188,916.908],[-1.344892,43.011921,917.047],[-1.344882,43.011965,917.433],[-1.344937,43.011986,916.925],[-1.345004,43.011981,916.162],[-1.345063,43.011994,916.267],[-1.345117,43.01202,916.386],[-1.345183,43.012039,916.357],[-1.345234,43.012006,916.211],[-1.345285,43.012031,916.348],[-1.345325,43.012071,916.561],[-1.345394,43.012066,916.417],[-1.34544,43.012034,916.308],[-1.345437,43.012079,916.58],[-1.345498,43.012061,916.476],[-1.345554,43.012026,916.398],[-1.345616,43.01199,916.285],[-1.345664,43.011957,916.01],[-1.345648,43.012001,916.289],[-1.345631,43.011953,916.04],[-1.345626,43.011906,916.064],[-1.345669,43.011868,916.149],[-1.345733,43.011867,916.202],[-1.345796,43.011871,916.222],[-1.345862,43.011857,916.508],[-1.345862,43.011857,916.55],[-1.345918,43.011823,917.036],[-1.345918,43.011823,917.018],[-1.345927,43.011778,917.345],[-1.345979,43.011749,918.04],[-1.345987,43.011696,918.469],[-1.346021,43.011654,919.16],[-1.346029,43.011606,919.734],[-1.346042,43.011555,920.355],[-1.34608,43.011518,920.907],[-1.346116,43.011481,921.417],[-1.346156,43.011436,921.908],[-1.346196,43.011394,922.611],[-1.34622,43.011346,923.367],[-1.346256,43.011291,924.129],[-1.346306,43.011257,924.676],[-1.34636,43.011217,925.251],[-1.346396,43.011179,925.52],[-1.346434,43.01114,926.111],[-1.346469,43.0111,926.775],[-1.346487,43.011055,927.416],[-1.346502,43.011011,928.176],[-1.346528,43.010967,928.813],[-1.34655,43.010924,929.508],[-1.34656,43.010879,930.167],[-1.34657,43.010828,930.783],[-1.346567,43.010778,931.555],[-1.346594,43.010736,932.272],[-1.346631,43.010699,932.927],[-1.346662,43.010656,933.596],[-1.346697,43.010611,934.257],[-1.346726,43.010566,934.991],[-1.346758,43.010521,935.679],[-1.346794,43.010478,936.405],[-1.346836,43.010435,937.225],[-1.346875,43.010388,938.008],[-1.346914,43.010339,938.953],[-1.346951,43.010303,939.649],[-1.346994,43.010265,940.481],[-1.347028,43.010226,941.218],[-1.347082,43.010191,942.193],[-1.347142,43.010164,942.862],[-1.347198,43.010133,943.593],[-1.347258,43.0101,944.447],[-1.347307,43.010067,945.327],[-1.347357,43.010039,946.168],[-1.347401,43.009998,947.314],[-1.347448,43.009969,948.208],[-1.347489,43.009933,949.198],[-1.347543,43.009908,949.774],[-1.347592,43.00988,950.396],[-1.347654,43.009852,951.063],[-1.347711,43.009826,951.648],[-1.347733,43.009779,952.657],[-1.347737,43.009729,953.748],[-1.347755,43.009679,954.822],[-1.347763,43.009634,955.848],[-1.347751,43.009587,956.861],[-1.347714,43.009551,957.317],[-1.347677,43.009513,957.908],[-1.347659,43.009464,958.83],[-1.347619,43.009418,959.426],[-1.347601,43.009368,960.238],[-1.347569,43.009324,960.845],[-1.34755,43.009274,961.55],[-1.347543,43.009223,962.469],[-1.347538,43.009175,963.39],[-1.347532,43.009128,963.884],[-1.347503,43.009084,963.949],[-1.347477,43.00903,964.302],[-1.347468,43.008982,964.822],[-1.347468,43.008937,965.208],[-1.347469,43.008889,965.83],[-1.347469,43.008842,966.446],[-1.34747,43.008794,967.138],[-1.347482,43.008743,967.965],[-1.347502,43.008697,968.85],[-1.347498,43.008641,969.559],[-1.347514,43.008592,970.36],[-1.347542,43.008536,971.274],[-1.347549,43.008485,971.765],[-1.347542,43.008439,971.968],[-1.347555,43.00839,972.514],[-1.347587,43.008351,973.408],[-1.347594,43.008301,973.722],[-1.347588,43.008249,973.698],[-1.347604,43.0082,973.95],[-1.347633,43.008159,974.487],[-1.347653,43.008113,974.812],[-1.347668,43.008069,975.031],[-1.347709,43.008035,975.722],[-1.347738,43.007995,976.046],[-1.347781,43.007961,976.769],[-1.347821,43.007922,977.704],[-1.347852,43.007879,978.424],[-1.347886,43.007841,979.308],[-1.347931,43.007806,980.542],[-1.347968,43.007769,981.558],[-1.347995,43.007725,982.18],[-1.348025,43.007678,982.887],[-1.348062,43.007633,983.782],[-1.34813,43.007598,985.551],[-1.34818,43.007556,986.862],[-1.348227,43.007519,988.016],[-1.348275,43.007483,989.249],[-1.348314,43.007439,990.002],[-1.348334,43.007384,990.222],[-1.348369,43.007332,990.708],[-1.348406,43.00729,991.32],[-1.348449,43.007248,992.196],[-1.348487,43.007202,992.868],[-1.348537,43.007174,994.065],[-1.34856,43.007129,994.44],[-1.348571,43.007081,994.549],[-1.348597,43.007028,994.93],[-1.348632,43.006986,995.784],[-1.348684,43.006953,996.958],[-1.348747,43.006937,998.452],[-1.34881,43.006905,999.717],[-1.348826,43.006861,999.708],[-1.348866,43.006824,1000.531],[-1.348883,43.006778,1000.687],[-1.348916,43.006739,1001.459],[-1.348947,43.006691,1002.156],[-1.348966,43.006641,1002.331],[-1.349007,43.006603,1003.26],[-1.349055,43.00656,1004.231],[-1.349085,43.006511,1004.495],[-1.349112,43.00647,1004.797],[-1.349175,43.006437,1005.923],[-1.349239,43.006428,1007.225],[-1.349289,43.006397,1007.808],[-1.349335,43.006365,1008.275],[-1.349384,43.006331,1008.681],[-1.349436,43.0063,1009.243],[-1.349481,43.006265,1009.62],[-1.349549,43.006237,1010.525],[-1.349615,43.006225,1011.654],[-1.349672,43.006199,1012.235],[-1.349729,43.006172,1012.799],[-1.349791,43.006149,1013.335],[-1.349849,43.00613,1013.886],[-1.34991,43.006112,1014.414],[-1.34996,43.006077,1014.308],[-1.350016,43.006054,1014.739],[-1.350076,43.006031,1015.375],[-1.350134,43.00601,1015.827],[-1.350184,43.005974,1015.754],[-1.350239,43.005953,1016.139],[-1.350239,43.005953,1016.158],[-1.350303,43.005943,1017.279],[-1.350303,43.005943,1017.263],[-1.350372,43.005956,1019.597],[-1.350437,43.005935,1020.523],[-1.350496,43.005902,1020.925],[-1.350543,43.005872,1021.108],[-1.350595,43.005844,1021.575],[-1.350663,43.005836,1023.261],[-1.350724,43.005825,1024.773],[-1.350771,43.005791,1025.25],[-1.350819,43.005761,1025.845],[-1.350858,43.005719,1025.934],[-1.350895,43.00568,1026.195],[-1.350955,43.005654,1027.329],[-1.351012,43.005629,1028.342],[-1.351035,43.005586,1027.722],[-1.351095,43.005566,1028.914],[-1.351149,43.005542,1029.908],[-1.351218,43.005535,1031.97],[-1.351262,43.005499,1032.556],[-1.351323,43.005464,1033.628],[-1.351381,43.005438,1034.815],[-1.351438,43.005416,1035.82],[-1.351503,43.005386,1036.889],[-1.351559,43.005351,1037.31],[-1.351616,43.005325,1038.134],[-1.351676,43.0053,1038.945],[-1.351735,43.005266,1039.447],[-1.351802,43.005244,1040.611],[-1.351856,43.005214,1041.308],[-1.351892,43.005175,1041.49],[-1.351957,43.005158,1042.696],[-1.352035,43.005148,1043.478],[-1.352097,43.005145,1044.195],[-1.352163,43.00514,1044.87],[-1.352226,43.005129,1045.279],[-1.352289,43.005114,1045.88],[-1.352353,43.005104,1046.714],[-1.35242,43.005108,1047.931],[-1.35248,43.00513,1049.561],[-1.352544,43.005139,1050.607],[-1.352594,43.005168,1052.108],[-1.352645,43.005198,1053.659],[-1.352628,43.005244,1054.585],[-1.352583,43.005285,1054.747],[-1.35255,43.005327,1055.314],[-1.352524,43.00537,1056.169],[-1.35247,43.005406,1056.348],[-1.352416,43.005439,1056.469],[-1.352375,43.005484,1056.943],[-1.352318,43.005521,1056.947],[-1.352275,43.005562,1057.129],[-1.352243,43.005601,1057.721],[-1.352202,43.005645,1058.308],[-1.352162,43.005679,1058.68],[-1.352122,43.005713,1058.916],[-1.352069,43.005739,1058.748],[-1.352017,43.005767,1058.625],[-1.351976,43.005806,1058.97],[-1.351918,43.005833,1058.479],[-1.351861,43.005873,1058.61],[-1.351826,43.005928,1059.794],[-1.35179,43.005969,1060.394],[-1.351739,43.005997,1060.057],[-1.351695,43.006033,1060.222],[-1.351677,43.00608,1061.208],[-1.351666,43.006124,1062.535],[-1.35163,43.006163,1063.181],[-1.351591,43.006199,1063.373],[-1.351551,43.006256,1064.21],[-1.351506,43.006291,1064.065],[-1.351451,43.006316,1063.054],[-1.351389,43.006346,1061.885],[-1.351345,43.006381,1061.469],[-1.35128,43.006397,1059.643],[-1.351246,43.006435,1058.964],[-1.351193,43.006475,1057.61],[-1.351155,43.006517,1056.808],[-1.351151,43.00657,1057.21],[-1.351135,43.006619,1057.336],[-1.351123,43.006674,1057.468],[-1.351098,43.006724,1056.595],[-1.351073,43.006775,1055.79],[-1.351047,43.006822,1055.019],[-1.351028,43.006869,1054.44],[-1.351037,43.006924,1054.564],[-1.351059,43.006974,1054.728],[-1.351067,43.007021,1054.789],[-1.351073,43.00707,1054.717],[-1.351073,43.00707,1054.708],[-1.351074,43.007134,1054.498],[-1.351087,43.007178,1054.664],[-1.35109,43.007226,1054.486],[-1.351072,43.007276,1053.243],[-1.351083,43.007329,1052.828],[-1.351112,43.007379,1052.847],[-1.351131,43.007429,1052.548],[-1.351155,43.007473,1052.542],[-1.351181,43.00752,1052.222],[-1.351217,43.007562,1051.962],[-1.351264,43.007597,1052.108],[-1.351317,43.007628,1052.508],[-1.351366,43.007657,1052.928],[-1.351421,43.00769,1053.474],[-1.351479,43.007722,1054.156],[-1.351542,43.007733,1055.553],[-1.351605,43.00774,1057.178],[-1.351671,43.007755,1058.697],[-1.351724,43.007789,1058.718],[-1.351774,43.007818,1058.862],[-1.351822,43.00785,1058.943],[-1.351882,43.00787,1059.564],[-1.351933,43.007901,1059.71],[-1.352006,43.007909,1060.808],[-1.352073,43.007906,1062.11],[-1.352129,43.007929,1062.576],[-1.352188,43.007951,1062.858],[-1.352242,43.007976,1062.965],[-1.352293,43.008003,1063.02],[-1.352348,43.008026,1063.299],[-1.352423,43.008043,1064.07],[-1.352487,43.008057,1064.774],[-1.352549,43.008061,1065.587],[-1.352613,43.008067,1066.242],[-1.352668,43.008046,1067.726],[-1.352727,43.008073,1067.608],[-1.352792,43.008097,1067.794],[-1.352853,43.008115,1067.92],[-1.352914,43.00813,1068.392],[-1.352977,43.008147,1068.619],[-1.353037,43.008156,1069.124],[-1.353104,43.008164,1069.723],[-1.353176,43.008175,1070.254],[-1.35325,43.008185,1070.898],[-1.353308,43.008199,1071.038],[-1.353373,43.008212,1071.57],[-1.353436,43.008224,1072.017],[-1.353499,43.008236,1072.608],[-1.353563,43.008242,1073.559],[-1.353631,43.008247,1074.465],[-1.353696,43.008258,1074.947],[-1.353768,43.008264,1075.814],[-1.35383,43.008261,1076.819],[-1.353895,43.008254,1078.098],[-1.35396,43.008261,1078.969],[-1.354019,43.00828,1079.363],[-1.354086,43.008287,1080.219],[-1.354152,43.008297,1081.009],[-1.354213,43.008309,1081.419],[-1.354275,43.008314,1081.908],[-1.354339,43.008314,1082.677],[-1.354412,43.008309,1083.633],[-1.354477,43.008307,1084.485],[-1.35454,43.00831,1084.912],[-1.354615,43.008312,1085.637],[-1.354688,43.008314,1086.376],[-1.354752,43.008313,1086.817],[-1.354811,43.008299,1087.551],[-1.354875,43.00829,1088.047],[-1.354938,43.00827,1088.929],[-1.354999,43.008251,1089.721],[-1.355064,43.008245,1090.308],[-1.355127,43.008232,1091.25],[-1.355195,43.008219,1092.146],[-1.355256,43.008202,1093.128],[-1.35531,43.008171,1094.585],[-1.35537,43.008156,1095.42],[-1.355433,43.008144,1096.379],[-1.355485,43.008116,1097.52],[-1.355548,43.008092,1098.854],[-1.355608,43.008074,1100.089],[-1.355669,43.008053,1101.306],[-1.355737,43.008036,1102.626],[-1.355797,43.008023,1103.708],[-1.355863,43.008013,1104.814],[-1.355926,43.008007,1105.88],[-1.35599,43.007996,1107.172],[-1.356046,43.007968,1108.739],[-1.356122,43.007958,1110.024],[-1.356188,43.007968,1110.913],[-1.356255,43.007987,1111.694],[-1.356317,43.007983,1112.828],[-1.356382,43.007973,1114.371],[-1.356443,43.007983,1114.941],[-1.356519,43.007985,1116.015],[-1.356578,43.007999,1116.508],[-1.356612,43.007955,1118.453],[-1.356689,43.007949,1119.959],[-1.356758,43.007956,1121.071],[-1.356817,43.007974,1121.648],[-1.356872,43.007996,1122.043],[-1.35694,43.008027,1122.662],[-1.357009,43.008028,1124.063],[-1.357079,43.008038,1125.337],[-1.35714,43.008057,1126.294],[-1.357196,43.008077,1127.457],[-1.357257,43.00807,1128.822],[-1.357307,43.008035,1130.008],[-1.357356,43.008006,1131.225],[-1.357394,43.007969,1132.061],[-1.357427,43.007924,1132.693],[-1.357412,43.007877,1132.54],[-1.357374,43.007834,1132.395],[-1.357424,43.007807,1132.784],[-1.357488,43.007803,1133.065],[-1.357545,43.00782,1133.469],[-1.357604,43.007846,1133.968],[-1.357658,43.007873,1134.542],[-1.357722,43.00789,1135.226],[-1.357785,43.007869,1135.308],[-1.357849,43.007893,1135.772],[-1.357908,43.007929,1136.578],[-1.357954,43.007969,1137.44],[-1.358024,43.007968,1137.717],[-1.358088,43.007972,1138.082],[-1.358145,43.007991,1138.631],[-1.358201,43.008018,1139.562],[-1.358259,43.008037,1140.236],[-1.358317,43.00806,1141.081],[-1.358375,43.008088,1141.561],[-1.358434,43.008109,1141.817],[-1.358501,43.008109,1141.908],[-1.358569,43.008122,1142.284],[-1.358623,43.008148,1142.79],[-1.358679,43.008171,1143.122],[-1.358728,43.008201,1143.949],[-1.358783,43.008222,1144.564],[-1.358846,43.008225,1144.853],[-1.358911,43.008229,1145.174],[-1.35898,43.00824,1145.878],[-1.359049,43.008233,1145.953],[-1.359111,43.00823,1146.104],[-1.359176,43.008232,1146.514],[-1.359247,43.008236,1147.008],[-1.359311,43.00824,1147.581],[-1.359376,43.00825,1148.157],[-1.359442,43.008263,1148.789],[-1.359517,43.008265,1149.436],[-1.359587,43.008274,1150.171],[-1.359657,43.008271,1150.64],[-1.359716,43.008257,1150.871],[-1.359774,43.008233,1150.835],[-1.359834,43.008213,1150.887],[-1.359895,43.008204,1151.042],[-1.359964,43.00819,1151.326],[-1.360037,43.008181,1151.608],[-1.360113,43.008163,1152.184],[-1.360177,43.008156,1152.58],[-1.360235,43.008125,1152.932],[-1.360295,43.008113,1153.479],[-1.360359,43.0081,1153.944],[-1.360425,43.008088,1154.643],[-1.360497,43.008079,1155.394],[-1.360563,43.008075,1156.088],[-1.360622,43.008056,1156.598],[-1.360677,43.008033,1156.915],[-1.360735,43.008002,1157.326],[-1.360788,43.007976,1157.908],[-1.360849,43.007951,1158.485],[-1.360906,43.00791,1158.831],[-1.360953,43.007877,1159.213],[-1.360994,43.007842,1159.76],[-1.361029,43.007798,1160.265],[-1.361067,43.00776,1161.034],[-1.361114,43.007727,1161.945],[-1.361156,43.007693,1162.859],[-1.361222,43.007676,1163.569],[-1.361279,43.007655,1164.304],[-1.361317,43.007617,1165.524],[-1.361351,43.007575,1166.808],[-1.361388,43.007538,1168.022],[-1.361431,43.007502,1169.238],[-1.361482,43.007476,1170.84],[-1.361538,43.007456,1172.187],[-1.3616,43.007452,1172.932],[-1.361634,43.007409,1175.371],[-1.361677,43.007375,1177.322],[-1.361716,43.007338,1179.336],[-1.361775,43.00732,1180.548],[-1.361809,43.007264,1183.461],[-1.36179,43.007212,1185.417],[-1.361731,43.007188,1185.208],[-1.361723,43.00714,1185.18],[-1.361753,43.007098,1185.226],[-1.361818,43.007093,1185.358],[-1.361866,43.007058,1185.355],[-1.361799,43.007057,1185.29],[-1.36176,43.007063,1185.139],[-1.361822,43.007076,1185.35],[-1.36178,43.007109,1185.284],[-1.36175,43.00716,1185.218],[-1.361721,43.007201,1185.298],[-1.361753,43.007243,1184.317],[-1.36179,43.007285,1182.308],[-1.361771,43.007339,1179.547],[-1.361721,43.007366,1177.993],[-1.361691,43.007409,1175.765],[-1.361633,43.007434,1174.092],[-1.361598,43.007478,1171.657],[-1.361585,43.007528,1169.586],[-1.361612,43.007575,1168.177],[-1.361596,43.007626,1166.341],[-1.361535,43.007652,1165.489],[-1.361476,43.007687,1164.306],[-1.361421,43.007721,1163.426],[-1.36137,43.007748,1162.708],[-1.36131,43.00777,1161.944],[-1.361245,43.007787,1161.37],[-1.361176,43.007807,1160.962],[-1.361111,43.007827,1160.549],[-1.36105,43.007849,1159.994],[-1.360987,43.007855,1159.523],[-1.360929,43.007875,1159.124],[-1.360857,43.007894,1158.798],[-1.360804,43.007928,1158.217],[-1.360744,43.007948,1157.587],[-1.360687,43.007974,1156.915],[-1.360616,43.008006,1156.308],[-1.360555,43.008024,1155.957],[-1.360496,43.008046,1155.353],[-1.360427,43.008074,1154.625],[-1.360367,43.008094,1154.062],[-1.36029,43.008108,1153.357],[-1.360223,43.008133,1152.846],[-1.360155,43.008158,1152.417],[-1.360095,43.008177,1152.091],[-1.360023,43.008199,1151.744],[-1.359958,43.008207,1151.405],[-1.35989,43.008216,1151.215],[-1.359823,43.008244,1151.208],[-1.359759,43.008257,1151.11],[-1.35969,43.008261,1150.746],[-1.359621,43.008251,1150.078],[-1.35956,43.008259,1149.685],[-1.359482,43.008269,1149.12],[-1.359418,43.008272,1148.819],[-1.35935,43.008276,1148.52],[-1.359288,43.008272,1148.174],[-1.35921,43.008268,1147.615],[-1.359138,43.008258,1147.065],[-1.359063,43.008253,1146.511],[-1.359002,43.008237,1145.808],[-1.358934,43.008227,1145.297],[-1.358855,43.008218,1144.653],[-1.358792,43.00821,1144.245],[-1.358718,43.008198,1143.812],[-1.358662,43.008178,1143.347],[-1.358596,43.00818,1143.216],[-1.35853,43.008153,1142.767],[-1.358467,43.008128,1142.271],[-1.358407,43.008109,1141.817],[-1.358358,43.00807,1141.287],[-1.358289,43.008061,1140.915],[-1.358227,43.008055,1140.608],[-1.358157,43.008038,1139.957],[-1.358089,43.008024,1139.343],[-1.358029,43.008012,1138.885],[-1.357965,43.00799,1137.912],[-1.357908,43.007962,1137.147],[-1.357824,43.00794,1136.526],[-1.357762,43.007933,1136.187],[-1.357697,43.00791,1135.241],[-1.357649,43.007881,1134.539],[-1.357599,43.007853,1133.901],[-1.357546,43.007819,1133.421],[-1.357476,43.007823,1133.008],[-1.357419,43.007847,1132.689],[-1.35735,43.007871,1131.925],[-1.357282,43.007908,1130.817],[-1.357243,43.00795,1129.834],[-1.357215,43.007992,1128.899],[-1.357149,43.008011,1127.258],[-1.357084,43.008008,1126.089],[-1.357021,43.008015,1124.673],[-1.35695,43.008016,1123.188],[-1.356888,43.008009,1122.024],[-1.35682,43.007989,1121.226],[-1.356753,43.007979,1120.208],[-1.356691,43.007964,1119.424],[-1.356621,43.007955,1118.56],[-1.356621,43.007955,1118.512],[-1.356558,43.007981,1116.749],[-1.356487,43.007982,1115.644],[-1.356409,43.007969,1114.863],[-1.356347,43.007962,1113.944],[-1.356282,43.007962,1112.828],[-1.356224,43.007979,1111.228],[-1.356224,43.007979,1111.289],[-1.356157,43.007995,1109.617],[-1.35609,43.008004,1108.208],[-1.356027,43.008017,1106.928],[-1.355959,43.00803,1105.614],[-1.355895,43.008034,1104.636],[-1.355826,43.008048,1103.213],[-1.355766,43.008059,1102.288],[-1.355705,43.008084,1100.717],[-1.355645,43.008109,1099.378],[-1.355579,43.008134,1097.772],[-1.355499,43.008143,1096.849],[-1.355425,43.008158,1095.702],[-1.355358,43.008163,1095.122],[-1.355297,43.008193,1093.708],[-1.355244,43.008227,1092.29],[-1.355183,43.008247,1091.136],[-1.355108,43.008266,1090.088],[-1.355038,43.008284,1088.935],[-1.354971,43.008303,1087.92],[-1.354902,43.008323,1087.049],[-1.354838,43.008316,1087.08],[-1.354778,43.00833,1086.364],[-1.354718,43.008341,1085.762],[-1.35466,43.008323,1085.783],[-1.35466,43.008323,1085.711],[-1.3546,43.008304,1085.808],[-1.354523,43.008289,1085.672],[-1.35444,43.00829,1084.748],[-1.354365,43.008297,1083.53],[-1.354299,43.008302,1082.647],[-1.354234,43.008304,1081.842],[-1.354165,43.008312,1080.781],[-1.354094,43.008314,1079.412],[-1.354022,43.008301,1078.636],[-1.353961,43.008275,1078.426],[-1.35389,43.008269,1077.347],[-1.353818,43.008258,1076.711],[-1.353742,43.008256,1075.708],[-1.35368,43.00825,1075.058],[-1.353607,43.00824,1074.344],[-1.353541,43.008232,1073.596],[-1.353472,43.008227,1072.583],[-1.35341,43.008202,1072.548],[-1.35335,43.00819,1071.917],[-1.353287,43.008195,1070.948],[-1.353225,43.008194,1070.212],[-1.353153,43.008193,1069.346],[-1.353087,43.008181,1068.988],[-1.353016,43.008164,1068.516],[-1.352949,43.008151,1068.008],[-1.352878,43.00814,1067.46],[-1.352807,43.008132,1066.766],[-1.352738,43.00812,1066.168],[-1.352663,43.008103,1065.635],[-1.352607,43.008063,1066.37],[-1.35253,43.008039,1066.079],[-1.352461,43.008028,1065.23],[-1.352375,43.008016,1064.014],[-1.352289,43.008,1063.082],[-1.352212,43.007983,1062.243],[-1.35214,43.007959,1061.717],[-1.352082,43.007933,1061.508],[-1.352022,43.007905,1061.294],[-1.351962,43.00789,1060.55],[-1.351888,43.007877,1059.482],[-1.351828,43.007855,1058.819],[-1.351773,43.007833,1058.444],[-1.351703,43.007809,1057.883],[-1.351642,43.00779,1056.914],[-1.351589,43.007763,1056.178],[-1.351538,43.007737,1055.378],[-1.351482,43.007701,1054.733],[-1.351415,43.007676,1053.626],[-1.351342,43.007642,1052.708],[-1.351288,43.00762,1052.063],[-1.351235,43.007591,1051.569],[-1.351186,43.007562,1051.181],[-1.351142,43.007527,1051.098],[-1.351094,43.007481,1050.813],[-1.351054,43.007431,1050.612],[-1.351036,43.007382,1050.893],[-1.351021,43.007335,1051.127],[-1.350999,43.007288,1051.252],[-1.350956,43.007249,1050.753],[-1.350993,43.007213,1052.108],[-1.350985,43.007165,1052.108],[-1.350993,43.007115,1052.681],[-1.351002,43.007064,1053.017],[-1.351008,43.007014,1053.479],[-1.351004,43.006958,1053.666],[-1.351005,43.00691,1053.811],[-1.351009,43.006852,1054.02],[-1.351004,43.006799,1054.071],[-1.351021,43.006746,1054.515],[-1.351027,43.0067,1054.854],[-1.351054,43.006656,1055.456],[-1.351068,43.006595,1055.111],[-1.351075,43.006547,1054.808],[-1.351103,43.0065,1055.081],[-1.351142,43.006462,1055.877],[-1.351197,43.006419,1057.169],[-1.351249,43.006387,1058.456],[-1.351286,43.006326,1058.031],[-1.351319,43.006286,1058.09],[-1.351367,43.006251,1058.441],[-1.351434,43.006221,1059.595],[-1.351492,43.006187,1060.117],[-1.351527,43.006146,1059.787],[-1.351567,43.006103,1059.215],[-1.351616,43.006066,1059.308],[-1.351653,43.006018,1058.667],[-1.351669,43.005972,1057.513],[-1.351701,43.005931,1056.915],[-1.351733,43.00589,1056.392],[-1.351764,43.005847,1055.657],[-1.351809,43.005806,1055.426],[-1.351854,43.005764,1055.357],[-1.351898,43.005725,1055.311],[-1.351938,43.005688,1055.211],[-1.351958,43.005643,1054.421],[-1.351979,43.0056,1053.603],[-1.352018,43.00556,1053.208],[-1.35208,43.005543,1053.777],[-1.352142,43.005521,1054.183],[-1.352209,43.005492,1054.425],[-1.352262,43.005465,1054.712],[-1.35231,43.005436,1054.797],[-1.352326,43.00539,1053.816],[-1.352379,43.005368,1054.087],[-1.352435,43.005348,1054.211],[-1.352513,43.005324,1054.663],[-1.352579,43.005301,1055.144],[-1.352607,43.005255,1054.418],[-1.352606,43.005198,1053.008],[-1.352582,43.005156,1051.672],[-1.352528,43.005123,1050.068],[-1.35247,43.005099,1048.61],[-1.352404,43.005078,1046.947],[-1.352342,43.005084,1045.952],[-1.352283,43.00511,1045.641],[-1.352226,43.005135,1045.412],[-1.352153,43.005143,1044.826],[-1.35209,43.005147,1044.199],[-1.352006,43.005159,1043.307],[-1.351934,43.005178,1042.627],[-1.351874,43.005191,1041.308],[-1.351809,43.005215,1040.195],[-1.351749,43.005234,1039.091],[-1.351684,43.005261,1038.013],[-1.351629,43.005287,1037.36],[-1.351571,43.005315,1036.645],[-1.351526,43.005349,1036.494],[-1.351475,43.005376,1035.865],[-1.351411,43.005396,1034.629],[-1.35134,43.005411,1032.887],[-1.351279,43.005426,1031.242],[-1.351223,43.005461,1030.226],[-1.351177,43.005493,1029.608],[-1.351124,43.005519,1028.564],[-1.351077,43.005549,1027.98],[-1.351022,43.005577,1027.142],[-1.350961,43.005601,1026.039],[-1.350897,43.005629,1024.824],[-1.350855,43.005664,1024.423],[-1.350796,43.005699,1023.684],[-1.350749,43.005738,1023.378],[-1.350686,43.005759,1022.068],[-1.350626,43.005778,1020.842],[-1.350565,43.005799,1019.526],[-1.350501,43.005836,1018.708],[-1.350443,43.005869,1018.432],[-1.350381,43.005879,1017.188],[-1.35034,43.00593,1017.88],[-1.350322,43.005978,1018.997],[-1.35039,43.005981,1020.892],[-1.35032,43.00599,1019.221],[-1.350254,43.006003,1018.012],[-1.350195,43.006017,1017.366],[-1.35014,43.006038,1016.882],[-1.350081,43.006057,1016.143],[-1.350017,43.006066,1015.117],[-1.349954,43.00609,1014.608],[-1.349893,43.006114,1014.294],[-1.34982,43.00614,1013.67],[-1.349746,43.006168,1012.942],[-1.34968,43.00619,1012.179],[-1.349626,43.006224,1011.894],[-1.34958,43.006255,1011.533],[-1.34952,43.006281,1010.874],[-1.349463,43.006307,1010.018],[-1.349409,43.006334,1009.212],[-1.349361,43.006363,1008.732],[-1.349316,43.006399,1008.405],[-1.34927,43.006431,1008.008],[-1.349201,43.006463,1006.957],[-1.349159,43.006504,1006.473],[-1.349113,43.006537,1005.685],[-1.349069,43.006572,1004.782],[-1.349031,43.006616,1004.177],[-1.348999,43.006658,1003.596],[-1.348954,43.00669,1002.317],[-1.34892,43.00673,1001.511],[-1.348898,43.006777,1001.197],[-1.34888,43.006831,1000.923],[-1.34884,43.006868,1000.225],[-1.348804,43.006911,999.608],[-1.34875,43.006944,998.545],[-1.348702,43.006987,997.521],[-1.348671,43.007032,997.073],[-1.348633,43.007074,996.13],[-1.348605,43.007119,995.515],[-1.348568,43.007157,994.744],[-1.34852,43.00721,993.765],[-1.348482,43.007252,993.029],[-1.348456,43.007296,992.634],[-1.34842,43.007338,992.055],[-1.348363,43.007363,990.81],[-1.348363,43.007363,990.808],[-1.34832,43.007405,990.059],[-1.348275,43.00745,989.185],[-1.348245,43.007491,988.417],[-1.348221,43.007534,987.984],[-1.348165,43.007577,986.449],[-1.348099,43.007594,984.668],[-1.348055,43.007626,983.439],[-1.348026,43.007675,982.983],[-1.348002,43.00774,982.491],[-1.347965,43.007786,981.481],[-1.34795,43.007836,981.019],[-1.347926,43.007893,980.508],[-1.347885,43.007938,979.495],[-1.34783,43.007972,978.111],[-1.347777,43.008003,976.883],[-1.347746,43.008043,976.49],[-1.347708,43.008085,975.785],[-1.34767,43.008124,975.184],[-1.347634,43.008168,974.485],[-1.347612,43.008215,974.079],[-1.347594,43.008266,973.754],[-1.347585,43.008312,973.556],[-1.347573,43.008363,973.111],[-1.347564,43.00841,972.508],[-1.347554,43.008462,972.091],[-1.34754,43.008514,971.327],[-1.347517,43.008562,970.629],[-1.347498,43.00861,970.056],[-1.347489,43.008655,969.241],[-1.347507,43.008698,968.91],[-1.347506,43.008745,968.231],[-1.347501,43.008791,967.415],[-1.347497,43.008836,966.711],[-1.347488,43.008887,965.921],[-1.347486,43.008939,965.403],[-1.347503,43.008988,965.008],[-1.347482,43.009036,964.367],[-1.34749,43.009083,963.813],[-1.347502,43.009131,963.425],[-1.34752,43.00918,963.052],[-1.34754,43.009225,962.467],[-1.347553,43.009274,961.666],[-1.347571,43.009325,960.887],[-1.347591,43.009372,960.081],[-1.347636,43.009403,959.829],[-1.347682,43.009433,959.5],[-1.347716,43.009481,958.82],[-1.347723,43.009533,957.808],[-1.347743,43.009583,956.838],[-1.347757,43.009628,955.964],[-1.347762,43.009683,954.836],[-1.347746,43.009739,953.563],[-1.347718,43.009786,952.588],[-1.347655,43.009823,951.527],[-1.347602,43.009848,950.938],[-1.347538,43.009872,950.422],[-1.347488,43.009904,949.624],[-1.347448,43.009946,948.604],[-1.347395,43.00998,947.614],[-1.347343,43.010017,946.508],[-1.347288,43.010052,945.498],[-1.347226,43.010072,944.754],[-1.347149,43.010101,943.996],[-1.347099,43.010131,943.293],[-1.347047,43.010166,942.418],[-1.347004,43.010203,941.627],[-1.346978,43.010246,940.728],[-1.346948,43.010298,939.662],[-1.346903,43.010343,938.855],[-1.346867,43.01039,938.007],[-1.346825,43.010424,937.417],[-1.346803,43.010477,936.408],[-1.346755,43.010515,935.711],[-1.346703,43.010543,935.267],[-1.346662,43.010578,934.719],[-1.346621,43.010622,934.016],[-1.346601,43.010668,933.321],[-1.346585,43.010713,932.66],[-1.346576,43.01076,931.831],[-1.34653,43.010807,930.945],[-1.346499,43.010851,930.275],[-1.346487,43.010899,929.528],[-1.346459,43.010941,928.82],[-1.346483,43.010988,928.308],[-1.346497,43.011038,927.763],[-1.346484,43.011095,926.939],[-1.346451,43.011134,926.281],[-1.346394,43.011174,925.648],[-1.346346,43.011222,925.183],[-1.346321,43.01127,924.632],[-1.346282,43.011308,924.013],[-1.34625,43.01135,923.487],[-1.346204,43.011393,922.647],[-1.346162,43.011433,922.029],[-1.346133,43.011476,921.521],[-1.346111,43.011523,921.008],[-1.346088,43.011572,920.58],[-1.346079,43.011628,920.026],[-1.346051,43.011674,919.368],[-1.345996,43.011712,918.465],[-1.345961,43.011756,917.89],[-1.345961,43.011803,917.489],[-1.34592,43.011837,916.92],[-1.345849,43.01186,916.454],[-1.345777,43.011885,916.274],[-1.345719,43.011923,916.056],[-1.345655,43.011928,916.021],[-1.34559,43.011943,916.008],[-1.345529,43.011955,916.013],[-1.345476,43.011983,916.199],[-1.345457,43.012029,916.311],[-1.345389,43.012057,916.478],[-1.345323,43.012078,916.583],[-1.345277,43.012109,916.682],[-1.345231,43.012071,916.533],[-1.345168,43.01205,916.427],[-1.345106,43.012034,916.336],[-1.345044,43.01202,916.317],[-1.344975,43.012017,916.618],[-1.344914,43.012024,917.508],[-1.34491,43.011978,917.239],[-1.344877,43.011935,917.285],[-1.344824,43.01189,917.367],[-1.344774,43.011848,917.294],[-1.344733,43.011811,917.079],[-1.344672,43.011771,917.248],[-1.344617,43.011731,917.349],[-1.344568,43.011692,917.223],[-1.344525,43.011646,917.062],[-1.344486,43.011605,917.083],[-1.344427,43.011571,917.311],[-1.344379,43.011541,917.708],[-1.344337,43.011507,917.942],[-1.344303,43.011456,917.628],[-1.344275,43.011411,917.26],[-1.344241,43.011367,917.027],[-1.344206,43.011317,916.972],[-1.344175,43.011274,916.791],[-1.344139,43.011228,916.592],[-1.344106,43.011186,916.486],[-1.344073,43.011148,916.261],[-1.344044,43.011093,915.721],[-1.344009,43.011041,915.513],[-1.343963,43.011006,915.408],[-1.343922,43.010962,915.212],[-1.34388,43.010929,915.228],[-1.343837,43.010896,915.52],[-1.343795,43.010856,915.677],[-1.343753,43.010822,915.962],[-1.343709,43.010786,916.271],[-1.343652,43.010765,916.772],[-1.343601,43.010726,916.976],[-1.343552,43.010689,917.032],[-1.3435,43.010665,917.192],[-1.343433,43.010633,917.311],[-1.343383,43.01058,917.008],[-1.34334,43.01054,916.899],[-1.343294,43.010507,916.725],[-1.343251,43.010461,916.537],[-1.343212,43.010422,916.234],[-1.343155,43.010386,916.149],[-1.343118,43.010338,915.678],[-1.343064,43.010308,915.489],[-1.343007,43.010289,915.343],[-1.342955,43.010263,915.322],[-1.342919,43.010221,915.162],[-1.342899,43.010172,914.808],[-1.342864,43.01013,914.408],[-1.342823,43.010095,914.188],[-1.342767,43.010062,913.824],[-1.342714,43.01003,914.146],[-1.342677,43.009978,914.053],[-1.342657,43.009926,913.828],[-1.342636,43.009872,913.697],[-1.342618,43.009828,913.428],[-1.342596,43.00977,913.152],[-1.34258,43.009724,912.754],[-1.342559,43.00968,912.556],[-1.34253,43.009633,912.211],[-1.342476,43.009585,912.208],[-1.342438,43.009544,912.241],[-1.34239,43.009507,912.277],[-1.342339,43.009479,912.439],[-1.342301,43.009443,912.486],[-1.34225,43.009401,912.361],[-1.342212,43.009352,912.15],[-1.342163,43.009313,911.931],[-1.342107,43.009276,911.865],[-1.342044,43.00925,912.044],[-1.341994,43.009217,912.005],[-1.341951,43.00918,912.015],[-1.341908,43.009139,912.208],[-1.341872,43.009096,912.33],[-1.341835,43.009051,912.346],[-1.341796,43.009009,912.588],[-1.341751,43.008977,912.745],[-1.341746,43.008925,912.43],[-1.341724,43.008855,912.119],[-1.341724,43.008855,912.18],[-1.341701,43.008807,912.084],[-1.341667,43.008769,912.173],[-1.341643,43.008727,912.185],[-1.341618,43.008673,912.013],[-1.341581,43.00861,911.908],[-1.341556,43.008568,911.923],[-1.341529,43.008518,911.879],[-1.3415,43.008473,911.831],[-1.341473,43.008423,911.768],[-1.341453,43.00837,911.683],[-1.341427,43.008327,911.522],[-1.341401,43.008282,911.383],[-1.341349,43.008238,911.457],[-1.34131,43.008196,911.437],[-1.341282,43.008148,911.249],[-1.341255,43.008082,910.713],[-1.341215,43.008046,910.808],[-1.341167,43.008003,911.069],[-1.341141,43.007947,910.995],[-1.341118,43.007887,910.717],[-1.341095,43.007825,910.434],[-1.34106,43.007773,910.139],[-1.341011,43.007739,910.158],[-1.340967,43.00769,909.919],[-1.340967,43.00769,909.983],[-1.340924,43.007638,909.737],[-1.340874,43.00761,909.649],[-1.340814,43.007577,909.613],[-1.340765,43.007544,909.608],[-1.340721,43.007509,909.519],[-1.340653,43.007462,909.395],[-1.340602,43.007427,909.137],[-1.340549,43.007396,908.934],[-1.34048,43.007371,908.749],[-1.340436,43.007339,908.558],[-1.340416,43.007272,908.099],[-1.340364,43.007239,907.873],[-1.340322,43.007206,907.896],[-1.340301,43.007162,907.731],[-1.340275,43.007112,907.624],[-1.340268,43.007066,907.508],[-1.340274,43.007019,907.325],[-1.34027,43.006973,907.231],[-1.340251,43.006921,907.083],[-1.340228,43.006871,906.89],[-1.340188,43.006827,906.745],[-1.340138,43.006792,906.654],[-1.340084,43.006769,906.725],[-1.340024,43.006745,906.749],[-1.339963,43.006712,906.754],[-1.339929,43.006668,906.556],[-1.339893,43.006614,906.311],[-1.339848,43.006568,906.208],[-1.339798,43.006532,906.181],[-1.339748,43.006503,906.167],[-1.339703,43.00647,905.989],[-1.33965,43.006437,905.566],[-1.339603,43.006397,905.121],[-1.33956,43.006351,904.81],[-1.339522,43.006311,904.641],[-1.33948,43.006244,904.475],[-1.33944,43.006208,904.499],[-1.339419,43.006164,904.507],[-1.339448,43.006124,904.027],[-1.339449,43.006078,903.708],[-1.339415,43.006032,903.735],[-1.339374,43.005994,903.981],[-1.339357,43.005938,903.783],[-1.339309,43.005887,903.82],[-1.339286,43.005838,903.775],[-1.339263,43.005792,903.754],[-1.339219,43.005751,903.765],[-1.339185,43.0057,903.569],[-1.339148,43.005662,903.478],[-1.339123,43.005617,903.333],[-1.339104,43.005574,903.126],[-1.339077,43.00552,903.008],[-1.339072,43.005472,902.823],[-1.339054,43.005426,902.619],[-1.339027,43.005382,902.451],[-1.338979,43.005339,902.348],[-1.338948,43.005296,902.043],[-1.338922,43.005246,901.812],[-1.338878,43.005209,901.833],[-1.338822,43.005178,901.977],[-1.33876,43.005159,902.158],[-1.338695,43.00514,902.252],[-1.338652,43.005106,902.017],[-1.33863,43.005059,901.608],[-1.338634,43.005003,901.081],[-1.338649,43.004955,901.077],[-1.338639,43.004903,901.039],[-1.338614,43.004859,901.036],[-1.338586,43.004807,901.281],[-1.338572,43.004761,901.48],[-1.338558,43.004712,901.591],[-1.338526,43.004665,901.715],[-1.338499,43.004617,901.846],[-1.338492,43.004571,901.788],[-1.338466,43.004516,901.816],[-1.33847,43.004465,901.608],[-1.338486,43.004408,901.67],[-1.338504,43.004354,901.726],[-1.338511,43.004305,901.928],[-1.338505,43.004257,902.245],[-1.338514,43.00421,902.46],[-1.338518,43.004161,902.729],[-1.338527,43.004112,902.73],[-1.338541,43.004057,902.844],[-1.338559,43.004013,902.848],[-1.338577,43.003963,902.961],[-1.338607,43.003906,903.017],[-1.338616,43.003855,902.908],[-1.338631,43.003811,902.76],[-1.338628,43.003763,902.826],[-1.338644,43.00371,902.648],[-1.338641,43.00366,902.735],[-1.338656,43.003614,902.54],[-1.338668,43.003566,902.259],[-1.338677,43.003514,901.96],[-1.338678,43.003469,901.624],[-1.338677,43.003417,901.475],[-1.338675,43.003356,901.228],[-1.33867,43.003294,901.22],[-1.338673,43.003244,901.208],[-1.338682,43.003196,901.163],[-1.338698,43.003147,901.049],[-1.338698,43.003094,901.051],[-1.338684,43.003046,901.338],[-1.338622,43.003209,901.933],[-1.338587,43.003249,902.162],[-1.33855,43.003287,902.243],[-1.338522,43.003332,902.387],[-1.338494,43.003377,902.567],[-1.338479,43.00343,902.781],[-1.33846,43.003477,902.819],[-1.338428,43.003526,902.908],[-1.338395,43.003575,903.082],[-1.338328,43.003596,903.048],[-1.338278,43.003628,903.16],[-1.338236,43.003667,903.227],[-1.338217,43.003721,903.472],[-1.338203,43.00377,903.641],[-1.338184,43.003815,903.782],[-1.338157,43.003863,903.936],[-1.338106,43.003893,904.062],[-1.338083,43.00394,904.283],[-1.33805,43.003979,904.311],[-1.337997,43.004004,904.508],[-1.337958,43.00404,904.722],[-1.337826,43.004097,905.468],[-1.337885,43.004078,905.14],[-1.337956,43.004074,904.937],[-1.337985,43.004114,905.072],[-1.338007,43.004157,905.181],[-1.337944,43.004145,905.362],[-1.337883,43.004157,905.666],[-1.337836,43.004191,905.898],[-1.337787,43.004239,906.215],[-1.337745,43.004286,906.526],[-1.33771,43.004326,906.808],[-1.337679,43.004385,907.185],[-1.33765,43.004435,907.441],[-1.337629,43.004484,907.663],[-1.337585,43.004521,907.91],[-1.337535,43.004555,908.215],[-1.337477,43.004589,908.634],[-1.337437,43.004632,908.975],[-1.337423,43.004682,909.189],[-1.337392,43.00473,909.462],[-1.337368,43.004773,909.583],[-1.337334,43.004818,909.611],[-1.337334,43.004818,909.608],[-1.337294,43.004866,909.722],[-1.337256,43.004906,909.968],[-1.337232,43.004954,910.04],[-1.337195,43.005001,910.057],[-1.337147,43.005043,910.272],[-1.337092,43.00508,910.311],[-1.337077,43.005132,910.532],[-1.337044,43.00518,910.626],[-1.337016,43.005227,910.833],[-1.336991,43.005273,911.023],[-1.336958,43.005317,911.315],[-1.336921,43.005355,911.708],[-1.336887,43.005396,912.119],[-1.336855,43.005442,912.795],[-1.336855,43.005442,912.727],[-1.336824,43.005484,913.244],[-1.336802,43.005526,913.839],[-1.336777,43.005568,914.348],[-1.336777,43.005568,914.339],[-1.336753,43.005621,914.923],[-1.336733,43.005665,915.371],[-1.336691,43.005703,915.941],[-1.33663,43.00575,916.515],[-1.336588,43.005788,917.008],[-1.336549,43.005829,917.443],[-1.33651,43.005867,917.819],[-1.336469,43.00591,918.451],[-1.33643,43.005951,919.038],[-1.336377,43.005979,919.633],[-1.336338,43.006018,920.392],[-1.336311,43.006065,921.083],[-1.336275,43.006103,921.777],[-1.336241,43.006153,922.562],[-1.336208,43.006205,923.383],[-1.33618,43.006256,924.111],[-1.336133,43.006295,924.808],[-1.336099,43.006338,925.552],[-1.336061,43.006374,926.278],[-1.336017,43.006412,926.97],[-1.335964,43.006443,927.647],[-1.335923,43.006481,928.332],[-1.335911,43.006529,929.081],[-1.335893,43.006574,929.612],[-1.335859,43.006618,930.336],[-1.335817,43.006661,930.992],[-1.335791,43.006705,931.273],[-1.335762,43.006759,931.42],[-1.335731,43.006803,931.708],[-1.335725,43.00685,931.935],[-1.335729,43.006902,932.261],[-1.335704,43.006954,932.653],[-1.335671,43.006999,933.26],[-1.335626,43.007048,933.995],[-1.335574,43.007092,934.544],[-1.335515,43.007119,934.635],[-1.335464,43.007145,934.549],[-1.335436,43.007193,934.823],[-1.335406,43.007232,935.283],[-1.335358,43.007278,935.911],[-1.335298,43.007321,936.608],[-1.335235,43.00736,937.288],[-1.335171,43.007395,937.764],[-1.335095,43.007419,937.876],[-1.335013,43.00743,937.613],[-1.334943,43.00743,937.998],[-1.334882,43.007422,938.297],[-1.334826,43.007403,938.268],[-1.334768,43.007389,938.382],[-1.334707,43.007369,938.349],[-1.334647,43.007347,938.402],[-1.334569,43.007338,938.922],[-1.334507,43.007327,939.308],[-1.334454,43.007291,939.18],[-1.334401,43.007251,938.826],[-1.334361,43.0072,938.328],[-1.334299,43.007163,938.165],[-1.334238,43.007145,938.27],[-1.334156,43.007117,938.119],[-1.334082,43.007086,937.51],[-1.334014,43.00706,937.164],[-1.333958,43.007034,936.655],[-1.333895,43.007021,936.407],[-1.33384,43.006992,936.217],[-1.333776,43.006982,936.508],[-1.33371,43.006956,936.541],[-1.333633,43.006959,937.177],[-1.33358,43.006987,937.919],[-1.333536,43.007023,938.736],[-1.333471,43.007015,938.841],[-1.333413,43.006997,938.76],[-1.333346,43.006989,938.881],[-1.333286,43.00697,938.875],[-1.33322,43.006968,939.222],[-1.333151,43.00698,940.062],[-1.333078,43.00698,940.508],[-1.333013,43.00698,940.708],[-1.332942,43.006976,940.638],[-1.332882,43.006964,940.434],[-1.332814,43.006986,940.946],[-1.332747,43.00701,941.183],[-1.332685,43.00702,940.748],[-1.332616,43.007023,940.127],[-1.332542,43.007035,939.748],[-1.332481,43.007059,939.712],[-1.332421,43.007086,939.625],[-1.332341,43.0071,938.826],[-1.332273,43.007096,937.808],[-1.332223,43.007063,936.708],[-1.332171,43.007033,936.798],[-1.332104,43.007022,937.164],[-1.33204,43.007019,937.646],[-1.331977,43.007013,938.033],[-1.331906,43.007001,938.288],[-1.331825,43.006987,938.297],[-1.33176,43.006981,938.318],[-1.331698,43.006979,938.582],[-1.331632,43.006985,938.588],[-1.331572,43.007015,938.624],[-1.33152,43.007045,938.826],[-1.331464,43.007079,939.008],[-1.331398,43.007081,938.514],[-1.331341,43.007062,938.34],[-1.331283,43.007036,938.042],[-1.331225,43.007008,937.779],[-1.331171,43.006986,937.584],[-1.331116,43.006959,937.293],[-1.331049,43.006928,937.774],[-1.330988,43.006891,938.128],[-1.330921,43.00688,938.985],[-1.330854,43.006887,939.989],[-1.330793,43.006897,940.317],[-1.330722,43.006906,940.408],[-1.330661,43.006921,940.634],[-1.330637,43.006964,941.31],[-1.330567,43.006982,941.552],[-1.330499,43.006995,941.689],[-1.330433,43.006988,941.374],[-1.330364,43.00698,941.083],[-1.330301,43.006981,940.964],[-1.330237,43.006976,941.148],[-1.33017,43.006968,941.698],[-1.330101,43.006959,942.215],[-1.330043,43.006944,942.526],[-1.329984,43.00693,942.808],[-1.329921,43.00692,942.635],[-1.32985,43.006919,942.661],[-1.329786,43.006921,942.743],[-1.329718,43.006928,942.79],[-1.329649,43.006926,942.265],[-1.329589,43.006937,941.914],[-1.32954,43.006974,942.245],[-1.32949,43.007002,942.249],[-1.329429,43.007014,942.117],[-1.329366,43.007003,942.387],[-1.329301,43.006989,942.615],[-1.329231,43.006996,943.108],[-1.329162,43.007018,943.847],[-1.329114,43.007051,944.573],[-1.329055,43.007076,945.065],[-1.328997,43.007095,945.532],[-1.328982,43.007146,946.027],[-1.328984,43.007192,946.416],[-1.328974,43.007247,947.137],[-1.328977,43.007292,947.821],[-1.328987,43.007338,948.647],[-1.328993,43.007386,949.429],[-1.329012,43.007431,950.221],[-1.329026,43.007481,951.208],[-1.329015,43.007527,951.99],[-1.328992,43.007576,952.746],[-1.328983,43.007629,953.558],[-1.328987,43.007675,954.315],[-1.328979,43.007734,955.26],[-1.328956,43.007783,955.889],[-1.32893,43.007828,956.67],[-1.32888,43.007887,957.354],[-1.328831,43.007915,957.747],[-1.328777,43.007936,957.829],[-1.328707,43.00795,957.721],[-1.328639,43.007961,957.508],[-1.328569,43.007975,957.63],[-1.328502,43.007998,958.036],[-1.328433,43.008021,958.518],[-1.328373,43.008042,958.865],[-1.328332,43.008076,959.47],[-1.32829,43.008116,959.679],[-1.328256,43.008156,960.09],[-1.328221,43.008196,960.224],[-1.328198,43.008238,960.714],[-1.328174,43.008286,961.254],[-1.328144,43.008339,961.709],[-1.328086,43.008359,961.208],[-1.328037,43.008389,961.317],[-1.327978,43.00842,961.693],[-1.327911,43.008439,961.645],[-1.327847,43.008447,961.412],[-1.327786,43.008464,961.467],[-1.327724,43.008489,961.576],[-1.327653,43.008508,961.447],[-1.327598,43.008541,961.631],[-1.327554,43.008578,961.963],[-1.327503,43.00862,962.244],[-1.327451,43.008647,962.118],[-1.327394,43.008674,961.808],[-1.327346,43.008707,961.982],[-1.32731,43.008745,962.278],[-1.327259,43.008774,962.04],[-1.327207,43.0088,962.067],[-1.327149,43.008816,962.072],[-1.327087,43.008839,962.331],[-1.327017,43.008867,962.732],[-1.326955,43.008885,962.926],[-1.326878,43.008883,963.384],[-1.326809,43.008871,963.407],[-1.326746,43.008859,963.417],[-1.326671,43.008852,963.608],[-1.326601,43.008849,962.994],[-1.326535,43.008863,962.71],[-1.326471,43.008877,962.512],[-1.326388,43.008884,961.949],[-1.326325,43.008884,961.614],[-1.326253,43.008889,961.513],[-1.326194,43.008904,961.774],[-1.326131,43.008922,961.928],[-1.326076,43.008942,962.026],[-1.326009,43.008968,961.947],[-1.325953,43.008996,962.011],[-1.325888,43.009041,962.408],[-1.325843,43.009079,962.958],[-1.325801,43.009117,963.434],[-1.32576,43.009152,963.946],[-1.325708,43.009192,964.233],[-1.325651,43.009225,964.298],[-1.325597,43.009257,964.287],[-1.325557,43.009295,964.358],[-1.325533,43.009337,964.712],[-1.325466,43.009357,963.947],[-1.325409,43.009322,962.629],[-1.325361,43.009287,961.621],[-1.325314,43.009255,960.708],[-1.325273,43.009218,960.13],[-1.325237,43.009175,959.386],[-1.325209,43.00912,958.158],[-1.325204,43.009071,957.395],[-1.325195,43.009023,956.52],[-1.325194,43.008963,955.789],[-1.325202,43.008917,955.13],[-1.325206,43.008865,954.654],[-1.325136,43.008877,954.449],[-1.325106,43.008921,954.702],[-1.325072,43.008965,954.822],[-1.325038,43.009016,954.808],[-1.325024,43.009064,954.97],[-1.324998,43.009105,954.886],[-1.324933,43.009084,954.258],[-1.324868,43.009062,953.685],[-1.324784,43.009042,952.72],[-1.32471,43.009031,952.159],[-1.324638,43.009018,952.36],[-1.324638,43.009018,952.334],[-1.324575,43.009003,952.445],[-1.324516,43.008978,952.347],[-1.324465,43.008946,951.911],[-1.32441,43.008909,951.508],[-1.32441,43.008909,951.59],[-1.324363,43.008872,951.176],[-1.324314,43.008823,950.898],[-1.324314,43.008823,950.855],[-1.324273,43.008783,950.56],[-1.324218,43.008734,950.159],[-1.324164,43.008687,949.91],[-1.324164,43.008687,949.994],[-1.324122,43.008651,949.984],[-1.324074,43.008616,950.107],[-1.324038,43.008576,950.217],[-1.32399,43.008539,950.608],[-1.323938,43.008507,951.024],[-1.323923,43.008458,951.07],[-1.323923,43.008458,951.052],[-1.323892,43.008399,951.289],[-1.323867,43.008355,951.584],[-1.323831,43.008311,951.973],[-1.323801,43.008258,952.044],[-1.32377,43.008217,952.338],[-1.323723,43.008184,952.912],[-1.323674,43.008142,953.532],[-1.323627,43.00811,954.105],[-1.323581,43.008077,954.408],[-1.323528,43.008041,954.517],[-1.323475,43.008009,954.633],[-1.323419,43.007977,954.845],[-1.323362,43.007944,955.052],[-1.323299,43.007931,954.817],[-1.32324,43.007916,954.226],[-1.323164,43.00792,953.567],[-1.323094,43.007949,953.071],[-1.323041,43.007981,952.536],[-1.322969,43.008024,951.617],[-1.322903,43.008063,950.918],[-1.322878,43.008106,951.008],[-1.32282,43.008143,950.689],[-1.322773,43.008182,950.345],[-1.322732,43.008223,950.117],[-1.322692,43.008264,950.094],[-1.322659,43.008307,950.099],[-1.322617,43.008341,949.728],[-1.322609,43.008391,950.049],[-1.322553,43.00843,949.523],[-1.322491,43.008457,948.855],[-1.322434,43.008489,948.507],[-1.322377,43.008532,948.417],[-1.322315,43.008563,948.208],[-1.322247,43.008593,948.021],[-1.322179,43.00862,947.837],[-1.32213,43.008648,947.779],[-1.32208,43.008677,947.766],[-1.322012,43.008688,947.511],[-1.321942,43.008705,947.31],[-1.321871,43.008718,947.281],[-1.3218,43.008733,947.285],[-1.321731,43.008735,946.916],[-1.321664,43.008749,947.076],[-1.321592,43.008758,947.213],[-1.321522,43.00877,947.508],[-1.321447,43.008776,947.787],[-1.321383,43.008783,947.993],[-1.321317,43.008797,948.255],[-1.321252,43.008811,948.472],[-1.321183,43.00882,948.597],[-1.321122,43.008851,949.186],[-1.321056,43.008868,949.177],[-1.32099,43.008884,949.061],[-1.32099,43.008884,949.022],[-1.320925,43.008901,948.962],[-1.320856,43.008906,948.508],[-1.32079,43.008882,948.008],[-1.320734,43.008844,947.638],[-1.320673,43.008832,947.754],[-1.320619,43.00881,947.646],[-1.320567,43.008778,947.363],[-1.320495,43.008745,947.368],[-1.320437,43.008715,947.297],[-1.320374,43.008687,947.278],[-1.32032,43.008659,947.272],[-1.320269,43.008631,947.235],[-1.320212,43.008613,947.386],[-1.320152,43.008602,947.414],[-1.320081,43.008587,947.508],[-1.32002,43.008567,947.659],[-1.319951,43.008543,947.635],[-1.319927,43.008501,947.397],[-1.319906,43.008551,947.614],[-1.319838,43.008571,947.829],[-1.319753,43.008577,947.938],[-1.319693,43.008561,947.729],[-1.319628,43.00854,947.473],[-1.31957,43.008558,947.314],[-1.319508,43.008557,947.054],[-1.319443,43.008566,946.809],[-1.31939,43.008604,946.408],[-1.319343,43.008637,945.997],[-1.319338,43.008684,945.913],[-1.319321,43.008728,945.785],[-1.319304,43.008776,945.592],[-1.319274,43.008823,945.097],[-1.319217,43.008851,944.046],[-1.319207,43.008896,943.737],[-1.319221,43.008941,943.931],[-1.319185,43.008985,943.079],[-1.319153,43.009025,942.305],[-1.319094,43.009045,941.625],[-1.319028,43.009067,940.808],[-1.318982,43.009104,940.493],[-1.318926,43.009137,940.139]]}}]}