{"type":"FeatureCollection","features":[{"type":"Feature","properties":{"ruta_id":"64012452","nombre":"⛰️ FOZ DE LUMBIER ruta CIRCULAR por SL-NA113","blog_url":"https://www.rutasporelmonte.com/foz-de-lumbier-ruta-circular-por-sl-na113/"},"geometry":{"type":"LineString","coordinates":[[-1.307402,42.638262,415.999],[-1.307359,42.638211,415.907],[-1.307287,42.638164,415.927],[-1.30726,42.638144,415.908],[-1.307193,42.638079,415.945],[-1.307165,42.637991,415.463],[-1.307102,42.637965,415.439],[-1.307089,42.637967,415.97],[-1.307066,42.637932,416.341],[-1.307012,42.637878,415.973],[-1.306965,42.637764,415.414],[-1.306955,42.637739,414.951],[-1.306941,42.637688,414.941],[-1.306907,42.637623,414.981],[-1.306815,42.63747,414.909],[-1.306729,42.637409,414.908],[-1.306719,42.637373,414.94],[-1.306733,42.637343,414.998],[-1.306639,42.637199,414.914],[-1.306563,42.637116,414.935],[-1.306496,42.637041,414.926],[-1.306387,42.636976,414.438],[-1.306362,42.636974,414.939],[-1.306353,42.63698,414.946],[-1.30635,42.636985,414.459],[-1.306351,42.636986,414.903],[-1.306345,42.636938,415.423],[-1.306304,42.636892,415.408],[-1.306115,42.63672,414.921],[-1.306006,42.636602,414.949],[-1.305972,42.636576,415.475],[-1.305899,42.636521,414.946],[-1.305801,42.63638,415.487],[-1.305767,42.636336,415.479],[-1.305664,42.636265,415.42],[-1.305632,42.63627,415.477],[-1.305618,42.636245,415.993],[-1.305576,42.636214,415.965],[-1.305514,42.636192,415.921],[-1.305423,42.636253,417.808],[-1.305348,42.6363,419.225],[-1.305307,42.636317,419.293],[-1.305165,42.636416,420.759],[-1.305139,42.636432,421.13],[-1.305078,42.636468,421.631],[-1.304927,42.636495,423.153],[-1.304801,42.636525,425.534],[-1.304778,42.636518,425.561],[-1.304741,42.636524,425.576],[-1.304575,42.636586,427.49],[-1.30455,42.636596,427.419],[-1.304372,42.636614,429.308],[-1.304284,42.636618,430.373],[-1.304273,42.636617,430.361],[-1.304218,42.636618,431.217],[-1.304069,42.636628,433.268],[-1.304038,42.63663,433.289],[-1.303894,42.636649,434.131],[-1.303863,42.636654,434.142],[-1.303803,42.636669,434.699],[-1.303639,42.636687,434.637],[-1.303548,42.636731,434.649],[-1.303478,42.6368,434.613],[-1.303327,42.636844,435.608],[-1.303168,42.636885,437.069],[-1.303053,42.636911,437.567],[-1.302959,42.636937,438.953],[-1.302948,42.636938,438.514],[-1.302869,42.636968,439.455],[-1.302759,42.637009,441.387],[-1.302741,42.63702,440.988],[-1.302649,42.636997,441.875],[-1.302513,42.63697,443.728],[-1.302433,42.636964,444.789],[-1.302279,42.636995,446.117],[-1.302224,42.637007,446.608],[-1.302173,42.636999,447.138],[-1.302022,42.636996,448.556],[-1.301918,42.636996,450.012],[-1.301861,42.636992,451.453],[-1.301744,42.636997,452.914],[-1.301723,42.636997,453.426],[-1.301619,42.637014,455.847],[-1.301575,42.636987,456.774],[-1.301504,42.636947,458.697],[-1.301461,42.636922,459.623],[-1.30143,42.636868,459.625],[-1.301412,42.636855,459.608],[-1.30139,42.636807,460.655],[-1.301376,42.636756,461.023],[-1.301354,42.636733,461.559],[-1.301335,42.636697,462.06],[-1.30133,42.636674,463.071],[-1.301299,42.636644,463.423],[-1.301264,42.636583,464.954],[-1.301272,42.636534,465.921],[-1.301243,42.636508,466.373],[-1.301162,42.636458,467.885],[-1.301157,42.636453,467.813],[-1.301095,42.636404,468.708],[-1.30103,42.636348,470.253],[-1.301006,42.636341,470.731],[-1.300948,42.636327,471.127],[-1.300914,42.636262,473.198],[-1.300835,42.636281,475.099],[-1.300777,42.636265,476.951],[-1.300725,42.636227,478.392],[-1.300699,42.636178,479.859],[-1.300673,42.636141,480.873],[-1.30062,42.636084,482.785],[-1.300597,42.636017,483.213],[-1.300528,42.635967,484.108],[-1.300475,42.635897,485.633],[-1.300397,42.635841,487.081],[-1.300332,42.635807,488.017],[-1.300282,42.63578,489.438],[-1.300254,42.635767,489.989],[-1.300206,42.635751,490.891],[-1.300175,42.635755,490.872],[-1.300096,42.635747,491.839],[-1.300071,42.635756,491.884],[-1.300006,42.635764,492.807],[-1.299949,42.63575,493.717],[-1.29992,42.635748,494.208],[-1.299882,42.63573,494.794],[-1.299848,42.63571,494.732],[-1.299786,42.635722,495.218],[-1.299686,42.635726,496.119],[-1.299591,42.635683,497.15],[-1.299558,42.635675,497.642],[-1.299402,42.635646,499.543],[-1.299304,42.63563,500.52],[-1.299189,42.635603,501.935],[-1.299169,42.635569,502.486],[-1.299114,42.635506,503.814],[-1.299025,42.635499,505.708],[-1.298992,42.635498,506.249],[-1.298903,42.635473,506.747],[-1.298838,42.635461,507.773],[-1.298743,42.635422,509.194],[-1.298726,42.63541,509.635],[-1.298607,42.635367,511.557],[-1.298498,42.635342,513.038],[-1.298473,42.635334,513.445],[-1.298431,42.635316,513.958],[-1.298314,42.635267,515.852],[-1.298282,42.63525,516.317],[-1.298208,42.635169,517.808],[-1.2982,42.635162,518.281],[-1.298187,42.635145,518.729],[-1.298132,42.635114,519.765],[-1.29809,42.635083,520.646],[-1.29797,42.635046,523.027],[-1.297956,42.635041,523.049],[-1.297897,42.635039,524.55],[-1.297829,42.63502,525.597],[-1.297823,42.635012,525.513],[-1.297768,42.634946,526.943],[-1.297723,42.634899,527.407],[-1.297681,42.634868,528.308],[-1.297577,42.634801,529.887],[-1.297439,42.634732,531.285],[-1.297339,42.634678,532.231],[-1.297252,42.634622,533.172],[-1.297179,42.634588,534.673],[-1.297158,42.634579,534.665],[-1.297024,42.634488,536.036],[-1.296957,42.634457,536.563],[-1.296831,42.634431,537.551],[-1.296646,42.634411,539.401],[-1.296639,42.634414,539.911],[-1.296608,42.634418,540.408],[-1.296557,42.634402,540.811],[-1.296546,42.634401,540.859],[-1.296442,42.634386,541.825],[-1.296402,42.634387,542.396],[-1.296319,42.634374,542.837],[-1.296174,42.634345,544.219],[-1.296151,42.63434,544.75],[-1.296063,42.634322,545.647],[-1.296027,42.634314,545.698],[-1.295954,42.634291,546.615],[-1.295862,42.634282,547.126],[-1.295727,42.634239,548.508],[-1.295684,42.63423,549.025],[-1.295661,42.634217,549.573],[-1.295593,42.634204,550.099],[-1.295447,42.634144,550.96],[-1.29533,42.634086,552.911],[-1.29527,42.634047,553.333],[-1.295179,42.633976,554.874],[-1.295101,42.633891,556.271],[-1.295051,42.633847,556.726],[-1.294972,42.63376,558.147],[-1.294963,42.633754,558.111],[-1.294908,42.633683,559.608],[-1.294834,42.633608,561.038],[-1.294742,42.633495,562.526],[-1.294667,42.63341,564.442],[-1.294653,42.633397,564.463],[-1.294612,42.633348,564.964],[-1.294549,42.633256,566.356],[-1.294487,42.633172,567.327],[-1.29444,42.633106,567.854],[-1.294418,42.633084,568.259],[-1.294334,42.632968,568.703],[-1.294279,42.632872,569.223],[-1.29418,42.632757,569.708],[-1.294092,42.632653,570.251],[-1.294004,42.632555,569.769],[-1.29398,42.632524,570.215],[-1.293944,42.632478,570.236],[-1.293831,42.63238,570.227],[-1.293817,42.632374,570.269],[-1.293798,42.632366,570.61],[-1.293773,42.632352,570.647],[-1.293738,42.63233,570.652],[-1.293574,42.632253,571.653],[-1.293434,42.632199,572.108],[-1.29329,42.63213,572.608],[-1.293153,42.632064,573.511],[-1.292983,42.631983,573.579],[-1.292844,42.631924,574.035],[-1.292684,42.631849,575.016],[-1.292671,42.631842,575.087],[-1.292585,42.631807,575.449],[-1.292413,42.631766,575.47],[-1.292399,42.631763,575.927],[-1.292351,42.63174,575.929],[-1.292332,42.631722,575.9],[-1.292233,42.631664,576.42],[-1.292189,42.631647,576.408],[-1.292156,42.63163,576.448],[-1.292037,42.631566,577.866],[-1.291892,42.631485,578.852],[-1.291763,42.631435,579.393],[-1.291697,42.631406,579.384],[-1.291524,42.631335,580.246],[-1.291384,42.631302,580.767],[-1.291203,42.631266,581.214],[-1.291055,42.631238,581.747],[-1.291,42.631244,581.729],[-1.291001,42.631244,581.721],[-1.290807,42.63119,582.208],[-1.290784,42.631177,582.28],[-1.290743,42.631177,582.268],[-1.290692,42.631172,583.154],[-1.290588,42.631178,582.735],[-1.290489,42.631167,583.616],[-1.290434,42.631186,583.638],[-1.290363,42.631195,584.159],[-1.290212,42.631213,585.566],[-1.290112,42.631231,586.022],[-1.289976,42.631284,587.062],[-1.289795,42.631287,587.908],[-1.289713,42.631311,588.408],[-1.2896,42.631304,588.968],[-1.28944,42.631314,590.326],[-1.2893,42.6313,590.852],[-1.289168,42.631278,591.343],[-1.288979,42.63127,591.834],[-1.288946,42.631266,592.336],[-1.288896,42.631263,592.757],[-1.288844,42.631233,592.774],[-1.288745,42.631135,592.356],[-1.288736,42.631111,592.359],[-1.288723,42.630984,590.814],[-1.288705,42.630912,590.308],[-1.288676,42.630843,589.971],[-1.28865,42.63073,589.419],[-1.288655,42.630645,588.935],[-1.288644,42.630578,588.476],[-1.288625,42.630506,587.927],[-1.288614,42.630481,587.979],[-1.288616,42.630374,587.03],[-1.288596,42.630262,586.067],[-1.28857,42.630172,585.193],[-1.288566,42.630089,584.665],[-1.288596,42.630035,584.121],[-1.288595,42.62993,583.108],[-1.288592,42.629867,582.755],[-1.288595,42.629841,582.733],[-1.288581,42.629767,582.299],[-1.288561,42.629651,581.29],[-1.288511,42.629597,581.211],[-1.288477,42.629529,580.733],[-1.288441,42.629481,580.234],[-1.28842,42.629462,580.231],[-1.288375,42.629418,579.832],[-1.28834,42.629368,579.892],[-1.288314,42.629314,579.311],[-1.288296,42.629216,577.808],[-1.288215,42.629112,576.979],[-1.288159,42.629025,576.447],[-1.288098,42.628964,575.923],[-1.288031,42.628908,575.454],[-1.288017,42.628886,575.435],[-1.287902,42.628779,574.517],[-1.287794,42.628677,573.018],[-1.287714,42.628587,572.685],[-1.287705,42.62858,572.632],[-1.287607,42.628464,571.692],[-1.28752,42.628374,570.611],[-1.287473,42.62834,570.608],[-1.287406,42.628288,570.259],[-1.287337,42.628237,569.737],[-1.287231,42.628152,569.733],[-1.28722,42.628132,569.244],[-1.28715,42.628099,569.275],[-1.287025,42.628121,568.787],[-1.287006,42.628126,568.768],[-1.286925,42.628133,567.885],[-1.286819,42.628139,566.353],[-1.286809,42.628141,566.304],[-1.286678,42.628138,565.314],[-1.286649,42.628141,564.908],[-1.286605,42.628149,564.981],[-1.28647,42.628113,563.979],[-1.286329,42.628089,562.945],[-1.286295,42.628074,562.546],[-1.286172,42.628008,562.077],[-1.286086,42.627967,561.049],[-1.285996,42.62788,560.53],[-1.285791,42.627791,558.627],[-1.285716,42.627756,558.615],[-1.285674,42.627642,558.165],[-1.285642,42.627504,557.211],[-1.285625,42.627421,556.708],[-1.2856,42.627272,555.337],[-1.285627,42.62721,554.325],[-1.285644,42.627073,550.951],[-1.285698,42.626957,548.552],[-1.285712,42.626876,546.663],[-1.285721,42.626855,546.635],[-1.285793,42.62675,544.796],[-1.285873,42.626634,543.283],[-1.285919,42.626535,541.372],[-1.285968,42.626443,539.913],[-1.286019,42.626311,537.514],[-1.28602,42.626292,537.008],[-1.286023,42.626267,536.533],[-1.286065,42.626161,534.181],[-1.286178,42.626026,531.767],[-1.286175,42.625971,531.258],[-1.286188,42.625965,531.749],[-1.286183,42.625958,531.271],[-1.286215,42.62597,531.212],[-1.286332,42.625936,530.719],[-1.286448,42.625887,528.834],[-1.286461,42.625883,528.855],[-1.286502,42.625867,528.81],[-1.286665,42.625796,527.908],[-1.28671,42.625781,526.989],[-1.286756,42.625756,526.427],[-1.286882,42.625684,525.513],[-1.286893,42.625676,525.054],[-1.287004,42.625628,524.055],[-1.287083,42.62558,523.057],[-1.287195,42.625501,522.678],[-1.287218,42.625467,522.645],[-1.287316,42.625417,522.669],[-1.287424,42.625354,521.104],[-1.287482,42.625317,520.224],[-1.287497,42.625319,519.708],[-1.28765,42.625271,518.282],[-1.287711,42.625248,516.81],[-1.287872,42.625215,514.946],[-1.287924,42.625213,514.437],[-1.288006,42.625206,513.998],[-1.288045,42.625194,513.42],[-1.2882,42.62516,511.581],[-1.288356,42.625109,509.648],[-1.288432,42.625078,508.165],[-1.288442,42.625079,508.668],[-1.288608,42.625056,507.214],[-1.288764,42.625057,506.708],[-1.288927,42.625069,506.732],[-1.28896,42.625075,506.75],[-1.289051,42.625085,506.236],[-1.289208,42.625092,504.887],[-1.289301,42.625065,504.388],[-1.289404,42.624999,503.36],[-1.289413,42.624983,502.931],[-1.289408,42.624994,502.998],[-1.289364,42.625008,502.979],[-1.289279,42.624983,502.405],[-1.289151,42.624955,500.525],[-1.289108,42.624958,500.008],[-1.288978,42.624911,498.143],[-1.288847,42.624856,496.171],[-1.288828,42.624852,496.127],[-1.288705,42.62484,494.298],[-1.288655,42.624801,493.229],[-1.288643,42.624802,493.291],[-1.288681,42.624757,491.332],[-1.288653,42.624713,489.919],[-1.288616,42.62466,488.482],[-1.288624,42.624636,487.543],[-1.288566,42.624602,485.617],[-1.288566,42.624601,485.608],[-1.288582,42.624551,483.664],[-1.288576,42.624491,481.782],[-1.288577,42.624446,480.898],[-1.288624,42.624398,477.999],[-1.288594,42.624323,475.96],[-1.28858,42.624239,475.022],[-1.288563,42.624176,473.113],[-1.288519,42.624058,470.23],[-1.28851,42.624007,468.743],[-1.288541,42.623891,467.864],[-1.288535,42.623859,467.31],[-1.288497,42.623731,464.408],[-1.288516,42.623711,464.49],[-1.288519,42.623711,464.478],[-1.288514,42.623695,463.944],[-1.288515,42.623678,463.425],[-1.288536,42.623621,463.086],[-1.288508,42.623555,462.058],[-1.288541,42.623485,461.039],[-1.28855,42.623403,460.686],[-1.288559,42.623304,459.671],[-1.288561,42.623207,459.141],[-1.288574,42.62312,458.615],[-1.288528,42.623034,458.208],[-1.288463,42.622987,457.783],[-1.288413,42.622972,457.751],[-1.288309,42.622821,455.877],[-1.2883,42.622733,454.858],[-1.288308,42.622706,454.869],[-1.288308,42.622698,454.821],[-1.288306,42.622692,454.822],[-1.288306,42.62269,455.329],[-1.288306,42.622689,454.891],[-1.288307,42.622678,454.881],[-1.288318,42.622626,454.319],[-1.288334,42.622619,454.808],[-1.288379,42.622564,450.545],[-1.288419,42.622523,449.053],[-1.288497,42.622608,447.699],[-1.288518,42.622729,446.19],[-1.288538,42.622825,444.741],[-1.288525,42.622836,444.763],[-1.288746,42.622899,441.894],[-1.288928,42.62297,439.911],[-1.288937,42.622979,439.474],[-1.289007,42.623041,437.556],[-1.289061,42.623085,436.121],[-1.289131,42.623211,434.608],[-1.289166,42.623226,433.633],[-1.289219,42.623278,432.261],[-1.289321,42.623404,431.257],[-1.289438,42.623482,430.898],[-1.289526,42.623525,430.349],[-1.289636,42.623592,429.811],[-1.28969,42.62363,428.832],[-1.289812,42.623643,428.479],[-1.289842,42.623617,427.944],[-1.289914,42.623622,427.405],[-1.29007,42.623689,426.915],[-1.290081,42.623699,427.408],[-1.29024,42.623771,426.94],[-1.290264,42.623788,426.918],[-1.290285,42.623811,426.954],[-1.290373,42.623844,426.045],[-1.290464,42.623834,426.426],[-1.290491,42.623818,425.538],[-1.290506,42.62378,425.099],[-1.290508,42.623771,425.046],[-1.290518,42.62365,422.673],[-1.290529,42.6236,421.185],[-1.290564,42.62353,418.713],[-1.290591,42.623496,418.308],[-1.290604,42.623494,418.353],[-1.290655,42.623477,418.371],[-1.290676,42.62344,416.837],[-1.290668,42.623437,417.378],[-1.290607,42.623435,417.319],[-1.290604,42.623437,417.831],[-1.290601,42.623439,417.382],[-1.290603,42.623435,417.349],[-1.290596,42.623436,416.861],[-1.290595,42.623434,417.321],[-1.290601,42.623437,416.813],[-1.2906,42.623432,416.808],[-1.290615,42.62344,416.822],[-1.290572,42.623425,416.87],[-1.290572,42.623425,416.876],[-1.290631,42.623441,416.877],[-1.290693,42.62344,416.858],[-1.290909,42.623498,416.36],[-1.29094,42.623503,416.351],[-1.291128,42.623586,416.888],[-1.291304,42.623619,416.823],[-1.291504,42.623666,416.883],[-1.291666,42.623727,416.811],[-1.291732,42.62374,416.808],[-1.291903,42.623771,416.818],[-1.292088,42.623825,416.856],[-1.292293,42.623827,416.892],[-1.292472,42.623857,416.883],[-1.292554,42.623859,417.314],[-1.29274,42.623882,417.316],[-1.292757,42.623886,417.387],[-1.292842,42.623901,417.884],[-1.292932,42.623908,417.355],[-1.293091,42.623941,417.307],[-1.293306,42.623959,417.317],[-1.293472,42.623961,417.308],[-1.293492,42.623961,416.831],[-1.29356,42.623978,417.329],[-1.293702,42.623985,417.375],[-1.293748,42.623993,417.316],[-1.293869,42.624022,417.377],[-1.294006,42.624023,417.889],[-1.294124,42.624034,417.86],[-1.294188,42.624038,417.897],[-1.294242,42.624047,418.337],[-1.29437,42.624044,418.349],[-1.294522,42.624075,417.313],[-1.294718,42.624101,417.808],[-1.294901,42.624125,417.899],[-1.294932,42.624126,417.817],[-1.294975,42.624125,417.893],[-1.295176,42.624165,418.334],[-1.295378,42.62417,418.325],[-1.295447,42.624182,418.347],[-1.295666,42.624211,418.758],[-1.295846,42.624234,418.335],[-1.295906,42.624251,418.321],[-1.29609,42.624278,418.341],[-1.296238,42.624288,418.305],[-1.296436,42.624297,418.308],[-1.296647,42.624303,418.338],[-1.296787,42.624313,418.396],[-1.296982,42.624332,418.372],[-1.297116,42.624348,418.323],[-1.297327,42.624347,418.764],[-1.297382,42.62434,418.396],[-1.297569,42.624371,418.727],[-1.297766,42.624379,418.334],[-1.297958,42.624409,418.374],[-1.298184,42.624419,418.356],[-1.298381,42.624435,418.321],[-1.298487,42.624461,418.708],[-1.298661,42.624479,418.793],[-1.298802,42.624491,418.731],[-1.298885,42.624498,418.797],[-1.299012,42.624513,418.718],[-1.299269,42.624541,418.729],[-1.299468,42.624592,418.731],[-1.299672,42.624641,418.752],[-1.299849,42.624681,418.789],[-1.300129,42.624727,418.734],[-1.300327,42.624762,418.755],[-1.300501,42.624767,418.71],[-1.300554,42.624771,418.708],[-1.300805,42.624826,419.219],[-1.30093,42.62484,419.277],[-1.301006,42.624869,419.213],[-1.301232,42.624932,418.784],[-1.301348,42.624986,419.215],[-1.301377,42.624993,419.277],[-1.301492,42.625032,419.728],[-1.301726,42.625077,419.785],[-1.301811,42.625189,419.781],[-1.301824,42.625277,419.761],[-1.301824,42.625397,419.717],[-1.301885,42.625727,420.208],[-1.301895,42.625796,420.264],[-1.301904,42.625921,420.742],[-1.301898,42.626048,420.238],[-1.301922,42.626166,420.289],[-1.301922,42.62628,419.75],[-1.301911,42.626427,419.772],[-1.30192,42.626546,419.773],[-1.301897,42.626631,419.77],[-1.301875,42.62681,420.733],[-1.301848,42.626958,419.723],[-1.301836,42.627035,417.815],[-1.301883,42.627151,416.308],[-1.302183,42.62701,411.559],[-1.302265,42.626983,410.137],[-1.302347,42.6269,408.783],[-1.302473,42.626851,408.254],[-1.30261,42.626767,408.285],[-1.302598,42.626776,407.727],[-1.302561,42.626779,407.738],[-1.302573,42.626788,407.735],[-1.302569,42.626806,407.783],[-1.30253,42.6268,407.725],[-1.302497,42.626792,408.217],[-1.302481,42.626757,408.708],[-1.302501,42.626751,408.274],[-1.302508,42.626755,409.132],[-1.302527,42.626753,409.188],[-1.302575,42.626772,409.189],[-1.302554,42.626774,409.66],[-1.302485,42.626774,409.612],[-1.302457,42.626785,410.173],[-1.30243,42.626784,410.17],[-1.302416,42.626795,410.678],[-1.302385,42.626812,410.133],[-1.302385,42.626812,410.126],[-1.302362,42.626816,411.108],[-1.30236,42.626813,410.683],[-1.30236,42.626815,410.141],[-1.30235,42.626828,410.667],[-1.302332,42.626826,411.148],[-1.302333,42.626828,411.559],[-1.302334,42.626836,411.581],[-1.30233,42.626839,411.522],[-1.302341,42.626839,412.069],[-1.302343,42.626845,412.557],[-1.302289,42.626873,413.0],[-1.302297,42.626868,413.52],[-1.302307,42.626873,414.408],[-1.302305,42.626875,414.951],[-1.302282,42.626875,416.889],[-1.302263,42.62688,418.775],[-1.302248,42.626881,420.236],[-1.302239,42.626851,421.687],[-1.302293,42.626848,422.659],[-1.302234,42.626871,424.52],[-1.302226,42.626865,425.087],[-1.302249,42.626921,425.513],[-1.302163,42.62698,426.043],[-1.302125,42.62704,426.007],[-1.302124,42.627091,426.008],[-1.302,42.627121,426.057],[-1.301855,42.627086,426.035],[-1.301821,42.627127,426.041],[-1.301832,42.627202,426.442],[-1.301759,42.627297,426.493],[-1.301722,42.627427,426.475],[-1.301691,42.627537,426.456],[-1.301674,42.627589,426.933],[-1.301666,42.627641,426.416],[-1.301628,42.627707,426.476],[-1.301614,42.627772,426.413],[-1.30155,42.627873,426.408],[-1.301502,42.627978,426.487],[-1.301492,42.628023,426.415],[-1.301447,42.628091,426.081],[-1.301446,42.628141,425.512],[-1.301448,42.628154,425.553],[-1.301443,42.628173,426.085],[-1.30141,42.628214,426.026],[-1.301396,42.628285,426.043],[-1.301373,42.628384,426.081],[-1.301363,42.628389,425.561],[-1.301321,42.628454,426.017],[-1.301309,42.628471,426.008],[-1.301285,42.628511,426.034],[-1.301222,42.628647,426.082],[-1.301187,42.628746,426.098],[-1.301177,42.628771,426.049],[-1.301094,42.628903,426.05],[-1.30109,42.628924,426.042],[-1.301082,42.628945,426.023],[-1.301055,42.628985,426.02],[-1.300992,42.629086,426.474],[-1.300973,42.629127,426.456],[-1.300971,42.629207,427.421],[-1.300951,42.629234,427.908],[-1.30094,42.629266,428.443],[-1.300915,42.629313,428.881],[-1.300879,42.629392,428.867],[-1.300871,42.629443,429.358],[-1.30085,42.629521,429.819],[-1.30079,42.629539,429.371],[-1.300741,42.629632,429.372],[-1.300704,42.629705,429.849],[-1.300642,42.629834,429.826],[-1.300639,42.629857,429.847],[-1.30056,42.629908,429.811],[-1.300506,42.629974,429.808],[-1.300466,42.630029,429.848],[-1.300424,42.630121,429.836],[-1.300404,42.630199,429.882],[-1.300364,42.630304,429.833],[-1.300304,42.630379,430.354],[-1.300284,42.630463,430.386],[-1.300279,42.630539,430.337],[-1.300298,42.63062,430.354],[-1.300339,42.630692,430.312],[-1.300328,42.630781,429.832],[-1.300375,42.63084,430.305],[-1.300362,42.630917,430.808],[-1.300387,42.630985,431.227],[-1.300422,42.63107,432.255],[-1.300455,42.631137,432.281],[-1.3005,42.631231,432.712],[-1.300559,42.631321,432.773],[-1.300605,42.631424,433.245],[-1.300661,42.631495,434.176],[-1.300704,42.63158,433.673],[-1.30078,42.63168,434.141],[-1.300829,42.631752,434.681],[-1.300876,42.631868,434.609],[-1.300965,42.631948,435.108],[-1.300983,42.632023,435.14],[-1.301039,42.632144,435.618],[-1.301111,42.632214,435.684],[-1.30115,42.632273,436.135],[-1.301271,42.632363,436.146],[-1.301335,42.632427,437.038],[-1.301417,42.632515,437.099],[-1.301519,42.632595,437.546],[-1.301667,42.632708,438.018],[-1.301789,42.632798,438.098],[-1.301895,42.63289,438.517],[-1.302013,42.633012,438.908],[-1.30211,42.633041,439.437],[-1.302198,42.633166,439.435],[-1.302324,42.633237,439.981],[-1.302513,42.633359,439.922],[-1.302626,42.63345,440.433],[-1.302829,42.633565,441.375],[-1.302987,42.633696,441.816],[-1.303187,42.633785,441.873],[-1.303342,42.633891,442.857],[-1.303473,42.634,443.3],[-1.303673,42.634146,443.72],[-1.303812,42.634239,443.708],[-1.303999,42.634355,443.741],[-1.304098,42.634511,444.269],[-1.304346,42.634609,445.765],[-1.304451,42.634694,444.256],[-1.30462,42.634843,444.777],[-1.304808,42.634965,445.259],[-1.304951,42.635098,445.27],[-1.305162,42.635275,444.787],[-1.305253,42.635311,445.216],[-1.305288,42.635397,445.276],[-1.305377,42.635477,445.213],[-1.305432,42.635599,445.708],[-1.305491,42.635739,445.717],[-1.305616,42.635884,445.725],[-1.305645,42.636081,445.731],[-1.305681,42.63625,445.212],[-1.305714,42.636316,445.273],[-1.305853,42.63645,445.235],[-1.305926,42.636557,445.266],[-1.306045,42.636677,445.273],[-1.306069,42.636697,444.769],[-1.306115,42.636765,444.704],[-1.306252,42.636861,445.724],[-1.306371,42.636973,444.708],[-1.30643,42.637052,444.712],[-1.306609,42.637199,444.24],[-1.306716,42.637303,444.766],[-1.306768,42.637341,444.287],[-1.306815,42.637364,444.718],[-1.306832,42.637403,444.26],[-1.30696,42.63749,444.251],[-1.306983,42.637523,443.788],[-1.307103,42.637616,444.247],[-1.307148,42.637666,444.229],[-1.307156,42.637711,444.221],[-1.307215,42.63775,444.708],[-1.307374,42.637869,443.71],[-1.307398,42.637916,443.788],[-1.307267,42.638074,444.264],[-1.307228,42.638109,444.265],[-1.307188,42.638168,445.276],[-1.30716,42.63823,445.288],[-1.307166,42.638256,445.289]]}}]}