{"type":"FeatureCollection","features":[{"type":"Feature","properties":{"ruta_id":"65762765","nombre":"⛰️ PEÑA ALBA (1074 m) desde BEARTZUN","blog_url":"https://www.rutasporelmonte.com/pena-de-alba-desde-beartzun-en-baztan/"},"geometry":{"type":"LineString","coordinates":[[-1.470223,43.120367,381.241],[-1.470156,43.120359,379.081],[-1.47013,43.120311,377.709],[-1.470112,43.120265,378.008],[-1.470092,43.12021,377.28],[-1.470077,43.120161,377.529],[-1.470057,43.120105,377.231],[-1.470031,43.120058,377.05],[-1.470007,43.120012,376.886],[-1.469964,43.119973,376.561],[-1.469923,43.119932,377.59],[-1.469909,43.119875,378.229],[-1.469887,43.119819,378.588],[-1.469864,43.119776,378.824],[-1.469831,43.119728,379.226],[-1.469773,43.119706,380.508],[-1.469708,43.119687,382.034],[-1.469633,43.119675,383.143],[-1.469564,43.119655,383.275],[-1.4695,43.119647,384.624],[-1.469439,43.119632,386.15],[-1.469376,43.119636,386.915],[-1.469314,43.119621,387.734],[-1.469253,43.119608,388.843],[-1.469204,43.119575,389.919],[-1.469172,43.119535,390.209],[-1.469146,43.119494,391.119],[-1.469117,43.119447,392.408],[-1.469075,43.119405,393.127],[-1.469042,43.119362,394.646],[-1.469001,43.119321,395.618],[-1.468964,43.119281,396.877],[-1.468918,43.119244,397.923],[-1.468894,43.119198,398.958],[-1.468881,43.119145,399.187],[-1.468875,43.119092,399.086],[-1.468852,43.11905,399.288],[-1.46883,43.119005,400.224],[-1.468791,43.118962,400.826],[-1.468762,43.11892,400.808],[-1.468721,43.118886,400.714],[-1.468689,43.118841,400.753],[-1.468652,43.118803,401.555],[-1.468619,43.118764,401.094],[-1.468591,43.118717,401.14],[-1.468533,43.118685,400.915],[-1.468489,43.118646,400.964],[-1.468447,43.118602,402.133],[-1.46842,43.118546,402.439],[-1.468389,43.118504,403.401],[-1.468345,43.118469,404.221],[-1.46831,43.118428,405.208],[-1.468267,43.118393,405.999],[-1.468232,43.118354,407.058],[-1.468189,43.118303,407.65],[-1.468134,43.118251,408.819],[-1.468085,43.118224,409.535],[-1.468024,43.118204,409.63],[-1.467956,43.118176,411.289],[-1.467886,43.118153,410.978],[-1.467829,43.118115,410.653],[-1.467773,43.118088,411.004],[-1.467707,43.118065,411.214],[-1.46764,43.118063,411.108],[-1.467572,43.118065,411.541],[-1.46751,43.118077,412.44],[-1.467449,43.11807,412.192],[-1.467384,43.118053,412.621],[-1.467308,43.118035,412.897],[-1.467236,43.118017,414.072],[-1.467167,43.118008,414.371],[-1.467088,43.117984,414.76],[-1.467018,43.117987,415.599],[-1.466954,43.117986,416.107],[-1.466875,43.117982,416.027],[-1.466804,43.117986,416.408],[-1.466742,43.118007,416.515],[-1.466675,43.118018,416.694],[-1.466608,43.118023,416.636],[-1.466534,43.118016,417.435],[-1.466473,43.118,417.821],[-1.466411,43.117996,419.176],[-1.466349,43.117969,418.445],[-1.466292,43.117946,418.064],[-1.466227,43.117924,417.666],[-1.466161,43.117908,417.629],[-1.466091,43.117894,417.621],[-1.466033,43.117874,417.108],[-1.465982,43.117845,417.072],[-1.465922,43.117825,417.551],[-1.465863,43.117808,418.563],[-1.465797,43.117798,420.582],[-1.465734,43.117788,422.218],[-1.465665,43.117758,423.693],[-1.465605,43.117739,425.862],[-1.465546,43.117723,427.751],[-1.465495,43.117694,428.544],[-1.465452,43.117654,429.505],[-1.465392,43.117627,429.915],[-1.46533,43.117597,430.808],[-1.465262,43.11758,431.53],[-1.465187,43.117563,431.479],[-1.465112,43.117564,432.291],[-1.465046,43.117584,431.94],[-1.46498,43.117575,431.016],[-1.464935,43.117538,430.521],[-1.46489,43.117503,430.21],[-1.464827,43.117492,431.369],[-1.464759,43.1175,432.569],[-1.46468,43.117487,433.504],[-1.464621,43.117464,434.324],[-1.464569,43.11743,435.808],[-1.464497,43.117425,436.062],[-1.464434,43.117412,437.051],[-1.464371,43.117407,436.873],[-1.464294,43.117413,437.572],[-1.464244,43.117385,437.958],[-1.464206,43.117347,438.483],[-1.464142,43.117335,438.952],[-1.46408,43.117304,439.911],[-1.464028,43.117271,440.017],[-1.463973,43.117243,440.387],[-1.463925,43.117202,441.415],[-1.463882,43.117168,442.508],[-1.463864,43.117118,443.217],[-1.463837,43.117074,444.526],[-1.463777,43.117042,445.958],[-1.463702,43.117073,447.287],[-1.463624,43.117068,449.043],[-1.463558,43.117053,449.358],[-1.463501,43.117034,450.657],[-1.463445,43.117008,451.456],[-1.463387,43.116968,452.562],[-1.463302,43.116931,453.083],[-1.463236,43.11692,454.611],[-1.463177,43.1169,455.008],[-1.463108,43.116889,455.482],[-1.463029,43.116875,455.371],[-1.462956,43.116877,455.483],[-1.462887,43.116867,456.432],[-1.46281,43.116853,457.178],[-1.462743,43.116821,457.233],[-1.462685,43.1168,456.582],[-1.462615,43.116798,456.251],[-1.462553,43.116804,457.229],[-1.462493,43.11679,457.5],[-1.462427,43.116756,457.42],[-1.46237,43.116729,457.708],[-1.46232,43.116699,457.118],[-1.462254,43.116674,458.157],[-1.462185,43.116657,458.519],[-1.462112,43.116643,459.778],[-1.462047,43.116628,460.114],[-1.461989,43.116606,461.359],[-1.461927,43.116583,461.988],[-1.461868,43.116567,461.497],[-1.461797,43.116561,460.766],[-1.461737,43.116547,460.729],[-1.461675,43.116518,459.921],[-1.461613,43.116493,460.008],[-1.461552,43.116462,460.292],[-1.461505,43.116418,460.261],[-1.461447,43.116389,460.013],[-1.461387,43.116362,460.152],[-1.46133,43.11634,459.898],[-1.461272,43.11632,460.233],[-1.461201,43.116309,460.872],[-1.461137,43.116292,461.611],[-1.461075,43.11627,462.863],[-1.461009,43.116253,463.544],[-1.460952,43.116233,465.018],[-1.460902,43.116195,466.808],[-1.460847,43.116164,467.652],[-1.460792,43.116142,468.371],[-1.460733,43.116116,468.993],[-1.46067,43.116111,469.872],[-1.460604,43.116119,470.378],[-1.460539,43.116117,470.893],[-1.460473,43.116127,470.832],[-1.46041,43.116125,471.711],[-1.460358,43.116097,473.437],[-1.46032,43.116053,474.749],[-1.460295,43.11601,475.413],[-1.460235,43.115964,475.608],[-1.460207,43.115924,476.969],[-1.460177,43.115883,477.288],[-1.460137,43.115836,477.72],[-1.460169,43.115794,477.929],[-1.460136,43.11574,478.515],[-1.460079,43.115707,479.22],[-1.460017,43.115695,478.539],[-1.45995,43.115667,479.058],[-1.459914,43.115627,478.715],[-1.459869,43.115587,479.365],[-1.459811,43.115556,479.411],[-1.459767,43.115523,480.708],[-1.459789,43.115478,480.267],[-1.459776,43.115434,480.266],[-1.459752,43.115387,481.088],[-1.459726,43.115341,481.697],[-1.459682,43.115298,481.923],[-1.459648,43.115252,483.548],[-1.459621,43.115209,483.417],[-1.459596,43.115165,483.326],[-1.459592,43.115116,484.191],[-1.459581,43.115066,483.981],[-1.459565,43.115017,484.019],[-1.459553,43.114962,483.708],[-1.459516,43.114915,483.455],[-1.459512,43.114858,483.644],[-1.45948,43.114817,482.926],[-1.459462,43.11489,481.965],[-1.459433,43.11484,482.081],[-1.459444,43.114779,482.296],[-1.459433,43.114714,484.235],[-1.459425,43.114656,485.224],[-1.459416,43.114601,485.682],[-1.459415,43.11454,486.043],[-1.459385,43.114473,487.717],[-1.459362,43.114423,488.708],[-1.459344,43.114374,490.224],[-1.459342,43.114323,491.073],[-1.459343,43.11426,492.265],[-1.45935,43.114208,493.034],[-1.459342,43.11415,495.39],[-1.459347,43.114098,496.525],[-1.459345,43.114051,498.794],[-1.459361,43.113997,500.583],[-1.459374,43.113947,502.014],[-1.45939,43.113898,502.754],[-1.459429,43.113855,503.909],[-1.459479,43.113809,505.408],[-1.459513,43.11374,505.837],[-1.459497,43.11369,506.766],[-1.459501,43.113642,507.248],[-1.45951,43.113593,507.327],[-1.459519,43.113541,507.433],[-1.45953,43.113495,507.938],[-1.45954,43.113448,509.177],[-1.459545,43.113401,509.636],[-1.459553,43.113356,511.166],[-1.459554,43.113306,511.529],[-1.459551,43.113247,512.521],[-1.459551,43.1132,513.608],[-1.459567,43.113149,516.742],[-1.459578,43.113103,518.521],[-1.459592,43.113047,519.573],[-1.459618,43.112995,520.642],[-1.45964,43.11294,522.648],[-1.459656,43.112891,524.173],[-1.459674,43.112838,526.842],[-1.459685,43.112793,527.541],[-1.459694,43.112744,528.462],[-1.459708,43.112699,530.483],[-1.459715,43.112654,530.611],[-1.459701,43.112596,532.508],[-1.459694,43.112547,533.422],[-1.459695,43.112497,534.031],[-1.459682,43.112445,533.893],[-1.459666,43.11239,532.732],[-1.459664,43.112343,533.398],[-1.45965,43.112286,534.483],[-1.459662,43.112234,535.682],[-1.45967,43.112188,534.581],[-1.4597,43.11214,533.543],[-1.459716,43.112096,533.264],[-1.459753,43.112051,533.51],[-1.459775,43.112009,534.208],[-1.459786,43.111955,535.17],[-1.459811,43.111912,535.089],[-1.459837,43.111869,535.541],[-1.459846,43.111816,536.22],[-1.459852,43.111771,537.636],[-1.459848,43.111713,538.321],[-1.459834,43.111667,539.22],[-1.459789,43.111613,538.989],[-1.459739,43.111578,540.266],[-1.459699,43.111532,540.929],[-1.459659,43.111494,542.021],[-1.459621,43.111454,544.508],[-1.459579,43.111416,546.272],[-1.459539,43.111379,547.781],[-1.459473,43.111348,551.123],[-1.459419,43.111326,552.462],[-1.459377,43.111288,554.858],[-1.459347,43.111246,556.583],[-1.459309,43.111198,556.152],[-1.459273,43.111156,555.651],[-1.459234,43.111106,556.393],[-1.459197,43.111062,555.865],[-1.459176,43.111011,554.721],[-1.459141,43.110962,553.708],[-1.459118,43.111007,553.875],[-1.459113,43.110961,553.344],[-1.459125,43.110913,553.826],[-1.459143,43.110867,553.225],[-1.459117,43.110807,555.091],[-1.459049,43.110716,556.856],[-1.459024,43.110674,557.365],[-1.458988,43.110625,559.714],[-1.458957,43.110574,561.858],[-1.45892,43.110538,563.052],[-1.45888,43.110503,564.817],[-1.458846,43.11046,568.108],[-1.45881,43.110417,569.311],[-1.458783,43.110367,572.81],[-1.458734,43.110319,575.642],[-1.458682,43.110276,578.811],[-1.458637,43.110238,580.597],[-1.458568,43.110223,583.092],[-1.458492,43.110218,584.761],[-1.458414,43.11021,586.35],[-1.458352,43.110197,588.215],[-1.458283,43.11019,588.265],[-1.458209,43.110184,590.411],[-1.45814,43.110173,591.108],[-1.458061,43.11017,591.997],[-1.457998,43.110162,593.496],[-1.457952,43.110132,594.498],[-1.457945,43.110078,595.287],[-1.457967,43.110034,595.263],[-1.457986,43.109991,596.638],[-1.45802,43.109937,595.197],[-1.458045,43.109892,595.846],[-1.458059,43.109844,595.816],[-1.45807,43.109795,594.376],[-1.458088,43.109741,594.213],[-1.458108,43.109693,595.708],[-1.458141,43.109654,596.477],[-1.458174,43.109608,596.566],[-1.458197,43.109563,596.328],[-1.458231,43.109519,597.147],[-1.458259,43.109462,596.763],[-1.458287,43.109422,597.748],[-1.458304,43.109375,597.927],[-1.458326,43.10932,598.556],[-1.458337,43.109263,600.254],[-1.458334,43.109212,601.256],[-1.458343,43.109164,601.511],[-1.458341,43.109119,601.508],[-1.458335,43.109068,601.961],[-1.458322,43.109034,609.89],[-1.458297,43.108975,601.562],[-1.458261,43.108935,601.881],[-1.458283,43.10888,603.887],[-1.458308,43.108833,605.872],[-1.458319,43.108788,604.771],[-1.458334,43.108744,604.47],[-1.458348,43.1087,605.746],[-1.458358,43.108652,605.288],[-1.45837,43.108591,607.716],[-1.458361,43.108545,609.808],[-1.458365,43.108492,611.52],[-1.458367,43.108445,611.049],[-1.458372,43.108386,612.131],[-1.458372,43.108335,611.82],[-1.458375,43.108283,612.336],[-1.458374,43.108238,612.851],[-1.458355,43.108187,613.03],[-1.458343,43.108138,612.869],[-1.458312,43.108098,612.545],[-1.458321,43.108042,611.047],[-1.458314,43.107995,609.811],[-1.458299,43.107946,610.608],[-1.458283,43.1079,611.41],[-1.458264,43.107849,611.869],[-1.458244,43.107798,613.411],[-1.458212,43.107753,613.59],[-1.458176,43.107711,614.956],[-1.458133,43.107651,614.991],[-1.458114,43.107604,615.87],[-1.458097,43.107553,615.459],[-1.458074,43.107505,616.615],[-1.45804,43.107462,616.365],[-1.45804,43.107415,616.811],[-1.458039,43.107356,617.508],[-1.458037,43.107307,618.677],[-1.458057,43.107261,619.536],[-1.458025,43.107205,620.628],[-1.458016,43.107155,622.067],[-1.458008,43.107109,622.213],[-1.458006,43.107052,622.528],[-1.457998,43.106996,622.767],[-1.458003,43.106941,623.446],[-1.457983,43.106892,623.283],[-1.457971,43.106844,623.425],[-1.45796,43.10679,622.517],[-1.457916,43.106756,623.508],[-1.457852,43.106748,623.524],[-1.457778,43.106724,624.083],[-1.457758,43.106678,624.855],[-1.457707,43.106649,623.714],[-1.45777,43.106707,622.68],[-1.457851,43.106785,622.855],[-1.45787,43.10683,623.394],[-1.457764,43.1067,623.223],[-1.457709,43.106645,623.172],[-1.457663,43.10661,622.413],[-1.457724,43.106628,623.414],[-1.457707,43.106574,623.608],[-1.457643,43.106558,623.133],[-1.457603,43.106521,622.892],[-1.457546,43.106499,621.144],[-1.457484,43.106474,620.883],[-1.457419,43.106462,619.779],[-1.457358,43.10644,619.224],[-1.457286,43.106422,618.483],[-1.457223,43.106403,618.332],[-1.457162,43.106392,618.049],[-1.457099,43.106397,618.002],[-1.457037,43.106394,619.522],[-1.456978,43.106376,620.508],[-1.456919,43.106354,621.36],[-1.456862,43.106334,621.149],[-1.456837,43.106291,623.031],[-1.456837,43.106246,625.68],[-1.456887,43.106212,627.936],[-1.456961,43.106205,629.181],[-1.457036,43.106218,631.83],[-1.457091,43.106241,632.229],[-1.457191,43.106184,632.249],[-1.457256,43.106139,631.902],[-1.457305,43.106107,632.622],[-1.457359,43.106077,631.808],[-1.457412,43.106036,631.33],[-1.457461,43.106005,633.089],[-1.457519,43.105976,633.691],[-1.457583,43.105957,636.59],[-1.457638,43.105922,636.186],[-1.457671,43.10588,637.491],[-1.457704,43.105841,637.54],[-1.457728,43.105796,638.449],[-1.457747,43.105753,636.958],[-1.457775,43.105703,638.252],[-1.457804,43.105658,638.817],[-1.457741,43.105607,637.808],[-1.457732,43.105597,641.941],[-1.457717,43.105552,638.74],[-1.457695,43.105504,638.912],[-1.457669,43.105461,639.381],[-1.457665,43.10541,638.097],[-1.457658,43.105362,637.552],[-1.457652,43.105306,636.571],[-1.45766,43.105249,635.57],[-1.457644,43.105201,635.723],[-1.457631,43.105152,636.283],[-1.457623,43.105105,635.711],[-1.45759,43.105059,636.108],[-1.457566,43.105017,636.928],[-1.457534,43.104978,637.967],[-1.457502,43.104936,636.669],[-1.457473,43.104895,636.668],[-1.457449,43.104851,636.874],[-1.457421,43.104807,638.519],[-1.457363,43.104764,638.458],[-1.45732,43.104728,638.077],[-1.457292,43.104687,637.325],[-1.457268,43.104644,638.126],[-1.457232,43.104585,636.608],[-1.457209,43.104538,636.708],[-1.457185,43.104485,637.758],[-1.457151,43.104438,637.327],[-1.457108,43.104404,638.919],[-1.457089,43.104353,639.098],[-1.457068,43.104309,640.264],[-1.457051,43.104258,640.589],[-1.457031,43.104213,643.018],[-1.457018,43.104164,643.567],[-1.457002,43.104117,645.462],[-1.456983,43.104073,647.683],[-1.45697,43.104025,649.611],[-1.456948,43.103973,650.808],[-1.456923,43.103924,651.682],[-1.456899,43.103873,653.261],[-1.456879,43.103825,653.723],[-1.456849,43.10377,654.452],[-1.456814,43.103722,656.188],[-1.456797,43.103677,658.243],[-1.456763,43.103627,659.792],[-1.456743,43.103584,660.911],[-1.456734,43.103536,662.487],[-1.456722,43.103488,663.542],[-1.456712,43.103435,665.226],[-1.456706,43.103381,666.308],[-1.456697,43.103334,667.934],[-1.456663,43.103292,668.683],[-1.456603,43.103231,669.725],[-1.456558,43.103164,670.164],[-1.456527,43.103123,672.44],[-1.456488,43.103088,673.975],[-1.456445,43.103055,675.084],[-1.456396,43.103006,675.793],[-1.456359,43.102961,684.442],[-1.456295,43.102946,677.722],[-1.456235,43.102922,678.514],[-1.456179,43.102889,679.808],[-1.456111,43.102838,680.28],[-1.456059,43.102813,680.129],[-1.456005,43.102791,680.391],[-1.455953,43.102757,679.73],[-1.455917,43.102718,679.656],[-1.455891,43.102674,679.511],[-1.455882,43.102626,681.62],[-1.455865,43.102582,683.759],[-1.455888,43.102527,686.538],[-1.455912,43.102481,686.07],[-1.455944,43.102423,687.717],[-1.455974,43.102378,688.208],[-1.456001,43.102333,688.939],[-1.456019,43.102278,690.038],[-1.456047,43.102237,690.43],[-1.456045,43.102188,692.349],[-1.45604,43.102141,693.085],[-1.455963,43.102112,694.94],[-1.455934,43.10206,695.839],[-1.455922,43.102009,695.598],[-1.455932,43.101961,695.322],[-1.455926,43.101904,695.062],[-1.455916,43.101858,694.608],[-1.455897,43.101805,695.408],[-1.45588,43.10176,696.498],[-1.455836,43.101711,696.587],[-1.455805,43.10167,696.799],[-1.455764,43.101622,697.118],[-1.455725,43.101581,698.094],[-1.45569,43.101536,699.949],[-1.455662,43.101488,701.038],[-1.455629,43.101445,703.037],[-1.455606,43.101398,702.968],[-1.455599,43.101349,702.942],[-1.455614,43.101296,704.926],[-1.455628,43.10125,708.708],[-1.455654,43.101207,711.972],[-1.455686,43.101168,713.971],[-1.455734,43.101129,714.883],[-1.455764,43.101089,716.392],[-1.455799,43.101035,718.298],[-1.455826,43.100993,720.043],[-1.455858,43.100952,721.742],[-1.455903,43.100916,728.131],[-1.455949,43.100883,723.315],[-1.456003,43.100855,724.965],[-1.456062,43.100829,725.811],[-1.456136,43.100794,727.108],[-1.456189,43.100765,729.267],[-1.456248,43.100729,732.646],[-1.4563,43.100701,734.528],[-1.456351,43.100671,738.287],[-1.456406,43.100643,741.473],[-1.456463,43.100618,743.978],[-1.456527,43.100592,745.967],[-1.456578,43.100564,747.126],[-1.456584,43.100519,751.161],[-1.456579,43.100472,753.621],[-1.45654,43.100418,757.313],[-1.456503,43.100381,759.708],[-1.456477,43.100336,762.912],[-1.456455,43.100292,764.961],[-1.456436,43.100228,766.983],[-1.456448,43.100181,767.932],[-1.45644,43.10013,769.588],[-1.456404,43.100093,769.563],[-1.456426,43.100046,769.682],[-1.456474,43.100016,769.411],[-1.456527,43.099982,769.419],[-1.456582,43.099955,768.509],[-1.456628,43.099922,768.619],[-1.456693,43.099918,769.308],[-1.456756,43.099908,770.577],[-1.45682,43.099901,771.286],[-1.456885,43.099893,772.928],[-1.456955,43.099881,773.137],[-1.457032,43.099875,775.693],[-1.457098,43.099863,776.858],[-1.457164,43.099858,778.357],[-1.457226,43.099841,780.226],[-1.4573,43.099829,781.673],[-1.457366,43.099824,781.885],[-1.457431,43.099813,782.213],[-1.457505,43.099812,782.608],[-1.457571,43.099808,783.533],[-1.457637,43.099791,784.712],[-1.457704,43.099765,785.364],[-1.457776,43.099742,785.963],[-1.457859,43.099719,786.329],[-1.457918,43.099685,785.794],[-1.457968,43.09965,785.663],[-1.458026,43.099625,785.312],[-1.458082,43.099604,786.274],[-1.458143,43.099587,786.856],[-1.458202,43.099564,787.121],[-1.458252,43.099537,787.108],[-1.458316,43.099502,787.883],[-1.458367,43.099476,789.182],[-1.458424,43.099453,789.794],[-1.458486,43.099444,790.223],[-1.458553,43.099444,790.489],[-1.458616,43.099439,790.814],[-1.458699,43.099442,792.833],[-1.458771,43.099434,794.952],[-1.458854,43.099434,796.776],[-1.458924,43.099428,798.19],[-1.459012,43.099427,800.819],[-1.459083,43.099428,803.208],[-1.459146,43.099434,804.943],[-1.459218,43.099443,805.742],[-1.459292,43.099451,805.464],[-1.459363,43.099466,806.243],[-1.459422,43.099489,807.189],[-1.459483,43.099514,808.094],[-1.459539,43.099538,808.083],[-1.459612,43.099566,807.082],[-1.459672,43.099583,806.333],[-1.459754,43.099607,807.323],[-1.459811,43.099629,807.715],[-1.459881,43.099653,807.908],[-1.459941,43.099669,808.159],[-1.460013,43.09969,809.328],[-1.460073,43.099707,810.05],[-1.460133,43.099722,809.439],[-1.460202,43.09973,810.065],[-1.460269,43.099733,809.15],[-1.460369,43.099761,809.859],[-1.460427,43.099789,810.568],[-1.460481,43.099819,812.568],[-1.46056,43.099863,812.842],[-1.460615,43.09989,813.526],[-1.460667,43.099917,813.008],[-1.460721,43.099943,813.532],[-1.460782,43.099968,814.491],[-1.460834,43.099993,814.953],[-1.460896,43.100033,815.162],[-1.460951,43.100056,815.658],[-1.461018,43.100075,816.483],[-1.461088,43.100086,817.032],[-1.461155,43.100105,817.831],[-1.46121,43.100131,817.527],[-1.461272,43.100134,820.068],[-1.461336,43.100136,820.714],[-1.461405,43.100139,822.208],[-1.46147,43.100141,822.218],[-1.46155,43.100149,822.837],[-1.461624,43.100159,823.319],[-1.461687,43.100171,823.838],[-1.461755,43.10019,823.214],[-1.461815,43.100207,821.849],[-1.461893,43.100193,821.878],[-1.461954,43.100175,821.597],[-1.462009,43.10015,822.012],[-1.462059,43.100117,822.432],[-1.462112,43.100092,822.805],[-1.46216,43.100048,822.808],[-1.462219,43.100018,822.657],[-1.462269,43.099985,823.416],[-1.462323,43.099951,823.778],[-1.462377,43.099913,823.627],[-1.462428,43.099882,824.093],[-1.462481,43.099829,824.168],[-1.46253,43.099793,824.567],[-1.462602,43.099769,825.866],[-1.462664,43.099759,826.445],[-1.462744,43.099734,826.747],[-1.46281,43.099708,827.611],[-1.462859,43.099677,828.408],[-1.462915,43.099651,829.46],[-1.462982,43.099617,830.569],[-1.46303,43.099581,831.621],[-1.463077,43.099535,832.48],[-1.463126,43.099506,832.626],[-1.463195,43.099476,832.511],[-1.46325,43.099446,833.88],[-1.46329,43.099411,835.299],[-1.463338,43.099365,836.343],[-1.463381,43.099333,837.364],[-1.463459,43.099296,837.61],[-1.463517,43.09927,838.308],[-1.463585,43.099243,838.37],[-1.463634,43.09921,838.439],[-1.463698,43.099179,840.311],[-1.463759,43.09917,841.12],[-1.463825,43.099155,842.526],[-1.463884,43.099122,843.651],[-1.463931,43.099088,847.38],[-1.464016,43.099041,858.359],[-1.464042,43.098995,851.312],[-1.464058,43.098948,853.332],[-1.464088,43.098908,856.305],[-1.464118,43.098868,858.608],[-1.464143,43.098822,860.677],[-1.464169,43.098774,862.816],[-1.464192,43.098727,864.198],[-1.464229,43.098689,865.017],[-1.464253,43.09863,866.033],[-1.464289,43.098581,867.158],[-1.46431,43.098519,868.467],[-1.464328,43.098471,868.996],[-1.464336,43.098424,869.242],[-1.464332,43.098357,869.022],[-1.464341,43.098309,870.014],[-1.46436,43.098265,869.608],[-1.464384,43.098224,867.75],[-1.464413,43.098175,866.549],[-1.464455,43.09814,864.331],[-1.464485,43.098099,863.79],[-1.464508,43.098054,863.926],[-1.464546,43.098001,864.161],[-1.464591,43.097962,863.16],[-1.464625,43.097913,862.539],[-1.464639,43.097863,861.434],[-1.464672,43.097818,860.555],[-1.464722,43.097791,859.91],[-1.464745,43.097746,859.508],[-1.464776,43.097692,860.129],[-1.46481,43.097651,860.548],[-1.464831,43.097599,860.64],[-1.464863,43.097558,860.059],[-1.464909,43.097524,859.465],[-1.464956,43.09749,858.09],[-1.464961,43.09744,857.569],[-1.464983,43.097389,855.938],[-1.464992,43.097343,855.252],[-1.464981,43.097287,854.753],[-1.464976,43.097234,852.808],[-1.464986,43.097189,851.908],[-1.464967,43.097141,852.371],[-1.464958,43.097088,852.14],[-1.464946,43.097043,851.932],[-1.464975,43.096976,850.991],[-1.464984,43.09693,850.927],[-1.46499,43.096879,849.992],[-1.464993,43.09682,849.631],[-1.465,43.096769,849.36],[-1.465019,43.096721,849.399],[-1.465048,43.096678,850.207],[-1.465071,43.096632,850.727],[-1.465124,43.096608,851.608],[-1.465153,43.096565,852.465],[-1.465196,43.09652,852.714],[-1.465233,43.096484,852.886],[-1.465277,43.096438,852.525],[-1.465321,43.096404,851.831],[-1.465374,43.096358,851.886],[-1.465388,43.096307,851.685],[-1.465414,43.096265,852.154],[-1.465464,43.096234,853.151],[-1.465498,43.096196,853.901],[-1.465531,43.096158,854.211],[-1.465564,43.09612,854.708],[-1.465598,43.096082,854.921],[-1.465632,43.096043,855.31],[-1.465674,43.096006,855.592],[-1.465708,43.095965,856.531],[-1.465722,43.095921,856.637],[-1.465738,43.095875,857.982],[-1.465763,43.095819,858.471],[-1.465795,43.095771,860.18],[-1.465821,43.09573,862.297],[-1.465843,43.095677,863.123],[-1.465863,43.095629,864.125],[-1.465883,43.095585,865.408],[-1.465906,43.095539,866.375],[-1.465933,43.095488,867.384],[-1.465954,43.095442,868.236],[-1.465972,43.095397,868.265],[-1.466001,43.095355,869.251],[-1.466041,43.095319,870.266],[-1.466085,43.095273,872.085],[-1.466117,43.095234,873.554],[-1.466156,43.095198,875.952],[-1.466199,43.095161,876.953],[-1.466229,43.095118,879.508],[-1.466275,43.095075,881.108],[-1.46631,43.09503,884.291],[-1.466344,43.094991,886.51],[-1.46638,43.094953,887.452],[-1.466428,43.094911,889.121],[-1.466472,43.094876,889.997],[-1.466515,43.094829,891.942],[-1.466535,43.094783,892.891],[-1.466554,43.094736,895.46],[-1.466564,43.094686,896.558],[-1.466579,43.094634,898.352],[-1.466595,43.094591,899.317],[-1.466618,43.094536,899.908],[-1.46666,43.094493,900.471],[-1.466705,43.094461,900.52],[-1.466756,43.094428,903.242],[-1.466806,43.0944,905.051],[-1.466839,43.094357,906.817],[-1.466867,43.094315,908.392],[-1.466897,43.094264,909.771],[-1.466923,43.094214,911.16],[-1.466937,43.094169,912.983],[-1.466933,43.094124,914.925],[-1.466932,43.094077,917.217],[-1.466951,43.094032,918.708],[-1.466973,43.09399,919.594],[-1.467006,43.093951,919.983],[-1.467045,43.093912,921.125],[-1.46709,43.093867,923.274],[-1.467128,43.093826,924.25],[-1.467169,43.093784,925.655],[-1.467207,43.093747,926.944],[-1.467245,43.093702,927.593],[-1.46729,43.093665,927.717],[-1.467345,43.093633,928.087],[-1.467399,43.09361,929.315],[-1.467484,43.093607,931.108],[-1.467556,43.093608,932.437],[-1.467618,43.093618,933.746],[-1.467683,43.093622,935.388],[-1.46775,43.093625,936.617],[-1.467816,43.093619,937.213],[-1.467878,43.093623,937.318],[-1.467941,43.093624,938.227],[-1.468003,43.093624,939.366],[-1.468067,43.093619,939.664],[-1.468131,43.093608,939.906],[-1.468197,43.0936,940.616],[-1.468258,43.093603,941.508],[-1.468322,43.093611,942.462],[-1.468388,43.093621,943.051],[-1.468458,43.093632,943.563],[-1.468519,43.093638,944.252],[-1.468585,43.09364,945.578],[-1.468648,43.093642,946.063],[-1.468712,43.093622,947.182],[-1.468766,43.093596,948.431],[-1.468832,43.093573,949.799],[-1.4689,43.093537,951.207],[-1.468959,43.093519,951.427],[-1.469027,43.09352,952.308],[-1.469105,43.093514,953.835],[-1.469185,43.093526,953.444],[-1.469246,43.093537,952.836],[-1.469181,43.093546,954.815],[-1.469114,43.093546,957.091],[-1.469051,43.093526,957.676],[-1.469018,43.093479,958.055],[-1.469049,43.093436,957.784],[-1.469079,43.09337,958.494],[-1.46911,43.093326,958.757],[-1.469136,43.093275,960.222],[-1.469169,43.09323,960.908],[-1.469198,43.093187,961.635],[-1.469224,43.093139,962.034],[-1.469264,43.09309,962.746],[-1.469319,43.093038,962.585],[-1.469369,43.093003,962.721],[-1.469397,43.092962,962.246],[-1.469437,43.09291,962.945],[-1.469458,43.092859,962.894],[-1.469485,43.092812,962.729],[-1.46952,43.092774,963.0],[-1.469565,43.092739,963.22],[-1.469629,43.092709,964.608],[-1.469692,43.092688,964.468],[-1.469781,43.092665,965.747],[-1.469852,43.092625,965.979],[-1.469913,43.092583,965.648],[-1.469961,43.092555,965.234],[-1.470006,43.092522,963.549],[-1.470032,43.092472,962.368],[-1.470084,43.092428,961.687],[-1.47013,43.092395,961.466],[-1.470178,43.092367,961.629],[-1.470221,43.092332,962.121],[-1.470274,43.092303,962.708],[-1.470324,43.09226,962.722],[-1.470364,43.092215,962.861],[-1.470401,43.092179,962.353],[-1.470469,43.092148,961.562],[-1.470538,43.092118,961.458],[-1.470603,43.092085,960.363],[-1.470651,43.092052,959.392],[-1.470712,43.09201,958.921],[-1.470759,43.091976,958.891],[-1.470796,43.091926,959.081],[-1.470843,43.09188,958.719],[-1.470889,43.091843,959.508],[-1.47092,43.091793,959.935],[-1.470941,43.091741,960.324],[-1.470959,43.091685,959.676],[-1.471015,43.091631,957.755],[-1.471043,43.091588,956.781],[-1.471062,43.091539,955.126],[-1.471079,43.091494,954.285],[-1.471092,43.091443,952.664],[-1.471118,43.091383,951.623],[-1.471157,43.091334,950.783],[-1.471174,43.09129,950.111],[-1.471178,43.091243,948.608],[-1.471195,43.091194,947.238],[-1.471213,43.091149,946.627],[-1.471225,43.091086,945.759],[-1.471232,43.091022,945.088],[-1.471239,43.090977,945.674],[-1.47124,43.090922,946.029],[-1.471247,43.090877,946.388],[-1.471262,43.09083,947.047],[-1.471229,43.090777,947.938],[-1.471203,43.090727,948.47],[-1.471197,43.090677,949.617],[-1.471187,43.090632,950.108],[-1.471172,43.09058,951.099],[-1.471174,43.090534,952.098],[-1.471171,43.090481,953.34],[-1.47117,43.090426,954.149],[-1.471206,43.090378,955.375],[-1.471275,43.090355,955.85],[-1.471383,43.090336,956.119],[-1.471445,43.090324,956.458],[-1.471508,43.090305,956.713],[-1.471577,43.090285,956.943],[-1.471643,43.090282,956.007],[-1.471722,43.090295,956.308],[-1.471788,43.090305,956.137],[-1.471856,43.090287,955.746],[-1.471917,43.090307,955.588],[-1.471957,43.090358,954.757],[-1.472016,43.090375,954.833],[-1.472102,43.090374,953.178],[-1.472164,43.09036,953.077],[-1.472219,43.090339,952.686],[-1.472265,43.090309,952.765],[-1.472326,43.090275,953.568],[-1.472387,43.09025,953.814],[-1.472466,43.09022,954.508],[-1.472522,43.090201,954.572],[-1.472563,43.090163,954.461],[-1.472616,43.090135,954.223],[-1.472693,43.090127,953.742],[-1.472769,43.090111,953.458],[-1.47283,43.090095,953.043],[-1.472893,43.090074,953.382],[-1.472957,43.090059,953.291],[-1.473017,43.09003,952.943],[-1.473079,43.090014,953.164],[-1.473153,43.09002,953.71],[-1.473213,43.09,954.208],[-1.473273,43.08997,955.13],[-1.473351,43.089965,955.619],[-1.473417,43.089969,956.261],[-1.473483,43.089973,955.74],[-1.473538,43.089936,956.226],[-1.473577,43.0899,956.121],[-1.473617,43.089856,957.63],[-1.473669,43.089826,958.989],[-1.473719,43.089791,959.617],[-1.473765,43.089758,959.987],[-1.473809,43.089719,960.715],[-1.473856,43.089685,961.708],[-1.473914,43.08966,962.827],[-1.473966,43.08963,963.516],[-1.474023,43.089608,964.088],[-1.474078,43.089577,964.787],[-1.474129,43.089547,965.713],[-1.474179,43.089517,966.288],[-1.474236,43.089483,966.797],[-1.474276,43.089447,966.776],[-1.474315,43.089408,968.081],[-1.474356,43.089371,969.361],[-1.474422,43.089338,970.717],[-1.47449,43.089337,972.108],[-1.474562,43.089322,973.794],[-1.474626,43.089319,974.443],[-1.474709,43.089319,974.525],[-1.474789,43.089321,974.724],[-1.474855,43.089321,974.87],[-1.47492,43.089325,976.015],[-1.474991,43.08933,976.784],[-1.475057,43.089328,976.643],[-1.475134,43.089328,977.272],[-1.475199,43.089339,978.113],[-1.475269,43.089344,979.314],[-1.475359,43.089354,980.108],[-1.475429,43.08936,980.283],[-1.4755,43.089374,980.912],[-1.47557,43.089401,982.014],[-1.475636,43.089403,983.073],[-1.475702,43.0894,983.669],[-1.475777,43.089407,986.434],[-1.475838,43.089423,987.473],[-1.4759,43.089428,987.132],[-1.475959,43.08945,989.748],[-1.47601,43.089481,990.861],[-1.476076,43.089497,991.317],[-1.476144,43.0895,991.308],[-1.476225,43.089502,991.35],[-1.476286,43.08952,992.489],[-1.476443,43.089565,1004.561],[-1.476514,43.089578,995.38],[-1.4766,43.089579,998.086],[-1.47667,43.089582,1000.691],[-1.476739,43.089592,1002.73],[-1.476803,43.089601,1004.989],[-1.476862,43.089618,1006.457],[-1.476933,43.089634,1008.6],[-1.476998,43.089653,1009.62],[-1.477091,43.089677,1011.008],[-1.477171,43.089702,1012.321],[-1.477263,43.089711,1014.25],[-1.477349,43.089717,1016.062],[-1.477418,43.089717,1018.731],[-1.477483,43.089714,1020.547],[-1.477545,43.08972,1021.522],[-1.477606,43.089709,1023.861],[-1.477667,43.089693,1024.86],[-1.477726,43.089676,1028.077],[-1.477797,43.0897,1030.261],[-1.477853,43.089729,1031.827],[-1.477912,43.089753,1032.808],[-1.477977,43.089789,1034.993],[-1.478024,43.089826,1035.852],[-1.478062,43.089866,1036.634],[-1.47811,43.089902,1037.893],[-1.478148,43.08994,1038.579],[-1.478184,43.089977,1038.924],[-1.478223,43.090018,1041.513],[-1.478265,43.090052,1043.222],[-1.478307,43.090085,1044.793],[-1.478354,43.090121,1045.465],[-1.4784,43.090153,1046.021],[-1.478459,43.09019,1046.608],[-1.478521,43.090218,1047.635],[-1.478582,43.090243,1047.994],[-1.478621,43.090285,1049.436],[-1.47865,43.09033,1049.955],[-1.478674,43.090373,1051.661],[-1.478664,43.09043,1054.226],[-1.478638,43.090473,1055.975],[-1.478604,43.09052,1057.324],[-1.478574,43.09056,1057.811],[-1.478517,43.090597,1057.821],[-1.478479,43.090637,1056.403],[-1.478461,43.090682,1055.508],[-1.478453,43.090732,1055.717],[-1.478463,43.090776,1055.716],[-1.478505,43.090809,1055.588],[-1.478553,43.090848,1056.027],[-1.478591,43.090887,1056.153],[-1.478617,43.090936,1057.418],[-1.478627,43.090981,1058.327],[-1.478638,43.091029,1060.286],[-1.478698,43.091047,1061.787],[-1.47876,43.091063,1064.142],[-1.478828,43.091063,1066.026],[-1.478891,43.091078,1067.408],[-1.478941,43.091042,1070.514],[-1.47893,43.090997,1072.653],[-1.478933,43.090939,1075.055],[-1.478973,43.090904,1076.524],[-1.478907,43.090918,1089.13],[-1.478907,43.090918,1089.145],[-1.478963,43.090944,1077.784],[-1.479014,43.090971,1078.863],[-1.479059,43.091016,1077.891],[-1.479092,43.091055,1078.181],[-1.479037,43.091086,1076.519],[-1.478967,43.091109,1075.408],[-1.478905,43.091097,1074.615],[-1.478843,43.091096,1073.944],[-1.478762,43.091115,1073.476],[-1.478698,43.091116,1072.265],[-1.478641,43.091078,1070.241],[-1.478605,43.091027,1068.866],[-1.47856,43.090988,1068.285],[-1.478544,43.090939,1067.664],[-1.478546,43.090893,1067.125],[-1.478612,43.090884,1065.426],[-1.478549,43.090866,1061.908],[-1.478547,43.090819,1059.208],[-1.478514,43.090765,1057.278],[-1.478468,43.090715,1054.537],[-1.478437,43.090659,1052.839],[-1.478414,43.090607,1051.248],[-1.478396,43.090561,1049.974],[-1.478394,43.090514,1048.729],[-1.478392,43.090461,1047.578],[-1.478377,43.090411,1046.717],[-1.478368,43.090366,1045.534],[-1.478366,43.090316,1046.455],[-1.47835,43.090268,1046.01],[-1.478335,43.090206,1045.308],[-1.47831,43.090163,1044.489],[-1.478286,43.090117,1043.638],[-1.478272,43.090066,1042.66],[-1.478229,43.090024,1041.159],[-1.478189,43.089985,1040.595],[-1.478145,43.089944,1039.81],[-1.478085,43.089898,1038.639],[-1.478035,43.08987,1038.118],[-1.477981,43.089828,1037.672],[-1.477929,43.089803,1036.113],[-1.47788,43.089774,1034.814],[-1.477822,43.089744,1032.308],[-1.477766,43.08972,1030.093],[-1.4777,43.089679,1029.392],[-1.477636,43.089633,1029.044],[-1.477584,43.089595,1028.823],[-1.477527,43.089568,1028.539],[-1.477469,43.089531,1028.194],[-1.477418,43.089501,1027.883],[-1.477359,43.089463,1027.012],[-1.477297,43.089443,1026.764],[-1.477227,43.089437,1025.606],[-1.477147,43.089437,1024.716],[-1.477077,43.089434,1023.808],[-1.477005,43.089428,1023.122],[-1.47694,43.089426,1022.531],[-1.476855,43.089413,1021.763],[-1.47678,43.089412,1021.012],[-1.476717,43.089413,1019.228],[-1.476651,43.08942,1017.393],[-1.476578,43.089435,1015.362],[-1.476515,43.089434,1014.091],[-1.476438,43.08944,1012.155],[-1.476374,43.089451,1010.907],[-1.476311,43.089467,1008.317],[-1.476246,43.08949,1005.308],[-1.476187,43.089475,1003.191],[-1.476103,43.089456,1000.59],[-1.476027,43.089458,998.392],[-1.475963,43.089466,996.291],[-1.475899,43.089467,994.467],[-1.47582,43.089453,992.422],[-1.475751,43.089451,990.811],[-1.475677,43.089454,989.37],[-1.475599,43.089449,988.351],[-1.475535,43.089433,987.801],[-1.47547,43.089424,987.211],[-1.475406,43.08941,986.908],[-1.475323,43.089404,986.591],[-1.475256,43.08941,986.76],[-1.475181,43.089413,986.382],[-1.475111,43.089413,984.571],[-1.475048,43.089434,983.067],[-1.474995,43.089459,981.432],[-1.474915,43.089463,978.391],[-1.474839,43.089481,976.25],[-1.47477,43.089489,974.598],[-1.474712,43.089509,973.015],[-1.474624,43.089526,971.826],[-1.474537,43.089519,971.508],[-1.474479,43.0895,971.125],[-1.474405,43.089477,970.544],[-1.474333,43.089472,969.836],[-1.474256,43.089475,969.915],[-1.474184,43.089465,969.471],[-1.474116,43.089467,969.156],[-1.474063,43.089495,968.435],[-1.474026,43.089544,968.194],[-1.473987,43.089581,967.481],[-1.473937,43.089611,966.661],[-1.473887,43.089644,965.217],[-1.473823,43.08968,964.208],[-1.473753,43.089717,964.074],[-1.473678,43.089747,963.833],[-1.473662,43.089795,963.495],[-1.473609,43.089832,962.574],[-1.473565,43.089868,961.53],[-1.473484,43.089906,960.285],[-1.473439,43.089942,959.834],[-1.473385,43.089973,958.613],[-1.473331,43.089948,957.027],[-1.473249,43.089936,955.868],[-1.47318,43.089951,955.314],[-1.473118,43.089968,955.108],[-1.473055,43.089979,955.188],[-1.473012,43.090013,955.167],[-1.472945,43.090041,954.929],[-1.472883,43.090061,955.328],[-1.472828,43.090083,954.524],[-1.472771,43.090103,954.119],[-1.472679,43.090127,953.738],[-1.472615,43.090141,953.727],[-1.472537,43.090155,953.657],[-1.472485,43.09018,953.3],[-1.472429,43.090201,953.22],[-1.472353,43.090203,952.708],[-1.472274,43.090209,952.061],[-1.472213,43.090242,951.65],[-1.472163,43.090287,951.382],[-1.472111,43.090328,950.821],[-1.472073,43.090372,951.837],[-1.472009,43.090389,951.212],[-1.471989,43.09044,949.881],[-1.471985,43.090502,949.26],[-1.471986,43.090553,948.799],[-1.471961,43.09061,948.407],[-1.471898,43.090637,947.827],[-1.47184,43.090655,947.508],[-1.47179,43.090695,947.215],[-1.471727,43.090726,947.694],[-1.47167,43.09077,947.276],[-1.471619,43.0908,946.775],[-1.471559,43.090823,946.671],[-1.471513,43.090855,945.966],[-1.471451,43.090879,945.755],[-1.471381,43.090914,945.054],[-1.471346,43.090954,944.778],[-1.471285,43.090987,944.333],[-1.47124,43.091023,943.926],[-1.471198,43.091058,943.208],[-1.47118,43.091111,943.893],[-1.471169,43.09116,944.512],[-1.471181,43.091207,944.814],[-1.471168,43.091251,945.493],[-1.47114,43.091297,946.119],[-1.471127,43.091344,946.464],[-1.471107,43.091395,947.423],[-1.471087,43.091441,948.332],[-1.471076,43.091493,949.171],[-1.47104,43.091542,950.341],[-1.471014,43.091588,951.415],[-1.470996,43.091644,952.608],[-1.470969,43.091688,953.623],[-1.470942,43.091738,955.342],[-1.470914,43.091785,956.224],[-1.470877,43.091834,957.073],[-1.470845,43.091884,957.879],[-1.470812,43.091925,957.474],[-1.47076,43.091964,956.433],[-1.470715,43.091995,955.212],[-1.470652,43.092033,955.058],[-1.470607,43.09207,955.052],[-1.470564,43.092104,955.917],[-1.470509,43.092139,956.208],[-1.470446,43.092161,956.411],[-1.470398,43.092194,957.13],[-1.470331,43.092221,957.632],[-1.47027,43.092253,957.791],[-1.47021,43.09228,957.997],[-1.470162,43.09231,958.482],[-1.470127,43.092356,959.621],[-1.470094,43.092395,959.44],[-1.470041,43.092422,960.484],[-1.47001,43.092469,961.607],[-1.469963,43.092518,963.117],[-1.469905,43.092561,964.008],[-1.469855,43.092593,964.324],[-1.469793,43.092624,964.763],[-1.469734,43.092651,964.665],[-1.469651,43.092689,965.184],[-1.469601,43.092716,965.16],[-1.469522,43.092747,965.435],[-1.469443,43.092764,965.624],[-1.469377,43.092785,966.093],[-1.469313,43.092791,966.022],[-1.46925,43.0928,964.862],[-1.46919,43.092826,963.108],[-1.469117,43.09285,962.108],[-1.469046,43.092871,961.068],[-1.469015,43.092912,959.037],[-1.468975,43.092954,956.399],[-1.468909,43.092975,953.898],[-1.468823,43.092993,952.314],[-1.468746,43.093006,951.549],[-1.468664,43.093004,951.338],[-1.468602,43.093032,951.497],[-1.468539,43.093058,950.781],[-1.468498,43.093101,949.561],[-1.468413,43.09312,947.717],[-1.468327,43.093131,945.808],[-1.468259,43.093159,944.834],[-1.468193,43.093189,944.113],[-1.468167,43.09323,943.565],[-1.468143,43.093273,942.744],[-1.468083,43.093296,942.13],[-1.468033,43.09333,941.735],[-1.467982,43.093372,941.534],[-1.467951,43.093414,941.043],[-1.4679,43.093465,940.459],[-1.46787,43.093506,939.703],[-1.467836,43.093547,938.423],[-1.467803,43.093588,937.208],[-1.467768,43.093626,936.631],[-1.467728,43.093666,936.96],[-1.467703,43.093708,936.182],[-1.467668,43.093767,936.011],[-1.467646,43.093825,935.537],[-1.467641,43.093875,935.512],[-1.467653,43.093923,935.861],[-1.467664,43.093984,936.09],[-1.467675,43.094034,936.149],[-1.467632,43.09408,935.102],[-1.467564,43.094121,934.322],[-1.467517,43.094157,932.808],[-1.467485,43.094196,931.46],[-1.467446,43.094233,930.199],[-1.467404,43.094279,926.871],[-1.467333,43.094324,924.39],[-1.46728,43.094361,922.626],[-1.467217,43.094383,919.821],[-1.467159,43.094424,918.37],[-1.46709,43.094457,916.729],[-1.467089,43.094511,915.388],[-1.467058,43.094553,913.724],[-1.467012,43.094591,912.626],[-1.466978,43.094637,911.708],[-1.46691,43.094668,910.674],[-1.466873,43.09471,909.353],[-1.466876,43.094756,907.085],[-1.466866,43.094813,905.784],[-1.466855,43.094865,905.26],[-1.466859,43.094926,903.465],[-1.466882,43.09497,901.864],[-1.466899,43.095021,899.283],[-1.466896,43.095068,897.752],[-1.466847,43.095108,896.153],[-1.466789,43.095128,894.308],[-1.466743,43.095174,893.008],[-1.466667,43.095208,892.581],[-1.46662,43.095243,891.78],[-1.46658,43.095279,889.762],[-1.466549,43.095329,887.321],[-1.466509,43.095381,885.347],[-1.466474,43.095421,883.892],[-1.466412,43.095435,882.661],[-1.466365,43.095479,881.82],[-1.466297,43.09549,880.699],[-1.466238,43.095515,877.707],[-1.466184,43.095541,875.227],[-1.466134,43.09557,874.308],[-1.466077,43.095604,872.495],[-1.46602,43.095623,870.724],[-1.465981,43.095674,868.846],[-1.465942,43.095722,867.165],[-1.465904,43.09576,866.161],[-1.465857,43.095791,865.046],[-1.465808,43.095838,863.295],[-1.465777,43.095882,860.774],[-1.465732,43.095924,858.876],[-1.46568,43.095979,857.19],[-1.465638,43.096022,855.919],[-1.465597,43.096064,853.908],[-1.465551,43.096112,851.963],[-1.465511,43.096151,850.952],[-1.465468,43.096198,850.464],[-1.465429,43.096245,849.933],[-1.465372,43.096332,849.859],[-1.465339,43.096376,849.794],[-1.465285,43.096409,849.933],[-1.46521,43.096436,851.262],[-1.465153,43.09648,851.272],[-1.465123,43.09652,850.913],[-1.465095,43.096573,850.514],[-1.465064,43.096628,850.308],[-1.46505,43.096675,850.543],[-1.465028,43.096728,850.582],[-1.465006,43.096778,850.314],[-1.464976,43.096819,850.683],[-1.464946,43.096863,850.869],[-1.46494,43.096909,850.914],[-1.46493,43.096958,851.853],[-1.46494,43.097011,852.482],[-1.464943,43.097058,853.252],[-1.464964,43.097102,853.753],[-1.464971,43.097149,854.508],[-1.464951,43.097196,855.308],[-1.46494,43.097251,855.951],[-1.464929,43.097301,857.39],[-1.464921,43.097362,857.952],[-1.464899,43.097414,857.961],[-1.464893,43.097471,857.417],[-1.46489,43.097522,857.522],[-1.464865,43.09757,857.751],[-1.464823,43.097615,858.54],[-1.464794,43.09766,858.441],[-1.464748,43.0977,857.681],[-1.464738,43.097745,856.609],[-1.464712,43.097804,855.808],[-1.464677,43.097848,855.61],[-1.464628,43.097884,855.289],[-1.46459,43.097931,855.771],[-1.464551,43.097982,855.86],[-1.464529,43.098027,857.126],[-1.464494,43.098076,857.641],[-1.464464,43.098121,858.11],[-1.464449,43.098179,859.239],[-1.46441,43.098218,860.229],[-1.464367,43.098252,860.9],[-1.464353,43.098318,862.02],[-1.464342,43.098368,863.108],[-1.464329,43.098421,863.778],[-1.464313,43.09847,864.617],[-1.464307,43.098529,864.989],[-1.464287,43.098585,865.538],[-1.464259,43.09864,865.794],[-1.464232,43.098681,865.419],[-1.46418,43.098724,865.248],[-1.464122,43.098764,865.237],[-1.464085,43.098817,864.556],[-1.464068,43.09887,863.959],[-1.464072,43.098917,862.914],[-1.464062,43.098969,861.608],[-1.464045,43.099015,859.981],[-1.464021,43.09906,858.49],[-1.463963,43.099079,857.222],[-1.463888,43.099106,856.711],[-1.463812,43.099123,855.887],[-1.463749,43.099156,854.832],[-1.463689,43.099186,853.461],[-1.463637,43.09921,853.31],[-1.463571,43.099235,852.773],[-1.463504,43.099263,851.385],[-1.463438,43.099299,851.013],[-1.463386,43.09934,850.408],[-1.463323,43.099379,848.633],[-1.463276,43.09941,847.842],[-1.463223,43.099437,846.734],[-1.463175,43.099467,845.773],[-1.46313,43.099512,844.049],[-1.463086,43.099544,842.324],[-1.46302,43.09957,841.733],[-1.462987,43.099609,840.392],[-1.462966,43.099655,839.267],[-1.462911,43.099695,838.681],[-1.46285,43.099714,837.119],[-1.462792,43.099733,836.908],[-1.462728,43.099751,835.972],[-1.462643,43.099771,834.771],[-1.46258,43.099793,834.373],[-1.462507,43.099832,833.672],[-1.462438,43.099868,832.628],[-1.462374,43.099903,831.383],[-1.462301,43.099946,829.862],[-1.462247,43.099975,829.091],[-1.462192,43.100011,828.568],[-1.462123,43.100056,826.342],[-1.462053,43.100093,825.226],[-1.461978,43.100129,823.408],[-1.461917,43.10014,821.332],[-1.461852,43.100158,820.151],[-1.461767,43.100167,819.443],[-1.461695,43.10016,818.992],[-1.461625,43.100149,819.168],[-1.461551,43.100139,819.953],[-1.46148,43.100139,819.392],[-1.461395,43.100139,818.891],[-1.461332,43.100142,818.528],[-1.461266,43.100144,817.889],[-1.461187,43.100147,816.317],[-1.461109,43.10013,814.708],[-1.461047,43.100098,813.488],[-1.460994,43.100065,811.877],[-1.460923,43.100052,811.529],[-1.460862,43.10004,810.958],[-1.460793,43.100009,810.444],[-1.460711,43.099962,810.259],[-1.460663,43.099926,810.078],[-1.460609,43.099883,809.687],[-1.460556,43.099858,809.518],[-1.460498,43.099829,809.598],[-1.460419,43.099804,808.217],[-1.460355,43.099788,807.408],[-1.460268,43.099769,806.867],[-1.460203,43.09976,806.216],[-1.460139,43.099743,804.848],[-1.460054,43.09971,803.227],[-1.459965,43.099678,801.493],[-1.459889,43.099647,800.598],[-1.459821,43.099624,800.177],[-1.459742,43.099602,799.326],[-1.459646,43.099581,798.259],[-1.459574,43.09956,797.203],[-1.459511,43.099545,796.623],[-1.459451,43.099524,795.808],[-1.459395,43.099493,795.271],[-1.459316,43.099479,795.49],[-1.459254,43.099464,795.452],[-1.459174,43.099442,796.981],[-1.459104,43.099433,797.497],[-1.459015,43.099431,797.692],[-1.45894,43.099425,797.311],[-1.458853,43.099439,797.04],[-1.458767,43.09945,795.655],[-1.458698,43.099455,794.507],[-1.458629,43.099461,793.517],[-1.458559,43.099482,792.608],[-1.458488,43.099496,792.721],[-1.458424,43.099491,791.76],[-1.458358,43.099487,791.522],[-1.458275,43.099511,790.571],[-1.458226,43.099551,790.087],[-1.458147,43.099609,789.072],[-1.458079,43.099652,788.231],[-1.458021,43.099677,786.49],[-1.457953,43.099689,785.199],[-1.457891,43.099687,783.807],[-1.457825,43.099702,783.027],[-1.457762,43.099723,783.008],[-1.457691,43.099756,782.455],[-1.457626,43.099779,782.384],[-1.457559,43.099806,783.396],[-1.457493,43.099814,783.075],[-1.457416,43.099817,783.061],[-1.457352,43.099817,783.086],[-1.457277,43.099827,781.985],[-1.457201,43.099842,780.614],[-1.457128,43.099865,779.539],[-1.457061,43.099877,777.601],[-1.45699,43.099886,777.221],[-1.456924,43.099895,776.708],[-1.456861,43.099905,776.569],[-1.456759,43.09991,776.748],[-1.45669,43.099913,776.86],[-1.456622,43.099922,776.439],[-1.45656,43.099926,776.035],[-1.456513,43.099971,775.76],[-1.45648,43.10002,771.799],[-1.456435,43.100053,768.688],[-1.456384,43.100088,764.911],[-1.456355,43.100135,762.521],[-1.456336,43.100182,760.503],[-1.456349,43.100231,757.608],[-1.456305,43.100294,756.337],[-1.456284,43.100342,756.226],[-1.456276,43.100394,755.168],[-1.45627,43.100439,754.437],[-1.45625,43.100493,752.753],[-1.456202,43.100562,752.068],[-1.456154,43.100612,750.477],[-1.456108,43.100649,749.336],[-1.456053,43.100683,749.894],[-1.456011,43.100722,747.957],[-1.455968,43.100778,746.422],[-1.455923,43.100832,745.508],[-1.455889,43.100873,744.585],[-1.455882,43.100926,743.234],[-1.455878,43.100977,741.926],[-1.455845,43.101027,740.365],[-1.455809,43.101072,739.181],[-1.45579,43.101117,738.146],[-1.455746,43.101159,736.525],[-1.4557,43.101192,735.214],[-1.455663,43.101236,733.892],[-1.455634,43.101292,731.873],[-1.455636,43.101339,729.82],[-1.455652,43.101384,728.208],[-1.45568,43.10143,726.465],[-1.455712,43.101483,725.554],[-1.455762,43.101517,723.526],[-1.455792,43.101558,721.745],[-1.455822,43.101603,719.171],[-1.455856,43.101647,716.336],[-1.455889,43.10169,715.115],[-1.455916,43.101737,714.954],[-1.455924,43.101786,712.834],[-1.455938,43.101836,712.155],[-1.455958,43.101891,710.61],[-1.455982,43.101937,710.308],[-1.456007,43.101979,708.789],[-1.456007,43.102034,707.898],[-1.456024,43.102112,706.53],[-1.456029,43.10217,706.689],[-1.456033,43.102218,705.585],[-1.456029,43.102269,704.32],[-1.456006,43.102322,702.999],[-1.455969,43.102387,702.788],[-1.455937,43.102446,701.585],[-1.455924,43.102494,700.189],[-1.455947,43.102541,698.317],[-1.455984,43.102584,696.908],[-1.456025,43.10263,695.694],[-1.456056,43.102675,694.153],[-1.456084,43.102724,693.145],[-1.456121,43.102764,692.324],[-1.456162,43.102799,691.29],[-1.456206,43.102831,690.415],[-1.456276,43.102863,691.654],[-1.456347,43.102897,692.053],[-1.456406,43.102938,691.421],[-1.456455,43.102974,691.241],[-1.456502,43.103004,692.105],[-1.456545,43.103052,692.708],[-1.45658,43.10309,692.178],[-1.456631,43.103141,689.297],[-1.456683,43.103175,686.079],[-1.45669,43.103223,684.548],[-1.456706,43.103266,683.244],[-1.45672,43.103312,681.829],[-1.456729,43.10336,681.288],[-1.456718,43.103413,679.847],[-1.456714,43.103465,678.271],[-1.456725,43.103515,677.341],[-1.456739,43.103562,675.915],[-1.456774,43.103623,676.108],[-1.456826,43.103676,674.713],[-1.456887,43.103734,673.932],[-1.456935,43.103788,673.064],[-1.456971,43.10385,671.853],[-1.456987,43.103897,671.969],[-1.457003,43.103943,670.454],[-1.45702,43.103991,669.963],[-1.457033,43.104041,670.392],[-1.457046,43.104096,670.452],[-1.457088,43.104134,671.453],[-1.457099,43.10419,671.208],[-1.457107,43.104237,670.008],[-1.457105,43.104292,668.391],[-1.457103,43.104341,666.05],[-1.457115,43.10439,662.322],[-1.457124,43.104445,659.841],[-1.457132,43.104498,658.427],[-1.457171,43.104535,657.712],[-1.457216,43.10458,655.881],[-1.457257,43.104619,656.09],[-1.457304,43.10467,654.545],[-1.457346,43.104705,653.047],[-1.457395,43.104747,651.911],[-1.457434,43.104798,650.508],[-1.457487,43.104837,649.98],[-1.457531,43.104884,647.879],[-1.457554,43.104932,644.551],[-1.457561,43.104982,643.25],[-1.457568,43.105041,642.596],[-1.457573,43.105101,641.461],[-1.457591,43.105164,640.61],[-1.457615,43.105229,639.269],[-1.457632,43.105288,637.771],[-1.457639,43.105334,637.141],[-1.457662,43.105399,636.715],[-1.457694,43.10545,637.008],[-1.457718,43.105496,636.423],[-1.457746,43.105538,636.562],[-1.457762,43.105585,637.184],[-1.457737,43.105627,638.983],[-1.457718,43.105674,639.879],[-1.457695,43.105719,639.674],[-1.457678,43.105767,639.153],[-1.457662,43.105826,638.952],[-1.457638,43.105875,636.874],[-1.457587,43.105906,635.356],[-1.457524,43.105938,631.721],[-1.457445,43.105956,629.408],[-1.457381,43.105985,627.033],[-1.457319,43.106016,623.092],[-1.457277,43.106059,620.124],[-1.457233,43.106104,618.113],[-1.457169,43.106136,616.199],[-1.457122,43.106166,612.934],[-1.457052,43.106196,611.133],[-1.45698,43.106225,610.662],[-1.456912,43.106249,609.155],[-1.456867,43.106281,608.507],[-1.456909,43.106314,605.317],[-1.456954,43.106346,604.408],[-1.457013,43.106369,603.961],[-1.457078,43.106391,603.11],[-1.457137,43.106409,602.952],[-1.457205,43.106426,601.971],[-1.457269,43.106444,601.817],[-1.457337,43.106452,601.852],[-1.457411,43.10647,601.881],[-1.457482,43.106485,602.38],[-1.457541,43.106499,602.732],[-1.457599,43.106529,603.492],[-1.45764,43.106569,604.411],[-1.457689,43.106597,605.608],[-1.457749,43.106625,607.359],[-1.457813,43.106652,609.338],[-1.45787,43.106693,611.55],[-1.457905,43.106742,613.219],[-1.457939,43.106782,614.715],[-1.457971,43.106828,615.98],[-1.457994,43.106879,616.739],[-1.457995,43.106941,617.148],[-1.458001,43.106992,617.346],[-1.457994,43.107052,616.988],[-1.458002,43.107097,616.416],[-1.457999,43.107146,615.808],[-1.457995,43.107195,615.53],[-1.457999,43.107249,615.259],[-1.458014,43.107305,614.711],[-1.458035,43.107358,615.11],[-1.458062,43.107401,615.146],[-1.458097,43.107445,615.241],[-1.458139,43.107479,615.29],[-1.458166,43.107522,615.599],[-1.458204,43.107566,615.796],[-1.458217,43.107624,615.031],[-1.458236,43.107676,614.624],[-1.458244,43.107721,614.408],[-1.458256,43.10777,613.925],[-1.458278,43.107816,613.444],[-1.458298,43.107895,613.256],[-1.458315,43.107938,613.285],[-1.45833,43.107986,612.961],[-1.458327,43.108042,611.936],[-1.458327,43.108093,611.955],[-1.45832,43.108144,611.564],[-1.458305,43.108209,611.293],[-1.458297,43.108254,611.365],[-1.458307,43.108317,611.021],[-1.458312,43.108371,610.608],[-1.458304,43.108417,610.225],[-1.458295,43.108468,610.194],[-1.458292,43.108518,609.726],[-1.458287,43.108564,609.245],[-1.458287,43.108622,608.721],[-1.458279,43.108668,608.296],[-1.458272,43.108714,608.125],[-1.458276,43.108778,608.154],[-1.458284,43.108829,607.314],[-1.458279,43.108877,606.554],[-1.458277,43.108924,606.309],[-1.458281,43.108978,605.408],[-1.458275,43.109025,605.097],[-1.458265,43.109071,604.666],[-1.458249,43.109117,604.038],[-1.458255,43.109173,604.537],[-1.45826,43.109219,603.933],[-1.458253,43.10928,603.718],[-1.45826,43.109336,603.477],[-1.458269,43.109382,603.366],[-1.458256,43.109432,603.455],[-1.458235,43.109475,603.707],[-1.458213,43.109523,604.417],[-1.458176,43.109583,604.408],[-1.458139,43.10963,604.161],[-1.458095,43.109705,603.61],[-1.458071,43.109751,603.532],[-1.458044,43.109803,603.141],[-1.458026,43.109854,602.347],[-1.458003,43.109901,602.172],[-1.458012,43.109958,602.081],[-1.458038,43.110009,602.75],[-1.458046,43.11006,603.075],[-1.458052,43.110109,603.628],[-1.458094,43.110147,604.82],[-1.458153,43.110176,606.008],[-1.458219,43.110174,606.793],[-1.458291,43.110171,606.662],[-1.45836,43.110172,604.894],[-1.458435,43.11018,603.343],[-1.4585,43.11019,601.649],[-1.458565,43.110212,600.074],[-1.458623,43.110244,597.563],[-1.458673,43.110282,595.412],[-1.458729,43.110323,593.597],[-1.458766,43.110369,592.323],[-1.458805,43.110413,591.425],[-1.458848,43.110454,591.108],[-1.458887,43.110493,591.445],[-1.458927,43.110547,591.734],[-1.458959,43.110597,592.316],[-1.458989,43.110638,592.855],[-1.459012,43.11069,593.181],[-1.459028,43.110736,594.796],[-1.459059,43.110807,595.935],[-1.45908,43.110855,596.344],[-1.459112,43.11091,597.237],[-1.459139,43.110963,598.249],[-1.459157,43.111008,598.613],[-1.459185,43.111051,599.808],[-1.459218,43.111098,600.449],[-1.45928,43.111155,600.958],[-1.459336,43.111184,601.27],[-1.459366,43.111231,602.039],[-1.459401,43.11127,602.915],[-1.459435,43.111309,604.11],[-1.459486,43.111359,604.799],[-1.459533,43.111393,604.778],[-1.459579,43.111433,604.391],[-1.459647,43.111473,603.981],[-1.459704,43.111498,603.519],[-1.459749,43.111539,602.608],[-1.459785,43.111586,601.445],[-1.459825,43.111633,599.714],[-1.459858,43.111679,598.356],[-1.459893,43.111739,596.155],[-1.459924,43.111788,593.031],[-1.459939,43.111848,589.026],[-1.459934,43.111905,585.155],[-1.459906,43.111952,581.154],[-1.459873,43.112003,577.141],[-1.459832,43.112039,573.881],[-1.459786,43.112081,569.809],[-1.459762,43.112123,566.208],[-1.459719,43.11216,563.04],[-1.459698,43.112205,560.069],[-1.459654,43.112242,557.251],[-1.459634,43.112288,555.01],[-1.459619,43.11234,553.326],[-1.459646,43.112389,551.141],[-1.459645,43.112444,549.48],[-1.459673,43.112499,547.749],[-1.459696,43.112552,545.892],[-1.459716,43.112603,543.573],[-1.459724,43.112656,541.32],[-1.459728,43.112712,540.208],[-1.459722,43.112768,539.275],[-1.459666,43.112814,538.324],[-1.459654,43.11286,536.156],[-1.459688,43.112901,534.375],[-1.459705,43.112949,533.091],[-1.459684,43.113008,531.376],[-1.459646,43.113043,529.935],[-1.459609,43.113085,527.554],[-1.459568,43.113132,526.045],[-1.459541,43.113189,524.947],[-1.459568,43.11325,523.911],[-1.459561,43.113296,521.408],[-1.459546,43.113341,519.29],[-1.459537,43.113386,517.299],[-1.459541,43.113441,516.141],[-1.459545,43.113487,514.87],[-1.459541,43.113543,512.356],[-1.459538,43.113597,510.531],[-1.459498,43.113636,509.07],[-1.459468,43.113693,507.559],[-1.459467,43.113753,506.448],[-1.459452,43.113805,505.361],[-1.459421,43.113858,504.417],[-1.459386,43.113899,503.508],[-1.459328,43.113939,502.61],[-1.459284,43.113979,502.819],[-1.459278,43.114034,503.031],[-1.459285,43.114079,502.89],[-1.459301,43.114129,503.116],[-1.459335,43.114195,503.241],[-1.459334,43.114245,504.79],[-1.459323,43.114301,506.569],[-1.459331,43.114349,508.272],[-1.459346,43.114397,509.213],[-1.459364,43.11444,509.414],[-1.459399,43.114484,508.408],[-1.459438,43.114537,506.243],[-1.459454,43.114586,503.482],[-1.459466,43.114645,502.054],[-1.459475,43.11469,500.493],[-1.459477,43.114737,499.929],[-1.459481,43.114793,498.714],[-1.459482,43.114841,498.013],[-1.459482,43.114892,497.042],[-1.459488,43.11494,496.058],[-1.459501,43.114993,495.052],[-1.459492,43.115049,494.017],[-1.459526,43.115102,493.408],[-1.45956,43.115163,492.441],[-1.459583,43.115214,491.75],[-1.459622,43.115259,490.752],[-1.459658,43.1153,488.751],[-1.459702,43.115334,487.127],[-1.459748,43.115369,486.372],[-1.459779,43.115417,484.911],[-1.45981,43.115462,483.53],[-1.459839,43.115525,480.916],[-1.459877,43.115572,479.276],[-1.459912,43.11561,478.113],[-1.459964,43.115681,477.108],[-1.459998,43.115724,476.757],[-1.460051,43.11577,477.156],[-1.46009,43.115818,476.988],[-1.460147,43.115858,476.697],[-1.460177,43.115899,476.593],[-1.460205,43.115939,476.378],[-1.460243,43.115984,476.487],[-1.460264,43.116031,476.396],[-1.460297,43.11607,476.693],[-1.460341,43.116104,476.465],[-1.460404,43.116126,475.621],[-1.460481,43.116153,474.508],[-1.460561,43.116157,474.495],[-1.460628,43.116155,474.094],[-1.460694,43.116147,474.196],[-1.460774,43.116149,474.475],[-1.460851,43.116164,472.931],[-1.460911,43.116194,471.156],[-1.460957,43.116233,470.095],[-1.460995,43.116271,469.044],[-1.461063,43.11628,466.384],[-1.461134,43.11629,464.707],[-1.461232,43.116315,463.617],[-1.461296,43.116332,462.908],[-1.461355,43.116353,462.034],[-1.461423,43.116378,462.363],[-1.461481,43.116411,462.585],[-1.461526,43.116447,462.364],[-1.461582,43.116478,461.73],[-1.461645,43.116492,460.755],[-1.461718,43.116495,459.474],[-1.461786,43.11652,459.253],[-1.461847,43.116547,458.736],[-1.461923,43.116584,458.517],[-1.462003,43.11662,458.718],[-1.462067,43.116652,458.208],[-1.462122,43.116678,458.119],[-1.462176,43.116702,457.398],[-1.462253,43.11671,455.12],[-1.462353,43.116726,453.639],[-1.462447,43.116757,452.825],[-1.462546,43.116792,452.83],[-1.462631,43.116822,452.839],[-1.462692,43.116841,452.288],[-1.462759,43.116858,451.869],[-1.462829,43.116876,452.004],[-1.462897,43.116869,452.024],[-1.462962,43.116867,451.908],[-1.463027,43.116875,451.952],[-1.463116,43.116903,452.351],[-1.463211,43.116934,452.123],[-1.463296,43.116965,451.522],[-1.463349,43.116992,451.068],[-1.463431,43.117015,449.973],[-1.463495,43.117042,449.032],[-1.463559,43.117054,448.511],[-1.46363,43.11708,448.346],[-1.463725,43.117116,448.188],[-1.463794,43.117148,447.716],[-1.463872,43.117183,447.608],[-1.463935,43.117213,447.61],[-1.463992,43.117247,447.599],[-1.464061,43.117283,447.751],[-1.464114,43.117311,448.55],[-1.464176,43.117328,449.056],[-1.464198,43.11738,447.371],[-1.464259,43.117418,446.27],[-1.464317,43.117434,445.279],[-1.464398,43.117446,443.454],[-1.464465,43.117458,441.656],[-1.464528,43.117473,440.211],[-1.464602,43.117485,438.608],[-1.464665,43.117489,437.291],[-1.464769,43.117507,437.17],[-1.464841,43.117515,436.632],[-1.464904,43.117529,436.571],[-1.464961,43.117547,436.387],[-1.465024,43.117562,435.852],[-1.46509,43.117558,435.231],[-1.465173,43.117561,434.86],[-1.465248,43.117577,434.777],[-1.465338,43.1176,434.761],[-1.465389,43.117627,433.127],[-1.465458,43.117658,430.508],[-1.465522,43.117684,428.883],[-1.465581,43.117699,426.542],[-1.465653,43.117727,425.564],[-1.465717,43.117755,425.443],[-1.465788,43.117778,425.569],[-1.465855,43.117806,425.744],[-1.465919,43.117822,426.083],[-1.465992,43.117848,426.232],[-1.466057,43.117864,425.658],[-1.466129,43.117877,425.652],[-1.466186,43.117902,425.217],[-1.466258,43.117933,425.008],[-1.466317,43.117956,424.881],[-1.466374,43.117977,424.67],[-1.466445,43.117996,424.252],[-1.466511,43.118003,422.941],[-1.46658,43.118007,421.957],[-1.466647,43.118002,420.792],[-1.466708,43.117993,419.581],[-1.466782,43.117968,418.73],[-1.466864,43.117954,418.435],[-1.466928,43.117952,418.386],[-1.466989,43.11796,418.214],[-1.467053,43.117976,417.708],[-1.467109,43.117995,418.019],[-1.467189,43.118003,418.398],[-1.467262,43.118017,418.07],[-1.467333,43.118021,418.629],[-1.467407,43.118024,418.835],[-1.467476,43.118021,419.05],[-1.467546,43.118051,418.799],[-1.467605,43.118065,417.528],[-1.467665,43.118079,416.921],[-1.467731,43.118093,416.141],[-1.46779,43.118107,414.405],[-1.467848,43.118127,413.708],[-1.467911,43.118143,413.158],[-1.467965,43.118164,412.197],[-1.468021,43.118187,411.419],[-1.468081,43.118226,410.588],[-1.468134,43.118272,409.514],[-1.468185,43.11832,409.489],[-1.468224,43.118346,415.848],[-1.468265,43.118382,408.737],[-1.468304,43.118429,408.261],[-1.468355,43.118456,406.021],[-1.468395,43.118491,404.113],[-1.468428,43.118533,402.408],[-1.46846,43.118592,400.712],[-1.468498,43.11863,399.821],[-1.468552,43.118661,397.413],[-1.468608,43.118694,396.162],[-1.468661,43.118731,395.098],[-1.468699,43.118768,394.553],[-1.468741,43.118834,394.182],[-1.468761,43.118887,395.471],[-1.468791,43.118976,396.687],[-1.468832,43.119041,397.842],[-1.468862,43.119086,398.826],[-1.468909,43.119133,399.408],[-1.468933,43.119187,399.864],[-1.468944,43.11924,400.683],[-1.468974,43.119288,401.125],[-1.469017,43.119329,402.174],[-1.469065,43.119399,401.88],[-1.469108,43.119443,401.185],[-1.469143,43.119483,399.714],[-1.469175,43.119523,398.643],[-1.469218,43.11957,397.282],[-1.469255,43.119606,395.643],[-1.469321,43.11963,394.517],[-1.469386,43.11964,393.708],[-1.469458,43.119648,392.824],[-1.469537,43.119658,391.843],[-1.469597,43.119669,390.255],[-1.469656,43.119685,389.114],[-1.46972,43.119703,387.94],[-1.469783,43.119725,386.965],[-1.46985,43.119743,387.184],[-1.46989,43.119785,387.213],[-1.469926,43.119835,388.447],[-1.469944,43.119881,389.729],[-1.469953,43.11993,390.521],[-1.469971,43.119985,388.108],[-1.47,43.120028,386.35],[-1.470026,43.120074,385.329],[-1.47004,43.120123,384.361],[-1.470054,43.120172,383.42],[-1.470072,43.120228,383.396],[-1.470091,43.120271,382.721],[-1.47013,43.120323,382.36]]}}]}