{"type":"FeatureCollection","features":[{"type":"Feature","properties":{"ruta_id":"70922238","nombre":"⛰️ MONTE BAIGURA ruta circular desde AZPARREN","blog_url":"https://www.rutasporelmonte.com/monte-baigura-ruta-desde-azparren/"},"geometry":{"type":"LineString","coordinates":[[-1.283976,42.87728,784.989],[-1.283903,42.877284,786.006],[-1.283826,42.877304,785.726],[-1.283767,42.877319,786.008],[-1.283708,42.877359,785.325],[-1.283653,42.877387,785.168],[-1.283591,42.877384,785.337],[-1.283529,42.877397,786.69],[-1.283466,42.877377,785.37],[-1.283405,42.877365,786.27],[-1.283326,42.877347,786.081],[-1.283295,42.877305,786.146],[-1.283346,42.877262,786.823],[-1.283282,42.877273,785.983],[-1.283219,42.877259,785.811],[-1.283219,42.877259,785.808],[-1.283219,42.877259,785.899],[-1.283169,42.877219,785.992],[-1.283117,42.877194,785.511],[-1.283055,42.877162,785.144],[-1.282997,42.87714,784.644],[-1.282935,42.877107,785.614],[-1.282885,42.877065,786.495],[-1.282832,42.877037,786.73],[-1.282765,42.877009,787.299],[-1.282704,42.876983,787.707],[-1.282649,42.876956,788.727],[-1.282589,42.876942,788.608],[-1.282528,42.876922,789.186],[-1.282464,42.876911,789.879],[-1.282408,42.876888,790.468],[-1.282352,42.87684,792.791],[-1.282297,42.876819,794.211],[-1.282231,42.876815,794.341],[-1.282173,42.8768,794.942],[-1.282109,42.876791,795.827],[-1.282039,42.876809,797.077],[-1.281976,42.87678,797.661],[-1.281925,42.876742,797.427],[-1.281887,42.876699,799.108],[-1.281859,42.876658,800.134],[-1.281803,42.876628,800.267],[-1.281742,42.876622,800.116],[-1.281675,42.876609,800.259],[-1.28161,42.876594,800.679],[-1.281534,42.876575,801.199],[-1.281463,42.87654,800.24],[-1.281393,42.87651,801.135],[-1.281331,42.876499,801.094],[-1.281283,42.876538,800.457],[-1.281219,42.876543,800.322],[-1.281145,42.876547,800.208],[-1.281079,42.876553,800.676],[-1.281008,42.876543,801.549],[-1.280944,42.876535,803.238],[-1.280884,42.876515,805.261],[-1.280833,42.876479,805.181],[-1.280777,42.876459,804.911],[-1.280714,42.876437,803.962],[-1.280647,42.876423,802.727],[-1.280587,42.876437,803.172],[-1.280525,42.876428,803.713],[-1.280464,42.876449,803.714],[-1.280402,42.876438,804.708],[-1.280359,42.876473,804.944],[-1.280317,42.876517,805.437],[-1.280275,42.876562,806.146],[-1.280217,42.876591,806.049],[-1.280157,42.876612,806.729],[-1.280099,42.876646,807.069],[-1.28003,42.876678,806.44],[-1.279966,42.876679,806.095],[-1.279886,42.876684,805.859],[-1.279819,42.876712,805.803],[-1.279759,42.876747,805.523],[-1.279694,42.876767,806.508],[-1.279631,42.876786,807.462],[-1.27957,42.876772,806.815],[-1.279524,42.876803,807.144],[-1.27948,42.87685,807.897],[-1.279446,42.876893,808.187],[-1.279384,42.876895,807.827],[-1.279326,42.876923,809.048],[-1.279247,42.876942,810.323],[-1.27918,42.876956,812.746],[-1.279111,42.876968,813.588],[-1.279043,42.876982,813.716],[-1.278983,42.877011,813.608],[-1.278934,42.877044,813.931],[-1.278884,42.877072,813.884],[-1.278834,42.877105,813.453],[-1.278774,42.877138,814.876],[-1.278727,42.877172,814.826],[-1.278692,42.87721,813.816],[-1.278658,42.877254,814.557],[-1.278612,42.877291,815.142],[-1.278547,42.877317,816.538],[-1.278492,42.877338,817.67],[-1.278446,42.877374,818.517],[-1.2784,42.877405,819.808],[-1.278369,42.877446,820.63],[-1.278357,42.877491,821.443],[-1.278338,42.87754,822.442],[-1.278315,42.877587,823.545],[-1.278286,42.877634,824.165],[-1.278258,42.877674,823.835],[-1.278219,42.877711,824.856],[-1.278161,42.877733,825.681],[-1.278109,42.87777,826.079],[-1.278062,42.877807,826.105],[-1.278007,42.877835,825.925],[-1.27795,42.877861,825.408],[-1.277904,42.877891,825.554],[-1.277839,42.877909,825.887],[-1.277784,42.877929,825.986],[-1.277738,42.877959,827.049],[-1.277705,42.877998,826.949],[-1.277653,42.878035,827.439],[-1.277604,42.878066,828.33],[-1.277541,42.878094,830.035],[-1.277486,42.878118,830.858],[-1.277432,42.878144,830.852],[-1.27737,42.878157,831.617],[-1.27731,42.87817,832.508],[-1.277242,42.878178,832.612],[-1.277191,42.878203,832.085],[-1.277152,42.878241,831.134],[-1.2771,42.878275,830.657],[-1.277035,42.878292,830.357],[-1.276972,42.878309,829.537],[-1.276913,42.878326,828.688],[-1.27686,42.878355,826.693],[-1.276803,42.878374,825.912],[-1.276737,42.878383,825.732],[-1.276676,42.878407,824.805],[-1.276623,42.878438,825.008],[-1.276576,42.878475,825.038],[-1.27654,42.878512,824.071],[-1.276493,42.878549,822.68],[-1.276442,42.878579,823.733],[-1.276378,42.878591,823.243],[-1.276317,42.878602,821.823],[-1.276248,42.878604,819.384],[-1.276181,42.878608,819.419],[-1.276098,42.878592,819.595],[-1.276022,42.8786,819.149],[-1.275954,42.878607,819.523],[-1.27588,42.878599,819.308],[-1.275797,42.878602,821.596],[-1.275721,42.878605,821.239],[-1.275655,42.878613,821.888],[-1.275592,42.878619,823.271],[-1.275537,42.878642,823.421],[-1.275474,42.878677,825.031],[-1.27542,42.878704,826.392],[-1.275357,42.878719,828.387],[-1.275286,42.878718,831.018],[-1.275222,42.878717,832.798],[-1.275159,42.878731,835.317],[-1.275096,42.878749,837.808],[-1.275035,42.87877,839.458],[-1.274962,42.878793,842.411],[-1.274888,42.878788,845.71],[-1.274831,42.878811,848.533],[-1.274791,42.878858,850.913],[-1.274748,42.878896,852.373],[-1.274698,42.87893,853.974],[-1.274639,42.878953,855.119],[-1.274576,42.878977,855.732],[-1.274525,42.879011,858.292],[-1.274476,42.879039,858.411],[-1.274413,42.879061,858.908],[-1.27436,42.879097,860.16],[-1.274301,42.879126,860.683],[-1.274239,42.879155,860.922],[-1.274184,42.87918,860.715],[-1.274127,42.879206,860.145],[-1.274067,42.879233,859.815],[-1.273993,42.879253,858.886],[-1.273936,42.879284,858.791],[-1.273877,42.879312,858.621],[-1.273811,42.879333,857.841],[-1.273748,42.879346,857.905],[-1.273705,42.879385,858.308],[-1.273639,42.879398,858.789],[-1.273573,42.879395,859.632],[-1.273504,42.879409,859.741],[-1.273431,42.879421,860.594],[-1.273444,42.879465,860.954],[-1.273371,42.879476,861.144],[-1.273321,42.879502,861.035],[-1.27326,42.879513,862.95],[-1.273205,42.879544,866.287],[-1.273152,42.879579,868.442],[-1.27308,42.879592,870.126],[-1.273016,42.879596,871.908],[-1.27296,42.879622,872.255],[-1.272918,42.879587,872.128],[-1.272855,42.879583,869.657],[-1.272878,42.879636,866.56],[-1.272844,42.879685,865.82],[-1.272767,42.879703,864.58],[-1.272696,42.879707,864.331],[-1.272628,42.879702,863.886],[-1.272566,42.879684,863.348],[-1.272506,42.879675,863.561],[-1.27243,42.879679,863.717],[-1.272363,42.879688,863.408],[-1.272292,42.879688,863.171],[-1.272214,42.879688,863.564],[-1.272151,42.879697,864.263],[-1.272078,42.879695,864.256],[-1.272013,42.879724,862.786],[-1.271961,42.879749,862.916],[-1.271877,42.879756,862.267],[-1.271798,42.879773,861.412],[-1.271735,42.879786,860.379],[-1.271671,42.879801,860.805],[-1.271604,42.879814,859.825],[-1.271532,42.879819,859.608],[-1.271464,42.879834,859.444],[-1.271454,42.879883,859.557],[-1.271398,42.879904,859.846],[-1.27134,42.879926,860.559],[-1.271277,42.879924,859.299],[-1.271226,42.879951,858.329],[-1.271179,42.879998,857.53],[-1.271132,42.880033,857.045],[-1.271082,42.880059,856.454],[-1.271021,42.880076,855.556],[-1.270965,42.880105,855.011],[-1.270919,42.880136,854.008],[-1.270887,42.880184,852.352],[-1.270856,42.880231,851.615],[-1.270795,42.880253,849.294],[-1.270733,42.880261,849.217],[-1.270668,42.880291,849.947],[-1.270612,42.880317,851.157],[-1.270543,42.880341,852.148],[-1.270473,42.880348,852.933],[-1.270407,42.880354,855.387],[-1.270339,42.880361,857.442],[-1.270275,42.880361,858.126],[-1.270209,42.880355,860.208],[-1.27014,42.880359,862.575],[-1.270079,42.880367,864.618],[-1.270009,42.880364,866.547],[-1.269937,42.880359,870.44],[-1.269872,42.880348,873.34],[-1.269821,42.880319,876.16],[-1.26976,42.880305,877.851],[-1.269692,42.8803,879.686],[-1.269631,42.880316,881.915],[-1.269575,42.880352,884.765],[-1.269516,42.880381,887.411],[-1.269439,42.880388,889.708],[-1.269375,42.880395,891.328],[-1.269317,42.880417,892.621],[-1.269246,42.88043,893.73],[-1.269186,42.880446,894.733],[-1.269151,42.880486,895.513],[-1.269098,42.880509,896.943],[-1.269036,42.880514,897.464],[-1.268994,42.880553,897.499],[-1.268932,42.880572,897.313],[-1.26887,42.880578,897.543],[-1.268804,42.880584,896.907],[-1.268733,42.880576,897.708],[-1.26867,42.88058,897.398],[-1.268609,42.880595,897.761],[-1.268546,42.880606,897.88],[-1.268484,42.880631,898.633],[-1.268421,42.880639,899.343],[-1.268347,42.880657,899.873],[-1.268283,42.880666,901.194],[-1.268223,42.880688,901.089],[-1.268156,42.880696,902.459],[-1.268084,42.880736,902.703],[-1.268021,42.880757,903.123],[-1.267947,42.880777,904.708],[-1.267892,42.880798,905.172],[-1.267834,42.880821,905.265],[-1.267781,42.88085,906.524],[-1.267733,42.880879,907.187],[-1.267675,42.880906,907.837],[-1.267639,42.880956,908.497],[-1.267604,42.880993,908.268],[-1.267551,42.881038,909.383],[-1.267522,42.881086,909.814],[-1.267475,42.881118,911.054],[-1.267427,42.88116,910.909],[-1.267393,42.881201,911.008],[-1.267356,42.881244,911.268],[-1.267312,42.881279,911.531],[-1.267267,42.881319,911.76],[-1.267236,42.881362,912.613],[-1.267171,42.881357,912.053],[-1.267127,42.881391,912.593],[-1.267098,42.881431,913.614],[-1.26713,42.88147,914.149],[-1.267081,42.881502,915.572],[-1.267031,42.881532,916.213],[-1.266978,42.881572,916.914],[-1.266926,42.881602,919.308],[-1.266874,42.881642,919.664],[-1.266814,42.881667,919.697],[-1.266754,42.881687,920.976],[-1.266689,42.881729,921.489],[-1.266644,42.88176,921.189],[-1.266587,42.881792,921.539],[-1.266521,42.881811,920.22],[-1.26646,42.881822,921.185],[-1.266398,42.881844,921.612],[-1.266347,42.881887,920.932],[-1.266272,42.881898,920.205],[-1.266196,42.881898,921.608],[-1.266137,42.881886,921.628],[-1.266075,42.881881,922.711],[-1.266009,42.881881,922.88],[-1.265937,42.88188,923.933],[-1.265865,42.881877,924.193],[-1.265789,42.881872,924.373],[-1.265722,42.881874,924.964],[-1.26566,42.881867,925.419],[-1.265591,42.881866,925.677],[-1.265525,42.881883,926.761],[-1.265458,42.881885,927.127],[-1.265396,42.881877,928.608],[-1.265332,42.881872,929.224],[-1.265271,42.881864,930.597],[-1.265214,42.881846,930.316],[-1.265153,42.881835,930.899],[-1.265087,42.881827,931.469],[-1.265021,42.881818,933.519],[-1.264948,42.881812,933.22],[-1.264886,42.881815,934.245],[-1.26482,42.881812,934.778],[-1.264758,42.881806,935.333],[-1.26469,42.881797,936.926],[-1.264626,42.881779,937.508],[-1.264555,42.881756,937.224],[-1.264488,42.881748,937.447],[-1.264426,42.881741,936.366],[-1.264356,42.881743,937.429],[-1.264292,42.881762,935.939],[-1.264228,42.881781,935.219],[-1.264163,42.881775,935.26],[-1.264097,42.881766,935.845],[-1.264032,42.881756,935.519],[-1.263964,42.881743,935.209],[-1.263885,42.881739,936.119],[-1.263824,42.881745,935.908],[-1.263749,42.881759,935.548],[-1.263694,42.88179,936.311],[-1.263643,42.881823,936.79],[-1.263594,42.881864,936.383],[-1.263539,42.881906,936.933],[-1.263498,42.881945,936.443],[-1.263478,42.881994,938.564],[-1.263476,42.88204,939.629],[-1.263468,42.882087,941.117],[-1.263434,42.882128,941.287],[-1.263446,42.882184,943.315],[-1.263494,42.882218,943.108],[-1.263542,42.882253,945.248],[-1.263577,42.882291,946.931],[-1.263608,42.882335,947.31],[-1.263639,42.882377,948.253],[-1.263675,42.882418,947.633],[-1.263705,42.882462,948.313],[-1.263711,42.88251,949.214],[-1.263697,42.882558,949.689],[-1.263667,42.882601,952.678],[-1.26363,42.882644,954.133],[-1.263602,42.882688,954.626],[-1.263582,42.882734,956.108],[-1.263581,42.882779,958.274],[-1.263555,42.882824,960.827],[-1.26351,42.882863,961.926],[-1.263446,42.882867,963.019],[-1.26337,42.882868,964.659],[-1.263306,42.882865,967.769],[-1.263258,42.882836,968.76],[-1.263206,42.882808,971.415],[-1.26314,42.882804,972.365],[-1.263078,42.882814,974.868],[-1.262999,42.88282,975.414],[-1.262915,42.882828,977.608],[-1.262852,42.882827,978.843],[-1.262789,42.882826,980.566],[-1.262723,42.88282,982.455],[-1.262664,42.882797,984.198],[-1.262605,42.882778,985.038],[-1.262536,42.882764,986.818],[-1.262473,42.882749,988.679],[-1.262414,42.882732,989.424],[-1.262359,42.882704,990.556],[-1.262295,42.882671,990.959],[-1.262234,42.882661,992.114],[-1.262165,42.882656,992.908],[-1.262097,42.88266,992.622],[-1.262033,42.882653,993.395],[-1.261971,42.882651,992.634],[-1.261909,42.882645,992.687],[-1.261839,42.88264,992.497],[-1.26177,42.882632,992.137],[-1.261705,42.882631,991.928],[-1.261639,42.882639,991.323],[-1.261576,42.882642,991.497],[-1.261509,42.882654,991.023],[-1.261438,42.88268,992.225],[-1.261376,42.882697,992.808],[-1.261306,42.882705,993.596],[-1.261239,42.882712,993.949],[-1.261178,42.882727,994.868],[-1.261138,42.882763,994.791],[-1.26119,42.882791,995.341],[-1.261262,42.882801,995.881],[-1.261335,42.882807,996.932],[-1.2614,42.882814,997.137],[-1.261462,42.882838,998.583],[-1.261505,42.882875,999.425],[-1.261545,42.882917,998.917],[-1.261611,42.882927,1000.108],[-1.261566,42.882962,999.385],[-1.261525,42.882996,998.898],[-1.261463,42.883007,998.627],[-1.2614,42.88299,1000.89],[-1.261334,42.882998,1000.46],[-1.26127,42.883007,1000.59],[-1.261212,42.883022,1000.311],[-1.26115,42.88302,1000.736],[-1.261095,42.882999,999.427],[-1.261031,42.883007,999.668],[-1.26096,42.883018,999.214],[-1.260894,42.883026,1000.008],[-1.260833,42.883035,999.049],[-1.260771,42.883053,998.792],[-1.26071,42.883068,997.561],[-1.260639,42.883075,997.014],[-1.260569,42.883071,996.684],[-1.260503,42.883087,996.944],[-1.260424,42.883088,996.165],[-1.26036,42.883088,996.08],[-1.260303,42.883105,995.953],[-1.260243,42.883143,995.504],[-1.260183,42.883161,995.714],[-1.260132,42.883195,994.708],[-1.260098,42.883233,994.322],[-1.260073,42.883276,994.365],[-1.260027,42.883316,994.514],[-1.259964,42.88333,995.367],[-1.259905,42.883347,995.117],[-1.259847,42.883375,996.167],[-1.2598,42.883417,996.818],[-1.259749,42.883452,998.963],[-1.259687,42.883473,1001.888],[-1.259609,42.883465,1005.124],[-1.259555,42.883492,1007.226],[-1.259487,42.883499,1008.208],[-1.259429,42.883532,1010.525],[-1.259359,42.883553,1011.238],[-1.25929,42.883572,1012.237],[-1.259216,42.883588,1013.15],[-1.259177,42.883628,1013.95],[-1.259132,42.883667,1015.58],[-1.259083,42.883698,1016.111],[-1.259028,42.883726,1016.986],[-1.258969,42.883752,1017.175],[-1.258913,42.883786,1017.628],[-1.258847,42.883801,1019.32],[-1.258805,42.883834,1020.108],[-1.258775,42.883876,1020.534],[-1.258723,42.883901,1021.147],[-1.258668,42.883929,1021.126],[-1.258642,42.883976,1022.889],[-1.258623,42.884023,1022.269],[-1.258601,42.884066,1022.649],[-1.258568,42.884112,1024.16],[-1.258534,42.884155,1024.425],[-1.258466,42.884187,1026.213],[-1.258406,42.884208,1025.843],[-1.258339,42.884226,1025.207],[-1.25828,42.884251,1025.908],[-1.258224,42.884284,1026.148],[-1.258164,42.884309,1025.961],[-1.258122,42.884344,1026.37],[-1.258066,42.88438,1027.963],[-1.258027,42.884416,1029.223],[-1.258012,42.884464,1030.073],[-1.257987,42.884512,1029.494],[-1.257958,42.884555,1029.149],[-1.25794,42.884609,1029.724],[-1.257905,42.884646,1029.604],[-1.257863,42.884688,1031.114],[-1.257816,42.88473,1030.808],[-1.257759,42.884761,1031.159],[-1.257697,42.884794,1033.052],[-1.257629,42.884818,1032.771],[-1.257565,42.884824,1034.064],[-1.2575,42.884838,1034.884],[-1.257442,42.884859,1035.944],[-1.257398,42.884896,1037.345],[-1.257353,42.884927,1038.47],[-1.257282,42.884952,1039.936],[-1.25724,42.884988,1041.717],[-1.257181,42.885013,1043.718],[-1.257146,42.885055,1045.408],[-1.257088,42.885078,1048.02],[-1.25706,42.885118,1049.743],[-1.257031,42.885161,1050.892],[-1.257008,42.88521,1051.555],[-1.256953,42.885244,1051.035],[-1.256906,42.885273,1050.415],[-1.256861,42.885313,1050.796],[-1.256812,42.885351,1051.591],[-1.256777,42.885391,1051.581],[-1.256757,42.885434,1050.661],[-1.25673,42.885481,1050.917],[-1.256712,42.885528,1050.208],[-1.256689,42.885575,1049.365],[-1.256663,42.885622,1050.048],[-1.256635,42.885672,1049.227],[-1.25661,42.885713,1050.57],[-1.256577,42.885758,1050.25],[-1.256524,42.885809,1050.52],[-1.256466,42.885838,1050.211],[-1.256393,42.885865,1050.936],[-1.256333,42.885883,1051.542],[-1.256271,42.885864,1052.822],[-1.256204,42.885879,1054.014],[-1.256154,42.885913,1054.108],[-1.256101,42.885946,1055.181],[-1.256043,42.885972,1056.344],[-1.255986,42.885991,1055.393],[-1.255925,42.886002,1056.156],[-1.255851,42.885979,1056.066],[-1.255791,42.885994,1056.536],[-1.255717,42.885995,1057.167],[-1.255635,42.886015,1057.042],[-1.255577,42.886042,1056.069],[-1.255532,42.886081,1054.804],[-1.255488,42.886122,1054.824],[-1.255425,42.886159,1054.608],[-1.255372,42.886183,1054.133],[-1.255302,42.886215,1053.456],[-1.255251,42.886242,1052.165],[-1.25519,42.88627,1051.368],[-1.255146,42.886303,1051.918],[-1.2551,42.886341,1051.558],[-1.255037,42.886365,1051.489],[-1.25498,42.886386,1050.984],[-1.254943,42.886431,1051.584],[-1.254899,42.886473,1051.807],[-1.254838,42.886511,1051.917],[-1.254788,42.886541,1052.108],[-1.254764,42.886586,1052.215],[-1.254686,42.886583,1050.858],[-1.254625,42.886579,1050.837],[-1.254563,42.886559,1050.89],[-1.254491,42.886545,1051.75],[-1.25442,42.886545,1052.65],[-1.254346,42.886534,1053.931],[-1.254284,42.88652,1054.716],[-1.254232,42.886493,1057.238],[-1.25419,42.886453,1057.67],[-1.254127,42.886444,1055.617],[-1.254174,42.886414,1055.508],[-1.254164,42.886366,1055.68],[-1.254209,42.886324,1056.653],[-1.254263,42.886285,1057.672],[-1.254301,42.886245,1056.655],[-1.254325,42.8862,1057.495],[-1.25434,42.886153,1058.185],[-1.254359,42.88611,1058.246],[-1.254393,42.886066,1057.811],[-1.254428,42.886024,1057.268],[-1.254459,42.885985,1056.642],[-1.254478,42.885934,1056.026],[-1.254509,42.88589,1056.008],[-1.25453,42.885842,1057.343],[-1.254572,42.8858,1057.736],[-1.254607,42.885758,1058.185],[-1.254642,42.885715,1058.688],[-1.254696,42.885668,1058.598],[-1.25473,42.885616,1057.048],[-1.254772,42.885582,1057.019],[-1.254783,42.885532,1056.564],[-1.254829,42.885488,1055.384],[-1.254879,42.88545,1055.007],[-1.25492,42.885394,1054.117],[-1.254951,42.885355,1054.608],[-1.254989,42.885315,1055.155],[-1.25502,42.885275,1055.388],[-1.255043,42.88523,1055.417],[-1.255088,42.885197,1055.71],[-1.255111,42.885154,1055.69],[-1.255132,42.885107,1056.59],[-1.255182,42.885077,1057.381],[-1.255228,42.885045,1059.486],[-1.255277,42.885017,1061.174],[-1.255286,42.884963,1062.756],[-1.255297,42.885009,1064.421],[-1.255308,42.884958,1063.508],[-1.255312,42.884907,1064.564],[-1.255322,42.884859,1064.817],[-1.255336,42.884806,1065.546],[-1.255353,42.884761,1065.389],[-1.255362,42.884709,1066.249],[-1.255373,42.884663,1067.189],[-1.255384,42.884613,1067.76],[-1.255392,42.884564,1069.155],[-1.255411,42.884521,1068.913],[-1.255437,42.884469,1068.243],[-1.255453,42.884412,1067.807],[-1.255468,42.884365,1067.708],[-1.255469,42.884307,1068.138],[-1.255482,42.884258,1069.141],[-1.255504,42.884206,1070.05],[-1.255512,42.884158,1070.263],[-1.255524,42.884111,1072.133],[-1.255536,42.884062,1073.073],[-1.25556,42.88402,1074.494],[-1.255585,42.883976,1075.689],[-1.255592,42.883926,1076.789],[-1.25559,42.88387,1077.706],[-1.255599,42.883819,1079.326],[-1.255615,42.883764,1079.808],[-1.255611,42.883706,1080.895],[-1.255596,42.883652,1081.388],[-1.255577,42.883599,1081.787],[-1.255533,42.883559,1082.07],[-1.255485,42.883521,1082.51],[-1.255441,42.883485,1083.63],[-1.255399,42.883444,1082.841],[-1.255387,42.883396,1084.336],[-1.255387,42.883344,1084.826],[-1.255371,42.883298,1084.747],[-1.255365,42.883253,1085.311],[-1.255367,42.883208,1086.108],[-1.255347,42.883157,1086.229],[-1.255326,42.883106,1086.912],[-1.255319,42.883044,1088.661],[-1.25534,42.882994,1088.894],[-1.25533,42.882934,1089.354],[-1.255326,42.882884,1089.594],[-1.255324,42.882835,1089.965],[-1.255349,42.882783,1090.94],[-1.255398,42.882734,1091.875],[-1.255425,42.882691,1092.428],[-1.255443,42.882648,1092.82],[-1.255443,42.882601,1093.608],[-1.25545,42.882553,1093.654],[-1.255459,42.882505,1095.187],[-1.255449,42.882457,1095.376],[-1.255452,42.882406,1096.799],[-1.25546,42.88236,1096.979],[-1.255453,42.882313,1097.499],[-1.255437,42.88227,1097.91],[-1.255418,42.882227,1098.075],[-1.255407,42.88218,1098.371],[-1.255425,42.882135,1099.841],[-1.255445,42.882085,1100.515],[-1.255474,42.882044,1102.008],[-1.255468,42.881995,1102.994],[-1.255434,42.881955,1101.747],[-1.255424,42.8819,1101.246],[-1.255437,42.881856,1100.779],[-1.255496,42.88187,1100.459],[-1.25554,42.88183,1098.959],[-1.255548,42.881785,1097.55],[-1.255494,42.881754,1096.295],[-1.255488,42.881696,1095.476],[-1.255505,42.881647,1094.89],[-1.255529,42.881591,1093.519],[-1.255542,42.881545,1092.508],[-1.255528,42.881491,1092.064],[-1.255506,42.881438,1092.277],[-1.255492,42.881394,1091.866],[-1.255491,42.881336,1092.399],[-1.255478,42.881284,1092.089],[-1.255454,42.881239,1092.229],[-1.255442,42.881189,1092.16],[-1.255436,42.881141,1092.885],[-1.255446,42.881088,1093.124],[-1.25546,42.881039,1093.204],[-1.255462,42.88099,1093.414],[-1.255456,42.880944,1094.208],[-1.255449,42.880899,1093.829],[-1.255439,42.88085,1094.312],[-1.255428,42.880801,1095.051],[-1.255424,42.880741,1095.724],[-1.255413,42.880691,1095.824],[-1.255404,42.880643,1097.184],[-1.255415,42.880595,1098.195],[-1.255432,42.88054,1098.93],[-1.255454,42.880486,1100.335],[-1.255438,42.880438,1100.886],[-1.255426,42.880387,1101.914],[-1.255421,42.88034,1103.108],[-1.255447,42.880298,1104.06],[-1.255479,42.880252,1104.583],[-1.255515,42.880208,1104.482],[-1.255558,42.880167,1105.465],[-1.255582,42.880124,1106.165],[-1.255593,42.880079,1107.335],[-1.255612,42.880029,1107.436],[-1.255641,42.879987,1108.621],[-1.255657,42.879942,1109.536],[-1.255679,42.879896,1110.317],[-1.255705,42.879854,1111.218],[-1.255733,42.879811,1112.208],[-1.25574,42.879764,1112.13],[-1.25572,42.87972,1112.633],[-1.255669,42.879693,1113.142],[-1.255642,42.879649,1114.565],[-1.255605,42.879605,1114.795],[-1.255548,42.879559,1114.585],[-1.255486,42.879562,1114.656],[-1.255483,42.879608,1115.971],[-1.255425,42.879586,1117.535],[-1.25536,42.87957,1118.186],[-1.255289,42.879559,1118.014],[-1.255224,42.87956,1118.408],[-1.255151,42.879541,1118.62],[-1.255106,42.879504,1118.473],[-1.255085,42.879459,1118.562],[-1.255058,42.879418,1118.375],[-1.255,42.879388,1118.395],[-1.254947,42.879364,1118.495],[-1.254896,42.879335,1118.826],[-1.25484,42.879298,1119.771],[-1.25479,42.879267,1120.652],[-1.254744,42.879221,1120.553],[-1.254682,42.879187,1120.908],[-1.254631,42.879157,1122.208],[-1.254572,42.879139,1122.942],[-1.254523,42.879099,1123.775],[-1.254477,42.879064,1124.914],[-1.254417,42.879024,1125.147],[-1.254367,42.878989,1127.147],[-1.254319,42.87896,1128.927],[-1.254259,42.878938,1130.118],[-1.254204,42.878909,1130.993],[-1.254149,42.878889,1131.189],[-1.25411,42.878846,1133.006],[-1.254072,42.878884,1134.526],[-1.254065,42.878929,1136.208],[-1.254052,42.878975,1137.795],[-1.254037,42.879023,1140.078],[-1.254046,42.879068,1142.147],[-1.254037,42.879113,1143.31],[-1.254,42.879155,1144.05],[-1.253982,42.879203,1145.93],[-1.253978,42.879249,1148.581],[-1.254026,42.879285,1151.396],[-1.25403,42.879338,1153.868],[-1.253997,42.879388,1155.342],[-1.253973,42.87943,1156.826],[-1.253937,42.879474,1158.308],[-1.253894,42.879511,1159.713],[-1.253856,42.879547,1161.446],[-1.253821,42.87959,1162.625],[-1.253793,42.879635,1164.068],[-1.253736,42.879663,1165.528],[-1.253675,42.879678,1166.258],[-1.253612,42.87969,1167.599],[-1.253556,42.879715,1168.344],[-1.253503,42.879756,1169.796],[-1.253465,42.879801,1171.231],[-1.253397,42.879823,1172.324],[-1.253333,42.879835,1173.408],[-1.253272,42.879851,1174.586],[-1.253222,42.879879,1174.989],[-1.253175,42.879917,1176.058],[-1.253136,42.879956,1177.171],[-1.253083,42.879986,1178.541],[-1.253028,42.880008,1178.081],[-1.252988,42.880045,1176.712],[-1.252957,42.880091,1175.317],[-1.25292,42.880138,1173.951],[-1.252871,42.880166,1173.001],[-1.252802,42.880158,1172.211],[-1.252749,42.880126,1171.608],[-1.252728,42.880079,1171.242],[-1.2527,42.880035,1171.075],[-1.252658,42.879993,1172.174],[-1.252626,42.87995,1172.317],[-1.252586,42.87991,1173.147],[-1.252539,42.879861,1174.437],[-1.2525,42.879822,1175.088],[-1.252461,42.87978,1174.963],[-1.252425,42.879743,1174.985],[-1.252393,42.879703,1175.989],[-1.252352,42.879661,1176.817],[-1.252303,42.879634,1177.308],[-1.252257,42.879599,1178.695],[-1.25223,42.879558,1179.998],[-1.252203,42.879517,1181.167],[-1.252156,42.879483,1182.01],[-1.252131,42.879432,1183.53],[-1.252129,42.879385,1184.56],[-1.252106,42.879343,1185.991],[-1.252072,42.879305,1186.836],[-1.252017,42.879265,1190.386],[-1.251975,42.879223,1192.86],[-1.251942,42.879181,1194.826],[-1.251902,42.879141,1196.508],[-1.251872,42.879093,1197.445],[-1.251828,42.879041,1199.588],[-1.251837,42.878996,1200.887],[-1.251788,42.878958,1200.04],[-1.251769,42.878908,1200.87],[-1.251766,42.878855,1201.92],[-1.251774,42.878803,1202.521],[-1.251789,42.87874,1202.596],[-1.251807,42.878686,1204.415],[-1.251783,42.878641,1204.765],[-1.251753,42.878585,1204.811],[-1.251752,42.878535,1205.408],[-1.251738,42.878486,1205.648],[-1.251696,42.878452,1207.021],[-1.25165,42.878413,1207.13],[-1.251624,42.878361,1208.153],[-1.251577,42.878322,1208.743],[-1.251531,42.878285,1209.693],[-1.251475,42.878259,1210.894],[-1.251446,42.878218,1212.019],[-1.251404,42.878176,1212.872],[-1.251378,42.878133,1213.813],[-1.25136,42.878084,1214.514],[-1.251358,42.878031,1215.008],[-1.251345,42.87798,1215.694],[-1.251338,42.877931,1215.457],[-1.251354,42.877886,1216.286],[-1.251348,42.877829,1217.799],[-1.251333,42.877781,1219.059],[-1.25134,42.877735,1219.419],[-1.251358,42.877682,1220.43],[-1.251351,42.877629,1221.435],[-1.25133,42.877575,1222.352],[-1.251305,42.877533,1224.353],[-1.251289,42.877489,1224.608],[-1.251274,42.877439,1225.508],[-1.251252,42.877395,1226.142],[-1.251248,42.87734,1225.745],[-1.251228,42.877293,1226.494],[-1.251244,42.877244,1227.597],[-1.251252,42.877197,1228.557],[-1.251234,42.877152,1229.637],[-1.251224,42.877097,1230.588],[-1.25122,42.877046,1232.033],[-1.251213,42.876996,1232.855],[-1.251222,42.87695,1233.907],[-1.251231,42.876904,1235.017],[-1.251243,42.876857,1236.008],[-1.25126,42.876808,1236.892],[-1.251229,42.876764,1238.265],[-1.251243,42.87672,1237.794],[-1.25129,42.876686,1238.057],[-1.251319,42.876642,1237.997],[-1.251317,42.87659,1238.397],[-1.251315,42.876541,1238.158],[-1.251336,42.876497,1238.283],[-1.251352,42.876451,1238.756],[-1.251353,42.876401,1239.959],[-1.251308,42.876367,1241.814],[-1.25126,42.876336,1243.108],[-1.251212,42.876299,1245.072],[-1.251173,42.876264,1247.025],[-1.251134,42.876227,1249.614],[-1.251119,42.876182,1251.367],[-1.251094,42.876139,1253.597],[-1.25107,42.876095,1255.027],[-1.251031,42.87605,1256.928],[-1.25103,42.876003,1259.053],[-1.251045,42.875958,1260.785],[-1.251047,42.875906,1261.989],[-1.251029,42.875862,1262.517],[-1.251017,42.875806,1263.808],[-1.251011,42.875759,1265.445],[-1.250971,42.875722,1266.358],[-1.250911,42.875702,1268.517],[-1.250861,42.875675,1270.15],[-1.250836,42.875632,1271.16],[-1.250825,42.875585,1272.85],[-1.250813,42.87554,1273.321],[-1.250786,42.875496,1274.546],[-1.250763,42.875451,1274.625],[-1.250739,42.875407,1274.826],[-1.250723,42.87536,1274.708],[-1.250694,42.875314,1275.008],[-1.250656,42.875274,1275.019],[-1.250611,42.87524,1275.652],[-1.250569,42.875203,1276.711],[-1.250519,42.875174,1277.094],[-1.25047,42.875145,1277.774],[-1.250436,42.875108,1277.584],[-1.250399,42.875064,1278.155],[-1.25037,42.87502,1279.13],[-1.25033,42.874976,1279.771],[-1.250264,42.874967,1280.341],[-1.250201,42.874978,1281.215],[-1.250161,42.87494,1280.208],[-1.250162,42.874895,1280.344],[-1.250159,42.874841,1280.157],[-1.250187,42.874783,1280.336],[-1.250201,42.874737,1281.019],[-1.25024,42.874697,1281.359],[-1.250282,42.874659,1281.149],[-1.25033,42.874615,1281.64],[-1.250369,42.874573,1281.565],[-1.250418,42.874529,1281.643],[-1.250472,42.874493,1282.164],[-1.25053,42.874477,1282.91],[-1.250591,42.87446,1284.008],[-1.250653,42.874457,1284.841],[-1.250716,42.874467,1285.514],[-1.250781,42.874469,1284.743],[-1.250851,42.874482,1285.066],[-1.250913,42.874472,1285.956],[-1.250979,42.874461,1286.076],[-1.251047,42.87445,1286.427],[-1.251117,42.874429,1287.212],[-1.251175,42.874413,1288.465],[-1.251251,42.874407,1290.768],[-1.251315,42.874399,1292.514],[-1.251371,42.874379,1293.808],[-1.251435,42.87435,1295.563],[-1.251501,42.87432,1297.366],[-1.25154,42.874285,1299.045],[-1.251581,42.87425,1300.858],[-1.251632,42.874218,1302.428],[-1.251699,42.874227,1303.588],[-1.251714,42.874271,1304.129],[-1.251664,42.874298,1306.694],[-1.251733,42.874289,1308.227],[-1.251798,42.874279,1308.968],[-1.251865,42.874267,1308.814],[-1.251922,42.874244,1308.908],[-1.251996,42.874241,1309.169],[-1.252065,42.874238,1309.172],[-1.252128,42.874225,1308.781],[-1.252158,42.874184,1308.674],[-1.252219,42.874165,1308.844],[-1.25229,42.874148,1308.664],[-1.252357,42.874131,1308.275],[-1.252423,42.87413,1308.62],[-1.252485,42.874123,1309.577],[-1.252539,42.874101,1309.761],[-1.252603,42.874089,1310.027],[-1.252663,42.874081,1309.408],[-1.252724,42.874067,1309.894],[-1.25278,42.87404,1309.727],[-1.252849,42.874029,1310.166],[-1.252918,42.874034,1310.219],[-1.252982,42.874031,1310.749],[-1.253047,42.874021,1312.039],[-1.253101,42.874,1313.14],[-1.253157,42.873979,1313.535],[-1.253221,42.873973,1314.875],[-1.253267,42.873938,1314.528],[-1.253333,42.873914,1315.02],[-1.25339,42.87388,1315.108],[-1.253442,42.873849,1315.244],[-1.253494,42.873819,1315.617],[-1.253553,42.873799,1315.656],[-1.253608,42.873773,1315.479],[-1.253661,42.873749,1315.989],[-1.253724,42.873708,1316.789],[-1.253784,42.873673,1317.18],[-1.253828,42.873633,1318.045],[-1.253857,42.873589,1318.724],[-1.253865,42.873539,1319.604],[-1.253888,42.873489,1320.114],[-1.253908,42.873443,1320.608],[-1.253923,42.873393,1320.789],[-1.253921,42.873324,1320.572],[-1.253892,42.873283,1320.281],[-1.253833,42.873296,1319.134],[-1.253914,42.873297,1318.974],[-1.253974,42.873308,1318.374],[-1.253999,42.873258,1317.485],[-1.253962,42.873221,1315.74],[-1.253952,42.873175,1314.169],[-1.253968,42.873128,1312.904],[-1.253916,42.873094,1312.224],[-1.253886,42.873054,1312.208],[-1.25388,42.872997,1312.533],[-1.253883,42.87295,1312.436],[-1.25387,42.872904,1311.375],[-1.253883,42.872857,1310.878],[-1.253864,42.872799,1310.288],[-1.25384,42.872752,1310.088],[-1.253807,42.872709,1310.779],[-1.253771,42.872669,1310.644],[-1.253741,42.872625,1311.299],[-1.253734,42.872558,1311.707],[-1.25374,42.872501,1311.727],[-1.253764,42.872458,1312.408],[-1.253795,42.872416,1313.036],[-1.253824,42.872374,1313.049],[-1.253835,42.872329,1313.218],[-1.253856,42.872284,1313.481],[-1.253843,42.872238,1314.261],[-1.253584,42.871933,1318.091],[-1.253517,42.87195,1318.232],[-1.253461,42.871969,1318.877],[-1.253401,42.871987,1318.787],[-1.253335,42.871987,1319.142],[-1.253258,42.871995,1319.626],[-1.253182,42.871998,1319.708],[-1.253121,42.872005,1319.035],[-1.253142,42.872051,1319.488],[-1.253165,42.872095,1319.317],[-1.253183,42.872142,1320.01],[-1.253196,42.872191,1320.73],[-1.253185,42.872244,1320.62],[-1.253184,42.87229,1321.191],[-1.253181,42.872337,1322.136],[-1.253211,42.872388,1322.913],[-1.253219,42.872446,1323.443],[-1.253234,42.872493,1324.607],[-1.253251,42.872549,1325.608],[-1.253256,42.872606,1326.538],[-1.253268,42.872654,1326.771],[-1.253288,42.872702,1328.17],[-1.253307,42.872752,1329.533],[-1.253315,42.872802,1330.673],[-1.253321,42.87285,1331.223],[-1.253306,42.872897,1331.574],[-1.253315,42.872943,1332.859],[-1.253304,42.872993,1334.083],[-1.253257,42.873028,1333.625],[-1.253192,42.873025,1334.617],[-1.253125,42.873009,1336.408],[-1.253068,42.872975,1337.635],[-1.253027,42.872941,1338.368],[-1.253,42.872898,1339.677],[-1.252949,42.87287,1340.46],[-1.252904,42.872836,1341.95],[-1.252889,42.872787,1341.36],[-1.25284,42.872746,1341.251],[-1.252785,42.872721,1341.286],[-1.252742,42.872685,1341.131],[-1.252702,42.872642,1341.461],[-1.252652,42.872609,1341.507],[-1.252586,42.872591,1342.108],[-1.252515,42.872586,1343.12],[-1.252449,42.872586,1343.993],[-1.252396,42.872557,1345.292],[-1.252376,42.872511,1345.215],[-1.252312,42.872488,1346.425],[-1.252252,42.872465,1346.345],[-1.252186,42.872452,1347.286],[-1.25212,42.872446,1347.751],[-1.252056,42.872451,1348.443],[-1.25199,42.872472,1349.864],[-1.251916,42.872484,1350.91],[-1.251863,42.872509,1352.008],[-1.251802,42.872525,1352.621],[-1.251741,42.872513,1353.224],[-1.251684,42.872491,1353.523],[-1.251679,42.872436,1354.546],[-1.251631,42.872396,1354.096],[-1.251593,42.872358,1354.466],[-1.251549,42.872326,1356.287],[-1.251511,42.87229,1355.852],[-1.251452,42.872273,1356.881],[-1.251384,42.872288,1357.261],[-1.251325,42.872272,1357.617],[-1.25128,42.872241,1358.008],[-1.251216,42.872241,1358.525],[-1.251151,42.872229,1359.018],[-1.251082,42.872227,1359.157],[-1.251017,42.872212,1359.43],[-1.250964,42.872183,1360.02],[-1.250896,42.872173,1359.37],[-1.250827,42.872173,1359.021],[-1.250754,42.872186,1359.556],[-1.250688,42.872186,1359.294],[-1.250745,42.872209,1359.957],[-1.250798,42.872249,1359.322],[-1.250733,42.872246,1357.708],[-1.25068,42.872211,1357.856],[-1.25064,42.872172,1356.879],[-1.250585,42.872145,1357.138],[-1.25054,42.872105,1357.861],[-1.250496,42.87207,1358.561],[-1.250453,42.872035,1358.341],[-1.250449,42.871972,1357.232],[-1.250444,42.871921,1357.637],[-1.250418,42.871879,1356.821],[-1.250366,42.871852,1357.041],[-1.2503,42.871849,1357.905],[-1.250238,42.871857,1358.208],[-1.250168,42.871849,1359.019],[-1.250102,42.871838,1359.132],[-1.250052,42.871866,1359.941],[-1.250002,42.87191,1360.334],[-1.24994,42.871927,1360.454],[-1.249875,42.871918,1360.954],[-1.24984,42.871955,1361.645],[-1.249793,42.871922,1362.89],[-1.249757,42.871884,1363.591],[-1.2497,42.871847,1365.481],[-1.24964,42.871831,1367.319],[-1.249582,42.871807,1368.908],[-1.249534,42.871778,1369.326],[-1.249489,42.871737,1370.099],[-1.249442,42.871706,1370.578],[-1.249388,42.87168,1369.971],[-1.249338,42.871653,1371.251],[-1.249281,42.871623,1372.611],[-1.249244,42.871571,1373.352],[-1.249213,42.871528,1374.487],[-1.249175,42.87149,1375.776],[-1.249138,42.87145,1376.79],[-1.249103,42.871407,1377.119],[-1.249065,42.87136,1378.008],[-1.24903,42.871312,1378.684],[-1.248984,42.871273,1379.037],[-1.248924,42.871255,1379.986],[-1.248867,42.871229,1379.949],[-1.248855,42.871179,1380.249],[-1.248835,42.871136,1380.729],[-1.248794,42.871098,1381.21],[-1.248791,42.871048,1381.535],[-1.248848,42.871026,1381.744],[-1.248786,42.871025,1382.305],[-1.248719,42.871038,1382.115],[-1.24866,42.871062,1381.908],[-1.248596,42.871087,1380.771],[-1.248527,42.871104,1380.774],[-1.248461,42.871089,1380.533],[-1.248393,42.871104,1379.636],[-1.248308,42.871125,1380.386],[-1.248243,42.871147,1380.146],[-1.248171,42.871156,1380.597],[-1.2481,42.871152,1381.432],[-1.24803,42.871149,1382.768],[-1.247961,42.871146,1383.242],[-1.247898,42.871143,1384.226],[-1.247836,42.871143,1384.808],[-1.247778,42.871163,1385.093],[-1.247713,42.871168,1385.316],[-1.247651,42.871178,1386.525],[-1.247576,42.871179,1387.468],[-1.247507,42.87118,1387.818],[-1.247444,42.871189,1387.598],[-1.247376,42.871198,1386.669],[-1.247315,42.871191,1384.994],[-1.247264,42.871165,1384.242],[-1.247192,42.871162,1384.222],[-1.247176,42.871209,1385.314],[-1.247127,42.871181,1386.008],[-1.247043,42.871182,1389.281],[-1.246985,42.871168,1390.814],[-1.246911,42.871166,1391.613],[-1.246837,42.871164,1392.216],[-1.24678,42.87114,1392.446],[-1.246714,42.871152,1392.396],[-1.246651,42.871132,1392.977],[-1.246584,42.871145,1393.442],[-1.246545,42.871183,1393.951],[-1.246523,42.871233,1394.001],[-1.246542,42.871281,1394.711],[-1.2465,42.871319,1395.608],[-1.246497,42.87137,1396.182],[-1.246492,42.871423,1396.515],[-1.246506,42.871472,1396.954],[-1.246524,42.871515,1398.137],[-1.246534,42.871574,1398.167],[-1.246543,42.87162,1398.477],[-1.246535,42.871671,1397.878],[-1.24652,42.871717,1398.433],[-1.246489,42.87176,1398.899],[-1.246483,42.871806,1399.107],[-1.246462,42.871854,1400.127],[-1.246415,42.871888,1401.808],[-1.246348,42.871886,1402.366],[-1.246283,42.871891,1403.769],[-1.246214,42.871894,1405.088],[-1.246152,42.871885,1405.411],[-1.246087,42.871872,1406.621],[-1.246029,42.871848,1407.181],[-1.245966,42.871831,1407.212],[-1.245893,42.871823,1407.287],[-1.245827,42.871817,1408.386],[-1.245764,42.871814,1409.16],[-1.245702,42.871803,1410.326],[-1.245646,42.871783,1410.908],[-1.245587,42.871766,1412.055],[-1.245525,42.871761,1413.218],[-1.245482,42.87172,1413.887],[-1.245442,42.871685,1415.03],[-1.245375,42.871657,1415.92],[-1.245322,42.871628,1415.18],[-1.245253,42.871603,1416.341],[-1.245204,42.871569,1418.446],[-1.245142,42.871563,1420.997],[-1.245073,42.871566,1422.323],[-1.24501,42.871583,1422.925],[-1.244942,42.871562,1424.408],[-1.244921,42.87152,1425.196],[-1.244851,42.871488,1426.829],[-1.244801,42.871453,1427.568],[-1.24473,42.871439,1427.161],[-1.244671,42.871423,1427.591],[-1.244606,42.871414,1428.581],[-1.244544,42.871397,1428.332],[-1.244481,42.871394,1427.847],[-1.244413,42.871404,1427.296],[-1.244348,42.871393,1427.731],[-1.244289,42.871372,1428.124],[-1.244235,42.871349,1429.408],[-1.244165,42.871349,1432.856],[-1.244104,42.871361,1435.789],[-1.244039,42.871353,1438.298],[-1.243978,42.871344,1439.671],[-1.243916,42.871335,1441.061],[-1.243867,42.871307,1442.041],[-1.243803,42.871305,1443.512],[-1.243747,42.871276,1445.867],[-1.243689,42.871249,1447.914],[-1.243622,42.871261,1449.454],[-1.243581,42.871296,1450.309],[-1.243558,42.871338,1451.608],[-1.243492,42.871355,1453.238],[-1.243431,42.871349,1455.051],[-1.24337,42.871338,1455.68],[-1.243304,42.871323,1457.023],[-1.243246,42.871304,1457.483],[-1.243196,42.871278,1457.153],[-1.243209,42.871337,1455.214],[-1.243165,42.871381,1454.959],[-1.243103,42.871385,1453.534],[-1.243043,42.871371,1453.555],[-1.242992,42.871345,1453.11],[-1.242929,42.87134,1453.308],[-1.242874,42.87132,1453.01],[-1.242839,42.87128,1455.043],[-1.242844,42.871232,1457.432],[-1.242879,42.871194,1458.125],[-1.242814,42.871186,1458.895],[-1.242797,42.871239,1459.255],[-1.242856,42.871257,1459.686],[-1.242914,42.871274,1459.721],[-1.242975,42.871267,1459.816],[-1.243039,42.871257,1460.276],[-1.2431,42.871252,1459.113],[-1.243167,42.871246,1458.008],[-1.243232,42.871245,1458.088],[-1.243285,42.871268,1457.581],[-1.243327,42.871303,1457.79],[-1.243355,42.871344,1457.633],[-1.243417,42.871328,1459.133],[-1.243479,42.871335,1460.373],[-1.243539,42.871346,1460.924],[-1.243582,42.87131,1460.329],[-1.243626,42.871276,1459.462],[-1.243689,42.871281,1458.483],[-1.243744,42.871309,1457.311],[-1.243809,42.871312,1455.208],[-1.243865,42.871292,1453.873],[-1.243927,42.871295,1452.546],[-1.243978,42.871321,1450.395],[-1.24404,42.871334,1448.798],[-1.244096,42.871352,1447.328],[-1.244158,42.871342,1446.768],[-1.244216,42.871327,1446.579],[-1.244283,42.871324,1445.884],[-1.244324,42.871358,1444.737],[-1.244364,42.871393,1444.449],[-1.244426,42.871398,1442.313],[-1.244493,42.871408,1441.308],[-1.24456,42.871413,1438.84],[-1.244635,42.871419,1437.053],[-1.244698,42.871419,1436.052],[-1.244765,42.871429,1433.965],[-1.244823,42.871449,1432.225],[-1.244885,42.871474,1430.975],[-1.244948,42.871505,1429.896],[-1.245006,42.871537,1428.821],[-1.245074,42.87153,1428.518],[-1.24514,42.87155,1428.098],[-1.24514,42.871595,1427.017],[-1.245199,42.871613,1425.708],[-1.245262,42.871622,1425.048],[-1.24533,42.871624,1424.571],[-1.245392,42.871641,1423.53],[-1.245442,42.87167,1423.243],[-1.245492,42.871711,1422.723],[-1.245541,42.871746,1421.873],[-1.2456,42.871761,1421.594],[-1.245663,42.871784,1421.199],[-1.245726,42.871811,1420.825],[-1.245786,42.871832,1420.626],[-1.245847,42.871847,1421.008],[-1.245906,42.871861,1420.508],[-1.245975,42.87187,1420.539],[-1.246051,42.87186,1419.642],[-1.246125,42.871869,1418.661],[-1.246188,42.871862,1417.394],[-1.246252,42.871846,1416.544],[-1.246327,42.871858,1412.564],[-1.246395,42.87186,1409.795],[-1.246428,42.871817,1407.52],[-1.246462,42.871775,1405.961],[-1.246491,42.871728,1403.521],[-1.246491,42.87168,1401.913],[-1.246531,42.871642,1400.908],[-1.246535,42.871589,1399.813],[-1.246534,42.871542,1399.616],[-1.246533,42.871495,1398.985],[-1.246514,42.87145,1398.988],[-1.246487,42.871401,1398.038],[-1.246503,42.871348,1397.888],[-1.246511,42.871301,1397.399],[-1.246513,42.871252,1397.294],[-1.24654,42.871203,1396.193],[-1.24659,42.871173,1395.065],[-1.246659,42.871183,1394.121],[-1.246722,42.871179,1393.608],[-1.246787,42.871165,1393.166],[-1.246855,42.871167,1392.899],[-1.246921,42.871184,1391.478],[-1.246985,42.871192,1390.071],[-1.247067,42.871187,1389.641],[-1.247133,42.87119,1388.581],[-1.247207,42.871189,1388.572],[-1.247259,42.871156,1388.147],[-1.247328,42.871155,1388.074],[-1.247378,42.871129,1387.356],[-1.247452,42.871121,1387.621],[-1.247515,42.871103,1387.408],[-1.247585,42.871109,1387.134],[-1.24767,42.871117,1387.667],[-1.24773,42.871133,1386.876],[-1.247792,42.871114,1386.529],[-1.24784,42.871082,1385.929],[-1.247916,42.871063,1385.069],[-1.247979,42.871063,1384.06],[-1.248057,42.871058,1383.695],[-1.24812,42.871061,1383.017],[-1.248196,42.871068,1381.887],[-1.248268,42.871058,1381.115],[-1.248357,42.871067,1380.008],[-1.248421,42.871075,1379.848],[-1.248488,42.871084,1378.551],[-1.248549,42.871089,1377.28],[-1.248631,42.871092,1377.973],[-1.248697,42.871091,1376.593],[-1.248765,42.871062,1375.523],[-1.248783,42.871018,1375.884],[-1.24872,42.871005,1375.939],[-1.248782,42.87101,1375.822],[-1.248846,42.871021,1375.862],[-1.2489,42.870998,1376.908],[-1.248968,42.871009,1377.408],[-1.249002,42.870965,1376.959],[-1.249032,42.870921,1376.692],[-1.249082,42.870892,1376.731],[-1.249122,42.870848,1375.164],[-1.249138,42.8708,1374.374],[-1.249154,42.870756,1374.044],[-1.249189,42.870708,1373.365],[-1.249208,42.870665,1372.21],[-1.249258,42.870632,1369.916],[-1.249313,42.870596,1367.976],[-1.249337,42.870545,1366.113],[-1.249344,42.870494,1364.708],[-1.249383,42.870442,1362.778],[-1.249406,42.870397,1360.131],[-1.249414,42.870342,1358.54],[-1.249445,42.870303,1356.813],[-1.24949,42.870267,1355.523],[-1.249523,42.870227,1354.573],[-1.249539,42.870179,1353.454],[-1.249561,42.870137,1351.819],[-1.249611,42.870104,1349.815],[-1.249635,42.87006,1348.065],[-1.249642,42.87001,1346.311],[-1.249649,42.869954,1343.508],[-1.249673,42.869911,1341.338],[-1.249687,42.869861,1340.411],[-1.24969,42.869813,1340.38],[-1.249705,42.869763,1339.853],[-1.249717,42.869711,1339.353],[-1.249736,42.869653,1339.843],[-1.249762,42.869607,1339.624],[-1.249802,42.869572,1339.879],[-1.249862,42.86954,1339.338],[-1.2499,42.869502,1338.87],[-1.24993,42.86946,1338.817],[-1.249946,42.8694,1338.808],[-1.249964,42.869353,1338.72],[-1.250007,42.869314,1338.753],[-1.250064,42.869279,1338.472],[-1.25011,42.869234,1338.755],[-1.250144,42.86919,1339.015],[-1.250194,42.869152,1338.055],[-1.250195,42.869107,1336.926],[-1.25027,42.869116,1336.641],[-1.250343,42.869088,1335.992],[-1.250402,42.869061,1336.073],[-1.250466,42.869043,1336.62],[-1.250535,42.869056,1336.508],[-1.250584,42.869087,1336.156],[-1.250647,42.869098,1336.199],[-1.250709,42.869115,1334.398],[-1.250768,42.869136,1333.391],[-1.250839,42.869146,1332.141],[-1.250906,42.869179,1331.911],[-1.25097,42.869187,1331.452],[-1.251027,42.869219,1331.287],[-1.251071,42.869251,1330.851],[-1.251114,42.869287,1329.701],[-1.251182,42.869279,1329.811],[-1.251197,42.869323,1329.208],[-1.25125,42.869349,1328.842],[-1.251309,42.869385,1329.445],[-1.251351,42.86942,1329.434],[-1.251402,42.869459,1328.737],[-1.251458,42.869492,1328.837],[-1.251509,42.869521,1329.127],[-1.251572,42.869547,1328.118],[-1.251636,42.869571,1327.843],[-1.251697,42.869591,1326.952],[-1.251759,42.869628,1326.253],[-1.251806,42.869669,1325.608],[-1.25187,42.869686,1324.808],[-1.251912,42.86972,1323.182],[-1.251973,42.869755,1323.295],[-1.252039,42.869752,1322.674],[-1.252113,42.869741,1321.777],[-1.252182,42.869744,1320.397],[-1.252249,42.869764,1317.617],[-1.252307,42.869779,1316.348],[-1.252369,42.869794,1315.673],[-1.252429,42.869804,1314.112],[-1.252497,42.8698,1312.532],[-1.252565,42.869794,1310.705],[-1.252628,42.869795,1310.408],[-1.252693,42.8698,1308.428],[-1.252734,42.869837,1307.321],[-1.252768,42.869876,1307.34],[-1.25281,42.869914,1307.923],[-1.252823,42.869959,1308.343],[-1.252843,42.870003,1308.673],[-1.252901,42.87002,1308.764],[-1.252971,42.87002,1309.749],[-1.253034,42.870028,1310.469],[-1.253101,42.870043,1311.204],[-1.253172,42.870055,1310.424],[-1.253214,42.870091,1310.208],[-1.253219,42.870139,1310.093],[-1.253219,42.870189,1309.416],[-1.253242,42.870232,1308.915],[-1.253241,42.870287,1309.978],[-1.253233,42.870338,1311.078],[-1.253207,42.87038,1310.848],[-1.253173,42.870429,1310.889],[-1.253156,42.870479,1311.984],[-1.253167,42.870526,1311.398],[-1.253153,42.870572,1312.215],[-1.253157,42.870623,1312.426],[-1.253176,42.870675,1312.508],[-1.253188,42.870727,1312.246],[-1.253197,42.870774,1311.799],[-1.253209,42.870829,1311.978],[-1.253224,42.870875,1313.081],[-1.253243,42.870923,1313.481],[-1.253264,42.87097,1313.891],[-1.253311,42.871015,1314.752],[-1.253338,42.871056,1314.357],[-1.253365,42.871104,1314.449],[-1.253408,42.871143,1315.102],[-1.25341,42.871194,1316.522],[-1.253392,42.871238,1317.408],[-1.253384,42.871284,1318.541],[-1.253404,42.871337,1319.184],[-1.253417,42.871384,1319.763],[-1.253418,42.87143,1321.016],[-1.253466,42.871468,1321.486],[-1.253524,42.871503,1322.246],[-1.25356,42.871542,1323.027],[-1.253603,42.871577,1323.422],[-1.253653,42.871604,1323.866],[-1.253701,42.871637,1323.329],[-1.253745,42.871673,1323.121],[-1.2538,42.871703,1323.508],[-1.253846,42.87174,1322.783],[-1.253875,42.871795,1321.966],[-1.253909,42.871836,1320.765],[-1.253982,42.871866,1320.698],[-1.254011,42.871908,1320.618],[-1.253979,42.87195,1320.578],[-1.253959,42.871995,1319.639],[-1.253981,42.872038,1319.764],[-1.254009,42.872087,1319.473],[-1.253989,42.872141,1319.485],[-1.253959,42.872196,1319.213],[-1.253952,42.872247,1318.708],[-1.253938,42.872292,1319.334],[-1.253897,42.872333,1319.417],[-1.253878,42.872376,1320.366],[-1.253834,42.872419,1320.779],[-1.253843,42.872469,1320.789],[-1.253832,42.872517,1320.339],[-1.253824,42.872567,1320.98],[-1.253835,42.872626,1321.975],[-1.25385,42.872671,1321.419],[-1.253885,42.87272,1322.309],[-1.253907,42.872764,1323.019],[-1.253931,42.872806,1324.008],[-1.253963,42.872855,1324.978],[-1.253978,42.8729,1325.041],[-1.253966,42.872945,1324.58],[-1.253974,42.872991,1324.843],[-1.253998,42.873034,1324.133],[-1.253993,42.873085,1325.613],[-1.25403,42.873122,1325.964],[-1.254087,42.873151,1328.379],[-1.254149,42.87312,1328.248],[-1.254188,42.873085,1328.261],[-1.254229,42.873051,1325.417],[-1.254298,42.873034,1324.108],[-1.254355,42.873015,1322.171],[-1.254406,42.872988,1319.464],[-1.254418,42.872942,1316.833],[-1.254482,42.872941,1315.036],[-1.254555,42.872953,1313.626],[-1.254605,42.872981,1312.646],[-1.254626,42.873027,1313.567],[-1.254634,42.873076,1313.652],[-1.254673,42.873113,1312.836],[-1.25474,42.873122,1312.917],[-1.254816,42.873118,1312.518],[-1.254892,42.873113,1312.108],[-1.254936,42.873148,1309.82],[-1.25495,42.873198,1305.993],[-1.254984,42.873245,1304.632],[-1.255047,42.873262,1303.145],[-1.255048,42.873307,1301.975],[-1.255092,42.873342,1300.075],[-1.255132,42.873378,1299.146],[-1.255164,42.87343,1297.151],[-1.255206,42.873485,1294.912],[-1.255241,42.873531,1292.332],[-1.255275,42.873574,1290.305],[-1.255332,42.873605,1288.308],[-1.25537,42.873649,1284.328],[-1.255401,42.873695,1281.981],[-1.255453,42.873731,1280.47],[-1.25552,42.87375,1277.893],[-1.255587,42.873765,1275.123],[-1.255651,42.873783,1272.683],[-1.255647,42.873829,1270.434],[-1.255675,42.873884,1269.769],[-1.255736,42.873892,1269.321],[-1.255789,42.873916,1269.041],[-1.255836,42.873952,1267.905],[-1.255885,42.873985,1266.908],[-1.255934,42.874027,1265.639],[-1.255986,42.874076,1265.162],[-1.256016,42.874122,1263.351],[-1.256052,42.874174,1262.564],[-1.256086,42.874219,1261.694],[-1.256138,42.874259,1259.744],[-1.256177,42.874297,1259.095],[-1.256241,42.874308,1259.53],[-1.25629,42.874338,1258.639],[-1.256329,42.874374,1257.701],[-1.256381,42.874399,1256.821],[-1.256438,42.874426,1257.208],[-1.256505,42.874443,1257.09],[-1.256575,42.874468,1256.523],[-1.256566,42.874522,1255.282],[-1.256598,42.874572,1253.495],[-1.256623,42.87462,1252.855],[-1.256642,42.874671,1252.225],[-1.256669,42.874721,1251.476],[-1.256693,42.874764,1250.531],[-1.256724,42.874805,1249.598],[-1.256772,42.87485,1249.515],[-1.256786,42.874904,1248.526],[-1.256819,42.874951,1247.508],[-1.256865,42.874991,1246.726],[-1.256871,42.875044,1246.999],[-1.256888,42.875091,1246.238],[-1.256935,42.875136,1246.031],[-1.256988,42.875179,1245.041],[-1.257039,42.875219,1244.221],[-1.257108,42.875276,1244.142],[-1.257136,42.87532,1242.957],[-1.257165,42.875374,1240.685],[-1.257221,42.875426,1239.289],[-1.257263,42.875471,1238.517],[-1.257289,42.875519,1236.208],[-1.257316,42.875577,1234.575],[-1.257338,42.875628,1232.818],[-1.257362,42.875684,1231.017],[-1.257357,42.875732,1229.02],[-1.257323,42.875796,1227.57],[-1.257322,42.875843,1225.39],[-1.257363,42.875885,1223.151],[-1.257414,42.875914,1220.796],[-1.257444,42.875954,1219.069],[-1.257473,42.876011,1218.404],[-1.257496,42.876061,1217.824],[-1.257515,42.87611,1215.808],[-1.257527,42.876163,1214.953],[-1.257499,42.876208,1211.356],[-1.257475,42.876255,1209.945],[-1.257481,42.876301,1206.868],[-1.257479,42.876349,1204.158],[-1.257467,42.876397,1202.318],[-1.257449,42.876447,1199.259],[-1.257422,42.876501,1197.534],[-1.257415,42.876548,1195.366],[-1.257384,42.876597,1194.629],[-1.257354,42.876638,1193.021],[-1.257343,42.876693,1191.208],[-1.257325,42.876742,1190.813],[-1.257309,42.876786,1189.416],[-1.257278,42.876828,1189.345],[-1.257296,42.876881,1189.228],[-1.257335,42.876919,1189.398],[-1.257379,42.876954,1188.968],[-1.25743,42.877001,1187.699],[-1.257464,42.87705,1188.274],[-1.257492,42.877099,1187.679],[-1.257539,42.877144,1187.905],[-1.257583,42.877183,1187.925],[-1.257623,42.877221,1187.108],[-1.257669,42.877259,1187.084],[-1.257679,42.87731,1187.367],[-1.257733,42.877351,1187.476],[-1.257791,42.877385,1186.589],[-1.257852,42.877429,1185.269],[-1.257901,42.877461,1184.939],[-1.257937,42.877498,1183.42],[-1.257981,42.877539,1182.355],[-1.258013,42.877586,1181.527],[-1.258067,42.87763,1180.768],[-1.25813,42.877667,1179.214],[-1.258187,42.877717,1177.908],[-1.25823,42.877753,1176.779],[-1.258285,42.877794,1175.962],[-1.25834,42.877843,1174.751],[-1.258389,42.877877,1173.594],[-1.258441,42.877906,1173.384],[-1.258496,42.877929,1172.594],[-1.258556,42.877953,1170.155],[-1.258632,42.877978,1168.04],[-1.258736,42.878001,1166.951],[-1.258804,42.878019,1165.101],[-1.258873,42.878044,1163.311],[-1.258932,42.878068,1161.508],[-1.258986,42.878097,1159.172],[-1.259042,42.87813,1157.725],[-1.259105,42.87818,1156.064],[-1.259147,42.878214,1155.727],[-1.259203,42.878236,1154.257],[-1.259277,42.878253,1153.657],[-1.259363,42.878259,1152.468],[-1.259431,42.878271,1150.983],[-1.259508,42.878286,1149.063],[-1.25958,42.878304,1146.944],[-1.259642,42.87832,1144.418],[-1.259707,42.878344,1141.008],[-1.259779,42.878342,1138.613],[-1.259843,42.878336,1137.086],[-1.259918,42.878336,1136.285],[-1.259979,42.878314,1135.788],[-1.260046,42.878296,1132.458],[-1.260107,42.878275,1130.598],[-1.260171,42.878249,1128.869],[-1.260242,42.878214,1126.784],[-1.260298,42.878177,1125.638],[-1.260349,42.878144,1126.47],[-1.260405,42.878118,1126.717],[-1.260463,42.878095,1125.708],[-1.260529,42.87809,1126.09],[-1.260591,42.878083,1125.683],[-1.260666,42.878068,1125.032],[-1.260743,42.878069,1124.075],[-1.260807,42.878087,1123.415],[-1.260865,42.878121,1123.585],[-1.260924,42.878133,1122.446],[-1.260986,42.878122,1121.961],[-1.261052,42.878131,1121.946],[-1.261129,42.878136,1121.688],[-1.261196,42.878136,1121.516],[-1.261262,42.878137,1120.108],[-1.261323,42.878132,1120.371],[-1.261388,42.878126,1118.574],[-1.261462,42.878125,1116.823],[-1.261537,42.878145,1117.126],[-1.261599,42.878171,1117.066],[-1.261652,42.878196,1116.956],[-1.261713,42.878207,1115.767],[-1.261768,42.878248,1115.612],[-1.261838,42.878283,1114.879],[-1.261915,42.878286,1113.805],[-1.262002,42.878277,1113.425],[-1.262065,42.878278,1112.208],[-1.262131,42.878277,1111.794],[-1.262192,42.878282,1112.737],[-1.262377,42.878324,1112.226],[-1.262446,42.878338,1113.589],[-1.262518,42.878339,1112.339],[-1.262585,42.878333,1112.319],[-1.262646,42.878312,1112.93],[-1.262709,42.878303,1112.045],[-1.262783,42.878311,1111.741],[-1.262861,42.878324,1110.881],[-1.262928,42.878338,1111.109],[-1.262989,42.878356,1110.608],[-1.263068,42.878374,1109.591],[-1.263144,42.878364,1107.334],[-1.263198,42.878341,1106.523],[-1.263265,42.878341,1105.736],[-1.263333,42.878339,1105.586],[-1.263411,42.878329,1105.036],[-1.263477,42.878327,1104.227],[-1.263546,42.878332,1103.162],[-1.263609,42.878343,1101.874],[-1.263669,42.878366,1101.456],[-1.263722,42.878399,1101.721],[-1.263778,42.87842,1101.208],[-1.26384,42.878437,1099.594],[-1.263904,42.878456,1098.937],[-1.263976,42.878466,1097.856],[-1.264047,42.878456,1098.069],[-1.264118,42.878447,1097.999],[-1.264208,42.878434,1097.459],[-1.264276,42.878434,1096.28],[-1.26435,42.878434,1096.375],[-1.26443,42.878431,1095.534],[-1.264501,42.878429,1094.655],[-1.264573,42.878425,1093.71],[-1.264666,42.87843,1091.608],[-1.264737,42.878429,1091.86],[-1.264815,42.878429,1091.643],[-1.264883,42.878435,1091.452],[-1.264953,42.878435,1090.025],[-1.265055,42.878446,1090.255],[-1.265124,42.878451,1089.965],[-1.265197,42.878452,1090.546],[-1.265277,42.878456,1090.681],[-1.265357,42.878449,1088.975],[-1.265429,42.878438,1088.128],[-1.265511,42.87842,1086.42],[-1.2656,42.878409,1084.308],[-1.265666,42.878403,1083.464],[-1.265756,42.878388,1083.637],[-1.265839,42.878381,1082.856],[-1.265913,42.87839,1081.759],[-1.265985,42.878402,1080.239],[-1.266045,42.878413,1079.229],[-1.266107,42.878443,1078.44],[-1.266151,42.878476,1078.095],[-1.266223,42.87849,1077.631],[-1.2663,42.878492,1076.861],[-1.266377,42.878484,1075.507],[-1.266476,42.87848,1074.308],[-1.266542,42.87847,1074.06],[-1.266605,42.878465,1073.613],[-1.266686,42.878451,1073.332],[-1.266754,42.878463,1073.525],[-1.266837,42.878472,1073.915],[-1.266895,42.878455,1073.175],[-1.26696,42.878444,1072.876],[-1.267027,42.878442,1073.311],[-1.267102,42.878452,1072.242],[-1.267188,42.878473,1072.022],[-1.267248,42.878487,1070.614],[-1.267311,42.878485,1069.008],[-1.267392,42.87849,1067.391],[-1.267478,42.878494,1066.544],[-1.267547,42.878506,1066.593],[-1.267614,42.878525,1065.156],[-1.267673,42.878539,1062.946],[-1.267738,42.878525,1062.186],[-1.267808,42.878511,1060.037],[-1.267884,42.878505,1059.252],[-1.267959,42.878497,1058.593],[-1.268027,42.878479,1057.065],[-1.268081,42.878454,1056.421],[-1.268146,42.878419,1055.108],[-1.268214,42.878394,1054.196],[-1.268277,42.878388,1052.619],[-1.268352,42.878391,1052.428],[-1.268418,42.878386,1052.441],[-1.268485,42.878379,1051.921],[-1.268559,42.87837,1050.851],[-1.268621,42.878362,1050.492],[-1.26868,42.878331,1050.117],[-1.268747,42.878309,1050.017],[-1.268822,42.878284,1048.487],[-1.268889,42.878259,1048.015],[-1.268947,42.878234,1047.508],[-1.269021,42.87822,1046.058],[-1.269085,42.878202,1045.731],[-1.269157,42.878188,1044.52],[-1.269229,42.878175,1044.173],[-1.269305,42.878145,1044.533],[-1.269376,42.87812,1043.853],[-1.269444,42.878106,1042.354],[-1.269511,42.878114,1040.789],[-1.269564,42.87809,1037.578],[-1.269625,42.878108,1035.633],[-1.269676,42.878083,1031.626],[-1.269751,42.878078,1029.208],[-1.269828,42.878071,1027.874],[-1.269891,42.878067,1025.847],[-1.269979,42.878078,1024.426],[-1.270053,42.878082,1024.369],[-1.270138,42.878076,1023.029],[-1.270219,42.878066,1021.979],[-1.27028,42.878056,1021.34],[-1.270363,42.878043,1020.885],[-1.270452,42.878031,1019.573],[-1.270516,42.878029,1018.285],[-1.270608,42.878019,1018.013],[-1.270682,42.877992,1018.208],[-1.270756,42.877983,1018.224],[-1.270818,42.877967,1017.957],[-1.270913,42.877942,1016.646],[-1.270979,42.87793,1016.449],[-1.271077,42.877914,1015.329],[-1.271137,42.877901,1013.059],[-1.271193,42.877878,1010.48],[-1.271257,42.877855,1008.535],[-1.271319,42.87782,1006.649],[-1.271373,42.877775,1005.502],[-1.27142,42.877741,1004.222],[-1.271494,42.877723,1002.808],[-1.271575,42.877706,1001.341],[-1.271649,42.877693,1000.364],[-1.271711,42.877709,998.973],[-1.271769,42.877685,998.146],[-1.271838,42.877684,996.056],[-1.271926,42.877661,995.056],[-1.271981,42.877641,995.477],[-1.272058,42.877616,995.922],[-1.272132,42.877586,994.463],[-1.272191,42.877565,994.644],[-1.272257,42.877535,994.718],[-1.272321,42.877505,993.908],[-1.272382,42.877484,993.553],[-1.272444,42.877465,992.546],[-1.272521,42.877451,990.545],[-1.272599,42.877456,990.538],[-1.272674,42.877461,989.138],[-1.272748,42.877452,988.858],[-1.27281,42.877435,987.639],[-1.27287,42.877408,985.954],[-1.272933,42.877387,985.037],[-1.273004,42.877363,984.149],[-1.273097,42.877335,984.113],[-1.273173,42.87731,983.108],[-1.273235,42.877305,982.03],[-1.2733,42.877297,981.283],[-1.273369,42.877285,980.762],[-1.273449,42.877276,979.665],[-1.27353,42.877276,978.785],[-1.273593,42.877283,977.775],[-1.273656,42.877285,977.246],[-1.273737,42.877265,976.161],[-1.273825,42.877255,975.198],[-1.273909,42.877249,973.015],[-1.27397,42.877243,971.726],[-1.274067,42.87722,968.808],[-1.274152,42.877201,966.536],[-1.274214,42.877184,965.729],[-1.274273,42.877164,963.818],[-1.274353,42.877141,961.851],[-1.274442,42.877105,957.821],[-1.274505,42.87708,955.471],[-1.274579,42.87707,953.682],[-1.27465,42.877065,951.297],[-1.274739,42.877056,949.286],[-1.274813,42.877058,947.36],[-1.274878,42.877052,946.326],[-1.274949,42.877044,944.908],[-1.275014,42.877032,943.875],[-1.275096,42.877021,941.128],[-1.275179,42.877012,939.877],[-1.275251,42.877008,937.84],[-1.275337,42.87698,935.78],[-1.27541,42.876946,933.98],[-1.275459,42.876903,932.041],[-1.275515,42.876883,929.136],[-1.275579,42.876872,926.537],[-1.275639,42.876857,924.849],[-1.275699,42.876837,923.913],[-1.275763,42.876806,922.908],[-1.27583,42.876799,921.44],[-1.275907,42.876795,919.653],[-1.275969,42.876782,918.192],[-1.276043,42.87677,917.365],[-1.276103,42.876757,916.495],[-1.27616,42.876735,916.865],[-1.276222,42.876712,917.176],[-1.276281,42.8767,916.561],[-1.276341,42.876709,914.612],[-1.276388,42.876673,912.932],[-1.276451,42.876648,911.805],[-1.276531,42.876623,910.808],[-1.276607,42.8766,910.498],[-1.276684,42.876573,909.261],[-1.276758,42.876548,907.97],[-1.276846,42.876529,906.353],[-1.276934,42.876521,905.213],[-1.277007,42.876509,903.723],[-1.277039,42.876468,901.234],[-1.277049,42.876414,900.429],[-1.277064,42.876368,898.847],[-1.277069,42.876315,898.329],[-1.277098,42.876272,898.321],[-1.277147,42.876235,898.308],[-1.277191,42.876181,898.621],[-1.277238,42.876124,901.334],[-1.27728,42.876072,902.543],[-1.277307,42.87603,905.036],[-1.27734,42.875981,905.296],[-1.277387,42.875946,906.846],[-1.277438,42.875909,908.217],[-1.277503,42.875875,909.962],[-1.277544,42.875831,909.782],[-1.277595,42.875793,910.643],[-1.277641,42.875753,909.717],[-1.277664,42.875697,907.608],[-1.277676,42.875652,905.995],[-1.277701,42.875593,904.188],[-1.277726,42.875542,902.257],[-1.277709,42.875497,898.41],[-1.277737,42.875454,895.94],[-1.27781,42.875442,895.55],[-1.277876,42.875448,893.391],[-1.277936,42.875462,892.536],[-1.277991,42.875483,892.853],[-1.278035,42.875522,892.004],[-1.278058,42.875567,890.414],[-1.278101,42.875615,888.408],[-1.278135,42.875663,886.612],[-1.278174,42.875711,884.255],[-1.278218,42.875749,881.524],[-1.278278,42.875765,879.737],[-1.278339,42.875752,878.637],[-1.278406,42.875752,874.657],[-1.278468,42.875745,871.778],[-1.278543,42.87572,868.713],[-1.278601,42.875683,866.191],[-1.278662,42.875692,863.581],[-1.278717,42.875669,861.019],[-1.278779,42.875673,858.308],[-1.278841,42.875667,856.456],[-1.278902,42.875681,853.699],[-1.27895,42.875653,851.438],[-1.278969,42.875608,850.081],[-1.278934,42.875567,849.191],[-1.278851,42.875602,845.751],[-1.278754,42.87565,845.052],[-1.278652,42.87592,842.627],[-1.278635,42.875993,842.327],[-1.278861,42.875892,845.168],[-1.27889,42.875824,846.214],[-1.278923,42.875738,845.008],[-1.278943,42.875672,844.899],[-1.278965,42.875617,845.112],[-1.279001,42.875579,843.711],[-1.27905,42.875613,843.054],[-1.27908,42.875653,843.124],[-1.279102,42.875707,843.024],[-1.279092,42.875757,842.245],[-1.279075,42.875808,841.13],[-1.279075,42.875856,838.724],[-1.279123,42.875899,837.604],[-1.279154,42.875939,835.814],[-1.279208,42.875967,833.908],[-1.279224,42.876012,833.219],[-1.279209,42.876056,831.722],[-1.279267,42.876071,831.151],[-1.279343,42.876102,831.154],[-1.279412,42.876136,829.914],[-1.279473,42.876172,830.084],[-1.279528,42.876195,828.815],[-1.279581,42.876227,827.13],[-1.279633,42.876254,824.223],[-1.279696,42.876271,822.383],[-1.279771,42.876275,820.211],[-1.279833,42.87628,819.208],[-1.279901,42.876256,817.049],[-1.27998,42.87625,815.342],[-1.280036,42.876269,814.431],[-1.280104,42.876295,813.574],[-1.28018,42.876313,812.924],[-1.28025,42.876333,810.324],[-1.280308,42.876349,809.165],[-1.280371,42.876357,807.86],[-1.280436,42.876371,806.853],[-1.280456,42.876418,805.704],[-1.280507,42.876452,803.114],[-1.280571,42.876436,801.908],[-1.280636,42.87642,800.252],[-1.280705,42.87643,799.555],[-1.280762,42.876455,798.514],[-1.280815,42.87648,798.077],[-1.280878,42.876508,799.877],[-1.280937,42.876528,800.997],[-1.280996,42.87655,802.458],[-1.281064,42.87656,803.113],[-1.281132,42.876559,803.413],[-1.281187,42.876535,803.143],[-1.281266,42.876541,802.807],[-1.281333,42.876547,803.308],[-1.281414,42.876538,804.488],[-1.281475,42.876531,803.851],[-1.281531,42.876561,804.33],[-1.281601,42.876562,804.063],[-1.281669,42.876579,804.233],[-1.28172,42.876617,805.353],[-1.281797,42.87658,806.194],[-1.281803,42.876529,806.029],[-1.281758,42.87649,806.622],[-1.281799,42.876547,804.562],[-1.281841,42.876598,804.208],[-1.281879,42.876637,803.708],[-1.281938,42.876674,802.929],[-1.281972,42.876721,802.732],[-1.282038,42.87675,803.631],[-1.282107,42.876777,801.334],[-1.282114,42.87683,798.594],[-1.282177,42.876846,794.534],[-1.282245,42.876843,792.445],[-1.282315,42.87685,790.49],[-1.282377,42.876877,789.941],[-1.282441,42.876908,790.681],[-1.282497,42.876937,790.909],[-1.282557,42.876962,791.208],[-1.282605,42.876991,791.881],[-1.282662,42.877017,790.774],[-1.282718,42.877046,790.743],[-1.282764,42.877083,790.886],[-1.282829,42.877108,791.996],[-1.282892,42.877144,791.666],[-1.282952,42.877158,791.927],[-1.283013,42.877173,791.552],[-1.283077,42.8772,791.832],[-1.283129,42.877232,789.892],[-1.283182,42.877259,789.611],[-1.283236,42.877287,788.008],[-1.283232,42.877351,786.73],[-1.283233,42.877408,788.493],[-1.283281,42.877439,789.022],[-1.283369,42.877468,789.895],[-1.283436,42.877472,790.055],[-1.283475,42.877435,789.445],[-1.283527,42.877401,789.956],[-1.283581,42.877377,789.451],[-1.283648,42.877354,788.138],[-1.283722,42.877334,787.37]]}}]}