{"type":"FeatureCollection","features":[{"type":"Feature","properties":{"ruta_id":"72457585","nombre":"⛰️ CUEVA de ARPEA","blog_url":"https://www.rutasporelmonte.com/cueva-de-arpea-ruta-corta/"},"geometry":{"type":"LineString","coordinates":[[-1.182326,43.035697,948.772],[-1.182277,43.035724,913.113],[-1.182337,43.035749,890.614],[-1.182388,43.035711,886.608],[-1.182388,43.03566,882.674],[-1.182365,43.035611,878.639],[-1.182332,43.035568,874.611],[-1.182274,43.03555,870.682],[-1.18222,43.035525,866.614],[-1.182214,43.035477,863.242],[-1.182231,43.035433,860.815],[-1.182229,43.035384,860.122],[-1.182184,43.035349,860.028],[-1.182139,43.035314,858.689],[-1.182082,43.035277,857.617],[-1.182032,43.035246,856.408],[-1.181969,43.035212,855.089],[-1.181963,43.035209,858.514],[-1.181906,43.035168,854.196],[-1.181858,43.035135,853.987],[-1.181819,43.035098,854.239],[-1.181759,43.035086,853.387],[-1.181696,43.035069,852.46],[-1.18166,43.035028,851.967],[-1.181623,43.034992,851.144],[-1.181639,43.034945,851.005],[-1.181636,43.034899,851.215],[-1.181605,43.034845,851.708],[-1.181577,43.034804,852.381],[-1.181526,43.034772,853.456],[-1.181508,43.034723,853.318],[-1.181476,43.034674,852.959],[-1.181436,43.034637,852.661],[-1.181407,43.034591,852.929],[-1.181372,43.03455,854.062],[-1.18132,43.034513,855.069],[-1.181273,43.034473,855.899],[-1.181247,43.034431,856.207],[-1.181316,43.034448,855.327],[-1.181271,43.034399,853.808],[-1.181282,43.034352,852.636],[-1.181328,43.034306,852.211],[-1.181357,43.034258,851.643],[-1.181372,43.034202,851.884],[-1.181383,43.034157,851.466],[-1.181342,43.034113,850.784],[-1.181334,43.034055,849.797],[-1.181339,43.034003,850.034],[-1.181317,43.033957,848.952],[-1.181288,43.033915,848.753],[-1.181249,43.033871,849.608],[-1.181231,43.033813,848.108],[-1.181222,43.033768,848.462],[-1.181182,43.033722,849.097],[-1.181137,43.033688,848.559],[-1.181076,43.033668,848.51],[-1.181011,43.033665,848.112],[-1.180958,43.033634,847.41],[-1.180913,43.033597,847.263],[-1.180855,43.033572,846.37],[-1.180787,43.033545,845.497],[-1.180721,43.033512,845.823],[-1.180685,43.033472,845.825],[-1.180629,43.033446,846.408],[-1.180572,43.033419,845.816],[-1.180513,43.033435,845.951],[-1.180457,43.033412,845.013],[-1.180431,43.033369,845.574],[-1.180417,43.033325,845.156],[-1.180376,43.033279,845.594],[-1.180326,43.033245,846.077],[-1.180282,43.033206,845.974],[-1.180305,43.033162,844.927],[-1.180313,43.033112,843.468],[-1.180314,43.033062,843.514],[-1.180359,43.033028,842.608],[-1.180432,43.033004,842.129],[-1.180485,43.032973,841.584],[-1.180526,43.032934,841.636],[-1.180593,43.032925,841.917],[-1.180679,43.032925,841.599],[-1.18065,43.032877,843.567],[-1.180583,43.032877,844.67],[-1.180515,43.032888,844.347],[-1.180456,43.032913,843.872],[-1.180391,43.032918,845.413],[-1.180332,43.032934,846.714],[-1.180264,43.032932,846.508],[-1.180184,43.03294,847.484],[-1.18012,43.03293,849.319],[-1.180068,43.032971,850.611],[-1.180023,43.033013,850.322],[-1.17998,43.033046,850.714],[-1.179919,43.033067,850.662],[-1.179975,43.033092,852.245],[-1.180041,43.033102,853.592],[-1.180101,43.033092,853.781],[-1.180121,43.033039,852.761],[-1.180174,43.033002,852.317],[-1.180216,43.032961,852.708],[-1.180243,43.032918,852.295],[-1.180281,43.032881,852.01],[-1.180325,43.032844,851.272],[-1.180379,43.032809,850.173],[-1.180446,43.032787,850.415],[-1.180515,43.032799,851.123],[-1.180575,43.032828,850.696],[-1.180649,43.032853,849.993],[-1.180666,43.0329,849.384],[-1.180656,43.032946,847.807],[-1.180613,43.032994,847.017],[-1.180562,43.033032,847.208],[-1.180529,43.033075,845.685],[-1.180464,43.033101,842.95],[-1.180399,43.033115,840.722],[-1.180355,43.033152,839.783],[-1.180332,43.033201,839.445],[-1.180302,43.033242,838.763],[-1.180297,43.033291,838.666],[-1.180328,43.033333,838.393],[-1.180375,43.033365,839.149],[-1.180396,43.033323,840.302],[-1.180457,43.033342,840.822],[-1.180512,43.033373,840.808],[-1.18057,43.033393,841.831],[-1.180633,43.033411,843.616],[-1.180694,43.033432,842.198],[-1.180761,43.033463,842.579],[-1.18081,43.03349,841.371],[-1.18086,43.033519,840.099],[-1.1809,43.033557,841.862],[-1.180961,43.033572,842.859],[-1.181021,43.033583,841.714],[-1.181087,43.033585,841.454],[-1.181155,43.033613,840.909],[-1.181217,43.033634,840.908],[-1.181271,43.033656,840.868],[-1.181314,43.033704,842.283],[-1.181365,43.033742,842.345],[-1.181384,43.033793,841.586],[-1.181411,43.033838,842.878],[-1.181413,43.033885,843.546],[-1.181368,43.03392,843.459],[-1.181403,43.033879,842.926],[-1.181433,43.03392,843.293],[-1.181392,43.033963,844.565],[-1.18134,43.033935,844.821],[-1.181399,43.033917,843.508],[-1.181395,43.033967,842.526],[-1.1814,43.034017,843.131],[-1.181376,43.034064,843.263],[-1.181394,43.034113,844.824],[-1.181437,43.03415,843.296],[-1.181467,43.03419,842.624],[-1.181435,43.034232,842.387],[-1.181433,43.034278,842.724],[-1.181424,43.034323,842.611],[-1.181405,43.034371,843.621],[-1.181373,43.03441,846.303],[-1.18132,43.034436,847.908],[-1.18127,43.034463,848.778],[-1.181236,43.03442,849.213],[-1.181282,43.034452,849.515],[-1.181217,43.034457,853.536],[-1.181284,43.034446,854.748],[-1.181302,43.034493,853.976],[-1.181365,43.034536,853.879],[-1.181419,43.034575,854.386],[-1.181475,43.034612,855.074],[-1.181516,43.034655,855.456],[-1.181534,43.0347,856.021],[-1.18158,43.034742,856.508],[-1.181622,43.034779,856.464],[-1.181667,43.034824,856.759],[-1.181678,43.034871,857.371],[-1.1817,43.034921,856.772],[-1.181734,43.03497,856.624],[-1.181771,43.035012,856.692],[-1.181796,43.035054,856.315],[-1.18185,43.035082,856.782],[-1.181922,43.03509,856.176],[-1.181999,43.035099,855.99],[-1.18205,43.035129,855.319],[-1.182106,43.035164,855.108],[-1.182121,43.035208,856.394],[-1.182096,43.035252,857.149],[-1.18212,43.035298,856.761],[-1.182124,43.035349,855.882],[-1.182158,43.035392,855.864],[-1.182213,43.035423,856.242],[-1.182261,43.035456,856.795],[-1.182314,43.035493,856.542],[-1.182353,43.035529,856.572],[-1.182388,43.035572,857.113],[-1.182411,43.035628,858.414],[-1.182412,43.035679,859.408]]}}]}