{"type":"FeatureCollection","features":[{"type":"Feature","properties":{"ruta_id":"73830228","nombre":"⛰️ ALLUITZ y ASTXIKI desde ATXARTE","blog_url":"https://www.rutasporelmonte.com/alluitz-y-astxiki-desde-atxarte/"},"geometry":{"type":"LineString","coordinates":[[-2.63448,43.123804,278.541],[-2.634526,43.123768,272.881],[-2.634624,43.123675,270.509],[-2.634589,43.123632,269.108],[-2.634544,43.12359,272.031],[-2.634533,43.123537,273.457],[-2.634542,43.123489,274.292],[-2.634561,43.123441,274.797],[-2.634555,43.123393,275.044],[-2.634562,43.123348,277.676],[-2.63459,43.123307,281.526],[-2.63461,43.123264,282.542],[-2.634634,43.123222,281.668],[-2.634686,43.123198,283.642],[-2.634711,43.123147,283.526],[-2.634741,43.123099,282.808],[-2.634803,43.123081,283.163],[-2.634868,43.123077,281.759],[-2.63493,43.123051,278.334],[-2.634987,43.123009,277.629],[-2.635028,43.122969,277.786],[-2.635044,43.122924,278.358],[-2.635041,43.122875,276.328],[-2.635073,43.122833,275.734],[-2.635101,43.122775,278.131],[-2.635137,43.122731,278.961],[-2.635169,43.122685,281.507],[-2.635195,43.12264,283.708],[-2.635249,43.122604,287.56],[-2.635313,43.122597,289.396],[-2.635354,43.122551,290.881],[-2.635372,43.122494,291.786],[-2.63537,43.122447,292.393],[-2.63532,43.122409,291.885],[-2.635387,43.122389,291.245],[-2.635402,43.122345,289.441],[-2.63542,43.1223,289.722],[-2.635437,43.122251,290.962],[-2.635439,43.122199,290.908],[-2.635438,43.122149,292.808],[-2.635419,43.122093,292.639],[-2.635424,43.122047,291.585],[-2.635437,43.122,290.57],[-2.63542,43.121933,289.975],[-2.635406,43.121884,289.572],[-2.635391,43.121831,289.264],[-2.635398,43.121766,290.244],[-2.635413,43.12172,288.51],[-2.635472,43.121692,288.117],[-2.63542,43.12178,288.787],[-2.635377,43.121823,288.615],[-2.635284,43.121854,288.808],[-2.635317,43.121802,288.668],[-2.635352,43.121761,289.044],[-2.635407,43.121703,288.659],[-2.635446,43.121656,287.384],[-2.635431,43.121612,286.921],[-2.635492,43.121602,286.543],[-2.635474,43.121559,287.493],[-2.635423,43.121523,287.279],[-2.635387,43.12147,285.435],[-2.635363,43.121422,283.286],[-2.635348,43.121371,281.514],[-2.635349,43.121326,282.208],[-2.635346,43.121267,279.79],[-2.635341,43.121219,279.246],[-2.635343,43.121166,280.031],[-2.635375,43.121122,278.296],[-2.635416,43.121077,278.353],[-2.635446,43.121035,280.255],[-2.63548,43.120993,281.395],[-2.635534,43.120956,277.911],[-2.635574,43.120918,277.342],[-2.635624,43.120881,278.122],[-2.635675,43.120854,278.814],[-2.635745,43.120834,280.708],[-2.635806,43.120822,282.251],[-2.635872,43.120792,284.277],[-2.635929,43.120765,285.662],[-2.635964,43.120717,285.447],[-2.636001,43.120663,285.724],[-2.63602,43.120618,284.596],[-2.636054,43.120566,285.816],[-2.636067,43.120515,286.042],[-2.636086,43.120462,287.545],[-2.636114,43.120413,287.547],[-2.636138,43.120366,288.211],[-2.636083,43.120333,290.108],[-2.636029,43.120308,291.351],[-2.635941,43.120311,289.447],[-2.635891,43.120342,289.922],[-2.635928,43.120402,293.167],[-2.635895,43.120444,295.044],[-2.635837,43.120469,294.926],[-2.635907,43.120452,293.316],[-2.635917,43.120394,295.042],[-2.635875,43.120347,297.075],[-2.635794,43.120331,296.328],[-2.635729,43.120328,296.12],[-2.635676,43.120292,296.008],[-2.63563,43.120256,299.664],[-2.635589,43.120219,302.17],[-2.635537,43.12017,304.815],[-2.6355,43.12013,307.56],[-2.635472,43.120081,309.877],[-2.63546,43.120012,311.239],[-2.635433,43.119967,314.399],[-2.635406,43.119923,314.255],[-2.635364,43.119885,314.252],[-2.635328,43.119846,316.753],[-2.635282,43.11981,318.208],[-2.635229,43.11977,322.208],[-2.635178,43.119726,326.212],[-2.635148,43.119683,328.558],[-2.635115,43.119638,329.563],[-2.635092,43.119593,330.148],[-2.635069,43.119549,330.575],[-2.635033,43.119496,334.567],[-2.635001,43.119452,334.077],[-2.634955,43.119397,333.773],[-2.634941,43.119348,336.671],[-2.634924,43.119298,340.641],[-2.634903,43.119243,344.615],[-2.634882,43.119197,346.008],[-2.634852,43.119152,347.644],[-2.634843,43.119107,349.61],[-2.634849,43.119051,353.665],[-2.634859,43.119,357.03],[-2.634874,43.118951,357.977],[-2.634883,43.118898,359.399],[-2.634867,43.118853,359.679],[-2.634874,43.118799,362.735],[-2.634841,43.118758,363.828],[-2.634808,43.118719,363.989],[-2.634771,43.118664,364.017],[-2.634742,43.11862,362.908],[-2.634713,43.11858,361.939],[-2.634695,43.118533,360.875],[-2.634681,43.118486,359.36],[-2.63467,43.118434,356.585],[-2.634636,43.118393,356.632],[-2.634595,43.118349,356.344],[-2.63456,43.118312,358.364],[-2.634546,43.118259,356.86],[-2.634559,43.118202,355.499],[-2.634518,43.118151,355.007],[-2.634459,43.118124,354.127],[-2.63439,43.118094,353.608],[-2.634289,43.118065,353.596],[-2.634207,43.118071,354.822],[-2.634215,43.118022,356.687],[-2.634214,43.117976,357.392],[-2.634226,43.117925,360.339],[-2.634241,43.117878,360.321],[-2.634227,43.117818,362.211],[-2.634198,43.117774,361.147],[-2.634139,43.117746,362.137],[-2.634092,43.117709,363.249],[-2.634063,43.117664,363.413],[-2.634037,43.117622,362.308],[-2.63401,43.117571,362.87],[-2.633976,43.117531,362.186],[-2.633946,43.117477,363.721],[-2.633932,43.117427,365.446],[-2.633902,43.117377,366.743],[-2.633877,43.117333,366.295],[-2.633859,43.11729,366.425],[-2.63384,43.117242,369.081],[-2.633828,43.117196,368.029],[-2.633814,43.117148,368.2],[-2.633807,43.117096,369.62],[-2.633789,43.117052,370.208],[-2.633772,43.117003,370.639],[-2.633756,43.116956,369.865],[-2.63374,43.116896,373.16],[-2.633728,43.116848,373.595],[-2.633741,43.116803,374.542],[-2.633727,43.116749,377.024],[-2.633697,43.116709,377.854],[-2.633698,43.116655,378.51],[-2.633692,43.11661,378.977],[-2.63366,43.116558,380.261],[-2.633629,43.11651,381.327],[-2.633612,43.116462,382.508],[-2.63362,43.116417,383.114],[-2.633601,43.116372,384.21],[-2.633578,43.116326,383.725],[-2.633527,43.116269,384.32],[-2.63349,43.116231,384.697],[-2.633402,43.116148,386.739],[-2.633332,43.116101,386.619],[-2.63329,43.115938,386.185],[-2.633207,43.115809,387.122],[-2.633144,43.115775,388.962],[-2.633032,43.115636,388.608],[-2.633009,43.115553,388.508],[-2.632982,43.115442,388.939],[-2.633012,43.115385,389.275],[-2.633062,43.115343,389.46],[-2.633074,43.115297,389.515],[-2.633115,43.115344,390.312],[-2.633127,43.115407,390.614],[-2.633128,43.115509,392.594],[-2.633118,43.115629,393.48],[-2.6331,43.115703,394.636],[-2.633084,43.115758,394.817],[-2.633061,43.115807,396.218],[-2.633062,43.115762,396.708],[-2.633074,43.115714,398.36],[-2.633056,43.115667,399.396],[-2.633057,43.115539,401.681],[-2.633071,43.115468,403.066],[-2.633065,43.115417,405.083],[-2.63305,43.115369,406.155],[-2.633042,43.115317,407.825],[-2.633041,43.115263,410.071],[-2.633059,43.115213,412.724],[-2.633051,43.115166,412.804],[-2.633043,43.11512,414.214],[-2.633023,43.11504,415.508],[-2.633016,43.114995,415.349],[-2.633003,43.114947,416.935],[-2.632996,43.114896,417.24],[-2.632999,43.114842,417.635],[-2.632996,43.114797,418.342],[-2.632972,43.114749,420.244],[-2.632948,43.114707,420.924],[-2.632945,43.114657,421.34],[-2.632909,43.114602,420.846],[-2.63288,43.114558,420.688],[-2.632856,43.114515,420.516],[-2.632794,43.11448,421.308],[-2.632719,43.114442,420.621],[-2.632618,43.11442,421.887],[-2.632544,43.114378,420.612],[-2.632474,43.114324,418.797],[-2.632434,43.114241,417.614],[-2.632513,43.114034,415.786],[-2.632651,43.113792,418.546],[-2.632626,43.113699,419.532],[-2.632572,43.113617,419.464],[-2.632486,43.113583,418.406],[-2.632426,43.113568,417.216],[-2.632341,43.113568,418.408],[-2.632308,43.113666,418.593],[-2.63232,43.113749,420.929],[-2.632322,43.113799,420.424],[-2.63233,43.113872,420.199],[-2.632334,43.113917,419.186],[-2.632343,43.113977,420.088],[-2.632313,43.114033,419.128],[-2.632298,43.114079,419.864],[-2.63224,43.114058,419.233],[-2.632204,43.114021,420.823],[-2.632167,43.113977,421.415],[-2.632141,43.113932,419.908],[-2.632005,43.113882,421.28],[-2.631962,43.113819,422.816],[-2.631923,43.11372,423.141],[-2.631974,43.113757,423.176],[-2.632055,43.113781,426.423],[-2.632057,43.11383,429.285],[-2.63198,43.113846,431.595],[-2.631914,43.113813,434.111],[-2.631863,43.113783,434.633],[-2.631797,43.113757,436.123],[-2.631742,43.113733,436.415],[-2.631688,43.113709,436.308],[-2.631629,43.113691,436.65],[-2.631572,43.113665,437.696],[-2.631536,43.11362,439.131],[-2.631494,43.113584,439.326],[-2.631431,43.113571,440.393],[-2.631374,43.113554,441.285],[-2.631316,43.113521,442.325],[-2.631258,43.113504,441.381],[-2.631179,43.113473,440.743],[-2.631139,43.113434,444.764],[-2.631083,43.113406,448.71],[-2.631033,43.113375,452.708],[-2.630974,43.113347,456.751],[-2.630915,43.113327,460.587],[-2.630854,43.113317,462.862],[-2.630791,43.113294,464.277],[-2.630734,43.113273,468.094],[-2.630659,43.113232,472.046],[-2.630605,43.113209,475.096],[-2.630564,43.113164,477.542],[-2.630489,43.113171,479.158],[-2.63056,43.113195,480.552],[-2.630497,43.113163,483.117],[-2.630438,43.113147,484.808],[-2.630369,43.113138,485.212],[-2.630299,43.113127,486.968],[-2.630229,43.113112,487.553],[-2.63017,43.113099,486.858],[-2.630089,43.113088,486.085],[-2.630021,43.113068,487.057],[-2.629962,43.113043,486.857],[-2.630021,43.113063,487.193],[-2.630049,43.113104,488.253],[-2.630037,43.113154,490.104],[-2.630015,43.113197,490.614],[-2.629982,43.113239,492.408],[-2.629926,43.113268,493.582],[-2.62987,43.113296,495.738],[-2.629802,43.113321,497.713],[-2.629746,43.113342,500.448],[-2.629767,43.113401,502.625],[-2.629764,43.113447,503.887],[-2.629745,43.11349,506.117],[-2.629741,43.113537,507.483],[-2.629719,43.113596,509.392],[-2.629692,43.113638,510.673],[-2.629685,43.113692,514.12],[-2.629686,43.11374,514.908],[-2.62968,43.113789,515.186],[-2.629678,43.113839,515.952],[-2.62966,43.113882,517.287],[-2.629619,43.113919,519.122],[-2.629584,43.113956,519.959],[-2.629538,43.113991,520.851],[-2.629492,43.114027,520.441],[-2.629471,43.11408,522.077],[-2.629454,43.114126,523.553],[-2.629435,43.114179,524.304],[-2.629417,43.11423,523.614],[-2.629408,43.114279,523.608],[-2.629384,43.114332,526.452],[-2.629357,43.114374,527.588],[-2.62933,43.114416,527.463],[-2.629311,43.114462,527.728],[-2.629295,43.114521,528.575],[-2.629268,43.114565,528.767],[-2.629243,43.114622,529.797],[-2.629209,43.114661,530.563],[-2.629168,43.114701,533.152],[-2.629124,43.114735,535.653],[-2.629073,43.114771,538.908],[-2.62903,43.114805,541.308],[-2.628974,43.114838,543.362],[-2.628927,43.114874,544.998],[-2.628877,43.114908,546.363],[-2.628838,43.114944,547.398],[-2.628793,43.114975,548.655],[-2.628756,43.115011,549.927],[-2.628713,43.115044,552.427],[-2.628661,43.115082,553.983],[-2.628613,43.115114,553.529],[-2.628551,43.115144,555.4],[-2.628492,43.115166,554.82],[-2.628427,43.115185,555.708],[-2.628362,43.115199,556.259],[-2.628302,43.115223,556.055],[-2.628246,43.115248,555.73],[-2.62819,43.115271,555.725],[-2.628127,43.115285,555.462],[-2.628068,43.1153,556.614],[-2.628004,43.115298,557.454],[-2.627939,43.115291,556.05],[-2.627862,43.115276,557.166],[-2.627795,43.11527,559.229],[-2.627726,43.115269,560.621],[-2.627662,43.115278,561.708],[-2.627588,43.11529,563.673],[-2.627528,43.115308,565.689],[-2.627452,43.115314,568.374],[-2.627386,43.115323,569.459],[-2.627322,43.11533,570.926],[-2.62726,43.115335,570.738],[-2.627203,43.115354,571.788],[-2.627144,43.11537,573.074],[-2.627074,43.115368,573.415],[-2.627011,43.115368,575.465],[-2.62694,43.115391,577.311],[-2.626882,43.115416,579.408],[-2.626814,43.115454,582.518],[-2.626744,43.115479,586.024],[-2.626681,43.1155,587.579],[-2.626619,43.115517,589.934],[-2.626556,43.115528,593.971],[-2.626494,43.11556,597.923],[-2.626447,43.115595,601.963],[-2.626399,43.11564,605.989],[-2.626475,43.115609,609.968],[-2.626535,43.115596,613.842],[-2.626476,43.115659,616.626],[-2.626469,43.115704,616.808],[-2.626468,43.115713,616.613],[-2.626537,43.115707,618.279],[-2.626605,43.115711,620.364],[-2.626671,43.115725,621.669],[-2.626731,43.115749,622.966],[-2.626784,43.115778,623.938],[-2.626839,43.1158,624.888],[-2.626913,43.115813,626.084],[-2.626982,43.115819,628.066],[-2.627044,43.115822,628.629],[-2.627118,43.115839,629.021],[-2.627176,43.115855,630.108],[-2.627218,43.115889,629.373],[-2.627248,43.115932,630.239],[-2.627286,43.115969,629.994],[-2.627339,43.115993,629.439],[-2.627347,43.116046,630.586],[-2.627314,43.116084,631.458],[-2.627375,43.116099,633.658],[-2.627434,43.116114,635.084],[-2.627466,43.116161,637.095],[-2.62751,43.116193,638.049],[-2.627571,43.116216,640.623],[-2.627626,43.116239,642.208],[-2.627668,43.116273,645.256],[-2.627685,43.116318,647.722],[-2.627667,43.116373,650.587],[-2.627646,43.116419,652.722],[-2.627691,43.11646,655.179],[-2.627739,43.116491,656.231],[-2.627804,43.116494,658.771],[-2.627869,43.116486,661.057],[-2.627889,43.116471,662.267],[-2.627968,43.116479,665.081],[-2.62803,43.116478,668.919],[-2.628112,43.116492,671.208],[-2.62817,43.116508,672.083],[-2.628216,43.116541,675.429],[-2.628274,43.116563,677.714],[-2.628292,43.11651,679.019],[-2.62833,43.116561,682.476],[-2.628381,43.116587,683.978],[-2.628429,43.116618,687.378],[-2.628468,43.116653,689.654],[-2.628466,43.116715,691.976],[-2.628456,43.116774,693.99],[-2.628461,43.116821,697.319],[-2.628468,43.116867,699.708],[-2.628479,43.116916,701.334],[-2.628535,43.11695,702.45],[-2.628588,43.116981,705.855],[-2.628635,43.11701,707.93],[-2.628662,43.117052,709.837],[-2.628674,43.117117,710.759],[-2.628738,43.117096,712.579],[-2.628812,43.117023,713.945],[-2.628749,43.117018,714.894],[-2.628719,43.117058,716.457],[-2.628742,43.117105,717.322],[-2.628787,43.117151,717.808],[-2.628837,43.117179,721.856],[-2.628853,43.117225,725.822],[-2.628823,43.117268,728.917],[-2.628848,43.117322,731.132],[-2.628878,43.117362,731.749],[-2.628887,43.117409,732.071],[-2.628896,43.117455,736.061],[-2.628907,43.117502,740.037],[-2.628912,43.11755,742.698],[-2.628973,43.117568,745.415],[-2.629041,43.117557,748.926],[-2.629107,43.117534,750.308],[-2.629173,43.117524,753.736],[-2.629247,43.117524,756.012],[-2.629336,43.117517,757.377],[-2.629399,43.117519,758.722],[-2.629325,43.117493,762.719],[-2.629254,43.117492,766.551],[-2.629186,43.117493,769.261],[-2.629125,43.1175,771.397],[-2.62906,43.117502,772.352],[-2.628998,43.117498,772.953],[-2.628928,43.117487,771.808],[-2.628863,43.117477,770.508],[-2.628847,43.11743,769.212],[-2.628874,43.117389,768.528],[-2.628861,43.117341,767.033],[-2.628806,43.117308,765.498],[-2.628728,43.117288,764.555],[-2.628705,43.117246,763.547],[-2.628746,43.117206,762.347],[-2.62878,43.117168,761.643],[-2.628789,43.117119,759.857],[-2.628773,43.117073,758.9],[-2.628722,43.117033,756.92],[-2.628674,43.116996,754.808],[-2.628621,43.116966,753.412],[-2.628564,43.116947,752.168],[-2.628504,43.116914,748.833],[-2.628457,43.116884,746.648],[-2.628403,43.116856,744.315],[-2.628346,43.116829,742.747],[-2.628354,43.116782,740.717],[-2.628361,43.116737,737.933],[-2.628381,43.116692,735.424],[-2.628413,43.116652,734.404],[-2.628431,43.116608,733.014],[-2.628438,43.116563,731.208],[-2.628382,43.11654,729.349],[-2.628319,43.116543,727.635],[-2.628257,43.116514,726.23],[-2.628205,43.116485,724.785],[-2.628146,43.116459,723.282],[-2.628089,43.116442,722.584],[-2.628029,43.11642,720.594],[-2.627976,43.116391,718.89],[-2.627921,43.116362,717.525],[-2.627851,43.116341,716.026],[-2.627784,43.116329,713.708],[-2.627713,43.116332,710.908],[-2.627657,43.116355,709.249],[-2.627596,43.116371,705.285],[-2.627535,43.116359,701.66],[-2.627512,43.116316,699.485],[-2.627473,43.116278,695.472],[-2.627467,43.116222,691.444],[-2.627444,43.116171,687.434],[-2.627431,43.116127,683.47],[-2.627422,43.116066,679.496],[-2.627424,43.116017,676.531],[-2.627362,43.115997,672.524],[-2.6273,43.115989,670.208],[-2.627242,43.11595,666.756],[-2.627205,43.115911,664.872],[-2.627203,43.115862,663.527],[-2.627184,43.115819,662.732],[-2.627161,43.115759,662.349],[-2.627142,43.115715,661.971],[-2.627078,43.115686,661.191],[-2.627008,43.115666,660.277],[-2.62693,43.115648,659.648],[-2.626854,43.115625,658.561],[-2.626785,43.115615,657.117],[-2.62672,43.115634,655.608],[-2.626655,43.115646,654.391],[-2.626571,43.115626,651.587],[-2.6265,43.115625,648.382],[-2.626456,43.115591,644.347],[-2.626423,43.115546,641.794],[-2.626409,43.115501,640.186],[-2.626396,43.11545,638.446],[-2.626382,43.115405,637.742],[-2.62634,43.115364,636.984],[-2.626298,43.115329,636.507],[-2.626248,43.115298,636.417],[-2.626197,43.11526,636.308],[-2.626146,43.115222,637.055],[-2.626085,43.115194,637.221],[-2.626036,43.115165,637.846],[-2.625984,43.115137,638.191],[-2.625939,43.115103,638.428],[-2.625901,43.11506,639.56],[-2.625887,43.115015,640.21],[-2.625841,43.114975,642.766],[-2.625804,43.114935,644.287],[-2.625745,43.114916,646.542],[-2.625672,43.114904,648.126],[-2.625611,43.114899,649.108],[-2.625592,43.114852,651.735],[-2.625532,43.11483,654.691],[-2.625469,43.114848,656.476],[-2.625413,43.114871,659.961],[-2.625355,43.114887,661.918],[-2.625278,43.114871,662.35],[-2.625216,43.114851,662.79],[-2.625154,43.114832,662.496],[-2.625092,43.114806,662.628],[-2.625028,43.114784,663.189],[-2.624963,43.114768,665.017],[-2.6249,43.114773,666.308],[-2.624834,43.114781,667.199],[-2.624771,43.114783,667.975],[-2.624694,43.114763,670.07],[-2.624635,43.11475,671.995],[-2.624547,43.114746,673.332],[-2.624475,43.114748,674.244],[-2.624407,43.114755,675.534],[-2.624343,43.114756,676.71],[-2.624275,43.114752,677.318],[-2.624221,43.114728,677.798],[-2.624164,43.114703,677.817],[-2.624091,43.114665,678.208],[-2.62405,43.114629,678.578],[-2.624001,43.114593,679.254],[-2.623935,43.114533,679.819],[-2.623869,43.11452,680.014],[-2.623797,43.114471,680.721],[-2.623844,43.114405,680.843],[-2.623895,43.114457,681.343],[-2.623966,43.114475,681.649],[-2.623903,43.114506,681.596],[-2.623839,43.114477,680.031],[-2.623777,43.114453,679.224],[-2.623721,43.114409,679.608],[-2.623647,43.114384,680.356],[-2.623578,43.114371,680.312],[-2.623516,43.114359,680.987],[-2.623451,43.114364,680.732],[-2.623391,43.114353,681.949],[-2.62333,43.114328,682.551],[-2.623272,43.114306,683.371],[-2.623211,43.114287,683.747],[-2.623152,43.114274,684.241],[-2.623152,43.114224,684.281],[-2.623145,43.114178,683.809],[-2.623103,43.114133,683.608],[-2.623064,43.114097,687.461],[-2.623007,43.11412,689.897],[-2.62297,43.114157,691.312],[-2.622936,43.114118,693.387],[-2.622919,43.114073,694.454],[-2.622899,43.114024,696.116],[-2.622879,43.113979,697.186],[-2.622884,43.113929,699.442],[-2.622902,43.113882,700.346],[-2.622884,43.113837,701.888],[-2.622837,43.113806,702.516],[-2.622772,43.113799,703.708],[-2.622715,43.11382,704.491],[-2.622651,43.113832,704.937],[-2.622591,43.113807,705.092],[-2.622602,43.113755,704.827],[-2.622652,43.113724,704.934],[-2.622684,43.113684,707.046],[-2.622703,43.11364,707.986],[-2.622685,43.113587,710.352],[-2.622652,43.113549,712.195],[-2.622621,43.113504,713.649],[-2.62257,43.113463,714.823],[-2.622531,43.113416,717.408],[-2.622518,43.113369,719.696],[-2.6225,43.113326,720.812],[-2.622547,43.113295,721.517],[-2.622593,43.113265,725.572],[-2.6226,43.113209,729.569],[-2.622577,43.113157,733.511],[-2.622535,43.113113,737.531],[-2.622507,43.113063,741.577],[-2.622491,43.113017,745.446],[-2.622489,43.112969,748.088],[-2.622471,43.112925,749.516],[-2.622476,43.112877,752.408],[-2.622485,43.112832,754.561],[-2.622554,43.112827,756.187],[-2.622623,43.112827,757.182],[-2.622578,43.112774,758.277],[-2.622554,43.11273,758.754],[-2.622585,43.112679,760.346],[-2.622619,43.11264,761.746],[-2.622657,43.11259,764.062],[-2.622688,43.112551,765.986],[-2.622718,43.112509,767.16],[-2.622757,43.112465,771.126],[-2.62282,43.112453,774.308],[-2.622882,43.112455,778.395],[-2.622944,43.112441,782.351],[-2.623002,43.112421,785.426],[-2.623063,43.112412,787.011],[-2.623122,43.112429,790.648],[-2.623182,43.112403,793.38],[-2.62315,43.112468,794.97],[-2.623122,43.112486,804.026],[-2.623166,43.112449,795.932],[-2.623198,43.112409,796.592],[-2.623261,43.112405,796.811],[-2.62332,43.112389,797.008],[-2.623382,43.112366,797.11],[-2.623431,43.112337,797.286],[-2.623475,43.112297,801.211],[-2.623511,43.112258,805.266],[-2.623566,43.112224,809.293],[-2.623626,43.112241,813.255],[-2.62367,43.112275,817.245],[-2.623685,43.112224,821.251],[-2.623683,43.112179,825.281],[-2.623643,43.112135,829.261],[-2.623592,43.112101,833.217],[-2.623553,43.112051,837.208],[-2.62353,43.112005,841.215],[-2.623537,43.111952,845.291],[-2.623549,43.111907,849.236],[-2.623579,43.111857,853.251],[-2.623621,43.111819,857.288],[-2.623661,43.111776,861.29],[-2.62369,43.111734,864.05],[-2.623736,43.111704,868.056],[-2.623799,43.111697,870.468],[-2.623872,43.111676,871.942],[-2.623927,43.111647,875.926],[-2.623986,43.111615,879.908],[-2.624032,43.11158,883.933],[-2.624042,43.11153,887.989],[-2.624034,43.111477,891.994],[-2.624035,43.111425,895.919],[-2.62404,43.111377,899.926],[-2.624026,43.111329,903.988],[-2.624103,43.111299,907.948],[-2.624166,43.111296,911.964],[-2.624235,43.111284,915.924],[-2.62429,43.111262,919.904],[-2.624334,43.111221,923.214],[-2.624362,43.11118,925.508],[-2.624883,43.110898,923.129],[-2.624954,43.110887,923.075],[-2.624964,43.110934,922.85],[-2.624966,43.110982,923.935],[-2.624959,43.111028,924.662],[-2.624893,43.111045,925.064],[-2.624824,43.11102,925.274],[-2.624796,43.110969,925.32],[-2.624751,43.110936,925.446],[-2.624687,43.110933,925.588],[-2.624664,43.110891,925.516],[-2.624616,43.110859,925.508],[-2.624553,43.110859,925.591],[-2.6245,43.110834,929.567],[-2.624488,43.110787,933.552],[-2.624469,43.110739,937.587],[-2.62442,43.110701,941.554],[-2.624364,43.110673,945.576],[-2.624296,43.110653,949.556],[-2.624269,43.11061,953.532],[-2.624256,43.110559,957.532],[-2.624265,43.110512,961.592],[-2.624244,43.110467,965.511],[-2.62419,43.11044,969.508],[-2.624155,43.110402,973.57],[-2.62412,43.110363,977.576],[-2.624094,43.110317,981.591],[-2.62408,43.110269,985.546],[-2.624053,43.11022,989.563],[-2.624002,43.110184,993.535],[-2.623967,43.110145,997.595],[-2.623948,43.1101,1001.561],[-2.623887,43.110088,1005.597],[-2.62383,43.110109,1009.523],[-2.623873,43.110076,1013.425],[-2.623935,43.110075,1015.708],[-2.623985,43.110107,1016.566],[-2.624006,43.110151,1016.792],[-2.624044,43.110189,1016.657],[-2.624052,43.11024,1017.332],[-2.624087,43.110282,1017.789],[-2.624084,43.110255,1025.231],[-2.624099,43.110301,1015.251],[-2.624095,43.110347,1013.857],[-2.624116,43.110396,1013.145],[-2.624148,43.110437,1011.347],[-2.624167,43.110482,1010.411],[-2.624164,43.110531,1009.708],[-2.624199,43.11057,1008.881],[-2.624247,43.110603,1007.297],[-2.62429,43.110635,1005.032],[-2.624341,43.11067,1003.247],[-2.62439,43.1107,1001.234],[-2.624454,43.110712,999.046],[-2.624514,43.110723,998.166],[-2.624553,43.11076,997.532],[-2.624567,43.110805,995.587],[-2.624597,43.110845,993.942],[-2.624643,43.110876,992.526],[-2.624648,43.110924,991.008],[-2.624705,43.110948,990.545],[-2.624753,43.110977,989.721],[-2.624814,43.110985,989.826],[-2.624846,43.111032,989.661],[-2.624882,43.111072,988.098],[-2.624859,43.111114,987.26],[-2.624791,43.111121,985.76],[-2.624732,43.111099,985.146],[-2.624673,43.111083,983.876],[-2.624609,43.111073,981.89],[-2.624566,43.111106,978.619],[-2.624505,43.111114,975.808],[-2.624453,43.111154,972.494],[-2.624389,43.11115,970.28],[-2.624327,43.111167,966.585],[-2.624266,43.111174,963.02],[-2.624205,43.111154,960.397],[-2.624163,43.111187,958.079],[-2.624148,43.111233,955.639],[-2.624116,43.111273,952.655],[-2.624052,43.111276,948.671],[-2.624015,43.111315,945.541],[-2.623939,43.111311,941.515],[-2.623883,43.111344,937.508],[-2.623864,43.11139,934.354],[-2.623802,43.111378,931.64],[-2.623823,43.11142,927.875],[-2.62385,43.111463,925.52],[-2.623864,43.111508,921.817],[-2.623888,43.111556,918.559],[-2.623875,43.111601,916.679],[-2.623855,43.111647,913.475],[-2.623834,43.11169,911.498],[-2.62385,43.111736,907.515],[-2.623851,43.111785,905.226],[-2.623789,43.11179,902.208],[-2.623721,43.111785,899.516],[-2.623657,43.111777,898.542],[-2.623596,43.111787,897.497],[-2.623557,43.111827,894.612],[-2.623506,43.111853,892.399],[-2.62349,43.111903,889.881],[-2.623456,43.111948,888.541],[-2.623466,43.111997,885.947],[-2.623489,43.112043,883.445],[-2.623523,43.112083,882.247],[-2.623562,43.112125,880.511],[-2.623592,43.112166,879.608],[-2.623606,43.112211,876.211],[-2.623596,43.112257,874.067],[-2.623572,43.112298,870.872],[-2.623509,43.112289,866.867],[-2.623448,43.1123,863.514],[-2.623432,43.112346,859.576],[-2.623382,43.112375,857.126],[-2.623328,43.112398,853.172],[-2.623266,43.112404,850.018],[-2.623237,43.11245,848.198],[-2.623195,43.112485,844.117],[-2.62313,43.112476,840.108],[-2.623069,43.112488,836.148],[-2.623052,43.112535,832.954],[-2.622985,43.112546,830.239],[-2.622925,43.112536,827.874],[-2.622882,43.11257,824.721],[-2.62282,43.112588,822.843],[-2.622768,43.112613,819.743],[-2.622701,43.112625,815.759],[-2.622663,43.112662,812.355],[-2.622603,43.11268,808.307],[-2.622552,43.112709,804.317],[-2.622512,43.112675,801.108],[-2.622537,43.112716,798.982],[-2.622484,43.112748,797.148],[-2.622437,43.112783,795.123],[-2.62241,43.11283,793.178],[-2.62242,43.112882,792.085],[-2.622433,43.112928,790.557],[-2.622438,43.112976,789.177],[-2.622423,43.113023,786.933],[-2.622427,43.113071,785.225],[-2.622441,43.113122,784.726],[-2.622484,43.11316,784.108],[-2.62254,43.1132,782.808],[-2.622577,43.113243,781.099],[-2.62258,43.113291,778.995],[-2.6226,43.11334,776.92],[-2.622652,43.113371,776.045],[-2.622655,43.113419,773.542],[-2.622693,43.113462,771.734],[-2.62271,43.113514,770.714],[-2.622756,43.113549,769.44],[-2.622815,43.113566,767.771],[-2.622878,43.113594,765.141],[-2.622894,43.113638,763.915],[-2.622901,43.113684,763.108],[-2.622895,43.113731,760.584],[-2.622939,43.113764,759.86],[-2.622946,43.113811,757.225],[-2.622948,43.113856,756.95],[-2.623004,43.113878,754.827],[-2.622986,43.113921,753.089],[-2.623043,43.11394,753.739],[-2.623104,43.113928,753.095],[-2.623087,43.113972,749.943],[-2.623145,43.114002,748.064],[-2.623162,43.114051,746.91],[-2.62316,43.114098,742.908],[-2.623222,43.114095,738.931],[-2.623288,43.114078,734.967],[-2.623351,43.114074,731.322],[-2.623411,43.114056,730.527],[-2.623439,43.114099,727.594],[-2.623408,43.114141,725.866],[-2.623342,43.114184,723.556],[-2.623289,43.114213,722.852],[-2.623245,43.114256,723.991],[-2.623228,43.114306,722.681],[-2.623229,43.114351,723.219],[-2.623253,43.114393,721.508],[-2.623278,43.114436,719.986],[-2.623295,43.114485,718.712],[-2.623347,43.11452,718.017],[-2.623417,43.11452,717.732],[-2.623481,43.114503,716.319],[-2.623542,43.114519,715.051],[-2.623606,43.114538,714.671],[-2.623661,43.114561,712.437],[-2.623708,43.114598,710.413],[-2.62378,43.114639,709.143],[-2.623838,43.114664,706.907],[-2.623902,43.11466,704.408],[-2.623964,43.114662,701.178],[-2.624021,43.11468,698.284],[-2.624063,43.114713,696.959],[-2.624106,43.114763,694.954],[-2.62414,43.114804,691.481],[-2.624202,43.114827,689.673],[-2.62424,43.11479,686.213],[-2.624308,43.114801,683.949],[-2.624365,43.114818,681.877],[-2.624433,43.114835,680.161],[-2.624511,43.114833,680.227],[-2.624583,43.114818,678.708],[-2.624645,43.114813,677.884],[-2.624712,43.114818,678.54],[-2.624709,43.114768,678.955],[-2.624769,43.114739,679.23],[-2.624843,43.114746,675.247],[-2.624916,43.11475,672.269],[-2.624978,43.114768,669.429],[-2.625035,43.11479,666.655],[-2.625093,43.114817,665.387],[-2.625162,43.114824,664.542],[-2.625235,43.114837,665.126],[-2.625295,43.114858,664.208],[-2.62536,43.114881,664.145],[-2.625435,43.114902,663.631],[-2.625497,43.114895,664.176],[-2.625488,43.114843,663.891],[-2.625553,43.114845,662.728],[-2.625617,43.114865,663.13],[-2.625686,43.114885,662.22],[-2.625644,43.11492,660.376],[-2.62565,43.114967,657.219],[-2.625718,43.11498,655.009],[-2.625788,43.114998,652.619],[-2.62585,43.115014,650.308],[-2.6259,43.115044,649.078],[-2.625952,43.115085,647.134],[-2.626002,43.115132,645.029],[-2.626046,43.115176,643.524],[-2.626098,43.115207,642.321],[-2.626158,43.115217,640.273],[-2.626215,43.11524,638.223],[-2.626264,43.115272,635.569],[-2.626304,43.115307,633.957],[-2.626351,43.115347,631.8],[-2.626398,43.11539,630.82],[-2.626431,43.115436,629.008],[-2.626437,43.115492,626.152],[-2.626442,43.11554,624.248],[-2.626474,43.115585,623.783],[-2.626539,43.115577,621.938],[-2.626592,43.115543,620.495],[-2.626655,43.115518,620.097],[-2.626722,43.115493,619.697],[-2.626793,43.11548,619.113],[-2.626858,43.115469,617.928],[-2.626917,43.115446,617.389],[-2.626985,43.115433,617.317],[-2.627046,43.115409,617.008],[-2.627115,43.115397,615.679],[-2.627165,43.115366,615.255],[-2.627232,43.115364,615.23],[-2.627294,43.115353,614.235],[-2.627357,43.115327,613.812],[-2.627423,43.11533,612.854],[-2.627488,43.115328,613.154],[-2.627553,43.115318,612.58],[-2.627599,43.115281,612.233],[-2.627671,43.11526,611.923],[-2.62774,43.115234,610.815],[-2.62781,43.115227,611.008],[-2.627872,43.115207,610.08],[-2.627931,43.115192,611.096],[-2.627996,43.115188,609.861],[-2.628061,43.115188,608.526],[-2.62812,43.115174,606.763],[-2.628194,43.115155,605.165],[-2.62827,43.115144,604.355],[-2.628331,43.115131,603.341],[-2.628398,43.115128,602.691],[-2.628464,43.115138,601.081],[-2.628521,43.115106,598.919],[-2.628596,43.115097,596.608],[-2.628659,43.115082,595.056],[-2.628728,43.115059,594.272],[-2.628774,43.11502,592.127],[-2.628796,43.114977,589.962],[-2.628824,43.114927,587.829],[-2.62888,43.114904,585.671],[-2.628935,43.11488,582.211],[-2.628998,43.114859,579.337],[-2.629036,43.114819,577.827],[-2.629099,43.114785,575.368],[-2.629136,43.114748,574.114],[-2.629189,43.114722,571.608],[-2.629221,43.114681,569.029],[-2.629243,43.114638,566.575],[-2.6293,43.114614,564.88],[-2.629338,43.114574,562.215],[-2.629313,43.114529,561.182],[-2.62933,43.114476,559.414],[-2.629357,43.114434,557.784],[-2.629349,43.114389,555.26],[-2.629397,43.114353,553.371],[-2.629453,43.114329,551.541],[-2.62949,43.11428,550.115],[-2.629487,43.114226,549.108],[-2.629498,43.114177,548.644],[-2.629512,43.114133,548.01],[-2.629505,43.11407,546.815],[-2.629536,43.114025,546.51],[-2.629585,43.113985,544.817],[-2.629625,43.113936,544.739],[-2.629639,43.113892,542.729],[-2.629671,43.113851,541.335],[-2.6297,43.113809,540.596],[-2.62976,43.113785,539.031],[-2.629786,43.113741,536.324],[-2.629765,43.113695,534.708],[-2.629743,43.113648,533.436],[-2.629759,43.113599,530.922],[-2.629771,43.113549,528.857],[-2.629824,43.113503,528.112],[-2.629888,43.113497,527.869],[-2.629948,43.113485,528.271],[-2.629939,43.113426,527.291],[-2.629973,43.113384,526.257],[-2.630003,43.11334,524.926],[-2.630052,43.113309,523.447],[-2.630093,43.113271,521.011],[-2.630151,43.113252,520.408],[-2.630182,43.113212,519.839],[-2.630243,43.113188,518.975],[-2.630285,43.113151,516.49],[-2.630313,43.113103,515.155],[-2.630329,43.113059,513.332],[-2.630295,43.113017,512.294],[-2.630377,43.113039,510.914],[-2.630428,43.113067,509.62],[-2.630484,43.11309,507.464],[-2.630516,43.113133,504.906],[-2.630582,43.113128,502.816],[-2.630645,43.113132,501.508],[-2.630701,43.113152,497.613],[-2.63076,43.113175,495.269],[-2.630818,43.113206,492.974],[-2.630885,43.113222,491.529],[-2.630946,43.113246,490.316],[-2.631026,43.11323,488.858],[-2.631103,43.113248,488.078],[-2.63115,43.113281,485.524],[-2.631195,43.113315,484.042],[-2.631246,43.113344,482.522],[-2.631282,43.113384,480.614],[-2.63135,43.113424,480.308],[-2.631425,43.113442,479.551],[-2.631488,43.113444,478.637],[-2.631547,43.113473,478.352],[-2.631603,43.113501,477.627],[-2.631677,43.113516,476.564],[-2.631738,43.113533,475.326],[-2.631794,43.113555,473.486],[-2.631838,43.11359,471.632],[-2.631898,43.113608,467.721],[-2.631939,43.113643,463.741],[-2.631968,43.113689,459.905],[-2.631991,43.113735,457.408],[-2.632058,43.113748,454.749],[-2.632128,43.113765,453.465],[-2.632193,43.113775,453.65],[-2.63227,43.11378,452.015],[-2.632323,43.113809,451.082],[-2.632376,43.113837,451.214],[-2.632435,43.113862,451.094],[-2.632487,43.113895,452.28],[-2.632533,43.113934,452.581],[-2.632549,43.113979,451.561],[-2.632567,43.114022,452.117],[-2.632611,43.114057,450.508],[-2.632656,43.114096,449.365],[-2.63269,43.114145,449.491],[-2.632717,43.114187,448.856],[-2.632755,43.114225,449.041],[-2.632795,43.114259,446.848],[-2.632808,43.114308,446.59],[-2.632839,43.114364,445.45],[-2.632898,43.114405,444.346],[-2.632946,43.114438,443.379],[-2.632997,43.114472,443.205],[-2.633049,43.114508,442.425],[-2.633085,43.114547,440.908],[-2.633088,43.114597,439.614],[-2.63308,43.114645,437.61],[-2.63307,43.114691,435.845],[-2.633087,43.114745,433.63],[-2.633111,43.114803,431.287],[-2.633135,43.114845,430.929],[-2.633167,43.114889,429.819],[-2.63317,43.114937,428.545],[-2.633164,43.114987,426.888],[-2.633169,43.115039,427.524],[-2.63317,43.115094,426.726],[-2.633178,43.115143,426.208],[-2.63319,43.115193,423.715],[-2.633196,43.115245,422.751],[-2.633187,43.115293,422.136],[-2.633182,43.115339,421.491],[-2.633168,43.115386,420.098],[-2.633153,43.115436,417.38],[-2.633129,43.115484,416.18],[-2.633133,43.115535,413.576],[-2.633138,43.11558,412.885],[-2.633152,43.115631,411.489],[-2.633182,43.115678,410.317],[-2.633224,43.115716,409.208],[-2.633247,43.115769,408.575],[-2.633285,43.115813,406.711],[-2.633334,43.115841,406.596],[-2.633384,43.115888,406.951],[-2.633402,43.115931,407.988],[-2.633455,43.115958,408.86],[-2.633469,43.116003,409.14],[-2.633489,43.116048,409.026],[-2.633505,43.116092,409.272],[-2.633525,43.116137,409.213],[-2.63354,43.116182,408.314],[-2.633595,43.116218,409.508],[-2.633634,43.116264,408.534],[-2.63364,43.116312,407.29],[-2.633684,43.116354,406.545],[-2.633683,43.116399,407.28],[-2.633682,43.116451,409.257],[-2.633688,43.116496,411.079],[-2.6337,43.116547,413.589],[-2.633733,43.11659,415.055],[-2.633731,43.116647,415.977],[-2.633792,43.116677,415.261],[-2.633823,43.116724,416.627],[-2.633837,43.116773,417.808],[-2.633843,43.11682,416.324],[-2.633874,43.116861,416.76],[-2.633905,43.1169,418.235],[-2.633931,43.116946,419.97],[-2.633941,43.116996,419.647],[-2.633932,43.117049,416.499],[-2.633936,43.117099,414.559],[-2.633948,43.117145,417.215],[-2.634009,43.117198,418.774],[-2.634029,43.11725,421.956],[-2.634094,43.117279,423.921],[-2.634153,43.117299,423.908],[-2.634199,43.117335,424.114],[-2.634227,43.117379,425.88],[-2.634241,43.117424,426.885],[-2.63427,43.117471,429.08],[-2.634305,43.117515,427.237],[-2.634328,43.117559,428.579],[-2.634355,43.117603,427.399],[-2.634384,43.117648,426.635],[-2.63442,43.117695,428.966],[-2.634461,43.117737,430.329],[-2.634474,43.117792,430.021],[-2.634536,43.117803,430.108],[-2.634569,43.117843,430.483],[-2.634618,43.117871,429.019],[-2.634681,43.117906,425.014],[-2.6347,43.117953,422.869],[-2.634708,43.118016,418.886],[-2.634712,43.118062,414.828],[-2.634722,43.118124,410.838],[-2.634684,43.11816,408.424],[-2.63468,43.118208,404.499],[-2.634647,43.118259,400.407],[-2.634597,43.118305,396.427],[-2.634558,43.118349,392.408],[-2.634629,43.118357,388.496],[-2.634677,43.118397,384.482],[-2.634716,43.118432,380.437],[-2.634713,43.118477,377.722],[-2.634699,43.118533,377.929],[-2.634689,43.118583,377.761],[-2.63472,43.118629,377.311],[-2.634763,43.118664,375.827],[-2.634823,43.118686,375.357],[-2.634859,43.118724,375.6],[-2.634915,43.118747,376.22],[-2.634964,43.118788,376.908],[-2.634983,43.118833,377.382],[-2.634988,43.118879,378.638],[-2.634967,43.118927,377.413],[-2.634978,43.118973,376.968],[-2.635002,43.119022,376.655],[-2.635007,43.119069,377.357],[-2.635013,43.119115,375.537],[-2.635014,43.119165,373.983],[-2.63502,43.119214,372.781],[-2.635034,43.119265,372.561],[-2.635068,43.11932,372.117],[-2.635102,43.119363,368.808],[-2.63508,43.11941,365.915],[-2.635135,43.119446,364.471],[-2.635202,43.119469,362.626],[-2.635258,43.119511,361.011],[-2.635314,43.119544,360.238],[-2.635356,43.119578,359.29],[-2.635363,43.119629,358.47],[-2.635378,43.119676,356.996],[-2.635405,43.11972,355.967],[-2.635432,43.119765,353.681],[-2.63546,43.119808,353.319],[-2.635515,43.119859,351.808],[-2.635521,43.119906,349.923],[-2.635529,43.119958,347.949],[-2.635579,43.119995,345.394],[-2.635629,43.120027,342.719],[-2.635672,43.120072,340.566],[-2.635703,43.120113,338.728],[-2.635721,43.120161,337.158],[-2.635739,43.120212,335.294],[-2.63579,43.120247,333.936],[-2.63583,43.120286,331.817],[-2.635892,43.120298,330.618],[-2.635945,43.12027,326.608],[-2.636008,43.120271,322.62],[-2.636017,43.120323,319.026],[-2.636006,43.120374,315.091],[-2.635971,43.120425,313.916],[-2.635925,43.120474,312.823],[-2.635878,43.120515,311.165],[-2.635812,43.120544,310.315],[-2.635758,43.120584,310.211],[-2.635697,43.120614,309.391],[-2.635622,43.120634,307.981],[-2.635558,43.120658,306.619],[-2.63551,43.120692,305.008],[-2.635455,43.12073,303.296],[-2.635418,43.120778,302.422],[-2.635388,43.120823,301.417],[-2.635362,43.12088,300.542],[-2.635356,43.120927,299.979],[-2.635368,43.120981,299.271],[-2.635385,43.121035,296.951],[-2.635408,43.121087,295.287],[-2.635413,43.121144,293.245],[-2.635394,43.121189,292.147],[-2.635373,43.12124,291.511],[-2.635377,43.121289,290.508],[-2.635376,43.121342,289.461],[-2.635391,43.121392,287.767],[-2.6354,43.121441,286.362],[-2.635422,43.121493,284.847],[-2.635441,43.121538,284.114],[-2.635399,43.121576,283.146],[-2.635383,43.121627,282.296],[-2.635352,43.121669,280.342],[-2.635301,43.121698,278.143],[-2.635265,43.121739,276.364],[-2.635255,43.121786,275.41],[-2.635235,43.121838,274.208],[-2.63523,43.121916,271.891],[-2.635222,43.121966,268.787],[-2.635207,43.122017,266.492],[-2.635218,43.122069,265.457],[-2.635254,43.122119,262.364],[-2.635302,43.12216,261.656],[-2.635372,43.122191,259.996],[-2.635413,43.122225,258.592],[-2.635438,43.122273,258.499],[-2.635427,43.122322,257.207],[-2.635406,43.122369,259.127],[-2.635367,43.122411,259.108],[-2.635303,43.122444,258.156],[-2.635261,43.122479,256.882],[-2.635238,43.122527,255.177],[-2.635211,43.122568,254.142],[-2.635205,43.122614,254.089],[-2.635193,43.122659,253.591],[-2.635152,43.122699,253.081],[-2.635107,43.122751,253.517],[-2.635063,43.122792,254.141],[-2.63505,43.12284,253.581],[-2.635032,43.122883,253.209],[-2.634987,43.122916,253.508],[-2.634937,43.122943,253.771],[-2.634891,43.122974,255.217],[-2.634845,43.123015,257.072],[-2.634796,43.123048,258.017],[-2.634746,43.123099,259.274],[-2.634712,43.123137,260.176],[-2.634649,43.123172,261.566],[-2.634602,43.123215,263.692],[-2.634596,43.123261,264.825],[-2.634604,43.123306,266.526],[-2.634625,43.12335,267.608],[-2.634642,43.123404,268.008],[-2.634647,43.123453,269.669],[-2.634645,43.1235,269.865],[-2.634627,43.123553,269.85],[-2.634611,43.1236,268.865],[-2.634621,43.123645,267.492],[-2.634624,43.123696,267.364],[-2.634634,43.123741,266.984],[-2.634612,43.123785,266.69]]}}]}