{"type":"FeatureCollection","features":[{"type":"Feature","properties":{"ruta_id":"79304712","nombre":"⛰️ BALERDI desde el parking GANBO de AMEZKETA","blog_url":"https://www.rutasporelmonte.com/balerdi-1185-m-desde-amezketa/"},"geometry":{"type":"LineString","coordinates":[[-2.070245,43.038711,408.979],[-2.070241,43.038663,408.905],[-2.070166,43.038645,406.925],[-2.070171,43.0386,408.508],[-2.070197,43.038661,409.594],[-2.070236,43.038701,408.186],[-2.070269,43.038662,408.33],[-2.07029,43.038617,405.947],[-2.07029,43.038567,403.921],[-2.070298,43.038521,403.954],[-2.070301,43.038475,402.668],[-2.070267,43.038433,402.669],[-2.07021,43.038409,401.095],[-2.070149,43.038394,399.049],[-2.070084,43.038389,397.923],[-2.070017,43.038375,397.608],[-2.069944,43.038385,396.836],[-2.069885,43.038371,395.478],[-2.069838,43.038331,394.342],[-2.069808,43.03829,395.069],[-2.069754,43.03826,393.723],[-2.069704,43.038232,394.096],[-2.069642,43.038202,395.44],[-2.069591,43.038164,393.611],[-2.069525,43.038152,393.918],[-2.069483,43.038119,395.098],[-2.069453,43.038077,395.817],[-2.069431,43.038033,398.208],[-2.069404,43.037987,399.178],[-2.069352,43.037958,400.79],[-2.06931,43.037924,399.634],[-2.06928,43.037877,400.031],[-2.069264,43.037831,400.135],[-2.069244,43.037787,400.588],[-2.069226,43.037737,403.142],[-2.069208,43.037694,403.483],[-2.069172,43.037656,404.878],[-2.069144,43.037614,406.033],[-2.069126,43.037571,406.726],[-2.069091,43.03753,402.808],[-2.069059,43.037485,403.284],[-2.069027,43.037439,402.016],[-2.068991,43.037394,399.32],[-2.068953,43.037357,396.977],[-2.068904,43.037323,396.921],[-2.068848,43.037296,395.124],[-2.068794,43.037274,395.328],[-2.068762,43.037231,395.599],[-2.068694,43.037206,394.674],[-2.068638,43.037177,392.956],[-2.068583,43.037152,393.421],[-2.068529,43.03712,392.308],[-2.068468,43.037114,392.544],[-2.068401,43.037101,392.766],[-2.068331,43.037087,392.43],[-2.068278,43.037059,392.627],[-2.068218,43.03704,393.491],[-2.068157,43.037028,394.744],[-2.068094,43.037024,393.818],[-2.068026,43.037025,394.339],[-2.067971,43.037002,394.637],[-2.067909,43.036999,393.949],[-2.067837,43.037007,393.513],[-2.067773,43.036992,393.308],[-2.067753,43.036947,393.25],[-2.067719,43.036908,391.782],[-2.067665,43.036865,393.246],[-2.067587,43.036866,394.113],[-2.067524,43.036865,394.427],[-2.067472,43.036895,396.66],[-2.067426,43.036932,399.114],[-2.067373,43.036959,400.765],[-2.067317,43.036999,401.792],[-2.067332,43.037048,402.373],[-2.067312,43.037094,402.72],[-2.067332,43.037142,404.908],[-2.067381,43.037179,406.856],[-2.067416,43.037219,409.278],[-2.067437,43.037264,411.912],[-2.067494,43.037283,413.669],[-2.067458,43.037325,414.633],[-2.067401,43.037344,418.696],[-2.067344,43.037326,422.63],[-2.067295,43.037292,426.631],[-2.067239,43.037259,430.678],[-2.067194,43.037227,434.633],[-2.067132,43.037228,438.626],[-2.06707,43.037214,442.508],[-2.067004,43.037206,444.624],[-2.06694,43.037187,445.086],[-2.066914,43.037145,447.02],[-2.066862,43.037117,448.227],[-2.066804,43.037091,445.291],[-2.066744,43.037079,443.564],[-2.06673,43.037029,443.698],[-2.066727,43.036984,441.159],[-2.066705,43.036936,442.337],[-2.066673,43.036892,443.549],[-2.066645,43.036847,442.713],[-2.066609,43.036807,441.408],[-2.066555,43.036778,443.82],[-2.066499,43.036748,445.252],[-2.066448,43.036715,443.296],[-2.066399,43.036679,442.083],[-2.066424,43.036635,444.717],[-2.066376,43.036604,445.84],[-2.066309,43.036586,447.074],[-2.066283,43.036542,448.155],[-2.066274,43.036495,448.729],[-2.066278,43.036447,448.1],[-2.066295,43.036403,449.02],[-2.066313,43.036359,451.208],[-2.066336,43.036317,452.039],[-2.066392,43.03629,452.781],[-2.066436,43.036253,452.655],[-2.066494,43.036223,454.162],[-2.066567,43.036208,456.246],[-2.066643,43.036198,458.259],[-2.066691,43.036163,458.013],[-2.066722,43.036123,460.534],[-2.066656,43.036131,463.654],[-2.066539,43.036169,464.056],[-2.066471,43.036199,466.711],[-2.066407,43.03619,469.508],[-2.066406,43.036138,471.252],[-2.066445,43.03609,470.634],[-2.066488,43.03605,469.858],[-2.066528,43.036015,470.995],[-2.066536,43.035961,469.869],[-2.066561,43.035913,471.232],[-2.066582,43.035869,472.376],[-2.066584,43.035823,472.737],[-2.066518,43.035813,473.065],[-2.066484,43.03577,473.268],[-2.066459,43.035721,474.414],[-2.066436,43.035676,477.108],[-2.066446,43.035631,478.973],[-2.066445,43.035582,480.645],[-2.066418,43.035535,481.079],[-2.06638,43.035497,479.956],[-2.066336,43.035455,480.34],[-2.066287,43.035423,478.463],[-2.066232,43.035402,477.987],[-2.066173,43.035383,480.518],[-2.066114,43.035369,481.285],[-2.066091,43.035321,483.989],[-2.06606,43.035273,486.717],[-2.066032,43.035222,488.008],[-2.065999,43.035179,488.275],[-2.065963,43.035137,490.467],[-2.065951,43.035089,493.391],[-2.065929,43.035039,496.248],[-2.065878,43.035009,495.672],[-2.065812,43.035008,497.785],[-2.065765,43.034975,498.769],[-2.065724,43.034936,499.78],[-2.065666,43.034917,500.764],[-2.065612,43.034894,500.606],[-2.065553,43.034876,500.516],[-2.065495,43.034857,501.808],[-2.065448,43.034828,504.063],[-2.065382,43.034815,506.135],[-2.065308,43.034815,506.639],[-2.065242,43.034803,505.986],[-2.065179,43.034795,507.07],[-2.065126,43.034767,508.223],[-2.065079,43.034735,509.837],[-2.065051,43.034694,510.728],[-2.06501,43.034657,510.557],[-2.064967,43.034619,511.0],[-2.064906,43.034599,512.22],[-2.064845,43.034576,513.508],[-2.064796,43.034545,514.132],[-2.064777,43.0345,516.874],[-2.064788,43.034449,517.258],[-2.064805,43.034403,517.515],[-2.064827,43.03436,519.579],[-2.064829,43.03431,519.762],[-2.064813,43.034262,520.416],[-2.064809,43.034213,523.097],[-2.064748,43.034196,524.555],[-2.064676,43.034203,525.807],[-2.064613,43.034215,526.417],[-2.064589,43.03426,528.108],[-2.064612,43.034305,530.752],[-2.064637,43.034355,533.234],[-2.064653,43.034399,533.118],[-2.064629,43.034442,535.455],[-2.064558,43.034443,538.379],[-2.064505,43.034418,538.912],[-2.064443,43.034409,540.036],[-2.064392,43.034383,542.127],[-2.064336,43.034364,542.345],[-2.064268,43.034353,542.747],[-2.064207,43.034343,542.111],[-2.064147,43.034332,542.708],[-2.064092,43.034308,543.281],[-2.064031,43.034293,542.363],[-2.063968,43.034275,541.827],[-2.063907,43.034259,543.694],[-2.063853,43.034231,545.758],[-2.063808,43.034194,547.131],[-2.063758,43.034166,548.675],[-2.063768,43.034118,549.966],[-2.063782,43.034066,552.059],[-2.063776,43.034019,554.003],[-2.063765,43.033974,555.523],[-2.063768,43.033927,555.208],[-2.063729,43.033887,556.182],[-2.063694,43.033846,556.764],[-2.063673,43.033797,557.718],[-2.063657,43.033753,560.875],[-2.063637,43.033709,562.119],[-2.063614,43.033667,564.852],[-2.063582,43.033627,565.056],[-2.063546,43.033583,565.957],[-2.063517,43.033627,565.449],[-2.063462,43.033599,564.502],[-2.063419,43.033562,565.022],[-2.063392,43.033513,564.808],[-2.063363,43.033466,563.211],[-2.063342,43.033415,561.843],[-2.063337,43.03337,561.357],[-2.063284,43.033346,562.484],[-2.063214,43.033339,563.148],[-2.063174,43.033302,564.891],[-2.063176,43.033255,565.815],[-2.063213,43.033216,566.476],[-2.063221,43.033168,566.788],[-2.063184,43.03313,567.424],[-2.06312,43.033102,570.626],[-2.063087,43.03306,572.508],[-2.06307,43.033016,572.125],[-2.063051,43.032973,569.697],[-2.06303,43.03293,570.611],[-2.063029,43.03288,571.268],[-2.063049,43.032835,572.782],[-2.063066,43.032791,574.985],[-2.063084,43.032741,576.549],[-2.063083,43.032693,577.12],[-2.063088,43.032644,577.249],[-2.063083,43.032596,577.102],[-2.063052,43.032556,579.422],[-2.063037,43.032509,579.308],[-2.063017,43.032459,581.211],[-2.062995,43.032414,582.033],[-2.063009,43.032367,583.427],[-2.062991,43.032318,584.994],[-2.062951,43.032281,586.038],[-2.062943,43.032233,587.171],[-2.062937,43.032188,587.845],[-2.062948,43.032137,590.836],[-2.06297,43.032095,592.043],[-2.06298,43.032047,594.264],[-2.062972,43.031995,594.71],[-2.062987,43.03195,595.508],[-2.06297,43.031906,597.641],[-2.062968,43.031859,599.663],[-2.062961,43.031813,600.837],[-2.062944,43.031765,601.314],[-2.062935,43.031718,602.688],[-2.062925,43.031669,603.411],[-2.062933,43.03162,604.385],[-2.062939,43.031574,605.066],[-2.062956,43.031526,606.032],[-2.062974,43.031483,605.792],[-2.062985,43.031438,606.011],[-2.062977,43.031389,607.808],[-2.062977,43.031343,609.12],[-2.06296,43.031299,609.462],[-2.062932,43.031255,609.116],[-2.062906,43.03121,609.513],[-2.06289,43.031166,609.477],[-2.062843,43.031136,609.98],[-2.06278,43.031117,610.194],[-2.062708,43.031103,610.945],[-2.062656,43.031072,611.467],[-2.062624,43.031026,612.681],[-2.062607,43.030979,613.219],[-2.062574,43.030939,613.608],[-2.062537,43.030902,613.213],[-2.062497,43.030862,613.665],[-2.062454,43.03083,613.169],[-2.062406,43.030794,614.296],[-2.062368,43.030748,614.57],[-2.062333,43.030706,615.853],[-2.062308,43.03066,616.157],[-2.062275,43.030619,617.828],[-2.062247,43.030578,618.065],[-2.062216,43.030537,618.968],[-2.062163,43.030503,618.214],[-2.062129,43.030464,617.508],[-2.062102,43.030423,618.033],[-2.062065,43.030378,618.375],[-2.062036,43.030335,618.139],[-2.061994,43.030298,618.426],[-2.061969,43.030252,619.23],[-2.061955,43.030205,618.523],[-2.061942,43.030159,617.147],[-2.061902,43.030113,617.148],[-2.061866,43.030074,616.648],[-2.061836,43.030027,616.561],[-2.061802,43.029986,616.617],[-2.061746,43.029964,616.708],[-2.061688,43.029948,617.111],[-2.061627,43.029933,617.673],[-2.061594,43.029894,616.147],[-2.061586,43.029847,617.194],[-2.061586,43.029798,617.358],[-2.061606,43.029754,617.191],[-2.061626,43.029701,617.175],[-2.061643,43.029657,619.336],[-2.061682,43.029622,620.585],[-2.061712,43.029579,619.789],[-2.061727,43.029527,620.917],[-2.061702,43.029483,622.508],[-2.061694,43.029435,623.955],[-2.061731,43.029393,624.077],[-2.061777,43.029362,625.471],[-2.061801,43.029317,626.768],[-2.061828,43.029275,628.372],[-2.061865,43.029236,629.755],[-2.061892,43.029195,631.399],[-2.0619,43.029144,632.27],[-2.061941,43.029103,634.717],[-2.061959,43.029057,636.087],[-2.061944,43.029012,638.215],[-2.061882,43.028995,641.108],[-2.061836,43.028964,641.538],[-2.061792,43.028928,642.76],[-2.061767,43.028886,643.434],[-2.061746,43.028843,645.921],[-2.061722,43.028798,645.835],[-2.061721,43.028752,648.678],[-2.061679,43.028714,648.992],[-2.06165,43.028674,649.823],[-2.061593,43.028646,649.813],[-2.061549,43.028609,649.543],[-2.06149,43.028586,647.507],[-2.06147,43.02854,646.408],[-2.06141,43.028511,644.028],[-2.061345,43.02852,640.03],[-2.061276,43.028527,637.034],[-2.061217,43.02851,636.911],[-2.061253,43.028473,639.465],[-2.061296,43.028438,642.838],[-2.061299,43.028385,644.042],[-2.061234,43.028389,644.783],[-2.061172,43.028404,645.114],[-2.061099,43.028408,645.454],[-2.061036,43.028409,641.409],[-2.060976,43.028419,637.408],[-2.060929,43.028453,633.448],[-2.060953,43.028408,629.41],[-2.060915,43.028371,625.474],[-2.060853,43.028383,621.591],[-2.06079,43.028366,619.245],[-2.060762,43.028319,615.218],[-2.060708,43.028287,611.242],[-2.060711,43.028241,607.273],[-2.06068,43.028198,603.697],[-2.060645,43.028161,601.523],[-2.060651,43.028114,603.125],[-2.060714,43.028105,606.708],[-2.060779,43.028098,610.286],[-2.060814,43.028055,612.328],[-2.06085,43.028012,616.352],[-2.06086,43.027965,620.369],[-2.060804,43.027941,622.783],[-2.060747,43.027921,626.716],[-2.060778,43.027961,630.74],[-2.060839,43.027976,633.221],[-2.060877,43.028013,637.264],[-2.060834,43.028046,641.206],[-2.060768,43.028036,645.216],[-2.060702,43.028039,649.208],[-2.060641,43.028031,650.393],[-2.060579,43.028042,651.395],[-2.06053,43.028014,654.169],[-2.060474,43.027985,656.756],[-2.060426,43.027954,658.08],[-2.060421,43.027909,661.263],[-2.060354,43.027923,663.137],[-2.060313,43.027958,667.188],[-2.06037,43.027937,671.119],[-2.060434,43.027923,674.309],[-2.060498,43.027929,678.319],[-2.060512,43.027918,673.408],[-2.060494,43.027871,679.968],[-2.06044,43.027849,681.61],[-2.060376,43.02784,684.164],[-2.060323,43.027809,685.191],[-2.060266,43.027792,687.545],[-2.060207,43.027779,691.248],[-2.060145,43.027762,692.242],[-2.060094,43.027732,693.533],[-2.060043,43.027698,693.818],[-2.05998,43.027679,694.598],[-2.059917,43.027671,697.817],[-2.05988,43.027635,700.808],[-2.059824,43.027608,702.068],[-2.05976,43.027587,703.43],[-2.059697,43.027583,703.114],[-2.059635,43.02757,702.741],[-2.05958,43.027548,704.895],[-2.059518,43.027532,706.628],[-2.05946,43.027516,710.142],[-2.059427,43.027475,709.553],[-2.059373,43.027449,708.578],[-2.059319,43.027426,707.533],[-2.05926,43.027406,707.226],[-2.059207,43.027382,707.408],[-2.059146,43.027348,706.094],[-2.059081,43.027328,704.746],[-2.059017,43.027319,702.12],[-2.05896,43.0273,698.537],[-2.058897,43.02728,697.991],[-2.058835,43.027256,695.884],[-2.058777,43.027272,694.648],[-2.058718,43.027254,697.239],[-2.058666,43.027229,701.138],[-2.058604,43.027235,703.27],[-2.058539,43.02722,705.617],[-2.058485,43.027198,706.508],[-2.058429,43.027175,709.43],[-2.05838,43.027146,709.352],[-2.058323,43.027109,708.386],[-2.058276,43.027073,709.153],[-2.058214,43.027071,710.447],[-2.058153,43.027053,713.01],[-2.058088,43.027045,712.674],[-2.058028,43.027058,712.355],[-2.057967,43.027047,712.228],[-2.057902,43.027036,713.989],[-2.057841,43.027024,714.917],[-2.057783,43.027007,712.108],[-2.057717,43.026995,710.379],[-2.057639,43.026983,709.461],[-2.057572,43.026983,710.965],[-2.057504,43.026982,710.482],[-2.057429,43.026985,710.996],[-2.057367,43.026976,712.549],[-2.057306,43.026956,713.513],[-2.05725,43.026932,717.584],[-2.057182,43.026932,721.554],[-2.057124,43.026911,725.556],[-2.057067,43.026884,728.511],[-2.057011,43.026864,731.508],[-2.05695,43.026841,733.512],[-2.056891,43.026815,736.284],[-2.056825,43.026796,736.218],[-2.056769,43.026766,736.265],[-2.056759,43.02672,736.289],[-2.05674,43.026675,740.252],[-2.056698,43.026642,743.516],[-2.056643,43.02662,745.527],[-2.056657,43.026576,746.762],[-2.056615,43.026609,747.483],[-2.056559,43.026639,747.811],[-2.056495,43.026644,748.108],[-2.056432,43.026635,748.393],[-2.056386,43.026604,752.355],[-2.056324,43.026596,756.339],[-2.056263,43.026603,760.386],[-2.056204,43.026623,764.36],[-2.05614,43.02661,768.313],[-2.056098,43.026576,772.337],[-2.05606,43.026539,776.328],[-2.056016,43.026504,780.327],[-2.055955,43.026493,784.368],[-2.055889,43.026475,788.314],[-2.055823,43.02646,791.708],[-2.055775,43.026423,794.269],[-2.05572,43.026395,795.621],[-2.055678,43.026358,798.125],[-2.055659,43.026311,802.182],[-2.055642,43.026265,802.916],[-2.055621,43.026222,803.479],[-2.055594,43.026182,804.383],[-2.055539,43.026156,804.324],[-2.055549,43.026111,806.224],[-2.055524,43.026069,805.504],[-2.055497,43.026024,807.214],[-2.055461,43.025985,808.208],[-2.055425,43.025945,809.189],[-2.05542,43.025894,808.591],[-2.055384,43.025856,810.565],[-2.055393,43.025811,813.342],[-2.055373,43.025768,814.096],[-2.055399,43.025725,815.049],[-2.055457,43.025702,803.673],[-2.055396,43.025723,817.824],[-2.055354,43.025688,818.959],[-2.055343,43.025633,819.603],[-2.055339,43.02558,819.723],[-2.055332,43.025532,819.408],[-2.05531,43.025489,819.042],[-2.055297,43.025441,819.044],[-2.055281,43.025396,819.488],[-2.055316,43.025354,820.325],[-2.055359,43.025316,822.679],[-2.055376,43.025271,824.552],[-2.05538,43.025221,826.486],[-2.055368,43.025175,827.847],[-2.055295,43.025141,829.048],[-2.055286,43.025091,829.961],[-2.055336,43.025062,832.317],[-2.055321,43.025017,832.908],[-2.055276,43.024982,834.231],[-2.055258,43.024937,834.993],[-2.055236,43.024894,837.377],[-2.055273,43.024857,840.624],[-2.055212,43.02484,843.158],[-2.055169,43.024874,845.411],[-2.05513,43.024912,846.725],[-2.055074,43.024935,848.166],[-2.055017,43.024954,849.276],[-2.054954,43.024951,850.19],[-2.054989,43.024913,851.619],[-2.055034,43.024879,853.408],[-2.055066,43.024839,855.434],[-2.055102,43.024799,856.366],[-2.055132,43.024753,858.12],[-2.055162,43.024713,860.157],[-2.055192,43.024673,861.631],[-2.055205,43.024628,863.244],[-2.055214,43.02458,864.518],[-2.055233,43.024537,865.549],[-2.055148,43.024559,865.446],[-2.055203,43.02458,865.588],[-2.055245,43.024544,866.316],[-2.055267,43.024501,865.908],[-2.055273,43.02445,866.041],[-2.05527,43.024404,865.493],[-2.055294,43.024361,864.357],[-2.055261,43.02432,862.844],[-2.055201,43.024309,861.038],[-2.055126,43.024297,859.531],[-2.055057,43.024288,858.175],[-2.054994,43.024293,857.986],[-2.054932,43.024304,857.014],[-2.054871,43.024316,857.154],[-2.05481,43.024321,856.809],[-2.054868,43.024296,858.908],[-2.054928,43.024318,860.198],[-2.054997,43.024309,860.05],[-2.055061,43.024306,860.024],[-2.05513,43.024304,861.131],[-2.055193,43.024299,861.885],[-2.055245,43.024324,862.058],[-2.055216,43.024366,862.262],[-2.055172,43.024398,864.013],[-2.055101,43.024396,865.614],[-2.055035,43.024406,866.954],[-2.054975,43.024427,868.609],[-2.054907,43.024448,869.808],[-2.054846,43.024465,871.148],[-2.054777,43.024487,871.49],[-2.054711,43.02449,871.664],[-2.054649,43.024504,871.231],[-2.054574,43.024502,870.575],[-2.054516,43.024518,870.638],[-2.05446,43.024545,870.382],[-2.054405,43.024572,871.273],[-2.054344,43.024578,871.216],[-2.054281,43.024574,872.076],[-2.054217,43.024571,873.013],[-2.054149,43.024578,873.808],[-2.054092,43.024601,874.978],[-2.054046,43.024633,876.44],[-2.053988,43.024655,877.074],[-2.053926,43.024675,878.061],[-2.053857,43.024688,879.015],[-2.053799,43.024704,880.198],[-2.053725,43.024708,881.112],[-2.053662,43.024704,881.553],[-2.053595,43.024705,881.988],[-2.053528,43.024719,882.224],[-2.053466,43.024728,881.726],[-2.0534,43.024733,881.808],[-2.053332,43.024735,881.875],[-2.053278,43.024756,882.087],[-2.053213,43.024755,883.451],[-2.053151,43.024752,885.898],[-2.0532,43.024786,889.342],[-2.053159,43.024831,890.625],[-2.05311,43.024859,891.419],[-2.053067,43.024893,892.22],[-2.053021,43.024926,892.334],[-2.052957,43.024934,892.855],[-2.052894,43.02491,893.51],[-2.052831,43.024907,895.708],[-2.052772,43.024924,897.89],[-2.052713,43.024908,899.252],[-2.052654,43.024886,901.446],[-2.052601,43.024912,903.573],[-2.052545,43.02494,904.637],[-2.0525,43.024974,905.24],[-2.052459,43.025011,906.044],[-2.052402,43.025041,907.395],[-2.052335,43.025047,908.849],[-2.05227,43.025051,910.102],[-2.052238,43.025092,910.922],[-2.052184,43.025117,912.308],[-2.052126,43.025134,913.661],[-2.052062,43.025151,915.193],[-2.05202,43.025187,916.917],[-2.051957,43.025202,918.954],[-2.051899,43.025222,920.648],[-2.051843,43.025247,922.421],[-2.051779,43.025248,924.145],[-2.051715,43.025256,925.836],[-2.051656,43.02527,927.261],[-2.051593,43.025274,928.721],[-2.051538,43.025246,931.213],[-2.051472,43.025232,933.108],[-2.051407,43.025241,934.423],[-2.051344,43.025254,936.045],[-2.051277,43.025271,937.549],[-2.051217,43.025282,938.796],[-2.05115,43.025287,939.56],[-2.051109,43.025324,940.743],[-2.051072,43.025365,942.187],[-2.051008,43.02537,944.028],[-2.050939,43.025368,945.364],[-2.050895,43.025401,946.806],[-2.05085,43.025434,947.816],[-2.050803,43.025465,949.008],[-2.050741,43.025488,949.953],[-2.050674,43.025486,950.935],[-2.050608,43.025483,952.149],[-2.050547,43.025475,952.556],[-2.050483,43.025477,953.16],[-2.050424,43.025495,954.673],[-2.050362,43.025502,955.657],[-2.050298,43.02551,956.698],[-2.050236,43.025505,957.419],[-2.050168,43.025486,958.209],[-2.050115,43.025461,959.219],[-2.050069,43.025426,960.208],[-2.050022,43.025394,961.018],[-2.049983,43.025356,961.09],[-2.049927,43.02533,961.234],[-2.049861,43.025327,961.491],[-2.049801,43.025339,961.275],[-2.049765,43.02538,961.438],[-2.049708,43.025398,961.972],[-2.049649,43.025417,962.263],[-2.049598,43.025447,961.688],[-2.04953,43.02545,961.524],[-2.049467,43.025458,960.726],[-2.049405,43.025462,961.208],[-2.049342,43.025469,961.845],[-2.049294,43.025497,962.127],[-2.049226,43.025503,962.661],[-2.049165,43.025523,963.248],[-2.049102,43.025517,963.432],[-2.049039,43.025509,964.095],[-2.048979,43.025495,965.189],[-2.048924,43.025472,965.06],[-2.048864,43.025452,965.946],[-2.048797,43.025444,966.988],[-2.048731,43.025445,967.816],[-2.048676,43.025415,969.008],[-2.048636,43.025381,970.661],[-2.048606,43.025341,971.553],[-2.048546,43.025326,972.867],[-2.048485,43.025332,974.134],[-2.048418,43.02533,975.518],[-2.048431,43.025374,976.251],[-2.048423,43.02542,976.955],[-2.048396,43.025468,977.366],[-2.048359,43.025508,977.683],[-2.04832,43.025546,977.525],[-2.048267,43.025577,977.317],[-2.04824,43.025619,977.108],[-2.048192,43.025659,977.645],[-2.048162,43.025702,979.517],[-2.048124,43.025742,980.931],[-2.048096,43.025783,981.848],[-2.048065,43.025825,983.552],[-2.048006,43.025843,984.195],[-2.04794,43.025861,985.139],[-2.047874,43.025859,985.88],[-2.047809,43.025877,986.486],[-2.047743,43.025893,986.96],[-2.047694,43.025921,987.126],[-2.047651,43.025955,987.808],[-2.047589,43.025961,988.785],[-2.04753,43.025981,989.017],[-2.047469,43.025996,990.621],[-2.047445,43.026038,992.048],[-2.047381,43.02604,993.322],[-2.047312,43.026032,994.265],[-2.047248,43.026038,995.699],[-2.047178,43.026041,996.48],[-2.047115,43.026042,998.016],[-2.047051,43.026056,1000.176],[-2.046986,43.026067,1002.013],[-2.046924,43.026056,1003.908],[-2.04687,43.026083,1006.168],[-2.046812,43.026104,1008.59],[-2.046756,43.026085,1010.294],[-2.046694,43.026081,1012.381],[-2.046663,43.026124,1014.335],[-2.046659,43.026173,1017.328],[-2.046631,43.026217,1019.662],[-2.046571,43.026233,1022.223],[-2.046508,43.026247,1024.361],[-2.04645,43.026266,1026.221],[-2.046385,43.026272,1028.313],[-2.046326,43.026286,1030.908],[-2.046274,43.026312,1033.093],[-2.04624,43.026352,1034.685],[-2.046195,43.026384,1036.639],[-2.046139,43.026404,1038.586],[-2.046119,43.026449,1040.05],[-2.046057,43.026468,1040.863],[-2.045991,43.026473,1041.567],[-2.045932,43.026495,1042.618],[-2.045873,43.026509,1044.156],[-2.045843,43.02655,1045.759],[-2.0458,43.026585,1047.114],[-2.045744,43.026606,1049.108],[-2.045678,43.0266,1051.162],[-2.045645,43.026639,1053.034],[-2.045594,43.026665,1054.938],[-2.045527,43.026673,1056.685],[-2.045482,43.026709,1057.289],[-2.045445,43.026745,1059.922],[-2.045386,43.02676,1062.886],[-2.045326,43.026773,1066.077],[-2.045266,43.026786,1068.154],[-2.045213,43.02681,1070.256],[-2.045159,43.026833,1072.511],[-2.045095,43.026835,1074.008],[-2.045072,43.026878,1074.812],[-2.045049,43.026925,1075.614],[-2.045057,43.026976,1076.688],[-2.044993,43.026988,1078.055],[-2.044926,43.02698,1079.929],[-2.044896,43.027023,1081.512],[-2.044841,43.027043,1083.286],[-2.044777,43.027044,1084.927],[-2.044715,43.027035,1088.042],[-2.044659,43.027061,1090.422],[-2.044597,43.027076,1092.614],[-2.044543,43.027108,1094.408],[-2.044489,43.027135,1096.911],[-2.044447,43.027172,1098.983],[-2.04443,43.027218,1101.487],[-2.044367,43.027223,1103.024],[-2.044323,43.027259,1103.618],[-2.04429,43.027299,1104.511],[-2.044281,43.027346,1105.795],[-2.044217,43.027369,1106.356],[-2.044164,43.027394,1109.094],[-2.044108,43.027413,1111.857],[-2.044062,43.027444,1113.822],[-2.04401,43.02747,1116.608],[-2.043962,43.027503,1118.786],[-2.043923,43.027543,1120.578],[-2.043874,43.027573,1122.322],[-2.043818,43.027598,1124.319],[-2.043801,43.027644,1126.333],[-2.043789,43.027691,1128.066],[-2.043739,43.02766,1129.46],[-2.043673,43.027643,1130.991],[-2.043636,43.027681,1131.188],[-2.043595,43.027716,1132.224],[-2.043577,43.027759,1133.826],[-2.043529,43.027794,1135.308],[-2.043475,43.027821,1137.155],[-2.043414,43.027846,1141.067],[-2.043368,43.027879,1143.471],[-2.043323,43.02791,1144.968],[-2.043259,43.027915,1146.772],[-2.043213,43.02795,1149.095],[-2.043178,43.027988,1152.019],[-2.043134,43.028021,1154.05],[-2.043091,43.028055,1156.132],[-2.043029,43.028065,1157.892],[-2.042976,43.02809,1159.311],[-2.042916,43.028118,1161.308],[-2.042863,43.028142,1164.16],[-2.042802,43.028154,1166.032],[-2.042756,43.028185,1168.286],[-2.042706,43.028212,1169.693],[-2.04266,43.028245,1172.787],[-2.042596,43.028253,1174.95],[-2.042543,43.02828,1176.244],[-2.042479,43.028299,1177.545],[-2.042426,43.028325,1180.162],[-2.042453,43.028368,1183.683],[-2.042412,43.028403,1187.011],[-2.042355,43.028425,1189.508],[-2.042304,43.028453,1191.613],[-2.042242,43.028454,1193.095],[-2.042176,43.028437,1194.299],[-2.04212,43.028406,1195.356],[-2.042091,43.028361,1197.66],[-2.042029,43.02835,1200.063],[-2.041966,43.028331,1203.767],[-2.041908,43.028302,1206.658],[-2.041852,43.028323,1209.446],[-2.041803,43.028353,1212.388],[-2.041742,43.028362,1215.416],[-2.041692,43.028393,1217.608],[-2.041653,43.028429,1220.251],[-2.041591,43.028446,1222.613],[-2.041531,43.028457,1224.767],[-2.041482,43.028488,1226.854],[-2.04142,43.028504,1229.028],[-2.041356,43.0285,1231.051],[-2.041292,43.028505,1232.555],[-2.041229,43.028507,1233.656],[-2.041203,43.028549,1232.873],[-2.041247,43.02858,1232.585],[-2.041225,43.028537,1233.513],[-2.041191,43.028576,1232.908],[-2.041205,43.028623,1232.794],[-2.041227,43.028672,1232.796],[-2.041233,43.028718,1232.49],[-2.041202,43.02876,1233.437],[-2.041195,43.028813,1235.091],[-2.041187,43.028859,1236.354],[-2.041146,43.028895,1237.868],[-2.041151,43.028943,1239.999],[-2.041158,43.028988,1241.351],[-2.041136,43.02903,1243.201],[-2.041107,43.029073,1245.111],[-2.041094,43.029117,1247.708],[-2.041055,43.029152,1249.542],[-2.041037,43.0292,1251.714],[-2.041044,43.029246,1255.628],[-2.041027,43.029294,1258.285],[-2.041018,43.02934,1260.349],[-2.040993,43.029381,1262.252],[-2.040993,43.029429,1263.446],[-2.040976,43.029475,1265.137],[-2.040969,43.02952,1266.348],[-2.041026,43.029547,1267.161],[-2.04109,43.029547,1267.717],[-2.041157,43.029541,1268.208],[-2.041221,43.02952,1268.561],[-2.041282,43.029509,1268.973],[-2.041347,43.029497,1269.757],[-2.041411,43.029507,1270.064],[-2.041469,43.029489,1270.318],[-2.041531,43.029476,1270.331],[-2.041591,43.029495,1270.515],[-2.041632,43.029535,1271.756],[-2.041671,43.029572,1273.055],[-2.041721,43.0296,1274.307],[-2.041781,43.029631,1274.717],[-2.041792,43.029676,1275.108],[-2.041776,43.029721,1275.212],[-2.04173,43.029758,1275.374],[-2.041694,43.029799,1275.218],[-2.041644,43.029826,1275.065],[-2.041599,43.029861,1274.899],[-2.041545,43.029884,1274.732],[-2.04149,43.029912,1273.996],[-2.041449,43.029951,1273.017],[-2.041378,43.029956,1271.745],[-2.041322,43.029976,1271.047],[-2.041271,43.030007,1270.211],[-2.041243,43.030048,1269.508],[-2.041171,43.03004,1269.151],[-2.0411,43.030044,1268.913],[-2.041034,43.030054,1269.757],[-2.040972,43.030061,1270.064],[-2.040915,43.030088,1270.998],[-2.040846,43.030095,1271.331],[-2.040777,43.030096,1271.575],[-2.040707,43.030096,1270.476],[-2.040643,43.03012,1269.514],[-2.040626,43.030166,1268.554],[-2.04056,43.030183,1267.409],[-2.040495,43.030189,1265.508],[-2.04043,43.030192,1263.878],[-2.040366,43.030189,1263.43],[-2.040304,43.030216,1263.414],[-2.040241,43.030241,1263.461],[-2.040172,43.030229,1263.075],[-2.040107,43.030224,1262.468],[-2.040036,43.03024,1262.042],[-2.03997,43.03026,1261.153],[-2.039908,43.030266,1260.311],[-2.039839,43.030254,1260.621],[-2.039777,43.030233,1260.803],[-2.039706,43.030234,1260.808],[-2.039645,43.030244,1260.958],[-2.039579,43.030232,1260.31],[-2.03951,43.030234,1260.384],[-2.039456,43.030274,1259.571],[-2.039398,43.030299,1258.645],[-2.039333,43.030306,1258.588],[-2.039268,43.030295,1257.832],[-2.039209,43.030279,1256.833],[-2.039135,43.030289,1255.798],[-2.039068,43.030296,1255.415],[-2.039007,43.030311,1255.426],[-2.038949,43.030332,1255.108],[-2.038895,43.030367,1254.926],[-2.038837,43.030398,1254.688],[-2.038777,43.030414,1253.932],[-2.038709,43.030425,1253.619],[-2.038645,43.030425,1253.043],[-2.038576,43.030422,1252.156],[-2.038506,43.030434,1251.14],[-2.038438,43.030449,1250.081],[-2.038376,43.030458,1249.244],[-2.03831,43.030475,1248.505],[-2.038241,43.030486,1248.415],[-2.038182,43.030501,1247.708],[-2.038119,43.030507,1247.161],[-2.038059,43.03052,1246.113],[-2.037997,43.03054,1245.327],[-2.037934,43.030556,1244.444],[-2.037864,43.030556,1243.728],[-2.037796,43.030572,1243.041],[-2.037738,43.030596,1242.525],[-2.037669,43.030601,1242.446],[-2.037606,43.030597,1241.922],[-2.037554,43.030622,1242.262],[-2.037495,43.030651,1242.408],[-2.037443,43.030679,1241.908],[-2.037382,43.030694,1241.639],[-2.037324,43.03072,1241.221],[-2.037259,43.03073,1240.625],[-2.037196,43.030754,1240.572],[-2.037129,43.030759,1240.266],[-2.037054,43.030766,1240.059],[-2.036995,43.030746,1240.153],[-2.036937,43.03073,1239.764],[-2.036875,43.03074,1240.086],[-2.036813,43.030745,1240.16],[-2.036754,43.03076,1240.326],[-2.036695,43.030776,1239.808],[-2.036632,43.03077,1239.145],[-2.036562,43.030782,1239.077],[-2.036501,43.030793,1237.831],[-2.036439,43.030781,1236.318],[-2.036377,43.030787,1234.812],[-2.036335,43.030822,1233.455],[-2.036272,43.030835,1232.349],[-2.03621,43.030843,1231.62],[-2.036139,43.030852,1230.865],[-2.036091,43.030881,1230.268],[-2.036122,43.03092,1229.214],[-2.036093,43.030965,1228.008],[-2.036052,43.031003,1226.733],[-2.035999,43.031029,1226.075],[-2.035938,43.031039,1225.459],[-2.035884,43.031065,1224.746],[-2.035819,43.031068,1224.16],[-2.03576,43.031051,1223.493],[-2.035701,43.031033,1222.777],[-2.035639,43.031011,1221.568],[-2.035568,43.031005,1218.732],[-2.0355,43.031003,1216.692],[-2.035438,43.031001,1214.511],[-2.035372,43.030988,1213.008],[-2.035313,43.030967,1211.62],[-2.035242,43.03097,1210.482],[-2.035182,43.030994,1209.056],[-2.035121,43.031006,1208.293],[-2.035059,43.031005,1207.857],[-2.034998,43.031019,1207.56],[-2.034935,43.031034,1207.114],[-2.034882,43.031062,1207.565],[-2.034828,43.031088,1208.698],[-2.034764,43.031091,1209.215],[-2.034699,43.0311,1210.526],[-2.034641,43.031118,1211.208],[-2.034579,43.031131,1212.526],[-2.034514,43.031117,1213.748],[-2.034465,43.031146,1214.662],[-2.034402,43.031158,1215.099],[-2.03434,43.031169,1215.413],[-2.034278,43.031187,1216.146],[-2.034229,43.031221,1217.16],[-2.034183,43.031253,1218.111],[-2.034164,43.031299,1218.594],[-2.034128,43.031341,1219.357],[-2.034082,43.031379,1218.922],[-2.03402,43.031363,1219.308],[-2.033955,43.031376,1219.546],[-2.033884,43.031385,1220.338],[-2.033815,43.031389,1221.262],[-2.033752,43.031412,1222.049],[-2.033696,43.031435,1222.443],[-2.033635,43.031452,1222.756],[-2.033574,43.031463,1223.45],[-2.033523,43.031498,1223.961],[-2.03346,43.031529,1224.014],[-2.033385,43.03153,1223.754],[-2.033325,43.031507,1224.009],[-2.033266,43.031493,1223.408],[-2.03321,43.031472,1221.828],[-2.033157,43.031447,1220.07],[-2.033097,43.031431,1218.864],[-2.033032,43.031441,1218.071],[-2.032971,43.031425,1217.315],[-2.03292,43.031399,1217.278],[-2.032855,43.031395,1216.672],[-2.032796,43.031379,1216.253],[-2.032732,43.03138,1216.097],[-2.032667,43.031393,1215.123],[-2.032604,43.031389,1214.525],[-2.032544,43.031378,1213.708],[-2.032474,43.031379,1213.616],[-2.032408,43.031382,1214.018],[-2.032342,43.031381,1214.682],[-2.032277,43.031384,1215.119],[-2.032214,43.031401,1215.413],[-2.032154,43.031424,1215.776],[-2.032104,43.031452,1215.34],[-2.032084,43.031497,1214.131],[-2.032087,43.031544,1212.479],[-2.032069,43.031591,1211.205],[-2.032065,43.031636,1209.325],[-2.032033,43.031675,1207.808],[-2.031968,43.031688,1206.244],[-2.031922,43.031732,1205.176],[-2.031889,43.031774,1204.78],[-2.031854,43.031816,1203.857],[-2.031815,43.031853,1203.991],[-2.031752,43.031873,1204.214],[-2.031684,43.031877,1204.398],[-2.031619,43.031876,1204.739],[-2.031568,43.03185,1206.422],[-2.03151,43.031868,1209.262],[-2.031452,43.031843,1210.608],[-2.031382,43.031824,1211.308],[-2.031309,43.031841,1211.299],[-2.031381,43.031854,1209.811],[-2.031452,43.031854,1208.925],[-2.031516,43.031871,1210.062],[-2.031561,43.031877,1198.926],[-2.031627,43.03184,1209.049],[-2.031692,43.031844,1208.613],[-2.031761,43.031836,1207.554],[-2.031819,43.031819,1206.772],[-2.031876,43.031793,1206.213],[-2.031918,43.031755,1205.514],[-2.031957,43.031716,1205.408],[-2.031991,43.031679,1205.644],[-2.032028,43.03164,1205.226],[-2.032069,43.031602,1205.19],[-2.032069,43.031548,1204.157],[-2.032095,43.031502,1203.991],[-2.032081,43.031458,1204.484],[-2.03208,43.031412,1205.058],[-2.032134,43.031385,1205.559],[-2.032193,43.031367,1206.962],[-2.032265,43.031361,1207.983],[-2.032338,43.031367,1209.311],[-2.032407,43.031365,1210.608],[-2.032478,43.031376,1211.553],[-2.03254,43.031396,1211.835],[-2.032602,43.031389,1212.179],[-2.032666,43.03139,1212.246],[-2.032726,43.03138,1212.24],[-2.032788,43.031371,1211.623],[-2.032855,43.031378,1211.447],[-2.032917,43.031389,1211.658],[-2.032992,43.031393,1212.032],[-2.033055,43.031406,1211.892],[-2.033101,43.031439,1212.411],[-2.033159,43.031454,1213.408],[-2.033222,43.031461,1214.25],[-2.033288,43.03146,1215.322],[-2.033352,43.031469,1216.416],[-2.033418,43.031486,1217.493],[-2.033482,43.031478,1218.177],[-2.033545,43.031468,1218.53],[-2.03361,43.031451,1219.274],[-2.033668,43.031431,1219.855],[-2.033723,43.03141,1220.647],[-2.033788,43.0314,1221.029],[-2.033851,43.031389,1221.721],[-2.033913,43.031385,1222.308],[-2.03398,43.03139,1222.911],[-2.03404,43.031365,1222.983],[-2.034109,43.031344,1223.147],[-2.034142,43.031306,1222.974],[-2.034171,43.031265,1222.418],[-2.034197,43.031216,1221.891],[-2.034255,43.03119,1221.135],[-2.034315,43.031165,1220.086],[-2.034376,43.031146,1219.355],[-2.034437,43.031139,1218.207],[-2.034494,43.031121,1216.117],[-2.034558,43.031106,1214.808],[-2.034629,43.031104,1213.952],[-2.034685,43.031081,1212.844],[-2.034751,43.031075,1211.598],[-2.034815,43.03107,1210.285],[-2.034888,43.031062,1209.259],[-2.034931,43.031026,1208.082],[-2.034995,43.031014,1207.086],[-2.03506,43.031002,1205.857],[-2.035131,43.030995,1205.098],[-2.035199,43.030995,1204.315],[-2.035256,43.030973,1203.726],[-2.035315,43.030959,1203.608],[-2.035372,43.03098,1203.146],[-2.035442,43.031001,1203.118],[-2.035503,43.031012,1203.062],[-2.035565,43.031001,1203.039],[-2.035629,43.030992,1203.343],[-2.035699,43.031001,1204.226],[-2.035764,43.031009,1205.28],[-2.035825,43.031032,1208.671],[-2.0359,43.031038,1211.486],[-2.035962,43.031019,1213.86],[-2.036023,43.031005,1215.526],[-2.036077,43.030982,1217.108],[-2.03612,43.030947,1218.345],[-2.036132,43.0309,1219.517],[-2.036111,43.030858,1220.981],[-2.036165,43.03083,1222.128],[-2.036234,43.030815,1223.342],[-2.036299,43.030808,1224.485],[-2.036353,43.030784,1225.769],[-2.03641,43.030764,1226.98],[-2.036471,43.030772,1228.021],[-2.036532,43.030782,1229.341],[-2.036597,43.030782,1230.305],[-2.036662,43.03077,1231.708],[-2.036712,43.030798,1233.289],[-2.036786,43.030801,1234.971],[-2.036829,43.030761,1235.295],[-2.03689,43.030753,1235.822],[-2.036969,43.030753,1236.586],[-2.037031,43.030758,1236.849],[-2.037103,43.030775,1237.143],[-2.037164,43.030784,1237.444],[-2.037232,43.03078,1237.631],[-2.037295,43.030755,1237.761],[-2.037354,43.030733,1237.607],[-2.037412,43.030707,1237.408],[-2.037474,43.030693,1237.17],[-2.03754,43.030676,1237.622],[-2.037592,43.030646,1237.786],[-2.037646,43.03062,1237.933],[-2.037714,43.030624,1238.597],[-2.037784,43.030626,1238.65],[-2.037841,43.030608,1238.934],[-2.037889,43.03058,1239.665],[-2.037953,43.030576,1239.725],[-2.038017,43.030573,1239.826],[-2.038077,43.030544,1240.408],[-2.038136,43.030525,1240.608],[-2.038194,43.030504,1241.419],[-2.038256,43.030492,1242.651],[-2.03832,43.030483,1243.165],[-2.038392,43.030487,1243.892],[-2.038471,43.030487,1244.426],[-2.038537,43.030485,1244.759],[-2.038613,43.030469,1245.263],[-2.038673,43.030454,1245.394],[-2.038735,43.030444,1245.855],[-2.038785,43.030418,1246.607],[-2.038848,43.030404,1247.117],[-2.038909,43.030386,1247.608],[-2.038971,43.030372,1248.392],[-2.039027,43.03035,1249.374],[-2.039074,43.030317,1250.288],[-2.039139,43.030298,1251.095],[-2.039213,43.03028,1251.739],[-2.039277,43.030285,1252.012],[-2.03934,43.030293,1252.366],[-2.039403,43.030287,1252.877],[-2.039467,43.030279,1253.376],[-2.039518,43.030244,1253.79],[-2.039572,43.030219,1254.719],[-2.039637,43.030218,1255.408],[-2.039705,43.03022,1255.854],[-2.039773,43.030223,1256.816],[-2.039836,43.030226,1256.98],[-2.039905,43.030225,1257.847],[-2.039969,43.030219,1258.371],[-2.040033,43.030209,1258.584],[-2.040099,43.030199,1259.098],[-2.040163,43.030204,1259.239],[-2.04023,43.030208,1259.812],[-2.040297,43.030188,1260.532],[-2.040358,43.030175,1261.305],[-2.040428,43.030162,1261.808],[-2.040495,43.030155,1262.718],[-2.040567,43.030152,1263.33],[-2.040628,43.030135,1264.444],[-2.040687,43.030116,1265.241],[-2.040746,43.030097,1265.515],[-2.04081,43.030079,1266.078],[-2.040876,43.030068,1266.532],[-2.040943,43.030057,1267.553],[-2.04101,43.030055,1267.659],[-2.041075,43.030058,1268.103],[-2.04114,43.030057,1268.423],[-2.041207,43.030053,1269.008],[-2.041273,43.030045,1269.012],[-2.041251,43.030002,1269.744],[-2.041201,43.029964,1270.778],[-2.04116,43.02993,1271.755],[-2.041113,43.029894,1272.729],[-2.041093,43.02985,1273.662],[-2.041073,43.029803,1274.676],[-2.041044,43.029757,1275.447],[-2.041021,43.029715,1276.421],[-2.041017,43.029663,1277.241],[-2.041036,43.029619,1278.305],[-2.041033,43.029573,1278.808],[-2.041066,43.029532,1278.949],[-2.041105,43.029493,1278.631],[-2.04113,43.02945,1277.785],[-2.041087,43.029418,1276.262],[-2.041071,43.029372,1274.246],[-2.041091,43.029326,1271.649],[-2.041079,43.029273,1268.873],[-2.041098,43.029226,1266.824],[-2.041129,43.029181,1263.992],[-2.041168,43.029143,1260.973],[-2.041223,43.029117,1257.52],[-2.041242,43.029073,1254.808],[-2.041252,43.029028,1251.726],[-2.041288,43.028986,1249.358],[-2.041306,43.028941,1247.952],[-2.041314,43.028894,1245.119],[-2.041318,43.028849,1243.453],[-2.041316,43.028804,1242.446],[-2.041305,43.028758,1241.45],[-2.041346,43.028721,1240.261],[-2.041372,43.028677,1239.219],[-2.041403,43.028638,1238.009],[-2.041436,43.028596,1236.519],[-2.041473,43.028557,1234.408],[-2.041516,43.028519,1232.568],[-2.041566,43.028485,1231.01],[-2.041618,43.028451,1229.134],[-2.041682,43.028435,1227.551],[-2.041751,43.028452,1225.645],[-2.041794,43.028486,1224.158],[-2.041853,43.028505,1222.962],[-2.04192,43.028512,1221.263],[-2.041986,43.028512,1218.768],[-2.042004,43.028467,1216.942],[-2.042021,43.028423,1214.626],[-2.042028,43.028378,1213.008],[-2.042095,43.028371,1211.033],[-2.042158,43.028392,1208.885],[-2.042199,43.028426,1206.759],[-2.04226,43.028437,1204.986],[-2.042327,43.028453,1203.33],[-2.042389,43.028446,1202.173],[-2.042449,43.028433,1201.177],[-2.042495,43.028402,1199.818],[-2.042543,43.028371,1197.974],[-2.042598,43.028349,1196.356],[-2.042664,43.028343,1194.721],[-2.042728,43.028352,1192.608],[-2.042775,43.02832,1190.374],[-2.042817,43.028282,1188.276],[-2.042872,43.028257,1186.27],[-2.042928,43.028237,1184.637],[-2.042985,43.028217,1182.761],[-2.043046,43.028207,1180.444],[-2.043102,43.028184,1178.288],[-2.043158,43.028166,1175.839],[-2.043221,43.028154,1173.619],[-2.043274,43.02812,1171.809],[-2.043313,43.028085,1169.019],[-2.043357,43.028052,1166.508],[-2.043407,43.028025,1164.048],[-2.043471,43.028031,1161.36],[-2.043533,43.028017,1157.984],[-2.04358,43.027985,1154.831],[-2.043627,43.027955,1153.115],[-2.043677,43.027926,1150.838],[-2.043732,43.027896,1148.632],[-2.043789,43.02787,1146.993],[-2.043838,43.027832,1145.399],[-2.043891,43.027809,1143.407],[-2.04394,43.027777,1141.027],[-2.043991,43.027749,1138.608],[-2.044033,43.027714,1136.386],[-2.044086,43.027687,1134.478],[-2.044147,43.027674,1132.152],[-2.044202,43.027652,1129.969],[-2.044254,43.027625,1127.973],[-2.044302,43.027594,1125.246],[-2.044341,43.027559,1123.49],[-2.044392,43.027533,1121.281],[-2.044448,43.027501,1118.593],[-2.044492,43.027467,1116.565],[-2.04454,43.027438,1114.621],[-2.04458,43.027402,1112.408],[-2.044639,43.027375,1110.246],[-2.044701,43.027361,1108.258],[-2.044762,43.027348,1106.252],[-2.044827,43.027346,1104.639],[-2.044891,43.027338,1102.413],[-2.044953,43.027314,1100.926],[-2.044999,43.027279,1099.08],[-2.045042,43.027246,1097.011],[-2.045107,43.027234,1094.977],[-2.045164,43.027209,1093.461],[-2.045214,43.027182,1091.727],[-2.045267,43.027155,1090.108],[-2.045298,43.027115,1088.714],[-2.045359,43.027109,1086.926],[-2.04542,43.027095,1084.71],[-2.045466,43.027055,1082.947],[-2.045526,43.027032,1080.581],[-2.045575,43.027002,1078.844],[-2.045619,43.026967,1076.798],[-2.045663,43.026928,1075.159],[-2.04572,43.02691,1072.123],[-2.045781,43.026897,1070.283],[-2.045842,43.02689,1067.811],[-2.045905,43.026871,1066.208],[-2.045939,43.026832,1064.719],[-2.045948,43.026784,1063.731],[-2.045984,43.026747,1062.345],[-2.046021,43.026709,1061.252],[-2.046052,43.02667,1059.746],[-2.046103,43.026642,1058.359],[-2.046157,43.026612,1056.133],[-2.046214,43.026584,1054.024],[-2.046278,43.026565,1052.411],[-2.046336,43.026549,1050.021],[-2.046383,43.026517,1046.303],[-2.046438,43.026492,1043.008],[-2.04649,43.026466,1040.768],[-2.046539,43.026433,1038.48],[-2.046567,43.026391,1036.084],[-2.046618,43.026358,1034.391],[-2.046674,43.026337,1031.725],[-2.046734,43.026325,1029.798],[-2.046805,43.026323,1027.972],[-2.04687,43.026329,1025.893],[-2.046924,43.026303,1024.182],[-2.04698,43.026282,1022.543],[-2.047049,43.026271,1021.417],[-2.047106,43.026253,1019.808],[-2.047175,43.026244,1019.125],[-2.047226,43.026218,1016.927],[-2.047287,43.026206,1015.251],[-2.047346,43.026191,1012.928],[-2.04738,43.026152,1010.762],[-2.04744,43.026135,1009.195],[-2.047498,43.026112,1007.729],[-2.047552,43.026084,1005.63],[-2.047608,43.026064,1003.951],[-2.047663,43.026043,1002.501],[-2.047722,43.026026,1000.811],[-2.047775,43.026,999.208],[-2.047811,43.025959,997.762],[-2.047854,43.025922,996.424],[-2.047922,43.025909,994.658],[-2.047987,43.025898,993.335],[-2.048038,43.025868,991.329],[-2.048089,43.025834,988.662],[-2.048132,43.025802,986.316],[-2.048144,43.025752,984.087],[-2.048178,43.025713,982.349],[-2.048215,43.025665,980.002],[-2.048242,43.025612,977.922],[-2.048277,43.025574,975.808],[-2.048328,43.02554,974.371],[-2.048375,43.025495,972.753],[-2.048399,43.025449,971.237],[-2.048428,43.025402,970.324],[-2.048468,43.025364,969.378],[-2.048533,43.025361,968.941],[-2.048585,43.025332,968.595],[-2.048638,43.025306,968.346],[-2.048704,43.025296,968.022],[-2.048769,43.025296,967.962],[-2.048822,43.025327,968.008],[-2.048874,43.025352,968.008],[-2.048938,43.025357,968.559],[-2.048989,43.025383,968.171],[-2.04902,43.025427,968.555],[-2.049068,43.025463,967.582],[-2.049128,43.025479,967.016],[-2.049169,43.025442,967.089],[-2.049225,43.025463,966.223],[-2.049213,43.025512,966.174],[-2.049208,43.025557,966.187],[-2.049215,43.025512,966.042],[-2.049187,43.025472,966.526],[-2.049163,43.025541,966.308],[-2.049207,43.025574,966.985],[-2.049269,43.025578,967.757],[-2.049318,43.025544,967.991],[-2.049382,43.025524,967.438],[-2.049441,43.025507,967.052],[-2.049497,43.025484,967.285],[-2.049557,43.025468,967.059],[-2.049615,43.025445,967.07],[-2.049671,43.025426,967.329],[-2.049733,43.025426,966.6],[-2.049793,43.025407,966.22],[-2.04986,43.025404,965.808],[-2.049923,43.025401,964.759],[-2.049993,43.025405,963.771],[-2.050056,43.02543,963.185],[-2.050106,43.025457,962.072],[-2.050148,43.025496,961.346],[-2.050202,43.025523,960.029],[-2.050266,43.025528,958.853],[-2.050328,43.025529,958.134],[-2.050393,43.025543,957.735],[-2.050451,43.025562,957.086],[-2.05051,43.025544,955.314],[-2.050573,43.025526,953.808],[-2.050643,43.025523,952.76],[-2.050706,43.025521,951.672],[-2.050748,43.025488,950.316],[-2.050789,43.025448,949.763],[-2.050802,43.0254,949.417],[-2.05085,43.025372,949.25],[-2.05091,43.025363,948.744],[-2.050982,43.025364,948.215],[-2.051042,43.025349,947.984],[-2.051097,43.025314,947.307],[-2.05115,43.025292,946.717],[-2.051211,43.025281,945.608],[-2.051275,43.025276,944.185],[-2.051338,43.02528,942.167],[-2.051404,43.025285,940.631],[-2.051466,43.025282,939.638],[-2.051533,43.025281,938.532],[-2.051598,43.025284,937.235],[-2.051662,43.025293,935.969],[-2.051721,43.025319,934.25],[-2.051787,43.025302,932.971],[-2.051846,43.025272,932.441],[-2.051909,43.025243,931.815],[-2.051969,43.025223,930.908],[-2.05203,43.025215,930.144],[-2.052065,43.025172,929.966],[-2.052126,43.025147,929.95],[-2.052184,43.025118,929.777],[-2.05225,43.025109,928.351],[-2.052305,43.025088,927.934],[-2.052357,43.025061,927.338],[-2.052418,43.02505,926.549],[-2.052448,43.025009,925.995],[-2.05251,43.025004,925.149],[-2.052575,43.025,924.423],[-2.052631,43.024973,923.808],[-2.052684,43.024949,922.716],[-2.052739,43.024929,921.538],[-2.052767,43.024886,918.952],[-2.052799,43.024847,916.719],[-2.052867,43.024828,914.913],[-2.05293,43.024833,913.896],[-2.052991,43.024819,912.56],[-2.05305,43.024804,911.171],[-2.053097,43.024775,910.034],[-2.053153,43.02475,908.955],[-2.053215,43.024739,908.21],[-2.05327,43.024716,907.308],[-2.053326,43.024696,905.58],[-2.053385,43.024677,904.582],[-2.05345,43.024673,903.156],[-2.053514,43.024663,901.843],[-2.053577,43.024668,899.987],[-2.053638,43.024659,897.62],[-2.053706,43.024655,895.624],[-2.053775,43.024642,893.585],[-2.053839,43.024643,891.926],[-2.053901,43.024662,890.047],[-2.053962,43.024674,888.611],[-2.054025,43.024673,885.508],[-2.054079,43.024645,883.189],[-2.054128,43.024616,880.761],[-2.054186,43.024599,879.265],[-2.054247,43.024582,878.082],[-2.054309,43.024574,876.176],[-2.054357,43.024541,873.659],[-2.054415,43.024518,872.213],[-2.054475,43.024506,870.814],[-2.054538,43.024502,869.849],[-2.054611,43.024501,868.702],[-2.054675,43.024498,868.122],[-2.05474,43.024483,867.008],[-2.054804,43.024475,866.161],[-2.054878,43.024461,865.133],[-2.054949,43.024456,864.157],[-2.055015,43.024448,863.214],[-2.055071,43.02442,862.758],[-2.055133,43.024422,862.821],[-2.0552,43.024416,862.625],[-2.055255,43.024437,862.536],[-2.055297,43.024472,862.812],[-2.055308,43.024518,863.332],[-2.055256,43.024547,863.605],[-2.055228,43.024599,863.608],[-2.055185,43.024637,864.018],[-2.055153,43.024676,864.44],[-2.055115,43.024717,865.044],[-2.055094,43.024763,865.751],[-2.055084,43.024817,866.115],[-2.055064,43.024862,865.598],[-2.05505,43.02491,866.552],[-2.055056,43.024961,867.133],[-2.055112,43.02494,867.476],[-2.055173,43.024953,866.49],[-2.055177,43.024907,865.819],[-2.055215,43.024867,861.808],[-2.055253,43.024827,858.264],[-2.055316,43.024822,855.216],[-2.055345,43.024865,853.51],[-2.055346,43.024911,853.027],[-2.055354,43.024957,853.111],[-2.055368,43.025002,852.344],[-2.055374,43.025049,851.968],[-2.055374,43.025094,851.739],[-2.055347,43.025139,851.295],[-2.055355,43.025186,851.049],[-2.055347,43.025236,850.823],[-2.05531,43.025274,850.608],[-2.055261,43.025313,850.846],[-2.055245,43.025358,850.098],[-2.0553,43.025387,848.912],[-2.055328,43.025429,848.979],[-2.055328,43.025479,848.353],[-2.055321,43.025525,849.036],[-2.055344,43.025572,849.19],[-2.055383,43.025611,847.981],[-2.055395,43.025659,847.196],[-2.055446,43.025684,844.731],[-2.055507,43.02571,843.024],[-2.055544,43.025755,840.908],[-2.055539,43.025803,839.776],[-2.05548,43.025822,837.148],[-2.055514,43.02586,834.582],[-2.055559,43.025898,831.639],[-2.055556,43.025947,828.543],[-2.055579,43.025993,826.786],[-2.055611,43.026034,825.04],[-2.05563,43.026079,824.581],[-2.055608,43.026122,822.967],[-2.055612,43.026172,822.181],[-2.055663,43.026199,821.719],[-2.055708,43.026241,820.708],[-2.055739,43.026285,819.853],[-2.055772,43.026328,819.215],[-2.05582,43.02637,818.069],[-2.055861,43.026409,817.136],[-2.055923,43.026422,816.04],[-2.055982,43.026441,814.463],[-2.056034,43.026472,812.387],[-2.056069,43.026513,811.488],[-2.056118,43.026555,811.217],[-2.056181,43.026579,810.287],[-2.056249,43.026571,809.515],[-2.056304,43.026541,808.708],[-2.056361,43.026523,807.868],[-2.056426,43.026535,807.12],[-2.056471,43.026566,806.084],[-2.056527,43.026588,805.121],[-2.056588,43.026565,803.495],[-2.056648,43.026545,802.438],[-2.056712,43.026551,801.862],[-2.056773,43.026572,799.773],[-2.05684,43.026585,797.435],[-2.056886,43.026618,796.386],[-2.056936,43.026652,794.114],[-2.056992,43.026677,792.508],[-2.057057,43.026695,791.01],[-2.057111,43.026724,789.272],[-2.05716,43.026753,787.936],[-2.057216,43.02678,786.673],[-2.057247,43.026825,785.467],[-2.057288,43.026864,784.27],[-2.057356,43.026867,782.694],[-2.057423,43.026867,781.935],[-2.057486,43.026883,780.357],[-2.057547,43.026904,779.4],[-2.05761,43.026917,778.22],[-2.057677,43.026939,777.708],[-2.057734,43.026957,776.632],[-2.057784,43.026983,775.164],[-2.057842,43.027005,774.198],[-2.0579,43.027025,774.145],[-2.057977,43.027049,774.139],[-2.058043,43.027057,773.442],[-2.058107,43.027051,773.686],[-2.058167,43.027026,773.787],[-2.058238,43.027035,774.027],[-2.058291,43.02706,772.668],[-2.058353,43.02707,771.814],[-2.05842,43.027065,771.108],[-2.058487,43.027057,770.069],[-2.058548,43.027072,768.491],[-2.058602,43.027101,766.595],[-2.058651,43.027137,765.242],[-2.058697,43.027167,763.126],[-2.058755,43.027187,762.059],[-2.058813,43.027208,760.623],[-2.05888,43.027222,759.264],[-2.058939,43.027245,757.863],[-2.05899,43.027273,756.544],[-2.059034,43.027306,755.418],[-2.05909,43.027327,754.208],[-2.059144,43.027352,752.883],[-2.059209,43.027365,751.785],[-2.059267,43.027386,751.999],[-2.059331,43.027399,750.296],[-2.05939,43.027426,749.23],[-2.059452,43.027441,748.093],[-2.059507,43.027467,747.017],[-2.05955,43.027504,746.298],[-2.059625,43.027518,745.312],[-2.059681,43.027539,743.532],[-2.059723,43.027573,741.405],[-2.059786,43.027587,741.108],[-2.059847,43.027607,740.548],[-2.059904,43.027626,740.06],[-2.059961,43.027644,740.394],[-2.060023,43.027671,739.971],[-2.060088,43.027675,739.385],[-2.06015,43.027674,738.098],[-2.060216,43.027686,737.722],[-2.060282,43.027693,737.433],[-2.060348,43.027706,736.134],[-2.060416,43.027733,736.055],[-2.060474,43.027749,735.21],[-2.060428,43.027785,734.208],[-2.060412,43.027832,733.14],[-2.060393,43.027787,731.792],[-2.060414,43.027737,729.786],[-2.060381,43.027785,726.393],[-2.060405,43.027738,724.847],[-2.060447,43.027774,724.83],[-2.060492,43.027818,724.734],[-2.060564,43.027811,724.195],[-2.060606,43.027773,722.024],[-2.060632,43.027732,721.904],[-2.060691,43.027755,721.214],[-2.060753,43.02776,720.608],[-2.060805,43.027796,720.059],[-2.060841,43.027867,719.551],[-2.060903,43.02788,718.455],[-2.060958,43.027901,719.912],[-2.060986,43.027947,721.556],[-2.061041,43.027972,724.099],[-2.061101,43.027992,726.893],[-2.061152,43.028023,728.954],[-2.0612,43.027986,730.678],[-2.061199,43.027939,729.033],[-2.061238,43.0279,726.826],[-2.061208,43.027857,724.508],[-2.061147,43.027823,722.684],[-2.0612,43.027859,720.246],[-2.061258,43.027879,716.45],[-2.061307,43.02791,712.467],[-2.061339,43.02795,709.791],[-2.06137,43.027992,706.334],[-2.06136,43.02804,703.868],[-2.061354,43.027991,699.889],[-2.061374,43.028034,695.882],[-2.061368,43.02808,691.843],[-2.061401,43.028127,689.317],[-2.061429,43.028167,687.908],[-2.061476,43.028204,686.625],[-2.061523,43.028244,684.947],[-2.061566,43.028283,685.211],[-2.061591,43.028339,684.578],[-2.061639,43.028399,682.752],[-2.061675,43.028438,682.435],[-2.0617,43.028485,683.849],[-2.061717,43.028536,682.97],[-2.061738,43.028587,683.628],[-2.06173,43.028634,682.289],[-2.061788,43.028655,682.117],[-2.061834,43.028689,680.708],[-2.061899,43.028689,678.859],[-2.061958,43.028666,679.091],[-2.06202,43.028662,678.825],[-2.062076,43.028683,678.072],[-2.062125,43.028712,678.386],[-2.062126,43.028759,678.329],[-2.062127,43.028806,676.343],[-2.062096,43.028856,674.364],[-2.06207,43.028909,673.425],[-2.062066,43.028961,671.526],[-2.062044,43.029013,670.208],[-2.062024,43.029061,668.808],[-2.062007,43.029106,667.069],[-2.061985,43.029152,665.931],[-2.061975,43.029201,665.065],[-2.061961,43.029251,663.542],[-2.061951,43.0293,664.236],[-2.061942,43.029346,662.069],[-2.061939,43.029393,662.453],[-2.061933,43.029441,663.254],[-2.061926,43.029488,662.795],[-2.061911,43.029538,661.649],[-2.061894,43.029584,663.523],[-2.061897,43.029641,662.408],[-2.0619,43.029691,662.336],[-2.061891,43.029746,663.058],[-2.061878,43.029799,662.862],[-2.061851,43.029853,663.559],[-2.061841,43.0299,664.743],[-2.061801,43.029935,665.996],[-2.061762,43.029971,665.47],[-2.061799,43.030018,664.361],[-2.06186,43.030042,663.545],[-2.061925,43.030056,661.047],[-2.061973,43.030091,659.511],[-2.061994,43.030141,655.508],[-2.06197,43.030188,651.591],[-2.061991,43.030231,647.573],[-2.062021,43.030272,644.927],[-2.062066,43.030308,642.814],[-2.062113,43.030337,640.728],[-2.062144,43.030377,639.441],[-2.06216,43.030426,637.645],[-2.062172,43.030475,637.166],[-2.062194,43.03052,636.463],[-2.062212,43.030564,635.544],[-2.062286,43.03058,636.118],[-2.062345,43.030594,636.108],[-2.062389,43.030626,635.853],[-2.062435,43.030657,636.495],[-2.062464,43.0307,636.019],[-2.062495,43.030745,635.696],[-2.062551,43.030775,635.14],[-2.062604,43.030809,635.753],[-2.062646,43.030863,635.327],[-2.062679,43.03091,635.988],[-2.062715,43.030948,634.813],[-2.062723,43.030995,634.343],[-2.062743,43.031041,632.907],[-2.062757,43.031091,632.108],[-2.062791,43.031133,631.258],[-2.062839,43.031169,630.32],[-2.062878,43.031208,630.954],[-2.062932,43.031244,631.761],[-2.062965,43.031285,631.495],[-2.062985,43.031329,630.918],[-2.063026,43.031368,631.572],[-2.06304,43.031415,631.033],[-2.063055,43.031466,631.014],[-2.063046,43.031515,630.654],[-2.063041,43.031561,630.609],[-2.063048,43.031607,630.808],[-2.063056,43.031654,630.068],[-2.06306,43.031699,628.72],[-2.063083,43.031743,628.384],[-2.063099,43.031789,627.131],[-2.063078,43.03184,626.575],[-2.063078,43.031894,625.628],[-2.063079,43.031941,624.492],[-2.063069,43.03199,623.933],[-2.063044,43.032034,623.372],[-2.063027,43.03208,623.313],[-2.063021,43.032128,622.514],[-2.063025,43.032176,622.008],[-2.063035,43.032223,621.664],[-2.063037,43.032269,621.566],[-2.063036,43.032315,621.45],[-2.063061,43.032361,621.667],[-2.063069,43.03241,621.181],[-2.063064,43.032456,621.184],[-2.06307,43.032501,620.348],[-2.063072,43.032547,619.549],[-2.063102,43.032588,619.112],[-2.063121,43.032635,619.032],[-2.063144,43.032692,617.905],[-2.063156,43.032737,617.008],[-2.063169,43.032788,616.098],[-2.063184,43.032836,615.73],[-2.063192,43.032885,615.624],[-2.063194,43.032936,614.831],[-2.063202,43.032985,613.115],[-2.063202,43.033031,611.658],[-2.063212,43.033081,610.012],[-2.063221,43.033132,608.383],[-2.063227,43.033178,607.775],[-2.063235,43.033227,607.028],[-2.063264,43.033267,606.82],[-2.063322,43.033306,605.708],[-2.063355,43.033348,605.564],[-2.063355,43.033398,603.376],[-2.063378,43.033445,601.54],[-2.063397,43.03349,598.377],[-2.06343,43.033532,595.161],[-2.063472,43.033571,592.694],[-2.063519,43.03361,592.168],[-2.063566,43.03364,590.579],[-2.063601,43.033682,588.352],[-2.063637,43.033724,588.053],[-2.063681,43.033761,588.008],[-2.06372,43.033804,587.408],[-2.063768,43.033841,585.842],[-2.063811,43.033885,585.284],[-2.063837,43.033932,585.338],[-2.06386,43.033979,584.755],[-2.063875,43.034025,583.149],[-2.063899,43.034073,581.672],[-2.063915,43.034125,581.456],[-2.063939,43.034172,581.647],[-2.063982,43.034212,580.735],[-2.064032,43.034238,581.486],[-2.064039,43.034284,582.014],[-2.064077,43.034324,581.608],[-2.064138,43.034281,582.76],[-2.064191,43.034246,582.462],[-2.064253,43.034254,583.536],[-2.064317,43.034279,584.813],[-2.064372,43.034313,586.627],[-2.064412,43.03435,588.02],[-2.064458,43.034389,589.034],[-2.064512,43.034424,590.885],[-2.064553,43.034459,593.579],[-2.06459,43.034512,595.005],[-2.064619,43.034562,595.325],[-2.064648,43.034603,596.508],[-2.064701,43.034579,599.254],[-2.064689,43.03453,602.946],[-2.064719,43.03449,604.64],[-2.064775,43.034456,606.337],[-2.064834,43.034442,607.461],[-2.064899,43.034462,607.574],[-2.064952,43.034489,608.738],[-2.064995,43.034525,609.889],[-2.065024,43.034567,610.356],[-2.065049,43.034617,611.859],[-2.065049,43.034665,613.514],[-2.065053,43.034711,612.608],[-2.065069,43.034763,611.432],[-2.065097,43.034808,611.384],[-2.065129,43.03485,610.358],[-2.065164,43.034891,609.395],[-2.065209,43.034922,608.469],[-2.065262,43.034951,607.832],[-2.065314,43.034977,607.826],[-2.06537,43.035002,608.987],[-2.065424,43.035027,609.692],[-2.065478,43.035049,609.573],[-2.065521,43.035012,607.22],[-2.06556,43.034971,606.308],[-2.065619,43.034952,604.526],[-2.06568,43.034934,604.168],[-2.065749,43.034908,601.192],[-2.0658,43.034881,601.169],[-2.065852,43.034842,602.793],[-2.065917,43.034841,603.286],[-2.065973,43.034865,603.52],[-2.066036,43.034871,600.121],[-2.066099,43.034871,597.251],[-2.066157,43.034892,595.701],[-2.066196,43.034929,592.911],[-2.066239,43.034971,592.708],[-2.066271,43.035015,590.612],[-2.066304,43.035064,589.734],[-2.066336,43.035106,588.558],[-2.066362,43.035154,587.995],[-2.06638,43.035206,587.499],[-2.066394,43.035253,586.572],[-2.066415,43.035297,585.886],[-2.066435,43.035341,586.197],[-2.066459,43.035398,585.362],[-2.066481,43.035442,583.983],[-2.066524,43.035478,584.211],[-2.066553,43.035521,583.908],[-2.066573,43.035566,584.943],[-2.066592,43.035614,584.165],[-2.066612,43.035664,583.059],[-2.066651,43.035712,583.186],[-2.066673,43.035768,582.07],[-2.066706,43.035808,582.723],[-2.066735,43.035854,583.377],[-2.066745,43.035901,582.188],[-2.066751,43.035952,581.189],[-2.066762,43.035996,580.306],[-2.06676,43.036053,579.126],[-2.066755,43.0361,579.508],[-2.066749,43.036149,578.665],[-2.066745,43.036198,578.277],[-2.066743,43.036251,576.741],[-2.066736,43.036301,575.638],[-2.066715,43.036348,575.842],[-2.066708,43.03641,573.985],[-2.066692,43.036457,571.829],[-2.066692,43.036506,570.49],[-2.06669,43.036553,568.362],[-2.066696,43.036601,565.483],[-2.066695,43.036651,563.211],[-2.066704,43.036696,560.808],[-2.066711,43.036743,558.993],[-2.066728,43.036788,556.965],[-2.066769,43.036823,554.119],[-2.066817,43.036854,552.336],[-2.06686,43.03689,550.42],[-2.066899,43.036927,548.263],[-2.066926,43.03697,546.747],[-2.06695,43.037013,544.868],[-2.066975,43.037056,543.625],[-2.067008,43.037105,542.126],[-2.067048,43.037141,540.208],[-2.067096,43.03717,538.908],[-2.067155,43.037193,537.679],[-2.067196,43.037228,534.891],[-2.067182,43.037272,532.265],[-2.067224,43.037308,529.722],[-2.067284,43.037326,526.656],[-2.067351,43.037321,524.879],[-2.067413,43.037304,522.893],[-2.067472,43.037291,520.134],[-2.067482,43.037244,517.894],[-2.06754,43.037228,514.257],[-2.067592,43.037202,511.422],[-2.067651,43.037224,509.608],[-2.067707,43.037247,508.536],[-2.067769,43.037271,507.958],[-2.067839,43.037292,507.812],[-2.067902,43.037302,507.289],[-2.06795,43.037272,505.523],[-2.068019,43.037279,505.326],[-2.068085,43.037298,505.08],[-2.068153,43.037322,504.771],[-2.068218,43.037331,504.888],[-2.068285,43.037319,504.824],[-2.068337,43.037295,504.926],[-2.068395,43.037271,504.208],[-2.068456,43.037296,503.245],[-2.068485,43.037339,502.387],[-2.068516,43.037382,502.331],[-2.068551,43.03742,502.798],[-2.068597,43.037459,500.982],[-2.068648,43.037504,501.275],[-2.068677,43.037548,500.329],[-2.068717,43.037588,498.82],[-2.068762,43.037537,478.523],[-2.068821,43.03752,494.083],[-2.068876,43.037545,493.711],[-2.068927,43.037579,491.808],[-2.068974,43.037612,490.589],[-2.069014,43.037647,489.941],[-2.069067,43.037686,489.795],[-2.06911,43.037724,487.862],[-2.069142,43.037767,486.136],[-2.069165,43.037812,486.259],[-2.069187,43.037861,485.243],[-2.069224,43.037902,484.294],[-2.069245,43.037947,484.026],[-2.069265,43.037995,482.847],[-2.069291,43.038044,482.911],[-2.069321,43.038088,481.808],[-2.069353,43.038128,481.339],[-2.069384,43.038171,480.341],[-2.069425,43.038209,480.285],[-2.069467,43.038244,479.392],[-2.069504,43.038284,477.456],[-2.069558,43.038336,476.729],[-2.069609,43.038381,476.383],[-2.069669,43.038424,474.954],[-2.069718,43.03846,473.537],[-2.069768,43.038496,472.349],[-2.069824,43.038524,471.713],[-2.069895,43.03855,470.708],[-2.06996,43.038557,469.66],[-2.070031,43.038562,468.012],[-2.070093,43.038578,465.726],[-2.070151,43.038612,463.353],[-2.07021,43.038628,461.917],[-2.070277,43.038628,459.62],[-2.070208,43.038646,459.594],[-2.070113,43.038689,458.375],[-2.070162,43.038728,458.081]]}}]}