{"type":"FeatureCollection","features":[{"type":"Feature","properties":{"ruta_id":"81271168","nombre":"PICOS del INFIERNO ruta CIRCULAR desde BAÑOS de PANTICOSA 🔥","blog_url":"https://www.rutasporelmonte.com/picos-del-infierno-ruta-circular-banos-panticosa/"},"geometry":{"type":"LineString","coordinates":[[-0.235416,42.761231,1635.075],[-0.235461,42.761276,1635.028],[-0.235396,42.761295,1635.02],[-0.23533,42.761323,1635.008],[-0.235279,42.761351,1635.015],[-0.235217,42.761376,1635.258],[-0.235151,42.761397,1635.569],[-0.235108,42.76143,1635.734],[-0.235058,42.761466,1635.868],[-0.234993,42.761489,1636.028],[-0.234925,42.761511,1636.053],[-0.234866,42.761539,1636.045],[-0.23481,42.761562,1636.024],[-0.234756,42.761588,1636.004],[-0.234686,42.761592,1636.014],[-0.234621,42.761612,1636.108],[-0.234567,42.761644,1636.01],[-0.234487,42.761649,1636.163],[-0.234426,42.761661,1636.154],[-0.234352,42.761667,1636.339],[-0.234289,42.761647,1636.623],[-0.234228,42.76165,1636.873],[-0.234164,42.761639,1637.118],[-0.23412,42.7616,1637.36],[-0.234075,42.761637,1637.486],[-0.234061,42.761684,1637.46],[-0.234042,42.761733,1637.326],[-0.23401,42.761774,1637.308],[-0.233966,42.76182,1637.356],[-0.233916,42.761847,1637.379],[-0.233872,42.761881,1637.39],[-0.233839,42.761919,1637.385],[-0.233794,42.761953,1637.489],[-0.233752,42.761987,1637.629],[-0.233719,42.762029,1637.974],[-0.233688,42.762069,1638.216],[-0.233653,42.762106,1638.494],[-0.233615,42.762146,1638.757],[-0.233574,42.76219,1639.022],[-0.233546,42.76223,1639.308],[-0.233509,42.762274,1639.677],[-0.233479,42.762317,1639.83],[-0.233422,42.762351,1640.161],[-0.233363,42.762381,1640.556],[-0.233327,42.762422,1640.75],[-0.23328,42.762458,1641.15],[-0.233211,42.762464,1641.425],[-0.233143,42.762463,1641.647],[-0.233077,42.762462,1641.915],[-0.233017,42.762487,1642.365],[-0.232968,42.762515,1642.711],[-0.232921,42.762554,1643.508],[-0.232888,42.762596,1644.529],[-0.232855,42.762637,1645.652],[-0.232844,42.762683,1646.583],[-0.232879,42.762644,1645.278],[-0.232894,42.762689,1645.552],[-0.232906,42.762735,1645.892],[-0.232872,42.762777,1647.337],[-0.232836,42.762814,1649.649],[-0.232851,42.762769,1647.873],[-0.232845,42.762724,1647.285],[-0.232782,42.762731,1648.913],[-0.23272,42.762729,1651.308],[-0.232656,42.762721,1653.645],[-0.232604,42.762694,1654.868],[-0.232562,42.762658,1655.119],[-0.232507,42.762633,1656.064],[-0.232439,42.762621,1657.638],[-0.232379,42.762604,1658.538],[-0.232317,42.762581,1659.163],[-0.232269,42.762611,1662.015],[-0.232309,42.762648,1662.891],[-0.232329,42.762697,1664.781],[-0.232361,42.762738,1665.619],[-0.232401,42.76278,1666.008],[-0.23245,42.762812,1665.757],[-0.232467,42.762856,1667.17],[-0.232462,42.762901,1669.691],[-0.232446,42.762949,1672.856],[-0.232418,42.762996,1676.66],[-0.232412,42.763041,1679.32],[-0.232428,42.763085,1681.035],[-0.232477,42.763116,1680.247],[-0.232456,42.76316,1684.225],[-0.232397,42.763147,1686.726],[-0.232344,42.763118,1687.908],[-0.232303,42.763081,1687.908],[-0.232287,42.763035,1686.09],[-0.23224,42.763068,1690.793],[-0.232264,42.763112,1692.164],[-0.232272,42.763157,1694.429],[-0.232283,42.763204,1696.793],[-0.232335,42.763232,1695.663],[-0.232373,42.763269,1695.888],[-0.23243,42.763296,1694.48],[-0.232485,42.763323,1693.138],[-0.23244,42.763357,1697.97],[-0.232376,42.763357,1701.317],[-0.232317,42.763341,1703.408],[-0.232248,42.763335,1706.751],[-0.232198,42.763308,1706.064],[-0.232136,42.763286,1703.395],[-0.232093,42.763252,1700.28],[-0.232128,42.763292,1703.634],[-0.232179,42.763318,1706.224],[-0.232207,42.763361,1709.469],[-0.232238,42.763401,1711.371],[-0.232228,42.763446,1714.656],[-0.232168,42.763463,1714.959],[-0.232105,42.763463,1713.614],[-0.232125,42.763509,1716.808],[-0.232115,42.763557,1719.443],[-0.232052,42.763547,1717.556],[-0.232024,42.763588,1719.487],[-0.232046,42.763632,1722.032],[-0.232104,42.76366,1724.476],[-0.232105,42.763707,1726.256],[-0.232158,42.763735,1728.331],[-0.232204,42.763769,1730.423],[-0.232241,42.763806,1731.642],[-0.23226,42.76385,1732.922],[-0.232308,42.763882,1733.514],[-0.232364,42.763901,1733.208],[-0.232419,42.763926,1733.022],[-0.232477,42.763948,1732.665],[-0.232541,42.763962,1731.516],[-0.232599,42.763946,1729.321],[-0.232561,42.763983,1731.565],[-0.232524,42.76402,1733.355],[-0.232518,42.764071,1734.73],[-0.232506,42.764115,1735.882],[-0.23246,42.76415,1737.275],[-0.232399,42.764161,1738.328],[-0.232344,42.764182,1739.82],[-0.232338,42.76423,1741.508],[-0.232322,42.76428,1743.465],[-0.232302,42.764324,1745.078],[-0.23229,42.764371,1746.669],[-0.232342,42.764396,1747.314],[-0.232408,42.764377,1746.498],[-0.232466,42.764363,1745.668],[-0.232488,42.764405,1747.313],[-0.232441,42.764436,1748.765],[-0.232393,42.764475,1752.164],[-0.232328,42.764486,1753.106],[-0.232265,42.764475,1751.916],[-0.232205,42.764487,1752.708],[-0.232148,42.764518,1754.364],[-0.232104,42.764554,1755.957],[-0.232055,42.764588,1756.658],[-0.232002,42.764614,1756.033],[-0.231939,42.764634,1754.377],[-0.231888,42.764663,1753.477],[-0.231887,42.764711,1754.962],[-0.231878,42.764757,1755.794],[-0.231875,42.764809,1756.824],[-0.231879,42.764857,1758.104],[-0.231884,42.764904,1759.514],[-0.231886,42.764951,1760.708],[-0.231839,42.764985,1759.05],[-0.231787,42.765015,1757.353],[-0.231748,42.765055,1757.024],[-0.231713,42.765096,1756.519],[-0.231641,42.765108,1754.853],[-0.231616,42.765153,1757.093],[-0.231602,42.7652,1758.788],[-0.231605,42.765245,1759.95],[-0.231608,42.765293,1761.342],[-0.231608,42.765344,1763.022],[-0.231619,42.765391,1764.514],[-0.231638,42.765437,1766.208],[-0.231697,42.765459,1770.092],[-0.231764,42.765469,1776.895],[-0.231625,42.765459,1766.986],[-0.231509,42.76545,1765.991],[-0.23144,42.765443,1765.455],[-0.231318,42.765428,1770.355],[-0.231232,42.765415,1776.95],[-0.231257,42.765464,1774.212],[-0.231197,42.765496,1777.335],[-0.231266,42.765502,1773.086],[-0.231333,42.765481,1769.014],[-0.231394,42.765477,1765.508],[-0.231454,42.765495,1766.331],[-0.231476,42.765538,1767.344],[-0.231419,42.765558,1766.795],[-0.231448,42.765601,1769.49],[-0.231498,42.765633,1772.564],[-0.231528,42.765674,1776.024],[-0.231487,42.76571,1776.639],[-0.231428,42.765733,1775.451],[-0.231369,42.76572,1774.139],[-0.231314,42.765694,1775.801],[-0.231269,42.765728,1779.521],[-0.231257,42.765774,1782.108],[-0.231305,42.76581,1781.251],[-0.231355,42.765839,1780.034],[-0.231428,42.765859,1781.555],[-0.231482,42.765889,1786.22],[-0.231515,42.76593,1790.484],[-0.231542,42.765971,1794.474],[-0.231526,42.766016,1795.739],[-0.231502,42.766059,1796.421],[-0.231436,42.766051,1791.439],[-0.231407,42.76601,1787.501],[-0.231345,42.765987,1787.221],[-0.231282,42.765984,1790.008],[-0.231232,42.765953,1791.031],[-0.231192,42.765919,1791.564],[-0.231133,42.765898,1793.515],[-0.231083,42.765925,1796.09],[-0.231047,42.765962,1798.134],[-0.230986,42.765978,1799.854],[-0.230962,42.766032,1802.639],[-0.230907,42.76601,1802.651],[-0.230969,42.766011,1801.617],[-0.231005,42.766053,1802.887],[-0.23105,42.766086,1803.315],[-0.231097,42.766117,1803.608],[-0.231154,42.766149,1803.029],[-0.231211,42.766169,1801.692],[-0.231254,42.766204,1801.753],[-0.231189,42.766235,1805.848],[-0.231128,42.766241,1808.492],[-0.23106,42.766244,1810.232],[-0.230983,42.766247,1811.967],[-0.230914,42.76626,1813.879],[-0.230848,42.766271,1815.688],[-0.230785,42.766267,1817.224],[-0.230725,42.766248,1818.226],[-0.230705,42.766291,1820.408],[-0.230706,42.766337,1821.926],[-0.230687,42.766382,1823.919],[-0.230707,42.766425,1824.83],[-0.230684,42.76647,1826.645],[-0.23067,42.766516,1828.249],[-0.230689,42.766559,1829.089],[-0.230712,42.766607,1829.954],[-0.230728,42.766651,1830.816],[-0.230759,42.766693,1831.794],[-0.230718,42.766727,1833.757],[-0.230665,42.766758,1835.522],[-0.230602,42.766767,1836.608],[-0.230553,42.766796,1837.877],[-0.230552,42.766843,1838.83],[-0.230576,42.766887,1839.761],[-0.230597,42.766931,1840.876],[-0.230568,42.766974,1841.77],[-0.230547,42.767023,1842.77],[-0.230544,42.767073,1843.815],[-0.230593,42.76711,1845.047],[-0.230633,42.767147,1846.551],[-0.230627,42.767192,1847.501],[-0.2306,42.767233,1848.011],[-0.230607,42.767281,1849.108],[-0.23065,42.767315,1850.493],[-0.230626,42.767363,1850.986],[-0.230622,42.767414,1851.897],[-0.230634,42.76746,1852.842],[-0.230665,42.767504,1853.976],[-0.230665,42.767553,1854.786],[-0.230623,42.767587,1855.161],[-0.230604,42.767636,1855.813],[-0.230556,42.767669,1856.092],[-0.230502,42.767697,1856.473],[-0.23054,42.767734,1857.22],[-0.230586,42.767766,1858.008],[-0.230611,42.767807,1858.537],[-0.230596,42.767858,1858.67],[-0.230603,42.767904,1858.911],[-0.230597,42.767954,1859.046],[-0.230574,42.767997,1859.04],[-0.230545,42.768045,1858.91],[-0.230513,42.76809,1858.945],[-0.230471,42.768127,1858.967],[-0.230437,42.768169,1858.949],[-0.230399,42.768209,1859.102],[-0.230348,42.768241,1859.222],[-0.230293,42.768266,1859.508],[-0.230256,42.768303,1859.852],[-0.230216,42.768342,1860.215],[-0.230161,42.768362,1860.726],[-0.230118,42.768395,1861.661],[-0.230089,42.768437,1862.665],[-0.230083,42.768485,1863.865],[-0.230079,42.768534,1865.13],[-0.230084,42.76858,1866.262],[-0.230137,42.768606,1866.967],[-0.230196,42.768622,1867.381],[-0.230258,42.768627,1867.519],[-0.23025,42.768676,1868.908],[-0.230208,42.768714,1870.124],[-0.230162,42.768746,1871.337],[-0.230131,42.768788,1872.888],[-0.230151,42.768831,1874.183],[-0.230172,42.768876,1875.467],[-0.230208,42.768912,1876.317],[-0.230245,42.768958,1877.582],[-0.23027,42.769006,1878.874],[-0.230299,42.769047,1879.943],[-0.230348,42.769076,1880.164],[-0.230419,42.769082,1879.31],[-0.230465,42.769113,1879.408],[-0.230498,42.769155,1879.862],[-0.230452,42.769185,1882.065],[-0.230386,42.769182,1883.066],[-0.230327,42.769163,1883.041],[-0.230285,42.769129,1882.785],[-0.230223,42.769113,1882.725],[-0.230156,42.769119,1883.32],[-0.230088,42.769119,1883.852],[-0.230027,42.769117,1884.248],[-0.229975,42.769145,1884.561],[-0.229985,42.769192,1886.117],[-0.230003,42.769236,1887.808],[-0.229999,42.769281,1888.812],[-0.229964,42.769322,1888.535],[-0.229943,42.769369,1888.826],[-0.22993,42.769413,1889.351],[-0.229922,42.76946,1889.885],[-0.229903,42.769503,1889.545],[-0.229889,42.769548,1889.56],[-0.229864,42.769594,1889.322],[-0.229855,42.769641,1889.669],[-0.229852,42.769688,1890.204],[-0.229879,42.769731,1891.424],[-0.22989,42.769783,1891.008],[-0.2299,42.769829,1890.644],[-0.229926,42.769874,1890.537],[-0.229965,42.76991,1890.498],[-0.230008,42.769951,1890.453],[-0.230036,42.769992,1890.697],[-0.23008,42.770026,1891.917],[-0.23012,42.770061,1892.762],[-0.230172,42.770094,1893.574],[-0.230216,42.770128,1893.613],[-0.23027,42.770156,1893.743],[-0.230318,42.770186,1894.007],[-0.230352,42.770223,1893.708],[-0.230413,42.770232,1895.469],[-0.230462,42.770263,1895.642],[-0.230509,42.770298,1896.023],[-0.230555,42.770328,1896.578],[-0.230595,42.770368,1896.712],[-0.230639,42.770407,1897.062],[-0.230672,42.770447,1896.847],[-0.230723,42.770476,1897.599],[-0.230784,42.770487,1899.075],[-0.23084,42.770466,1901.528],[-0.230903,42.770467,1903.82],[-0.230942,42.77043,1906.108],[-0.231001,42.770444,1907.865],[-0.231023,42.770486,1908.248],[-0.231044,42.770536,1908.779],[-0.231067,42.770578,1910.134],[-0.231073,42.770624,1911.128],[-0.231071,42.770674,1911.768],[-0.231068,42.770719,1912.223],[-0.231053,42.770764,1911.955],[-0.231027,42.770805,1910.697],[-0.231013,42.770857,1910.123],[-0.231008,42.770902,1910.125],[-0.231,42.770951,1909.808],[-0.231017,42.770999,1911.477],[-0.23103,42.77105,1912.74],[-0.231008,42.771092,1911.471],[-0.230994,42.77114,1910.826],[-0.231,42.771185,1911.53],[-0.231003,42.77123,1912.07],[-0.231009,42.771277,1912.755],[-0.231022,42.771323,1913.867],[-0.231033,42.771367,1914.767],[-0.231048,42.771416,1916.281],[-0.231062,42.771468,1918.119],[-0.231046,42.771514,1918.208],[-0.231072,42.771555,1920.554],[-0.231073,42.7716,1921.587],[-0.231061,42.771645,1921.858],[-0.231047,42.771696,1922.363],[-0.231028,42.77174,1922.557],[-0.231007,42.771788,1922.977],[-0.231027,42.771832,1924.952],[-0.231041,42.771879,1926.644],[-0.231017,42.771924,1927.177],[-0.230987,42.771966,1927.861],[-0.230971,42.772014,1929.627],[-0.23099,42.772058,1932.008],[-0.231052,42.772079,1934.465],[-0.231113,42.772088,1936.228],[-0.231178,42.772083,1937.759],[-0.231238,42.772069,1938.864],[-0.231305,42.772057,1940.398],[-0.231366,42.772069,1942.278],[-0.23133,42.772106,1942.033],[-0.231283,42.772137,1941.715],[-0.231228,42.772168,1941.629],[-0.231162,42.772175,1940.8],[-0.231088,42.772187,1940.02],[-0.231034,42.772209,1939.808],[-0.231039,42.772257,1941.77],[-0.231109,42.772262,1943.743],[-0.231176,42.772252,1944.094],[-0.231144,42.772294,1945.519],[-0.231123,42.772345,1947.583],[-0.231082,42.772387,1948.013],[-0.23104,42.77242,1947.548],[-0.230996,42.772454,1946.82],[-0.230956,42.772491,1945.944],[-0.230981,42.772537,1946.905],[-0.230992,42.772585,1946.815],[-0.231016,42.772628,1947.508],[-0.231049,42.77267,1948.852],[-0.231087,42.772709,1950.445],[-0.231132,42.772746,1952.456],[-0.231169,42.772786,1954.391],[-0.231193,42.772829,1956.185],[-0.231205,42.772873,1957.355],[-0.231188,42.772916,1957.23],[-0.231152,42.772954,1956.412],[-0.23111,42.77299,1955.588],[-0.231056,42.773012,1954.124],[-0.230995,42.773034,1952.526],[-0.230933,42.773047,1950.908],[-0.230869,42.773062,1949.456],[-0.230806,42.773076,1947.169],[-0.230746,42.773088,1944.03],[-0.230692,42.773116,1941.475],[-0.230703,42.773166,1943.089],[-0.230722,42.773209,1945.279],[-0.230667,42.77324,1941.844],[-0.230608,42.773226,1937.466],[-0.230546,42.773218,1933.529],[-0.230513,42.773259,1933.4],[-0.230513,42.773305,1933.52],[-0.230514,42.773352,1933.708],[-0.230519,42.773398,1934.22],[-0.230525,42.773447,1934.843],[-0.230514,42.773493,1935.144],[-0.230512,42.773542,1935.569],[-0.230525,42.773587,1936.293],[-0.230539,42.773634,1936.663],[-0.230544,42.773679,1936.658],[-0.230563,42.773727,1937.14],[-0.230579,42.773774,1937.961],[-0.230616,42.773811,1939.921],[-0.230622,42.773858,1940.013],[-0.230683,42.773866,1943.508],[-0.230713,42.773907,1945.234],[-0.230733,42.773952,1946.727],[-0.230727,42.773998,1946.698],[-0.230761,42.774039,1949.043],[-0.230803,42.774073,1952.047],[-0.230815,42.77412,1953.397],[-0.230827,42.774165,1954.562],[-0.230815,42.77421,1954.164],[-0.230844,42.774257,1956.863],[-0.230844,42.774309,1957.144],[-0.230832,42.774356,1956.318],[-0.230808,42.774402,1955.008],[-0.230787,42.774446,1954.044],[-0.230775,42.774491,1953.747],[-0.23079,42.774538,1955.158],[-0.230803,42.774584,1956.483],[-0.230792,42.774628,1956.117],[-0.230804,42.774672,1957.487],[-0.230768,42.774709,1955.262],[-0.230832,42.774701,1959.794],[-0.230864,42.77474,1962.592],[-0.230883,42.774786,1964.473],[-0.230901,42.774829,1966.12],[-0.230897,42.774878,1966.208],[-0.230866,42.77492,1964.487],[-0.23087,42.774966,1965.23],[-0.230939,42.775003,1970.261],[-0.230992,42.77503,1974.076],[-0.230941,42.775055,1970.74],[-0.230912,42.775096,1969.16],[-0.230908,42.775142,1969.295],[-0.230891,42.775187,1968.517],[-0.230879,42.775231,1968.289],[-0.23086,42.775274,1967.506],[-0.230857,42.77532,1967.026],[-0.230882,42.775362,1968.008],[-0.230904,42.775406,1968.786],[-0.230951,42.775436,1970.739],[-0.230958,42.775481,1970.49],[-0.230926,42.775521,1968.455],[-0.230944,42.775567,1968.799],[-0.230964,42.775616,1969.499],[-0.230974,42.775667,1969.714],[-0.230996,42.775711,1970.526],[-0.230981,42.775755,1969.718],[-0.230938,42.775794,1967.798],[-0.230889,42.775825,1965.417],[-0.230872,42.775869,1964.108],[-0.230922,42.775897,1965.839],[-0.230895,42.775939,1964.192],[-0.230901,42.775988,1963.673],[-0.230926,42.77603,1963.938],[-0.230949,42.776078,1964.192],[-0.230947,42.776127,1963.432],[-0.230917,42.776172,1962.247],[-0.230904,42.776219,1961.769],[-0.230913,42.776264,1961.934],[-0.230913,42.776312,1961.855],[-0.230865,42.776343,1960.61],[-0.23086,42.776393,1960.708],[-0.230903,42.77643,1962.351],[-0.230935,42.776476,1963.824],[-0.230947,42.776523,1965.055],[-0.23096,42.776568,1966.05],[-0.230968,42.776617,1967.064],[-0.230933,42.77666,1967.324],[-0.230903,42.776707,1968.559],[-0.230899,42.776755,1970.131],[-0.230875,42.7768,1971.481],[-0.230834,42.776835,1972.161],[-0.230801,42.776874,1973.117],[-0.230786,42.776919,1974.408],[-0.23079,42.776965,1976.246],[-0.230768,42.777011,1977.619],[-0.230748,42.777055,1979.06],[-0.230714,42.777095,1980.065],[-0.230734,42.777141,1982.179],[-0.230729,42.777186,1983.719],[-0.23073,42.777238,1985.774],[-0.230743,42.777282,1987.546],[-0.230782,42.777317,1989.451],[-0.230754,42.777362,1990.501],[-0.230727,42.777403,1991.311],[-0.230692,42.777444,1992.008],[-0.230651,42.777479,1992.413],[-0.23064,42.777526,1993.596],[-0.230618,42.777568,1994.167],[-0.2306,42.777613,1994.962],[-0.230614,42.777657,1996.336],[-0.230589,42.777701,1996.986],[-0.230566,42.777744,1997.471],[-0.230557,42.777789,1998.243],[-0.230616,42.7778,1999.926],[-0.230666,42.777773,2000.747],[-0.23073,42.77777,2002.211],[-0.230765,42.77781,2003.808],[-0.230779,42.77786,2005.11],[-0.230809,42.777905,2006.643],[-0.230871,42.777894,2008.324],[-0.230921,42.777864,2009.379],[-0.230959,42.777825,2009.443],[-0.231015,42.777805,2010.423],[-0.231082,42.777796,2011.918],[-0.231147,42.777778,2013.02],[-0.23121,42.777772,2014.619],[-0.231247,42.777814,2017.309],[-0.231239,42.77786,2018.819],[-0.231243,42.777908,2020.708],[-0.231202,42.777942,2020.749],[-0.231173,42.777982,2021.332],[-0.231153,42.778032,2022.583],[-0.231143,42.778084,2024.388],[-0.231123,42.778132,2025.762],[-0.231109,42.778177,2027.292],[-0.231091,42.778224,2028.647],[-0.231075,42.77827,2030.229],[-0.231137,42.778259,2031.743],[-0.231186,42.77823,2032.164],[-0.23124,42.778207,2033.01],[-0.231287,42.778178,2033.308],[-0.231349,42.778169,2035.032],[-0.231415,42.778163,2036.915],[-0.231477,42.778148,2038.116],[-0.231536,42.778131,2039.161],[-0.231602,42.778118,2040.485],[-0.231665,42.778106,2041.765],[-0.231659,42.778152,2044.05],[-0.231616,42.778188,2044.522],[-0.231583,42.77823,2045.692],[-0.231567,42.778276,2047.573],[-0.231548,42.778322,2049.22],[-0.231526,42.778364,2051.408],[-0.231574,42.778394,2055.317],[-0.231628,42.778366,2055.07],[-0.231683,42.778344,2055.281],[-0.231744,42.778331,2056.166],[-0.231805,42.778347,2059.07],[-0.23187,42.778339,2060.37],[-0.231934,42.77835,2062.915],[-0.231912,42.778397,2065.717],[-0.231878,42.778441,2067.827],[-0.231856,42.778486,2070.468],[-0.231919,42.778487,2072.314],[-0.231973,42.77845,2071.208],[-0.232033,42.778431,2071.57],[-0.232096,42.778434,2073.523],[-0.232063,42.778473,2075.514],[-0.232022,42.778507,2076.839],[-0.232085,42.778526,2080.163],[-0.232149,42.778519,2081.583],[-0.232212,42.778537,2084.878],[-0.232275,42.77854,2086.52],[-0.232339,42.778524,2086.885],[-0.232403,42.778507,2087.389],[-0.232459,42.778483,2087.417],[-0.232518,42.778467,2088.508],[-0.232573,42.778447,2090.066],[-0.232557,42.778495,2091.549],[-0.232539,42.778539,2092.93],[-0.232601,42.778558,2096.245],[-0.23266,42.778535,2097.699],[-0.232701,42.778498,2097.729],[-0.232746,42.778529,2100.894],[-0.232757,42.778574,2102.996],[-0.232775,42.778619,2105.311],[-0.232767,42.778664,2107.321],[-0.232732,42.778702,2108.203],[-0.232697,42.778746,2109.608],[-0.23268,42.77879,2111.619],[-0.232633,42.778823,2112.542],[-0.232581,42.778854,2113.323],[-0.23252,42.77887,2113.198],[-0.232457,42.778874,2112.552],[-0.232395,42.778895,2113.352],[-0.232335,42.778915,2114.077],[-0.232294,42.778952,2115.919],[-0.23224,42.778983,2117.087],[-0.232193,42.779014,2118.142],[-0.232138,42.779044,2119.026],[-0.23209,42.779077,2120.308],[-0.232031,42.779096,2120.626],[-0.231988,42.779132,2122.359],[-0.231939,42.779163,2123.72],[-0.231882,42.779184,2125.125],[-0.231842,42.77922,2127.529],[-0.231793,42.779248,2129.329],[-0.231737,42.779268,2130.474],[-0.231682,42.779291,2131.696],[-0.231632,42.779321,2133.281],[-0.231579,42.779351,2134.661],[-0.23153,42.779385,2136.217],[-0.231468,42.7794,2136.308],[-0.231407,42.779421,2136.896],[-0.231356,42.779447,2137.679],[-0.231301,42.779472,2137.93],[-0.231256,42.779507,2139.035],[-0.231213,42.779542,2140.029],[-0.231183,42.779584,2141.649],[-0.231133,42.779611,2141.974],[-0.231072,42.779636,2141.856],[-0.231022,42.779663,2142.083],[-0.23097,42.779693,2142.425],[-0.230949,42.779739,2144.117],[-0.230948,42.779787,2145.808],[-0.230944,42.779835,2147.436],[-0.230916,42.779879,2148.249],[-0.23089,42.779921,2149.05],[-0.230869,42.779964,2149.875],[-0.230845,42.780008,2150.769],[-0.230784,42.780035,2150.749],[-0.23074,42.780068,2151.454],[-0.230704,42.78011,2152.726],[-0.23065,42.780141,2153.391],[-0.230587,42.78015,2152.981],[-0.230534,42.780175,2153.319],[-0.230492,42.780208,2154.208],[-0.230444,42.780238,2155.077],[-0.23038,42.780255,2155.15],[-0.230338,42.780289,2156.321],[-0.230307,42.780328,2158.116],[-0.230264,42.780366,2159.77],[-0.230209,42.780395,2160.81],[-0.230146,42.780408,2161.115],[-0.230084,42.780416,2161.167],[-0.230017,42.780435,2161.659],[-0.229958,42.780449,2162.703],[-0.229903,42.780475,2164.523],[-0.229842,42.780475,2165.008],[-0.229781,42.78049,2166.233],[-0.229726,42.780514,2167.546],[-0.229689,42.780552,2169.187],[-0.229743,42.780578,2170.122],[-0.229804,42.780588,2170.456],[-0.229842,42.780624,2172.276],[-0.229795,42.780653,2173.831],[-0.229734,42.780646,2173.513],[-0.229665,42.780631,2173.038],[-0.229599,42.780642,2173.87],[-0.229535,42.78065,2174.417],[-0.229486,42.780681,2175.908],[-0.229437,42.780715,2177.341],[-0.229382,42.780737,2177.964],[-0.229325,42.780758,2178.575],[-0.229301,42.780802,2180.29],[-0.22929,42.780846,2182.384],[-0.229227,42.780841,2181.774],[-0.229279,42.780815,2180.659],[-0.229327,42.780847,2182.561],[-0.22939,42.780862,2183.831],[-0.229453,42.780871,2184.761],[-0.229494,42.780905,2187.307],[-0.229555,42.780918,2188.408],[-0.229615,42.780929,2189.311],[-0.229602,42.780975,2192.554],[-0.229553,42.781002,2194.345],[-0.229491,42.781008,2194.63],[-0.229426,42.781011,2194.624],[-0.229362,42.781016,2194.134],[-0.229303,42.781005,2192.689],[-0.229249,42.781027,2193.371],[-0.229184,42.781036,2192.963],[-0.229114,42.78105,2192.044],[-0.229058,42.78107,2191.618],[-0.228992,42.781083,2190.408],[-0.228939,42.781114,2190.514],[-0.22889,42.781145,2189.667],[-0.228848,42.781184,2189.138],[-0.228789,42.781205,2187.683],[-0.228726,42.781222,2185.847],[-0.228722,42.781273,2186.437],[-0.228751,42.781313,2187.922],[-0.228788,42.781349,2189.844],[-0.228805,42.781395,2191.253],[-0.228804,42.781443,2192.904],[-0.228789,42.781488,2193.914],[-0.228771,42.781535,2194.908],[-0.228756,42.78158,2195.863],[-0.228746,42.781626,2196.926],[-0.228725,42.781669,2197.577],[-0.2287,42.781712,2198.852],[-0.228661,42.781748,2199.326],[-0.228612,42.781781,2199.436],[-0.228555,42.781799,2198.871],[-0.228504,42.781834,2199.423],[-0.228455,42.781868,2200.092],[-0.228416,42.781908,2201.373],[-0.228386,42.781948,2203.12],[-0.228338,42.781985,2205.108],[-0.228284,42.782015,2206.547],[-0.228221,42.782016,2204.82],[-0.228155,42.782043,2205.461],[-0.228092,42.78206,2205.146],[-0.228031,42.782069,2204.45],[-0.227976,42.782093,2205.76],[-0.227918,42.782111,2206.555],[-0.227858,42.782128,2207.247],[-0.227801,42.782151,2208.616],[-0.227761,42.78219,2211.676],[-0.227711,42.782222,2213.513],[-0.22766,42.78225,2215.408],[-0.227596,42.782242,2213.249],[-0.227531,42.782255,2213.182],[-0.227467,42.782264,2212.673],[-0.227417,42.782293,2214.668],[-0.227381,42.782331,2217.852],[-0.227352,42.782371,2221.382],[-0.227299,42.782396,2222.867],[-0.227233,42.782402,2222.079],[-0.227212,42.782448,2226.443],[-0.227142,42.78245,2225.664],[-0.227083,42.782437,2223.41],[-0.227022,42.782451,2224.008],[-0.227002,42.782499,2228.732],[-0.226973,42.782542,2232.965],[-0.226911,42.782555,2233.766],[-0.226845,42.782554,2233.121],[-0.226784,42.782537,2230.815],[-0.226728,42.782506,2227.135],[-0.22668,42.782472,2223.01],[-0.226642,42.782436,2219.062],[-0.226586,42.782406,2216.271],[-0.226526,42.782421,2218.241],[-0.226464,42.782429,2219.415],[-0.226408,42.782448,2221.408],[-0.226345,42.78247,2223.065],[-0.226284,42.782479,2223.238],[-0.226217,42.782495,2223.839],[-0.226157,42.782513,2224.784],[-0.226096,42.782539,2226.278],[-0.226041,42.782569,2227.578],[-0.225988,42.782595,2228.463],[-0.225948,42.782637,2230.915],[-0.22589,42.782651,2230.512],[-0.225824,42.782651,2228.732],[-0.225779,42.782615,2225.005],[-0.225709,42.782623,2224.208],[-0.225647,42.782645,2224.469],[-0.225603,42.782678,2225.442],[-0.22555,42.782707,2225.893],[-0.225488,42.782728,2226.068],[-0.225429,42.782748,2226.192],[-0.225367,42.782757,2225.592],[-0.225304,42.78276,2224.557],[-0.225253,42.782789,2225.429],[-0.225195,42.782809,2225.869],[-0.225128,42.782821,2225.404],[-0.225068,42.782837,2225.424],[-0.225007,42.782855,2225.408],[-0.224945,42.782874,2225.524],[-0.224888,42.782906,2226.467],[-0.224829,42.782933,2226.858],[-0.224766,42.782952,2226.453],[-0.224705,42.782968,2225.927],[-0.224651,42.782995,2226.357],[-0.224606,42.783028,2227.182],[-0.224546,42.783045,2226.714],[-0.224484,42.783069,2226.622],[-0.224425,42.783094,2226.662],[-0.224368,42.78312,2226.508],[-0.224329,42.783159,2227.308],[-0.224292,42.783198,2228.01],[-0.224258,42.783243,2228.813],[-0.224219,42.783282,2229.174],[-0.224196,42.783324,2229.819],[-0.224169,42.783369,2228.493],[-0.22421,42.783409,2229.493],[-0.224262,42.783441,2230.888],[-0.224298,42.783482,2231.58],[-0.2243,42.783527,2230.814],[-0.224318,42.783575,2230.654],[-0.224365,42.783609,2231.909],[-0.224409,42.783646,2232.908],[-0.224448,42.783686,2233.619],[-0.224464,42.783731,2233.432],[-0.224472,42.783779,2232.813],[-0.224498,42.783821,2233.218],[-0.224519,42.783864,2233.382],[-0.224572,42.78389,2235.472],[-0.224616,42.783929,2237.117],[-0.224627,42.783978,2236.939],[-0.224677,42.784014,2238.766],[-0.2247,42.784061,2238.929],[-0.224737,42.7841,2240.121],[-0.224732,42.784148,2238.908],[-0.224711,42.784196,2238.284],[-0.224705,42.784242,2238.917],[-0.224711,42.78429,2240.278],[-0.224707,42.784338,2241.153],[-0.22469,42.784388,2241.587],[-0.224664,42.784438,2241.617],[-0.224633,42.784481,2240.492],[-0.22458,42.784507,2238.324],[-0.224557,42.784551,2237.313],[-0.224531,42.784598,2236.343],[-0.224539,42.784643,2236.507],[-0.224564,42.784687,2237.408],[-0.22458,42.784733,2237.459],[-0.224631,42.784764,2238.022],[-0.224674,42.784798,2238.393],[-0.224716,42.784836,2238.628],[-0.224742,42.784878,2238.372],[-0.224793,42.784911,2239.222],[-0.224852,42.784931,2240.787],[-0.224905,42.78496,2241.559],[-0.224943,42.784996,2241.179],[-0.224979,42.785036,2240.405],[-0.22502,42.785073,2240.325],[-0.225083,42.785083,2242.808],[-0.225146,42.785105,2244.785],[-0.225192,42.785141,2244.938],[-0.225225,42.785184,2244.089],[-0.225269,42.785223,2243.824],[-0.225267,42.785271,2240.968],[-0.225213,42.785293,2237.418],[-0.225203,42.785337,2234.893],[-0.225222,42.785381,2233.415],[-0.225245,42.785423,2232.319],[-0.225261,42.785468,2230.709],[-0.225267,42.785515,2228.619],[-0.225302,42.785556,2228.408],[-0.225348,42.785591,2229.199],[-0.225411,42.785611,2231.542],[-0.225463,42.785641,2232.663],[-0.225521,42.785664,2234.568],[-0.225571,42.785692,2235.352],[-0.22562,42.785725,2235.282],[-0.225679,42.785741,2236.417],[-0.225742,42.785749,2238.249],[-0.225795,42.785773,2238.465],[-0.22584,42.785808,2237.368],[-0.225874,42.785851,2236.014],[-0.225917,42.785885,2236.208],[-0.225961,42.785924,2236.194],[-0.226011,42.785957,2236.537],[-0.226042,42.785997,2235.698],[-0.226083,42.786032,2235.393],[-0.226127,42.786064,2235.117],[-0.226162,42.786103,2234.157],[-0.226208,42.78614,2234.642],[-0.226266,42.786159,2236.084],[-0.226316,42.786185,2237.051],[-0.226331,42.78623,2236.401],[-0.226348,42.786273,2235.911],[-0.226396,42.786244,2237.808],[-0.226432,42.786202,2239.513],[-0.226477,42.78617,2241.376],[-0.226538,42.78615,2243.117],[-0.226601,42.786159,2244.132],[-0.226665,42.786163,2245.316],[-0.226723,42.786184,2246.336],[-0.226782,42.786198,2247.441],[-0.226842,42.78621,2248.613],[-0.226901,42.786227,2249.454],[-0.226964,42.786235,2250.856],[-0.227024,42.786248,2252.011],[-0.227083,42.786273,2252.408],[-0.227139,42.786292,2252.763],[-0.2272,42.786287,2254.796],[-0.22724,42.786322,2253.247],[-0.227274,42.786362,2251.052],[-0.227319,42.786397,2249.796],[-0.227356,42.78644,2248.836],[-0.227398,42.786474,2248.431],[-0.227443,42.786515,2247.923],[-0.227488,42.786551,2247.828],[-0.227533,42.786581,2247.989],[-0.227555,42.786625,2246.917],[-0.227579,42.78667,2245.908],[-0.2276,42.786713,2244.73],[-0.227632,42.786757,2243.943],[-0.227662,42.786798,2243.314],[-0.227703,42.786834,2243.549],[-0.227747,42.786876,2243.873],[-0.227801,42.786905,2244.673],[-0.227855,42.786934,2245.078],[-0.227904,42.786972,2245.07],[-0.227956,42.787,2245.552],[-0.228022,42.787007,2246.953],[-0.22807,42.787039,2247.408],[-0.228123,42.787067,2248.308],[-0.228156,42.787107,2248.413],[-0.228187,42.78715,2248.376],[-0.228239,42.787176,2249.347],[-0.2283,42.787192,2250.712],[-0.228347,42.787223,2251.236],[-0.228378,42.787267,2249.456],[-0.228434,42.787299,2248.831],[-0.228499,42.78731,2249.333],[-0.228557,42.787328,2249.594],[-0.228619,42.787327,2250.557],[-0.228682,42.787342,2250.322],[-0.228749,42.787348,2250.508],[-0.228809,42.787367,2250.247],[-0.228864,42.78739,2249.83],[-0.228916,42.787419,2248.941],[-0.228978,42.78743,2248.516],[-0.229039,42.787431,2248.57],[-0.229102,42.787451,2247.82],[-0.22916,42.787471,2247.045],[-0.229222,42.787492,2245.967],[-0.229287,42.787502,2245.164],[-0.22935,42.787505,2244.506],[-0.229418,42.787497,2244.316],[-0.229484,42.787477,2244.708],[-0.229543,42.787465,2244.734],[-0.229614,42.787462,2243.927],[-0.229676,42.787466,2242.958],[-0.229741,42.787455,2243.263],[-0.229804,42.787461,2243.147],[-0.229869,42.78746,2243.617],[-0.229931,42.787474,2243.182],[-0.229986,42.787495,2242.224],[-0.230044,42.787518,2240.939],[-0.230102,42.787538,2239.801],[-0.230162,42.78755,2239.121],[-0.230228,42.78756,2238.608],[-0.23029,42.78758,2237.891],[-0.230348,42.787595,2237.114],[-0.230409,42.7876,2236.765],[-0.23046,42.787625,2235.72],[-0.230511,42.787652,2234.664],[-0.230576,42.787672,2233.874],[-0.230637,42.787686,2233.349],[-0.230696,42.787704,2232.691],[-0.230757,42.787718,2231.933],[-0.230819,42.787738,2230.923],[-0.230886,42.78774,2230.715],[-0.230946,42.787754,2229.808],[-0.23101,42.787761,2229.311],[-0.231035,42.787805,2227.964],[-0.231057,42.787849,2227.195],[-0.231091,42.787895,2226.45],[-0.231132,42.787935,2225.994],[-0.231185,42.787959,2225.884],[-0.231236,42.787985,2225.749],[-0.231278,42.788023,2225.261],[-0.231324,42.788056,2224.895],[-0.23135,42.788097,2224.649],[-0.231393,42.788129,2224.523],[-0.231448,42.788162,2224.508],[-0.231502,42.788192,2224.447],[-0.231563,42.78822,2224.37],[-0.231611,42.788257,2224.031],[-0.231678,42.788269,2224.196],[-0.231735,42.788292,2224.97],[-0.231765,42.788334,2224.84],[-0.23181,42.788367,2225.355],[-0.231861,42.788396,2225.837],[-0.231904,42.78843,2225.881],[-0.231931,42.788474,2225.461],[-0.231956,42.788521,2225.017],[-0.231981,42.788565,2225.008],[-0.231992,42.78861,2224.486],[-0.232,42.788661,2224.029],[-0.23203,42.788704,2224.16],[-0.232073,42.788737,2224.385],[-0.232121,42.78877,2224.489],[-0.23216,42.788805,2224.019],[-0.232186,42.788846,2223.134],[-0.232187,42.788893,2221.976],[-0.232206,42.788937,2221.822],[-0.232234,42.788978,2221.862],[-0.232277,42.78901,2222.108],[-0.232314,42.789046,2222.208],[-0.232384,42.789048,2222.87],[-0.232446,42.78905,2223.273],[-0.232507,42.789044,2223.934],[-0.23255,42.789077,2224.089],[-0.232584,42.789115,2223.673],[-0.232587,42.789162,2222.473],[-0.232557,42.789207,2222.228],[-0.232583,42.78925,2222.37],[-0.23261,42.789292,2222.457],[-0.232673,42.789301,2222.6],[-0.232686,42.789348,2222.72],[-0.232708,42.789395,2222.708],[-0.232731,42.789439,2222.883],[-0.232735,42.789488,2223.286],[-0.232739,42.789542,2223.637],[-0.232734,42.78959,2223.962],[-0.232727,42.789636,2224.276],[-0.232787,42.789619,2224.316],[-0.23284,42.789644,2224.531],[-0.232879,42.789684,2224.833],[-0.232912,42.789728,2225.298],[-0.232954,42.789767,2226.315],[-0.232986,42.789809,2227.526],[-0.233045,42.789831,2228.108],[-0.233093,42.789868,2228.967],[-0.233144,42.789895,2229.29],[-0.233207,42.789909,2228.991],[-0.233258,42.789945,2229.116],[-0.233301,42.789982,2229.28],[-0.233332,42.790021,2229.67],[-0.23337,42.790057,2230.675],[-0.233421,42.790085,2231.567],[-0.233479,42.790102,2232.212],[-0.233525,42.790136,2233.632],[-0.233586,42.790158,2234.705],[-0.233636,42.790194,2236.908],[-0.233686,42.790225,2239.699],[-0.233747,42.790234,2241.652],[-0.233791,42.790199,2240.783],[-0.233852,42.790185,2241.288],[-0.233919,42.790159,2241.362],[-0.23398,42.790149,2242.832],[-0.234027,42.790118,2242.347],[-0.234088,42.790103,2243.479],[-0.234152,42.790093,2244.934],[-0.234215,42.790085,2247.155],[-0.234282,42.790079,2249.81],[-0.234342,42.79006,2251.608],[-0.234373,42.790021,2251.241],[-0.234379,42.789971,2249.924],[-0.234388,42.789924,2249.485],[-0.234401,42.789878,2249.23],[-0.234423,42.789836,2249.484],[-0.23445,42.789789,2249.734],[-0.234484,42.789747,2250.559],[-0.234521,42.789708,2251.531],[-0.234544,42.789666,2251.767],[-0.234581,42.789703,2254.481],[-0.234594,42.789748,2255.819],[-0.234596,42.789795,2256.508],[-0.234611,42.78984,2257.734],[-0.234634,42.789884,2259.117],[-0.234688,42.789861,2261.118],[-0.234728,42.789827,2262.533],[-0.23475,42.789785,2262.817],[-0.234806,42.789761,2263.797],[-0.234867,42.789731,2264.772],[-0.234928,42.789709,2265.454],[-0.234981,42.789679,2265.618],[-0.235039,42.78966,2266.098],[-0.235102,42.789645,2266.617],[-0.235165,42.789639,2267.508],[-0.23523,42.789641,2268.539],[-0.235289,42.789626,2269.262],[-0.235331,42.789593,2269.563],[-0.235378,42.789558,2269.758],[-0.23544,42.789539,2270.622],[-0.235504,42.789545,2272.132],[-0.235568,42.789542,2273.587],[-0.235629,42.789531,2274.979],[-0.235694,42.789523,2276.578],[-0.235757,42.789507,2277.633],[-0.235808,42.789534,2280.126],[-0.235875,42.789535,2282.108],[-0.235935,42.789512,2282.845],[-0.235982,42.789481,2282.988],[-0.236042,42.789459,2283.629],[-0.236094,42.789434,2284.264],[-0.236157,42.789412,2285.028],[-0.236216,42.789391,2285.688],[-0.23627,42.789365,2286.043],[-0.236334,42.789368,2287.335],[-0.236399,42.789379,2288.814],[-0.236439,42.789415,2290.254],[-0.236493,42.789437,2291.709],[-0.236557,42.789443,2293.008],[-0.236619,42.789427,2293.769],[-0.236683,42.789405,2294.332],[-0.236747,42.789396,2295.473],[-0.23681,42.789397,2296.768],[-0.236876,42.789393,2297.912],[-0.236944,42.789375,2298.742],[-0.237008,42.789359,2299.287],[-0.237063,42.789335,2299.319],[-0.237117,42.789309,2299.441],[-0.237177,42.789287,2299.781],[-0.237231,42.789264,2299.909],[-0.237269,42.789225,2299.208],[-0.237329,42.789199,2299.172],[-0.237391,42.789188,2299.525],[-0.237449,42.789166,2299.496],[-0.237515,42.78918,2300.541],[-0.237583,42.789181,2301.175],[-0.237653,42.789173,2301.395],[-0.237723,42.789181,2302.15],[-0.237784,42.789194,2303.032],[-0.23784,42.78922,2304.452],[-0.237902,42.789243,2305.853],[-0.237965,42.789249,2306.508],[-0.238026,42.789245,2306.908],[-0.238087,42.789236,2307.533],[-0.238149,42.789235,2308.876],[-0.238209,42.789225,2309.727],[-0.238269,42.789208,2310.482],[-0.23832,42.789181,2310.366],[-0.238364,42.789149,2310.526],[-0.238421,42.789129,2311.511],[-0.238481,42.789117,2312.883],[-0.238544,42.789117,2314.479],[-0.238608,42.789105,2315.805],[-0.238656,42.789075,2316.525],[-0.238707,42.789047,2317.408],[-0.23877,42.789049,2319.185],[-0.238829,42.789063,2320.958],[-0.238895,42.789053,2322.529],[-0.238956,42.789043,2323.814],[-0.238996,42.789006,2324.298],[-0.239025,42.788965,2324.458],[-0.239065,42.78893,2324.993],[-0.239099,42.788892,2325.365],[-0.239155,42.788915,2327.068],[-0.239219,42.788908,2328.242],[-0.23928,42.788899,2329.226],[-0.239345,42.788888,2330.208],[-0.239403,42.788867,2331.164],[-0.239462,42.788852,2332.277],[-0.239526,42.788844,2334.038],[-0.239574,42.788811,2335.013],[-0.239618,42.788776,2335.947],[-0.239668,42.788744,2337.067],[-0.239712,42.78871,2337.882],[-0.239774,42.788703,2339.574],[-0.239832,42.788687,2341.199],[-0.239893,42.788685,2342.907],[-0.239926,42.788647,2343.427],[-0.239931,42.788596,2343.108],[-0.239959,42.788552,2344.437],[-0.239994,42.788512,2345.91],[-0.240025,42.788472,2347.171],[-0.240085,42.788454,2348.946],[-0.240146,42.788442,2350.79],[-0.240196,42.788413,2352.75],[-0.240194,42.788368,2353.675],[-0.240195,42.788317,2354.657],[-0.240207,42.78827,2355.887],[-0.240234,42.788227,2357.542],[-0.240248,42.788183,2358.726],[-0.240269,42.788138,2360.208],[-0.240344,42.788121,2361.236],[-0.240414,42.788115,2361.669],[-0.240474,42.788127,2361.84],[-0.240537,42.788138,2362.045],[-0.240585,42.788169,2361.649],[-0.240628,42.788202,2361.299],[-0.240678,42.788234,2361.014],[-0.240739,42.78824,2361.056],[-0.240792,42.788263,2361.254],[-0.240802,42.788314,2361.656],[-0.240853,42.788345,2362.011],[-0.240913,42.788333,2362.608],[-0.240953,42.788369,2362.643],[-0.241004,42.788399,2363.026],[-0.241061,42.788417,2363.747],[-0.241099,42.788456,2364.382],[-0.241135,42.788498,2365.296],[-0.241154,42.788543,2365.956],[-0.241153,42.788591,2366.231],[-0.241217,42.788605,2368.433],[-0.241278,42.788619,2370.841],[-0.241342,42.788615,2372.781],[-0.241402,42.788593,2374.109],[-0.241462,42.788605,2376.708],[-0.241519,42.788623,2379.642],[-0.241573,42.788645,2382.555],[-0.241615,42.788678,2385.116],[-0.241678,42.788684,2387.511],[-0.241745,42.788667,2389.895],[-0.241759,42.788623,2389.365],[-0.2418,42.788588,2389.44],[-0.241864,42.788584,2391.732],[-0.241942,42.788603,2396.347],[-0.242003,42.788611,2397.629],[-0.242059,42.788645,2399.021],[-0.242116,42.788668,2400.308],[-0.242162,42.788702,2401.932],[-0.242223,42.7887,2402.935],[-0.242291,42.78871,2403.516],[-0.242351,42.788702,2403.641],[-0.242402,42.788734,2404.925],[-0.242434,42.788776,2406.655],[-0.242485,42.788803,2407.85],[-0.242534,42.788832,2408.912],[-0.242591,42.788852,2409.584],[-0.242648,42.788872,2410.307],[-0.242707,42.788889,2411.017],[-0.242759,42.788913,2411.608],[-0.242814,42.78894,2412.436],[-0.242869,42.788962,2413.149],[-0.242927,42.788979,2413.64],[-0.242966,42.789015,2414.535],[-0.242983,42.789062,2415.699],[-0.243004,42.789106,2416.699],[-0.24304,42.789148,2417.634],[-0.243085,42.789183,2418.176],[-0.243127,42.789221,2418.447],[-0.243165,42.789257,2418.629],[-0.243203,42.789294,2418.721],[-0.243255,42.789324,2418.608],[-0.243317,42.789332,2418.072],[-0.243356,42.789376,2417.865],[-0.243378,42.789418,2417.846],[-0.243423,42.789453,2417.121],[-0.243482,42.789476,2415.955],[-0.243545,42.789482,2414.795],[-0.243591,42.789513,2414.14],[-0.243646,42.789534,2413.462],[-0.24368,42.789573,2413.469],[-0.24374,42.789596,2412.904],[-0.243791,42.789623,2412.724],[-0.243844,42.789649,2412.608],[-0.243896,42.789675,2412.774],[-0.243936,42.789711,2412.717],[-0.243931,42.789756,2413.038],[-0.243951,42.789803,2412.523],[-0.244001,42.789838,2411.577],[-0.244034,42.789877,2410.977],[-0.244088,42.7899,2410.042],[-0.244104,42.789945,2409.834],[-0.244137,42.789985,2409.418],[-0.244118,42.790029,2409.398],[-0.244106,42.790075,2408.917],[-0.244132,42.790119,2408.108],[-0.244166,42.790166,2407.299],[-0.244198,42.79021,2406.692],[-0.244232,42.790247,2406.293],[-0.244291,42.790261,2406.118],[-0.24435,42.790283,2406.042],[-0.244392,42.790322,2405.752],[-0.244417,42.790368,2405.497],[-0.244449,42.790407,2405.069],[-0.244485,42.790447,2404.479],[-0.244505,42.790494,2403.905],[-0.244519,42.790544,2403.525],[-0.244508,42.790589,2405.308],[-0.244543,42.790627,2407.195],[-0.24461,42.790625,2406.428],[-0.244667,42.790642,2406.869],[-0.244734,42.790652,2406.824],[-0.244796,42.790655,2406.518],[-0.244856,42.790664,2406.548],[-0.244912,42.790686,2407.033],[-0.244955,42.790723,2407.955],[-0.245011,42.790748,2408.151],[-0.245072,42.790761,2407.901],[-0.245133,42.79077,2407.511],[-0.245196,42.790789,2407.208],[-0.24526,42.790803,2406.733],[-0.245325,42.790816,2406.236],[-0.245376,42.790843,2406.437],[-0.245427,42.790874,2407.142],[-0.245471,42.790914,2408.166],[-0.245519,42.79095,2408.836],[-0.245579,42.790967,2408.661],[-0.245643,42.79098,2408.493],[-0.245712,42.790994,2408.251],[-0.245758,42.791027,2408.401],[-0.245818,42.791052,2408.211],[-0.245884,42.791072,2408.008],[-0.245937,42.791104,2408.153],[-0.245999,42.791109,2407.886],[-0.246061,42.791095,2407.287],[-0.246124,42.791086,2406.712],[-0.246186,42.79107,2406.326],[-0.246245,42.791051,2406.056],[-0.246299,42.791028,2405.651],[-0.246347,42.790997,2405.343],[-0.246394,42.790963,2404.955],[-0.24645,42.79094,2404.807],[-0.246512,42.79094,2404.817],[-0.246573,42.790959,2404.908],[-0.246597,42.791001,2405.213],[-0.246644,42.791031,2405.466],[-0.246707,42.791042,2405.667],[-0.246762,42.791063,2405.882],[-0.246812,42.791091,2406.036],[-0.24686,42.791122,2406.526],[-0.24692,42.791139,2407.271],[-0.246978,42.791122,2406.683],[-0.247039,42.791111,2406.391],[-0.247101,42.791097,2406.881],[-0.247166,42.79109,2407.219],[-0.247229,42.791094,2407.508],[-0.247295,42.791085,2407.927],[-0.247362,42.791079,2408.47],[-0.247425,42.791081,2408.651],[-0.247486,42.791096,2408.446],[-0.247548,42.791104,2408.46],[-0.247613,42.791114,2408.52],[-0.247669,42.791142,2409.355],[-0.247733,42.79114,2409.557],[-0.247799,42.79114,2409.739],[-0.247858,42.791119,2409.401],[-0.247917,42.791106,2409.621],[-0.247988,42.791095,2410.108],[-0.248059,42.791101,2410.231],[-0.248126,42.791111,2410.064],[-0.248191,42.791114,2410.075],[-0.248256,42.791105,2410.18],[-0.248318,42.791089,2410.384],[-0.248372,42.791114,2410.244],[-0.248437,42.791118,2410.429],[-0.248501,42.791099,2410.721],[-0.248564,42.791079,2411.215],[-0.248625,42.791061,2411.665],[-0.248689,42.791049,2412.011],[-0.248751,42.791049,2412.308],[-0.248816,42.79105,2412.639],[-0.248881,42.791053,2412.892],[-0.248943,42.79105,2413.143],[-0.248997,42.791019,2413.838],[-0.249061,42.791005,2414.422],[-0.249128,42.790995,2414.922],[-0.249173,42.790961,2415.897],[-0.249219,42.790927,2416.899],[-0.249278,42.790914,2417.682],[-0.249323,42.790878,2418.843],[-0.24935,42.790836,2419.917],[-0.249412,42.790821,2421.008],[-0.249471,42.790797,2422.526],[-0.249507,42.790757,2424.179],[-0.249526,42.790711,2425.73],[-0.24958,42.79068,2427.285],[-0.249636,42.790699,2427.139],[-0.249701,42.790706,2427.569],[-0.249763,42.790719,2427.674],[-0.24983,42.790723,2428.056],[-0.249892,42.790708,2428.999],[-0.249942,42.790679,2429.907],[-0.250002,42.790666,2430.627],[-0.250066,42.790673,2431.008],[-0.25013,42.790681,2431.447],[-0.250186,42.790705,2431.51],[-0.250254,42.790711,2432.031],[-0.250315,42.790701,2432.716],[-0.250381,42.790693,2433.51],[-0.250442,42.790705,2433.83],[-0.250504,42.790707,2434.385],[-0.250568,42.790701,2435.057],[-0.250629,42.790693,2435.884],[-0.250697,42.790689,2436.607],[-0.250763,42.790671,2437.717],[-0.250826,42.790663,2438.608],[-0.25089,42.790657,2439.466],[-0.250946,42.79063,2440.629],[-0.25101,42.790607,2441.87],[-0.251066,42.790588,2442.825],[-0.251123,42.790569,2443.869],[-0.251188,42.790562,2444.419],[-0.251229,42.790529,2445.564],[-0.251293,42.790524,2446.046],[-0.251354,42.790513,2446.772],[-0.251412,42.79053,2446.613],[-0.251477,42.790531,2446.914],[-0.251538,42.790528,2447.208],[-0.251598,42.790507,2447.915],[-0.251651,42.790482,2448.878],[-0.251695,42.790446,2450.249],[-0.251754,42.79043,2451.474],[-0.251815,42.790448,2451.898],[-0.251871,42.790428,2453.258],[-0.251921,42.790397,2454.733],[-0.251984,42.790405,2455.625],[-0.252045,42.790421,2456.622],[-0.252106,42.790441,2457.562],[-0.252155,42.79047,2458.008],[-0.252206,42.790439,2459.708],[-0.252253,42.790405,2461.69],[-0.252315,42.790398,2463.533],[-0.252375,42.790386,2465.384],[-0.252427,42.790411,2466.579],[-0.252465,42.790448,2467.143],[-0.252518,42.790471,2468.713],[-0.252574,42.790452,2471.318],[-0.252606,42.790411,2472.98],[-0.252661,42.790432,2475.138],[-0.252722,42.790443,2477.67],[-0.252792,42.790426,2481.017],[-0.252849,42.790404,2485.008],[-0.25289,42.790368,2487.551],[-0.25295,42.790382,2491.864],[-0.252927,42.790338,2489.515],[-0.25293,42.790293,2489.04],[-0.252933,42.790246,2489.444],[-0.252989,42.790224,2492.594],[-0.253048,42.790205,2495.489],[-0.253074,42.790163,2496.451],[-0.253061,42.790117,2495.651],[-0.253059,42.790071,2495.401],[-0.253114,42.790047,2497.111],[-0.253169,42.790025,2498.708],[-0.253233,42.790029,2500.733],[-0.253295,42.790018,2502.486],[-0.253345,42.789988,2503.897],[-0.253398,42.78996,2506.212],[-0.25345,42.789935,2508.176],[-0.253504,42.789907,2509.786],[-0.253559,42.789881,2510.831],[-0.253619,42.789859,2511.613],[-0.253678,42.789837,2512.268],[-0.253727,42.789809,2512.442],[-0.253775,42.789781,2512.426],[-0.253815,42.789742,2511.908],[-0.253864,42.789708,2512.354],[-0.253918,42.78968,2513.647],[-0.253973,42.789656,2514.858],[-0.254034,42.789642,2515.633],[-0.254096,42.789629,2516.287],[-0.254144,42.789601,2516.577],[-0.254183,42.789564,2516.682],[-0.254252,42.789558,2517.324],[-0.254308,42.78958,2518.255],[-0.254367,42.789592,2519.207],[-0.25443,42.789588,2519.917],[-0.254502,42.78958,2520.508],[-0.254569,42.789578,2521.273],[-0.254635,42.789573,2521.826],[-0.254696,42.789586,2522.897],[-0.254758,42.789597,2523.812],[-0.254823,42.789603,2524.766],[-0.254892,42.789597,2525.256],[-0.254956,42.789602,2526.161],[-0.25501,42.789628,2527.513],[-0.255075,42.789618,2528.388],[-0.255135,42.789634,2529.724],[-0.255184,42.789663,2531.226],[-0.255254,42.789668,2532.508],[-0.255315,42.789663,2533.426],[-0.255369,42.78969,2535.049],[-0.255434,42.789677,2535.97],[-0.255487,42.789701,2537.435],[-0.255513,42.789745,2539.349],[-0.255574,42.789743,2540.449],[-0.255631,42.789725,2540.864],[-0.25568,42.789755,2543.246],[-0.255743,42.789767,2545.088],[-0.255802,42.789749,2545.524],[-0.255841,42.789712,2544.926],[-0.255902,42.789695,2545.408],[-0.255968,42.78969,2546.346],[-0.256031,42.789704,2547.519],[-0.256093,42.789693,2548.28],[-0.256154,42.789681,2548.825],[-0.256221,42.789685,2549.639],[-0.256283,42.789687,2550.459],[-0.256347,42.789678,2551.044],[-0.256407,42.789697,2552.036],[-0.256466,42.78971,2553.084],[-0.256521,42.789738,2554.507],[-0.256581,42.789755,2556.017],[-0.256648,42.789757,2557.008],[-0.256711,42.789756,2557.996],[-0.256775,42.789759,2558.989],[-0.256835,42.789772,2560.23],[-0.256897,42.789773,2561.195],[-0.256958,42.78978,2562.269],[-0.257013,42.789805,2563.699],[-0.257073,42.789821,2564.834],[-0.257136,42.789829,2565.836],[-0.257195,42.789853,2567.444],[-0.257256,42.789857,2568.405],[-0.257315,42.789843,2568.915],[-0.257355,42.789804,2567.908],[-0.257413,42.78978,2567.912],[-0.257477,42.789782,2569.235],[-0.257542,42.789778,2570.346],[-0.257599,42.789751,2570.331],[-0.25764,42.789715,2569.975],[-0.257696,42.78969,2570.635],[-0.257755,42.789674,2571.34],[-0.257808,42.78965,2571.732],[-0.257865,42.789626,2572.265],[-0.257912,42.789658,2573.768],[-0.257974,42.789659,2574.714],[-0.258031,42.789633,2575.308],[-0.258089,42.789616,2576.214],[-0.258142,42.789591,2577.147],[-0.258207,42.789599,2578.748],[-0.258268,42.789609,2580.123],[-0.258331,42.789594,2581.537],[-0.258394,42.789596,2582.427],[-0.258452,42.78957,2583.292],[-0.258503,42.789543,2583.844],[-0.258559,42.789562,2584.769],[-0.258618,42.789585,2585.604],[-0.258681,42.789588,2586.224],[-0.25874,42.789572,2586.508],[-0.258792,42.789545,2586.534],[-0.258833,42.78951,2586.247],[-0.258861,42.789467,2585.428],[-0.258871,42.789416,2585.113],[-0.258893,42.789372,2585.357],[-0.258913,42.789329,2585.717],[-0.258956,42.789295,2586.462],[-0.259011,42.789274,2587.394],[-0.259073,42.789283,2588.111],[-0.259137,42.789277,2589.021],[-0.25918,42.789316,2589.003],[-0.259239,42.789337,2589.608],[-0.2593,42.789354,2590.429],[-0.259364,42.789354,2591.482],[-0.259427,42.789333,2592.553],[-0.259468,42.789299,2593.548],[-0.259532,42.789296,2594.612],[-0.259584,42.789325,2595.642],[-0.259642,42.789348,2596.967],[-0.259696,42.789326,2597.839],[-0.259754,42.789301,2598.784],[-0.259816,42.789285,2599.907],[-0.259881,42.789291,2601.517],[-0.259928,42.789261,2602.108],[-0.259952,42.789219,2601.946],[-0.260013,42.789217,2603.399],[-0.260073,42.7892,2605.03],[-0.260135,42.789195,2606.925],[-0.260196,42.789182,2608.679],[-0.260238,42.789218,2610.649],[-0.260274,42.789258,2612.574],[-0.26033,42.789236,2614.126],[-0.260369,42.789198,2614.636],[-0.260396,42.789155,2614.917],[-0.260449,42.789184,2617.018],[-0.260505,42.789206,2619.408],[-0.260566,42.789214,2621.891],[-0.26062,42.78924,2624.694],[-0.260673,42.789269,2627.655],[-0.260728,42.789291,2630.69],[-0.260771,42.789325,2633.624],[-0.260833,42.78933,2636.554],[-0.260881,42.789302,2637.539],[-0.260884,42.789257,2635.861],[-0.260943,42.789239,2637.773],[-0.261004,42.789246,2640.785],[-0.261052,42.789214,2641.513],[-0.261115,42.789212,2644.108],[-0.261172,42.789187,2645.365],[-0.261204,42.789147,2645.348],[-0.261245,42.789107,2646.189],[-0.261289,42.789074,2647.284],[-0.261295,42.789028,2646.568],[-0.261333,42.788992,2647.198],[-0.2614,42.788995,2649.653],[-0.261464,42.788997,2651.465],[-0.261527,42.788999,2653.238],[-0.261567,42.788964,2653.27],[-0.261631,42.788972,2655.117],[-0.261685,42.788996,2657.408],[-0.261733,42.789029,2660.291],[-0.261778,42.788998,2660.474],[-0.261834,42.788972,2661.265],[-0.261895,42.788965,2662.85],[-0.261969,42.788947,2664.094],[-0.262033,42.788973,2666.574],[-0.262065,42.789012,2669.129],[-0.262126,42.789023,2671.071],[-0.262171,42.78906,2674.087],[-0.262198,42.789103,2676.942],[-0.262232,42.789063,2675.626],[-0.262266,42.789105,2678.708],[-0.262304,42.789142,2681.726],[-0.262359,42.789118,2681.769],[-0.262425,42.7891,2682.36],[-0.262485,42.789082,2682.815],[-0.262547,42.789081,2684.849],[-0.262608,42.789091,2687.529],[-0.262668,42.789105,2690.244],[-0.262734,42.789099,2692.376],[-0.262802,42.789091,2694.392],[-0.262861,42.789076,2695.673],[-0.262923,42.789061,2697.32],[-0.262945,42.789017,2697.408],[-0.263017,42.789008,2700.087],[-0.263081,42.789013,2701.83],[-0.263132,42.789038,2702.621],[-0.263187,42.789059,2703.326],[-0.263246,42.789084,2703.91],[-0.263305,42.7891,2704.42],[-0.263364,42.789124,2705.155],[-0.263428,42.78913,2706.447],[-0.263488,42.789146,2707.363],[-0.263545,42.789167,2707.844],[-0.263602,42.789191,2710.318],[-0.263657,42.789211,2712.308],[-0.263714,42.789232,2714.424],[-0.263779,42.789229,2715.147],[-0.263837,42.78921,2714.818],[-0.263899,42.789205,2715.423],[-0.263959,42.789214,2716.977],[-0.264024,42.789214,2718.147],[-0.264089,42.789217,2719.332],[-0.264154,42.789228,2720.894],[-0.264216,42.789233,2721.546],[-0.26427,42.789255,2722.388],[-0.264326,42.789279,2722.816],[-0.264378,42.789311,2723.208],[-0.264439,42.789324,2723.072],[-0.264436,42.789271,2723.025],[-0.264424,42.789226,2722.896],[-0.264439,42.789181,2722.911],[-0.2645,42.78917,2722.415],[-0.26453,42.789129,2723.815],[-0.264523,42.789082,2725.98],[-0.264522,42.789036,2728.042],[-0.264482,42.789001,2730.295],[-0.264514,42.788958,2731.649],[-0.264582,42.788947,2731.023],[-0.264644,42.788927,2730.808],[-0.264677,42.788887,2731.987],[-0.264686,42.788841,2733.96],[-0.264705,42.788796,2735.791],[-0.264762,42.788767,2736.096],[-0.264823,42.788752,2735.63],[-0.26487,42.788719,2736.48],[-0.26492,42.78869,2737.145],[-0.264942,42.788647,2739.077],[-0.264972,42.788607,2740.625],[-0.265006,42.788563,2742.526],[-0.265054,42.788526,2743.808],[-0.265058,42.78848,2746.108],[-0.265093,42.788439,2747.78],[-0.265117,42.788395,2749.753],[-0.265079,42.788355,2752.414],[-0.265109,42.788314,2754.039],[-0.265142,42.788272,2755.663],[-0.265109,42.788234,2758.233],[-0.265066,42.788202,2760.538],[-0.265018,42.788235,2759.71],[-0.265018,42.788189,2762.053],[-0.265038,42.788144,2764.004],[-0.265039,42.788096,2766.414],[-0.265045,42.788051,2768.608],[-0.264986,42.788039,2770.293],[-0.264925,42.788022,2772.916],[-0.264886,42.787986,2775.727],[-0.264887,42.787939,2777.872],[-0.264884,42.787893,2779.946],[-0.264907,42.787849,2781.246],[-0.264866,42.787815,2783.871],[-0.264894,42.787775,2784.863],[-0.264901,42.78773,2786.795],[-0.264947,42.787696,2787.149],[-0.264945,42.78765,2789.323],[-0.264883,42.787645,2791.008],[-0.264836,42.787615,2793.467],[-0.264842,42.787567,2795.41],[-0.264854,42.787519,2797.321],[-0.264895,42.787483,2798.376],[-0.264925,42.787442,2800.26],[-0.264987,42.787439,2799.05],[-0.265007,42.787395,2801.445],[-0.265006,42.787348,2804.357],[-0.264984,42.787305,2807.391],[-0.265003,42.78726,2809.781],[-0.265,42.787215,2812.519],[-0.264947,42.78719,2815.608],[-0.264927,42.787147,2819.017],[-0.264874,42.787119,2821.91],[-0.264836,42.787077,2825.461],[-0.264878,42.78704,2827.076],[-0.264859,42.786997,2830.19],[-0.264828,42.786956,2833.18],[-0.264791,42.78692,2835.695],[-0.264751,42.786882,2838.147],[-0.264717,42.786844,2840.651],[-0.26466,42.786826,2843.701],[-0.264601,42.786809,2846.911],[-0.264607,42.786762,2849.308],[-0.264586,42.786719,2852.573],[-0.264616,42.786678,2853.676],[-0.264642,42.786634,2855.787],[-0.264658,42.786585,2858.812],[-0.264604,42.786561,2862.616],[-0.264546,42.786582,2863.186],[-0.264499,42.786552,2866.971],[-0.264452,42.786523,2870.673],[-0.264421,42.786481,2874.529],[-0.264358,42.786479,2876.7],[-0.264398,42.786443,2877.82],[-0.264405,42.786392,2881.108],[-0.264398,42.786347,2884.89],[-0.264355,42.78631,2889.093],[-0.264291,42.786309,2891.054],[-0.26429,42.786264,2894.459],[-0.264351,42.786249,2893.873],[-0.26441,42.786233,2893.343],[-0.264429,42.78619,2896.218],[-0.264481,42.786155,2897.68],[-0.264516,42.786117,2899.716],[-0.264525,42.786067,2903.576],[-0.264571,42.786037,2904.913],[-0.264619,42.786006,2906.508],[-0.264667,42.785976,2908.229],[-0.264684,42.785932,2911.712],[-0.264735,42.785903,2913.613],[-0.264748,42.785859,2917.648],[-0.264687,42.785855,2918.562],[-0.264629,42.785837,2920.772],[-0.264569,42.785853,2920.077],[-0.264517,42.785829,2922.279],[-0.264491,42.785787,2921.421],[-0.264553,42.785802,2921.941],[-0.264596,42.78577,2922.605],[-0.264657,42.785757,2924.108],[-0.264699,42.785724,2927.16],[-0.26473,42.78568,2931.183],[-0.264751,42.785637,2934.664],[-0.264814,42.785659,2933.939],[-0.264876,42.785658,2934.933],[-0.264932,42.785638,2937.693],[-0.264985,42.785612,2941.088],[-0.265039,42.785587,2944.13],[-0.265092,42.785556,2947.669],[-0.265148,42.785537,2949.504],[-0.265187,42.785502,2952.324],[-0.265252,42.785489,2953.108],[-0.265305,42.785459,2953.874],[-0.265323,42.785415,2955.577],[-0.265287,42.785378,2959.428],[-0.265237,42.785352,2962.273],[-0.265174,42.785353,2963.487],[-0.265111,42.785338,2965.827],[-0.265058,42.785311,2969.392],[-0.265046,42.785266,2972.594],[-0.265001,42.785234,2973.864],[-0.26496,42.785199,2969.906],[-0.264959,42.785154,2970.016],[-0.264948,42.785108,2969.408],[-0.264928,42.785065,2968.454],[-0.264888,42.78503,2966.437],[-0.264891,42.78498,2966.588],[-0.264894,42.784932,2965.283],[-0.26489,42.784887,2963.677],[-0.264841,42.784859,2961.417],[-0.264857,42.784814,2960.762],[-0.264893,42.784776,2960.334],[-0.264913,42.784733,2959.126],[-0.264931,42.784689,2958.447],[-0.264989,42.784671,2957.611],[-0.265012,42.784625,2955.208],[-0.265001,42.784577,2954.77],[-0.265005,42.784532,2953.143],[-0.265026,42.78449,2950.284],[-0.265067,42.784455,2946.029],[-0.26507,42.784407,2945.013],[-0.265131,42.784383,2939.893],[-0.265191,42.784373,2935.058],[-0.265166,42.784328,2936.44],[-0.265111,42.784304,2940.477],[-0.265052,42.784286,2944.761],[-0.265005,42.784255,2947.927],[-0.264977,42.784214,2949.708],[-0.264947,42.784171,2951.875],[-0.264926,42.784127,2954.778],[-0.264933,42.784082,2955.279],[-0.264956,42.78404,2954.334],[-0.264952,42.783993,2955.928],[-0.264948,42.783946,2957.448],[-0.264916,42.783905,2961.023],[-0.264935,42.783859,2961.135],[-0.264918,42.783812,2964.362],[-0.264971,42.783787,2961.583],[-0.265026,42.783761,2958.211],[-0.265022,42.783715,2960.508],[-0.265011,42.783667,2963.644],[-0.26501,42.783622,2965.677],[-0.264985,42.783579,2969.488],[-0.264946,42.783544,2973.463],[-0.264964,42.783501,2974.097],[-0.264983,42.783456,2974.887],[-0.264966,42.783411,2977.862],[-0.26495,42.783367,2980.664],[-0.264946,42.783322,2983.011],[-0.264978,42.783283,2983.421],[-0.265017,42.783246,2983.003],[-0.265009,42.783199,2986.508],[-0.264953,42.783178,2991.249],[-0.264946,42.783131,2994.452],[-0.264986,42.783096,2994.313],[-0.264941,42.783129,2994.878],[-0.264905,42.783091,2999.052],[-0.264905,42.783042,3000.752],[-0.264901,42.782996,2999.617],[-0.264949,42.782968,2996.849],[-0.264892,42.782947,2998.449],[-0.264841,42.782974,3001.402],[-0.264875,42.782936,2998.722],[-0.264845,42.782983,3001.608],[-0.264778,42.782989,3004.712],[-0.264723,42.782965,3005.875],[-0.264707,42.782915,3003.536],[-0.264647,42.782934,3007.081],[-0.264592,42.782954,3010.615],[-0.26455,42.782988,3015.165],[-0.26454,42.783033,3019.16],[-0.264494,42.783078,3022.492],[-0.264442,42.783104,3024.434],[-0.264382,42.783081,3027.855],[-0.264329,42.783059,3030.51],[-0.264287,42.783094,3031.808],[-0.264229,42.783112,3034.421],[-0.264176,42.783088,3036.884],[-0.264127,42.783118,3039.145],[-0.264077,42.783151,3041.72],[-0.264021,42.78317,3044.634],[-0.263997,42.783216,3046.794],[-0.263946,42.783244,3050.169],[-0.263898,42.783275,3053.631],[-0.263837,42.783282,3054.033],[-0.263788,42.783251,3053.323],[-0.263727,42.783238,3053.415],[-0.263682,42.783207,3053.908],[-0.263627,42.78318,3055.261],[-0.263572,42.783156,3056.424],[-0.263514,42.78314,3057.725],[-0.263448,42.783132,3059.03],[-0.263382,42.783131,3060.054],[-0.263321,42.783123,3061.474],[-0.263258,42.783125,3060.859],[-0.263248,42.783081,3064.871],[-0.263179,42.783083,3064.077],[-0.263119,42.783054,3065.561],[-0.263064,42.783033,3063.127],[-0.263,42.783041,3061.208],[-0.262986,42.782997,3057.845],[-0.262929,42.782972,3055.038],[-0.262879,42.782943,3053.129],[-0.26282,42.782923,3052.244],[-0.262771,42.782895,3052.128],[-0.262716,42.782875,3051.918],[-0.262657,42.782858,3052.393],[-0.262597,42.782835,3053.595],[-0.262543,42.782813,3055.552],[-0.26248,42.782792,3057.053],[-0.262428,42.782763,3055.508],[-0.262381,42.782733,3052.908],[-0.262373,42.782686,3051.423],[-0.262324,42.782646,3050.726],[-0.262266,42.782627,3051.237],[-0.262215,42.782601,3052.332],[-0.262166,42.782573,3052.226],[-0.262138,42.782529,3053.776],[-0.262084,42.782507,3054.681],[-0.26205,42.782463,3053.633],[-0.261997,42.782439,3053.577],[-0.26194,42.782415,3053.961],[-0.261914,42.782372,3052.827],[-0.261878,42.782329,3052.308],[-0.261825,42.782305,3052.315],[-0.261777,42.78227,3053.598],[-0.261724,42.782243,3055.599],[-0.261677,42.782214,3057.374],[-0.261636,42.782178,3054.768],[-0.261592,42.782137,3052.278],[-0.261537,42.782115,3051.233],[-0.26148,42.782098,3051.075],[-0.261462,42.782049,3051.911],[-0.261436,42.782005,3053.721],[-0.261394,42.781966,3056.803],[-0.261337,42.781946,3057.508],[-0.261301,42.781908,3055.849],[-0.261281,42.781862,3054.242],[-0.261225,42.781838,3054.453],[-0.261158,42.781829,3055.828],[-0.261119,42.781793,3056.842],[-0.261054,42.78179,3057.322],[-0.26099,42.781785,3057.797],[-0.260948,42.78175,3060.049],[-0.260903,42.781719,3063.139],[-0.260859,42.781686,3067.201],[-0.260804,42.781666,3069.121],[-0.260748,42.78164,3067.208],[-0.26072,42.781593,3066.581],[-0.260666,42.781565,3066.734],[-0.260614,42.781539,3067.795],[-0.260566,42.781502,3070.09],[-0.260506,42.781487,3069.644],[-0.260478,42.781446,3071.164],[-0.26041,42.781432,3070.279],[-0.260342,42.781432,3068.511],[-0.260277,42.781438,3066.426],[-0.260215,42.78144,3063.747],[-0.260155,42.781426,3062.211],[-0.260113,42.781392,3063.208],[-0.260054,42.781377,3060.64],[-0.259998,42.7814,3057.953],[-0.259937,42.781407,3053.464],[-0.259872,42.781404,3049.629],[-0.259857,42.78136,3049.633],[-0.259801,42.781336,3046.033],[-0.259763,42.781299,3043.668],[-0.259701,42.781292,3042.62],[-0.259647,42.781268,3044.658],[-0.259593,42.781293,3047.252],[-0.25953,42.781299,3050.017],[-0.259474,42.78128,3051.908],[-0.25941,42.78129,3054.923],[-0.259349,42.781304,3058.256],[-0.259288,42.781297,3060.527],[-0.259233,42.781322,3064.412],[-0.259176,42.781339,3068.116],[-0.259115,42.78135,3069.276],[-0.259064,42.781375,3071.081],[-0.259079,42.781419,3070.093],[-0.259097,42.781462,3067.166],[-0.259125,42.781421,3069.829],[-0.259154,42.781381,3071.521],[-0.259201,42.78135,3067.608],[-0.259263,42.781339,3063.964],[-0.259329,42.781335,3060.657],[-0.259392,42.781331,3057.488],[-0.259448,42.781312,3054.173],[-0.259511,42.781329,3051.777],[-0.25957,42.781342,3049.227],[-0.259603,42.781302,3046.932],[-0.259658,42.781277,3044.234],[-0.259716,42.781297,3041.927],[-0.259776,42.781312,3044.468],[-0.25983,42.781289,3046.714],[-0.259868,42.781253,3047.608],[-0.259913,42.781286,3050.55],[-0.259955,42.781252,3051.243],[-0.260019,42.781233,3053.054],[-0.260082,42.781227,3055.359],[-0.260125,42.781191,3055.483],[-0.260149,42.781149,3054.553],[-0.260166,42.781106,3053.268],[-0.260126,42.781071,3049.31],[-0.260064,42.781055,3045.633],[-0.260035,42.781012,3041.423],[-0.260034,42.780966,3038.115],[-0.260078,42.78093,3037.608],[-0.260106,42.78089,3036.221],[-0.260034,42.780877,3031.874],[-0.259974,42.780887,3029.885],[-0.260024,42.780859,3030.07],[-0.259994,42.780819,3025.584],[-0.259951,42.780785,3020.674],[-0.259947,42.780739,3016.459],[-0.259918,42.780697,3011.271],[-0.259882,42.78066,3006.122],[-0.259848,42.780622,3000.962],[-0.2598,42.780594,2995.808],[-0.259818,42.780548,2992.408],[-0.259845,42.780508,2989.98],[-0.259867,42.780465,2986.853],[-0.259907,42.78043,2985.584],[-0.259918,42.780385,2981.629],[-0.259938,42.78034,2978.123],[-0.259887,42.780313,2972.873],[-0.259853,42.780273,2967.058],[-0.259842,42.780226,2960.82],[-0.259877,42.780184,2957.584],[-0.259924,42.78015,2955.707],[-0.259861,42.78016,2953.817],[-0.259802,42.780145,2949.108],[-0.259739,42.78015,2946.686],[-0.25971,42.780109,2940.769],[-0.259667,42.780075,2935.76],[-0.259645,42.780033,2930.145],[-0.259686,42.779998,2926.959],[-0.259738,42.779966,2925.479],[-0.259691,42.779934,2921.034],[-0.259638,42.779912,2917.966],[-0.259588,42.779886,2914.734],[-0.259526,42.779883,2913.555],[-0.259576,42.77991,2916.61],[-0.259515,42.779922,2916.508],[-0.259454,42.779928,2915.721],[-0.259393,42.779941,2916.134],[-0.25933,42.77993,2914.715],[-0.25926,42.779921,2913.41],[-0.259202,42.779905,2911.814],[-0.259148,42.77988,2909.664],[-0.259089,42.779863,2907.749],[-0.259027,42.779865,2907.051],[-0.25898,42.779897,2908.765],[-0.258919,42.779913,2909.168],[-0.25888,42.779878,2906.114],[-0.258827,42.779847,2903.608],[-0.258767,42.779862,2904.274],[-0.258708,42.77988,2905.067],[-0.258638,42.779882,2904.658],[-0.258577,42.779871,2903.313],[-0.258515,42.779861,2902.047],[-0.258455,42.779884,2902.897],[-0.258398,42.779905,2903.592],[-0.25834,42.779928,2904.474],[-0.258276,42.779937,2904.925],[-0.258239,42.7799,2902.426],[-0.258188,42.779874,2900.608],[-0.258131,42.779849,2898.808],[-0.258063,42.779846,2898.59],[-0.258012,42.77982,2897.063],[-0.257951,42.779806,2896.584],[-0.257917,42.779768,2894.159],[-0.257866,42.779736,2892.373],[-0.257877,42.779691,2889.693],[-0.257838,42.779652,2887.968],[-0.257784,42.779628,2887.27],[-0.257728,42.779594,2886.294],[-0.257683,42.779563,2885.257],[-0.257662,42.77952,2883.422],[-0.257633,42.779479,2881.808],[-0.257601,42.779441,2880.487],[-0.257571,42.7794,2879.36],[-0.257562,42.779353,2877.791],[-0.257584,42.779308,2875.666],[-0.257576,42.779261,2873.95],[-0.257545,42.779219,2873.04],[-0.257515,42.779178,2872.155],[-0.257487,42.779137,2872.167],[-0.257478,42.779092,2871.614],[-0.257486,42.779044,2870.154],[-0.257458,42.779002,2870.809],[-0.257435,42.778954,2871.108],[-0.25745,42.77891,2869.329],[-0.257467,42.778862,2867.312],[-0.257467,42.778812,2866.323],[-0.257455,42.778767,2866.098],[-0.257438,42.778722,2866.192],[-0.25742,42.778675,2866.242],[-0.257425,42.77863,2865.037],[-0.257431,42.778581,2863.759],[-0.257435,42.778533,2862.657],[-0.257451,42.778488,2860.9],[-0.257442,42.778442,2860.62],[-0.257443,42.778397,2859.808],[-0.257454,42.778352,2858.323],[-0.257427,42.778307,2859.086],[-0.257388,42.778269,2860.547],[-0.257382,42.77822,2859.642],[-0.257374,42.778172,2858.816],[-0.25736,42.778125,2858.446],[-0.25735,42.778073,2857.751],[-0.257356,42.778024,2856.083],[-0.257367,42.77798,2854.181],[-0.257355,42.777934,2853.661],[-0.257342,42.777887,2853.017],[-0.257332,42.777842,2852.308],[-0.257311,42.777799,2852.136],[-0.257306,42.777751,2850.949],[-0.257287,42.777706,2850.38],[-0.257295,42.777654,2848.285],[-0.257317,42.77761,2845.649],[-0.257326,42.777562,2843.599],[-0.257294,42.77752,2843.874],[-0.25727,42.777478,2843.826],[-0.257243,42.777434,2844.044],[-0.257229,42.777385,2843.305],[-0.257222,42.777339,2842.415],[-0.257214,42.777294,2841.708],[-0.257199,42.777248,2841.672],[-0.257196,42.7772,2840.575],[-0.257227,42.777158,2837.616],[-0.257217,42.777108,2837.291],[-0.257188,42.777064,2837.675],[-0.257213,42.777022,2835.765],[-0.257205,42.776974,2834.95],[-0.257245,42.776937,2833.292],[-0.257269,42.776894,2831.946],[-0.257311,42.77686,2830.888],[-0.257361,42.776828,2830.016],[-0.257387,42.776786,2829.908],[-0.2574,42.776739,2830.172],[-0.257427,42.776696,2830.655],[-0.25742,42.776651,2830.886],[-0.257472,42.776621,2831.441],[-0.257516,42.776586,2831.265],[-0.257559,42.77655,2829.855],[-0.257596,42.776509,2828.84],[-0.257584,42.776461,2829.152],[-0.257628,42.776426,2828.155],[-0.257648,42.776384,2827.807],[-0.25765,42.776337,2828.117],[-0.257692,42.7763,2827.108],[-0.257666,42.776257,2828.123],[-0.257619,42.776224,2829.956],[-0.257617,42.776176,2830.477],[-0.257629,42.776131,2830.382],[-0.257667,42.776095,2829.236],[-0.257697,42.776052,2828.846],[-0.257703,42.776005,2829.691],[-0.257716,42.775958,2829.913],[-0.257734,42.775914,2829.943],[-0.257779,42.775883,2828.064],[-0.257819,42.775843,2826.61],[-0.257854,42.775804,2825.908],[-0.257888,42.775763,2825.482],[-0.257926,42.775724,2824.785],[-0.257965,42.775689,2823.946],[-0.257984,42.775644,2824.511],[-0.258008,42.775602,2824.855],[-0.258046,42.775565,2824.115],[-0.258076,42.775522,2824.81],[-0.258108,42.775481,2825.492],[-0.258149,42.775446,2825.443],[-0.258197,42.775415,2825.064],[-0.258233,42.775374,2825.71],[-0.258237,42.775329,2828.008],[-0.25827,42.775288,2828.952],[-0.258309,42.775252,2830.285],[-0.258363,42.775226,2830.266],[-0.258421,42.775205,2829.461],[-0.258482,42.775189,2827.935],[-0.258512,42.775148,2829.625],[-0.258569,42.775128,2828.35],[-0.25859,42.775084,2830.482],[-0.258516,42.775098,2833.284],[-0.258461,42.775127,2833.707],[-0.258525,42.775137,2829.817],[-0.258483,42.77517,2829.308],[-0.258421,42.775174,2831.986],[-0.258486,42.775177,2828.729],[-0.258525,42.77514,2829.63],[-0.258449,42.775156,2832.045],[-0.258409,42.775191,2831.199],[-0.258434,42.77515,2833.289],[-0.258492,42.775181,2828.174],[-0.258549,42.77513,2829.276],[-0.258578,42.775088,2830.764],[-0.258603,42.775046,2832.306],[-0.258649,42.775016,2832.016],[-0.258703,42.774992,2830.808],[-0.258752,42.774959,2830.274],[-0.258794,42.774926,2829.817],[-0.258865,42.774919,2826.418],[-0.25892,42.774895,2824.823],[-0.258955,42.774858,2825.197],[-0.259002,42.774828,2824.457],[-0.259066,42.774821,2821.782],[-0.259108,42.774784,2821.624],[-0.259142,42.774738,2822.416],[-0.259202,42.774727,2820.276],[-0.259246,42.774693,2819.913],[-0.259311,42.774712,2816.208],[-0.259378,42.774726,2812.799],[-0.259438,42.774716,2810.542],[-0.259503,42.774699,2808.453],[-0.259544,42.774663,2807.958],[-0.259578,42.774625,2807.542],[-0.2596,42.774583,2807.732],[-0.259597,42.774538,2809.127],[-0.259603,42.774493,2810.129],[-0.259621,42.774448,2810.477],[-0.259613,42.774403,2811.361],[-0.259635,42.774353,2810.827],[-0.259691,42.774329,2808.808],[-0.259675,42.774285,2810.185],[-0.259659,42.774241,2811.328],[-0.25965,42.774196,2812.289],[-0.259599,42.774163,2813.624],[-0.259539,42.774147,2814.488],[-0.259479,42.774135,2815.078],[-0.259421,42.774114,2815.193],[-0.259374,42.774081,2814.355],[-0.25934,42.77404,2812.573],[-0.259318,42.773995,2810.185],[-0.259283,42.773956,2807.813],[-0.259286,42.773909,2804.708],[-0.259229,42.773888,2803.235],[-0.259168,42.773876,2802.538],[-0.259105,42.773874,2801.589],[-0.259048,42.773853,2799.624],[-0.258987,42.773847,2798.188],[-0.258938,42.773819,2795.588],[-0.258896,42.773781,2792.233],[-0.258855,42.773745,2788.945],[-0.258818,42.773709,2786.023],[-0.258758,42.773693,2784.183],[-0.258697,42.773707,2783.711],[-0.258639,42.773731,2783.508],[-0.258581,42.773754,2782.89],[-0.258536,42.773785,2782.653],[-0.258475,42.773794,2781.374],[-0.258413,42.773795,2779.749],[-0.258357,42.773775,2777.343],[-0.258297,42.773787,2776.963],[-0.258243,42.773811,2777.758],[-0.258227,42.773762,2774.83],[-0.25823,42.773715,2772.251],[-0.258214,42.77367,2769.401],[-0.258187,42.773628,2766.311],[-0.258215,42.773578,2764.308],[-0.258248,42.773534,2762.943],[-0.258277,42.773491,2761.356],[-0.258257,42.773447,2758.537],[-0.258193,42.773451,2757.422],[-0.258132,42.773443,2755.746],[-0.258128,42.773396,2753.466],[-0.258072,42.773372,2751.131],[-0.258007,42.773375,2750.113],[-0.257948,42.773387,2749.711],[-0.257947,42.773341,2747.121],[-0.257931,42.773297,2744.203],[-0.257867,42.773286,2742.308],[-0.257843,42.773243,2739.499],[-0.257863,42.7732,2737.322],[-0.25785,42.773154,2734.563],[-0.257795,42.773128,2732.238],[-0.257757,42.773091,2729.592],[-0.257701,42.773071,2727.242],[-0.257628,42.773061,2725.147],[-0.257587,42.773095,2726.179],[-0.25754,42.773063,2723.322],[-0.257509,42.77302,2719.762],[-0.25747,42.772985,2716.408],[-0.257404,42.772978,2714.208],[-0.257339,42.772982,2712.84],[-0.257265,42.772944,2708.673],[-0.257226,42.772905,2705.414],[-0.25718,42.772873,2702.329],[-0.257118,42.772861,2699.973],[-0.257079,42.772826,2696.783],[-0.257016,42.772813,2694.298],[-0.256951,42.77281,2692.24],[-0.256889,42.772816,2691.272],[-0.256827,42.772813,2689.813],[-0.256792,42.772774,2686.414],[-0.256764,42.772732,2682.208],[-0.256774,42.772687,2678.615],[-0.25672,42.772657,2675.338],[-0.256655,42.772671,2675.479],[-0.256593,42.772669,2674.484],[-0.256543,42.772637,2671.348],[-0.256518,42.772596,2667.878],[-0.256475,42.772562,2664.723],[-0.256412,42.772556,2663.535],[-0.256351,42.772558,2662.681],[-0.256293,42.772582,2663.261],[-0.25623,42.772586,2662.217],[-0.256209,42.772543,2658.508],[-0.25617,42.772508,2654.926],[-0.256107,42.77251,2653.729],[-0.256047,42.772498,2651.79],[-0.255988,42.772515,2652.025],[-0.255924,42.772516,2651.069],[-0.25587,42.772488,2647.979],[-0.255805,42.772475,2645.444],[-0.255822,42.772431,2643.336],[-0.255769,42.772406,2639.949],[-0.255709,42.772418,2638.302],[-0.25564,42.772418,2635.722],[-0.25559,42.77245,2635.608],[-0.255527,42.772445,2633.152],[-0.25555,42.772402,2631.585],[-0.255501,42.772374,2628.626],[-0.255458,42.772342,2625.731],[-0.255413,42.77231,2622.875],[-0.255374,42.772269,2619.775],[-0.255368,42.77222,2617.23],[-0.255374,42.772175,2615.442],[-0.255351,42.772128,2612.789],[-0.255317,42.77209,2610.006],[-0.255306,42.772046,2607.726],[-0.255331,42.772,2606.408],[-0.255319,42.77195,2603.776],[-0.255289,42.77191,2600.749],[-0.255274,42.771865,2597.93],[-0.255271,42.771819,2595.515],[-0.255285,42.771774,2593.759],[-0.255261,42.771732,2590.769],[-0.255195,42.771741,2588.934],[-0.255163,42.771701,2585.746],[-0.255214,42.771673,2586.026],[-0.255252,42.771637,2585.547],[-0.255189,42.77162,2582.211],[-0.255125,42.771611,2579.308],[-0.255063,42.771604,2576.49],[-0.255023,42.771569,2572.653],[-0.254962,42.771565,2570.244],[-0.254919,42.771601,2571.159],[-0.254855,42.771594,2568.693],[-0.254794,42.771585,2566.013],[-0.254732,42.771567,2562.958],[-0.254689,42.771533,2559.78],[-0.254618,42.771542,2558.887],[-0.254559,42.771565,2559.142],[-0.254496,42.771576,2558.526],[-0.254432,42.771567,2556.708],[-0.25442,42.771519,2553.556],[-0.254354,42.771528,2552.969],[-0.254316,42.771491,2549.94],[-0.254254,42.771495,2549.145],[-0.25419,42.771489,2547.539],[-0.254122,42.771495,2546.689],[-0.254059,42.771492,2545.214],[-0.253997,42.771493,2544.136],[-0.25393,42.771499,2543.164],[-0.253878,42.771524,2543.506],[-0.25382,42.771503,2541.116],[-0.253768,42.771478,2538.708],[-0.253706,42.771481,2537.664],[-0.253644,42.771488,2536.727],[-0.253581,42.7715,2535.978],[-0.253518,42.771491,2533.913],[-0.25349,42.771532,2535.497],[-0.253426,42.771545,2534.697],[-0.253385,42.771579,2535.452],[-0.253325,42.771563,2533.234],[-0.253262,42.771552,2531.332],[-0.253197,42.771551,2529.992],[-0.253135,42.771545,2528.211],[-0.253072,42.771556,2527.608],[-0.253004,42.771571,2527.521],[-0.252936,42.771569,2526.694],[-0.252874,42.771547,2524.625],[-0.25281,42.77154,2523.54],[-0.252757,42.771511,2521.284],[-0.252691,42.771514,2520.124],[-0.252628,42.77152,2519.169],[-0.252572,42.771551,2519.691],[-0.252509,42.771557,2518.717],[-0.252456,42.771533,2516.687],[-0.25241,42.771495,2514.015],[-0.252391,42.77145,2511.308],[-0.252357,42.771408,2508.569],[-0.252317,42.771373,2505.992],[-0.252265,42.771349,2503.733],[-0.252204,42.771338,2502.158],[-0.252251,42.771306,2501.312],[-0.252194,42.771286,2499.452],[-0.252123,42.771281,2498.147],[-0.252069,42.771259,2496.229],[-0.252006,42.771255,2495.189],[-0.251949,42.771237,2493.506],[-0.251899,42.77121,2491.626],[-0.251831,42.771209,2490.508],[-0.251762,42.7712,2489.056],[-0.251696,42.771205,2488.279],[-0.251696,42.771157,2485.82],[-0.251641,42.771137,2483.825],[-0.251604,42.771101,2481.399],[-0.251549,42.771077,2478.889],[-0.251484,42.771076,2477.654],[-0.251423,42.771057,2475.386],[-0.251376,42.771028,2472.818],[-0.251342,42.770987,2470.498],[-0.25129,42.770962,2469.217],[-0.251228,42.770978,2470.008],[-0.251174,42.770954,2469.369],[-0.251122,42.770927,2468.982],[-0.251079,42.770895,2468.473],[-0.251061,42.770844,2467.498],[-0.251036,42.770801,2464.832],[-0.251032,42.770752,2461.112],[-0.25097,42.770748,2461.247],[-0.250949,42.770793,2464.649],[-0.250902,42.770822,2466.986],[-0.250856,42.770792,2465.16],[-0.250822,42.77083,2467.326],[-0.250752,42.770817,2463.608],[-0.25073,42.770775,2460.496],[-0.250732,42.770729,2458.019],[-0.250794,42.770725,2459.54],[-0.250831,42.770762,2463.045],[-0.250783,42.770794,2463.479],[-0.250824,42.770831,2467.439],[-0.250893,42.770823,2467.124],[-0.250944,42.770798,2465.096],[-0.250954,42.770844,2467.737],[-0.251009,42.770878,2468.249],[-0.251059,42.770904,2468.613],[-0.251123,42.770906,2468.408],[-0.251144,42.770863,2467.161],[-0.25117,42.770821,2464.794],[-0.251225,42.770796,2461.515],[-0.251286,42.770788,2459.57],[-0.251294,42.77074,2455.474],[-0.25134,42.77071,2451.954],[-0.251381,42.770676,2448.289],[-0.251342,42.77064,2446.151],[-0.251379,42.7706,2441.917],[-0.251386,42.770555,2438.087],[-0.251333,42.770529,2437.015],[-0.251351,42.770484,2432.608],[-0.251367,42.770436,2428.329],[-0.251424,42.770452,2430.272],[-0.251485,42.770441,2430.543],[-0.251535,42.77041,2429.168],[-0.251526,42.770364,2425.342],[-0.251544,42.770319,2422.262],[-0.251539,42.770273,2418.587],[-0.251533,42.770223,2415.499],[-0.251527,42.770178,2412.615],[-0.251525,42.770133,2409.865],[-0.251528,42.770086,2407.111],[-0.251539,42.77004,2404.608],[-0.251556,42.769993,2402.319],[-0.251571,42.769948,2400.332],[-0.251569,42.769903,2398.013],[-0.251499,42.76987,2394.898],[-0.251442,42.769846,2392.442],[-0.251379,42.769846,2391.042],[-0.251315,42.769839,2389.117],[-0.251254,42.769845,2387.919],[-0.251193,42.769832,2385.796],[-0.251137,42.769814,2383.331],[-0.251076,42.769827,2382.724],[-0.25101,42.769821,2381.008],[-0.250943,42.769812,2379.147],[-0.250879,42.769815,2377.95],[-0.250831,42.769843,2378.891],[-0.250768,42.769825,2376.586],[-0.250704,42.769813,2374.73],[-0.250653,42.769783,2372.13],[-0.250589,42.769772,2370.475],[-0.250517,42.769767,2368.757],[-0.250454,42.769763,2367.277],[-0.250405,42.769736,2364.561],[-0.250343,42.769738,2363.327],[-0.250286,42.769758,2363.208],[-0.250237,42.76973,2360.395],[-0.250183,42.769706,2357.038],[-0.250124,42.769689,2354.069],[-0.250063,42.769685,2351.934],[-0.250006,42.769667,2349.058],[-0.249959,42.769637,2346.068],[-0.249902,42.769616,2343.693],[-0.249839,42.769614,2342.555],[-0.249788,42.769587,2339.781],[-0.249727,42.769571,2337.661],[-0.249692,42.769533,2334.617],[-0.249632,42.76952,2333.308],[-0.249568,42.769516,2332.776],[-0.249506,42.769521,2332.849],[-0.249443,42.769509,2331.61],[-0.249485,42.769476,2329.475],[-0.249438,42.769443,2326.839],[-0.249373,42.76943,2325.169],[-0.249428,42.769404,2322.854],[-0.249473,42.769373,2319.966],[-0.249413,42.769361,2318.552],[-0.249375,42.769324,2314.753],[-0.249342,42.769284,2310.708],[-0.249304,42.769242,2306.708],[-0.249315,42.769196,2302.363],[-0.249279,42.769157,2298.976],[-0.249223,42.769135,2297.657],[-0.24916,42.769125,2297.242],[-0.249162,42.769079,2294.196],[-0.249121,42.769044,2292.016],[-0.24916,42.769008,2289.211],[-0.249151,42.768961,2286.083],[-0.249088,42.768935,2284.311],[-0.249027,42.768927,2283.921],[-0.24903,42.76888,2280.503],[-0.249016,42.768835,2278.008],[-0.249016,42.768789,2275.459],[-0.249008,42.768744,2273.092],[-0.249012,42.768698,2270.493],[-0.248974,42.768658,2268.348],[-0.248922,42.768624,2266.662],[-0.248884,42.768588,2264.992],[-0.248856,42.768545,2262.647],[-0.248857,42.768498,2260.669],[-0.248851,42.76845,2258.458],[-0.248799,42.768425,2256.452],[-0.248734,42.768409,2254.617],[-0.248678,42.76839,2252.808],[-0.248655,42.768347,2250.483],[-0.248603,42.768319,2248.026],[-0.248545,42.768334,2246.937],[-0.248486,42.768354,2245.942],[-0.248422,42.768352,2243.886],[-0.248357,42.76836,2242.176],[-0.248293,42.768354,2239.781],[-0.24823,42.768354,2237.723],[-0.248167,42.768356,2235.832],[-0.248105,42.768371,2234.592],[-0.248073,42.768332,2231.511],[-0.248016,42.768351,2230.608],[-0.247959,42.768326,2227.541],[-0.247982,42.768282,2225.754],[-0.248009,42.768235,2223.945],[-0.248045,42.768191,2222.52],[-0.248012,42.768153,2219.314],[-0.247994,42.768106,2216.144],[-0.247969,42.768064,2213.019],[-0.247998,42.768023,2211.811],[-0.248017,42.767973,2210.121],[-0.247958,42.767957,2207.741],[-0.247949,42.76791,2205.305],[-0.247967,42.767867,2203.808],[-0.247956,42.767822,2201.56],[-0.24794,42.767776,2199.093],[-0.247941,42.767727,2197.684],[-0.24794,42.767679,2196.249],[-0.247879,42.767671,2194.153],[-0.247816,42.767661,2191.983],[-0.247752,42.767668,2190.378],[-0.24769,42.767668,2188.52],[-0.247693,42.76762,2186.918],[-0.247668,42.767579,2184.798],[-0.247606,42.76757,2182.617],[-0.247567,42.767535,2180.208],[-0.247553,42.767484,2178.159],[-0.247578,42.76744,2177.762],[-0.247559,42.767393,2176.013],[-0.247502,42.767372,2173.888],[-0.247447,42.767348,2172.172],[-0.247405,42.767312,2170.492],[-0.247401,42.767265,2169.257],[-0.247382,42.76722,2167.819],[-0.247355,42.767179,2166.548],[-0.247294,42.767158,2164.961],[-0.247271,42.767116,2163.417],[-0.247254,42.767162,2164.108],[-0.247217,42.767201,2164.342],[-0.247162,42.767224,2163.525],[-0.2471,42.767241,2162.446],[-0.247038,42.767252,2161.161],[-0.24697,42.767253,2159.545],[-0.246907,42.767271,2158.595],[-0.246836,42.767259,2156.41],[-0.246769,42.767262,2154.862],[-0.246707,42.767256,2153.128],[-0.246657,42.767225,2150.889],[-0.246594,42.767226,2148.817],[-0.246545,42.767199,2146.208],[-0.246509,42.767163,2143.76],[-0.246446,42.767158,2141.533],[-0.246383,42.767152,2139.254],[-0.246321,42.767149,2136.629],[-0.246259,42.767154,2134.363],[-0.246198,42.767159,2131.943],[-0.246149,42.767187,2130.738],[-0.246098,42.767213,2129.32],[-0.246044,42.767239,2128.873],[-0.246027,42.767194,2126.285],[-0.245962,42.767199,2124.013],[-0.245914,42.767171,2121.508],[-0.245848,42.767174,2119.185],[-0.245814,42.767136,2116.718],[-0.245743,42.767134,2113.639],[-0.245676,42.767132,2110.674],[-0.24562,42.767152,2108.938],[-0.245575,42.767121,2105.898],[-0.245549,42.767079,2103.083],[-0.24549,42.767065,2099.745],[-0.245456,42.767028,2096.831],[-0.245414,42.766993,2093.661],[-0.245354,42.766978,2090.407],[-0.245292,42.766955,2087.008],[-0.245264,42.766913,2084.571],[-0.245203,42.766902,2082.084],[-0.245152,42.766871,2079.345],[-0.245119,42.766833,2077.13],[-0.245101,42.766789,2075.314],[-0.245076,42.766747,2073.494],[-0.245049,42.766706,2071.599],[-0.245031,42.766659,2069.721],[-0.244978,42.766633,2067.614],[-0.244935,42.766597,2065.654],[-0.244925,42.766553,2064.209],[-0.24488,42.766519,2062.308],[-0.244849,42.766479,2060.589],[-0.244824,42.766436,2058.832],[-0.244812,42.766387,2057.223],[-0.244796,42.766339,2056.038],[-0.244756,42.766305,2054.392],[-0.244701,42.76628,2052.512],[-0.244638,42.766267,2050.847],[-0.244585,42.766241,2049.189],[-0.24453,42.766217,2047.569],[-0.244465,42.766222,2046.104],[-0.244404,42.766235,2044.624],[-0.244341,42.766237,2042.908],[-0.244289,42.766212,2041.164],[-0.244235,42.766183,2039.417],[-0.244175,42.766164,2037.648],[-0.244138,42.766126,2036.323],[-0.244089,42.766098,2034.677],[-0.24406,42.766058,2033.457],[-0.243998,42.766057,2031.662],[-0.243937,42.766046,2029.794],[-0.243897,42.766011,2028.223],[-0.243845,42.765983,2026.783],[-0.243785,42.76597,2025.211],[-0.243771,42.765926,2024.308],[-0.243744,42.765883,2023.11],[-0.243739,42.765836,2022.383],[-0.243708,42.765793,2021.024],[-0.243665,42.765757,2019.439],[-0.243627,42.765719,2017.843],[-0.243587,42.765683,2016.363],[-0.243533,42.765661,2014.758],[-0.243478,42.765634,2012.93],[-0.243413,42.765633,2011.345],[-0.243352,42.765647,2010.147],[-0.243315,42.765608,2008.611],[-0.243266,42.765575,2007.108],[-0.243239,42.765531,2005.962],[-0.243218,42.765485,2004.715],[-0.243158,42.765468,2003.266],[-0.243103,42.765443,2001.651],[-0.24304,42.765435,2000.115],[-0.243016,42.765393,1998.775],[-0.242964,42.765366,1997.06],[-0.242909,42.765345,1995.472],[-0.242851,42.765329,1993.838],[-0.24279,42.765317,1992.27],[-0.242757,42.765277,1990.717],[-0.242688,42.765263,1989.408],[-0.242632,42.76524,1988.131],[-0.242639,42.765195,1987.214],[-0.242588,42.765163,1985.615],[-0.242569,42.765117,1984.23],[-0.242506,42.76511,1982.944],[-0.242446,42.765101,1981.654],[-0.242453,42.765053,1980.579],[-0.242443,42.765003,1979.011],[-0.242455,42.764956,1978.235],[-0.242434,42.764913,1976.986],[-0.242427,42.764866,1975.714],[-0.242416,42.764819,1974.408],[-0.24239,42.764776,1972.981],[-0.242378,42.76473,1971.524],[-0.242373,42.764682,1970.685],[-0.242347,42.764633,1969.27],[-0.24236,42.764588,1968.834],[-0.242314,42.764557,1967.224],[-0.242303,42.764511,1966.289],[-0.242255,42.764481,1964.531],[-0.242227,42.764438,1963.099],[-0.242213,42.76439,1961.707],[-0.242202,42.764344,1960.427],[-0.242224,42.764298,1959.908],[-0.242263,42.764259,1960.087],[-0.242272,42.764214,1959.36],[-0.242293,42.764171,1958.981],[-0.242323,42.764125,1958.836],[-0.242338,42.764081,1958.49],[-0.242347,42.764032,1957.72],[-0.242358,42.763987,1957.265],[-0.242397,42.763945,1957.497],[-0.242435,42.76391,1957.798],[-0.242466,42.763869,1957.015],[-0.242521,42.763847,1956.726],[-0.242576,42.76382,1955.408],[-0.242644,42.763806,1955.087],[-0.242711,42.763812,1955.78],[-0.242767,42.763834,1957.441],[-0.242834,42.763824,1957.066],[-0.242902,42.763806,1956.18],[-0.242958,42.763781,1954.79],[-0.24301,42.76375,1952.855],[-0.243055,42.763716,1950.857],[-0.243018,42.763678,1948.295],[-0.243068,42.763648,1946.649],[-0.243124,42.763628,1946.023],[-0.243158,42.763589,1944.208],[-0.243207,42.763562,1943.497],[-0.243263,42.763536,1942.76],[-0.243297,42.763498,1941.071],[-0.243341,42.763461,1939.516],[-0.243395,42.763435,1938.73],[-0.243454,42.763421,1938.85],[-0.243499,42.763388,1937.525],[-0.243554,42.763365,1937.057],[-0.243611,42.763345,1936.785],[-0.243652,42.763311,1935.689],[-0.243685,42.76327,1933.917],[-0.243734,42.763236,1933.008],[-0.243781,42.763204,1932.286],[-0.243837,42.763182,1932.289],[-0.243882,42.763151,1931.34],[-0.243943,42.763132,1931.385],[-0.243982,42.763095,1929.879],[-0.244038,42.763059,1928.489],[-0.244084,42.763018,1926.554],[-0.244127,42.762982,1924.976],[-0.244188,42.762968,1925.078],[-0.244232,42.762933,1923.733],[-0.244281,42.762903,1922.726],[-0.244334,42.762877,1922.108],[-0.24438,42.762844,1920.925],[-0.244435,42.762819,1920.428],[-0.244482,42.762787,1919.119],[-0.244539,42.762762,1918.564],[-0.244475,42.762757,1917.448],[-0.244409,42.762773,1917.148],[-0.244345,42.762777,1916.273],[-0.244283,42.762775,1915.045],[-0.244217,42.762777,1913.994],[-0.24416,42.762799,1914.257],[-0.244098,42.762806,1913.522],[-0.244037,42.762801,1912.108],[-0.24397,42.762789,1910.277],[-0.243909,42.762794,1909.48],[-0.243844,42.762789,1908.121],[-0.243783,42.762779,1906.656],[-0.243721,42.762768,1905.12],[-0.243691,42.762728,1902.66],[-0.243727,42.762687,1901.175],[-0.24377,42.762649,1899.837],[-0.243815,42.762617,1898.827],[-0.243754,42.762626,1898.468],[-0.243701,42.762599,1896.314],[-0.243669,42.76256,1893.908],[-0.243608,42.762543,1892.18],[-0.24354,42.76254,1891.013],[-0.243474,42.762559,1891.134],[-0.243416,42.762537,1889.139],[-0.243426,42.76249,1887.183],[-0.24338,42.762456,1885.533],[-0.243334,42.762426,1884.168],[-0.243305,42.762385,1882.94],[-0.243295,42.76234,1881.658],[-0.243261,42.762302,1880.352],[-0.243235,42.762257,1878.917],[-0.243176,42.762239,1877.808],[-0.243109,42.762238,1877.023],[-0.243057,42.762208,1875.666],[-0.243025,42.762169,1874.257],[-0.243002,42.762126,1872.722],[-0.243041,42.762091,1872.166],[-0.243004,42.762052,1870.776],[-0.243004,42.762007,1869.451],[-0.242983,42.761964,1868.073],[-0.242978,42.761919,1866.424],[-0.242994,42.761875,1864.604],[-0.242981,42.76183,1862.614],[-0.242923,42.761813,1861.208],[-0.242885,42.76185,1862.49],[-0.242824,42.761836,1861.113],[-0.242759,42.761833,1860.024],[-0.242709,42.761805,1857.749],[-0.242641,42.761808,1856.773],[-0.242579,42.761809,1855.663],[-0.24252,42.761825,1855.398],[-0.242451,42.761831,1853.26],[-0.242391,42.761844,1851.461],[-0.242339,42.761876,1851.221],[-0.242318,42.761922,1853.113],[-0.24229,42.761964,1854.408],[-0.242235,42.761985,1853.694],[-0.242174,42.762001,1852.657],[-0.242119,42.762027,1852.668],[-0.242053,42.762013,1849.863],[-0.241995,42.762028,1849.147],[-0.241932,42.762042,1848.447],[-0.24187,42.762055,1848.032],[-0.241805,42.762073,1847.874],[-0.241749,42.762092,1847.965],[-0.241691,42.762112,1848.068],[-0.241624,42.762107,1845.614],[-0.241563,42.762115,1843.908],[-0.241517,42.762084,1840.494],[-0.241466,42.762111,1840.257],[-0.24142,42.762148,1840.558],[-0.241371,42.762118,1836.953],[-0.241373,42.762068,1834.587],[-0.241388,42.762023,1832.917],[-0.241329,42.762043,1831.362],[-0.241275,42.762067,1829.974],[-0.241225,42.762098,1828.965],[-0.241168,42.762082,1825.668],[-0.241162,42.762035,1823.514],[-0.241104,42.762054,1821.608],[-0.241085,42.762097,1822.234],[-0.241031,42.762075,1818.867],[-0.240967,42.762071,1815.658],[-0.240923,42.762103,1814.443],[-0.240885,42.762142,1813.687],[-0.240851,42.762181,1812.937],[-0.240843,42.762133,1811.242],[-0.240833,42.762088,1809.644],[-0.240828,42.76204,1808.267],[-0.240823,42.761992,1806.781],[-0.240826,42.761946,1805.719],[-0.240828,42.761896,1803.208],[-0.240852,42.761854,1801.734],[-0.240791,42.761863,1800.037],[-0.24074,42.7619,1799.758],[-0.240694,42.761934,1799.123],[-0.240649,42.761967,1797.917],[-0.240614,42.762005,1797.157],[-0.240621,42.76196,1796.492],[-0.240628,42.761915,1795.444],[-0.240589,42.761877,1792.644],[-0.240568,42.761833,1790.605],[-0.240545,42.761788,1788.615],[-0.240571,42.761746,1788.408],[-0.240563,42.7617,1787.042],[-0.240504,42.761714,1785.265],[-0.240449,42.761737,1783.526],[-0.240447,42.761784,1784.441],[-0.240416,42.761823,1783.815],[-0.240387,42.761864,1783.235],[-0.240361,42.761909,1782.71],[-0.240336,42.761952,1782.182],[-0.240315,42.761999,1782.283],[-0.240263,42.761975,1779.025],[-0.240229,42.761928,1776.417],[-0.240198,42.761882,1774.408],[-0.240189,42.761835,1773.616],[-0.240141,42.761801,1771.199],[-0.24013,42.761753,1770.23],[-0.240102,42.761704,1768.675],[-0.240082,42.76166,1767.359],[-0.240107,42.761618,1767.279],[-0.240063,42.76165,1766.224],[-0.240045,42.761695,1766.176],[-0.240016,42.761741,1765.043],[-0.23998,42.761778,1763.564],[-0.239959,42.761824,1762.71],[-0.239966,42.761871,1763.208],[-0.239964,42.761917,1763.252],[-0.239907,42.761889,1760.575],[-0.239866,42.761854,1758.626],[-0.239848,42.761809,1757.731],[-0.239814,42.761767,1756.115],[-0.239783,42.761727,1754.765],[-0.239698,42.761688,1750.98],[-0.239636,42.761675,1747.982],[-0.239663,42.761717,1749.241],[-0.239636,42.761765,1747.781],[-0.239632,42.761814,1747.409],[-0.239606,42.76186,1746.008],[-0.239557,42.761825,1743.682],[-0.239502,42.761797,1741.015],[-0.239459,42.761761,1739.086],[-0.239455,42.761715,1739.271],[-0.239395,42.761725,1736.375],[-0.239348,42.761756,1733.825],[-0.239301,42.761722,1731.91],[-0.239241,42.761746,1728.972],[-0.239252,42.761793,1729.168],[-0.239274,42.761837,1729.842],[-0.239296,42.761884,1730.526],[-0.239273,42.76193,1729.108],[-0.239245,42.76197,1728.664],[-0.239218,42.762013,1729.067],[-0.239194,42.762058,1729.488],[-0.239167,42.762101,1729.733],[-0.239128,42.762139,1728.837],[-0.23907,42.762166,1726.477],[-0.239008,42.762162,1722.762],[-0.238947,42.762173,1719.624],[-0.238898,42.762207,1718.066],[-0.238849,42.762235,1716.329],[-0.238874,42.762279,1719.421],[-0.238866,42.762324,1720.608],[-0.238819,42.762358,1718.914],[-0.238775,42.762392,1717.177],[-0.238738,42.762429,1715.638],[-0.238679,42.762409,1711.083],[-0.238652,42.762364,1708.227],[-0.238654,42.762319,1707.487],[-0.238656,42.762272,1706.592],[-0.238651,42.762227,1705.364],[-0.238679,42.762186,1705.441],[-0.238688,42.762139,1704.281],[-0.238637,42.762111,1700.409],[-0.238625,42.762066,1698.108],[-0.238677,42.762041,1700.012],[-0.238714,42.762003,1700.735],[-0.238653,42.761989,1696.916],[-0.238606,42.762019,1695.471],[-0.238565,42.76198,1692.275],[-0.238608,42.761947,1693.045],[-0.238546,42.761946,1690.23],[-0.238503,42.761979,1689.492],[-0.238457,42.762014,1688.388],[-0.238418,42.762056,1687.624],[-0.238386,42.762096,1687.026],[-0.238332,42.762123,1684.808],[-0.238298,42.762162,1683.766],[-0.238238,42.762176,1680.669],[-0.238204,42.762132,1677.94],[-0.238172,42.76209,1675.435],[-0.238186,42.762041,1675.359],[-0.238198,42.761994,1675.149],[-0.23819,42.761949,1673.924],[-0.238189,42.761902,1672.746],[-0.238204,42.761857,1672.418],[-0.23821,42.761808,1671.598],[-0.238216,42.761757,1670.517],[-0.238215,42.761708,1669.308],[-0.238256,42.761674,1670.129],[-0.238267,42.761627,1668.932],[-0.238276,42.761576,1667.433],[-0.238267,42.761527,1665.318],[-0.238262,42.761479,1663.462],[-0.238294,42.761439,1662.912],[-0.23829,42.761393,1661.177],[-0.238305,42.761349,1660.099],[-0.23834,42.761312,1659.847],[-0.238297,42.761276,1657.629],[-0.238265,42.761231,1655.621],[-0.238247,42.761187,1654.008],[-0.238285,42.761149,1653.592],[-0.238284,42.761103,1652.165],[-0.238223,42.761092,1651.116],[-0.238167,42.761074,1649.961],[-0.238161,42.761028,1649.025],[-0.238204,42.76099,1649.065],[-0.238161,42.760955,1647.79],[-0.238102,42.760941,1646.672],[-0.238035,42.760935,1645.643],[-0.23797,42.760947,1644.964],[-0.237911,42.760973,1644.41],[-0.237846,42.760981,1643.608],[-0.237782,42.760982,1642.712],[-0.237719,42.760986,1641.835],[-0.237674,42.760953,1640.856],[-0.237617,42.760928,1639.931],[-0.237568,42.760897,1639.125],[-0.237509,42.760882,1638.325],[-0.237463,42.760852,1637.88],[-0.237412,42.760816,1637.262],[-0.237353,42.760786,1636.669],[-0.237307,42.760745,1636.104],[-0.237265,42.760705,1635.724],[-0.237226,42.760663,1635.408],[-0.237198,42.760621,1635.154],[-0.237166,42.760579,1634.967],[-0.237136,42.760536,1634.758],[-0.237116,42.760492,1634.553],[-0.23707,42.760451,1634.267],[-0.237036,42.760409,1634.027],[-0.236968,42.760394,1633.672],[-0.236903,42.7604,1633.364],[-0.236851,42.760431,1633.216],[-0.236789,42.760451,1633.176],[-0.236732,42.760469,1632.913],[-0.236669,42.760491,1632.808],[-0.236613,42.760513,1632.829],[-0.236577,42.760553,1633.052],[-0.236547,42.760593,1633.063],[-0.236499,42.760626,1633.038],[-0.236442,42.760654,1633.092],[-0.236394,42.760685,1633.092],[-0.236351,42.760721,1633.117],[-0.23629,42.760742,1633.219],[-0.236236,42.76077,1633.428],[-0.236188,42.760799,1633.689],[-0.236142,42.760836,1633.917],[-0.236094,42.760871,1634.008],[-0.236034,42.760901,1634.07],[-0.235986,42.760937,1634.013],[-0.235926,42.760953,1634.054],[-0.235864,42.760967,1634.049],[-0.235802,42.760973,1634.133],[-0.235744,42.760994,1634.243],[-0.235696,42.761032,1634.468],[-0.235679,42.761083,1634.57],[-0.235681,42.761131,1634.682],[-0.235655,42.761177,1634.743],[-0.235603,42.761206,1634.917],[-0.235549,42.761231,1635.008]]}}]}