{"type":"FeatureCollection","features":[{"type":"Feature","properties":{"ruta_id":"87102267","nombre":"BURDINDOGI y URDANATZ desde el ALTO de EGOZKUE","blog_url":"https://www.rutasporelmonte.com/burdindogi-y-urdanatz-desde-el-alto-de-egozkue/"},"geometry":{"type":"LineString","coordinates":[[-1.563519,42.963965,893.631],[-1.563493,42.964009,893.661],[-1.563553,42.964039,902.007],[-1.56361,42.964067,901.708],[-1.563661,42.964104,901.161],[-1.563714,42.964138,900.83],[-1.563761,42.964174,900.494],[-1.56378,42.964223,897.983],[-1.563795,42.964268,897.435],[-1.563827,42.964307,897.965],[-1.563868,42.964343,897.949],[-1.563891,42.964386,898.21],[-1.563891,42.964432,899.424],[-1.563901,42.964478,900.604],[-1.563912,42.964526,901.914],[-1.563924,42.964572,903.708],[-1.563948,42.964618,904.98],[-1.563954,42.964664,906.899],[-1.563958,42.964709,908.133],[-1.563965,42.964758,908.552],[-1.564009,42.964794,909.134],[-1.564062,42.96482,909.964],[-1.564121,42.964839,910.438],[-1.564183,42.964845,910.599],[-1.564241,42.964864,902.481],[-1.564282,42.964907,896.661],[-1.56432,42.964949,896.817],[-1.564346,42.96499,897.708],[-1.564374,42.965038,901.456],[-1.564425,42.965066,905.395],[-1.56446,42.965105,909.889],[-1.564484,42.965152,916.638],[-1.564489,42.965197,919.38],[-1.56451,42.965242,922.29],[-1.564529,42.965286,924.054],[-1.564547,42.965332,928.365],[-1.564574,42.965375,931.566],[-1.56456,42.965421,933.729],[-1.564567,42.965469,933.521],[-1.56457,42.965519,933.808],[-1.564579,42.965569,933.994],[-1.564601,42.965615,933.813],[-1.564592,42.965661,933.647],[-1.564587,42.965715,933.646],[-1.564591,42.965765,933.588],[-1.564598,42.96581,932.918],[-1.564598,42.965864,930.832],[-1.564607,42.96591,930.383],[-1.564614,42.965958,929.719],[-1.564636,42.966004,929.309],[-1.56466,42.966049,928.519],[-1.564658,42.966095,927.708],[-1.564653,42.966143,927.639],[-1.564653,42.966195,927.678],[-1.564654,42.966245,928.252],[-1.564651,42.966297,929.181],[-1.564635,42.966346,931.283],[-1.564627,42.966394,932.183],[-1.564632,42.966439,933.627],[-1.564653,42.966482,935.578],[-1.564686,42.966525,937.333],[-1.564702,42.966574,939.623],[-1.564708,42.966622,941.415],[-1.564711,42.966667,942.008],[-1.564715,42.966715,942.921],[-1.564717,42.966764,943.44],[-1.564699,42.966809,943.824],[-1.564692,42.966854,945.633],[-1.564688,42.966902,947.945],[-1.564696,42.966949,949.245],[-1.564707,42.967,950.389],[-1.564672,42.967042,953.34],[-1.564689,42.967088,956.193],[-1.564694,42.967138,957.665],[-1.56467,42.967181,960.521],[-1.564625,42.967213,961.808],[-1.564596,42.967256,963.557],[-1.564575,42.967301,966.566],[-1.564553,42.967349,968.19],[-1.564531,42.967391,969.059],[-1.564528,42.967437,969.391],[-1.564523,42.967488,969.781],[-1.564529,42.967537,972.915],[-1.564531,42.967585,976.836],[-1.564497,42.967629,977.522],[-1.56444,42.967666,977.662],[-1.564394,42.967697,977.608],[-1.564344,42.967731,976.108],[-1.564301,42.967771,974.42],[-1.564266,42.967811,974.349],[-1.564254,42.967861,974.323],[-1.56418,42.96786,977.212],[-1.564172,42.967907,977.444],[-1.564191,42.967951,977.534],[-1.564228,42.967988,977.558],[-1.564263,42.968026,977.569],[-1.564263,42.968072,977.655],[-1.564277,42.968121,977.607],[-1.564311,42.968162,977.617],[-1.5643,42.968211,980.008],[-1.56432,42.968256,981.643],[-1.564336,42.9683,981.992],[-1.564335,42.968346,982.026],[-1.564352,42.968394,982.135],[-1.56439,42.968435,985.827],[-1.564424,42.968483,985.557],[-1.564415,42.968535,985.361],[-1.564403,42.968584,981.762],[-1.564416,42.968629,980.382],[-1.564407,42.968678,980.143],[-1.564379,42.968719,980.117],[-1.564374,42.968767,980.108],[-1.564372,42.968814,980.456],[-1.56435,42.968859,982.525],[-1.564314,42.9689,984.719],[-1.5643,42.968945,988.228],[-1.564354,42.968969,991.65],[-1.564344,42.969014,993.25],[-1.56432,42.969066,995.234],[-1.564291,42.969114,997.025],[-1.564263,42.969157,997.777],[-1.564239,42.969202,998.461],[-1.564215,42.969243,998.527],[-1.56419,42.969284,998.408],[-1.564167,42.969328,997.745],[-1.564192,42.969373,996.614],[-1.564216,42.969416,995.148],[-1.564229,42.969461,994.737],[-1.564226,42.969507,993.539],[-1.564208,42.969555,992.149],[-1.564178,42.969597,991.723],[-1.564163,42.969641,991.474],[-1.564205,42.969687,991.235],[-1.56418,42.969737,991.686],[-1.564159,42.969788,992.014],[-1.564154,42.969838,992.208],[-1.564137,42.969883,992.161],[-1.564108,42.969937,992.38],[-1.564069,42.969976,992.724],[-1.564058,42.970026,992.523],[-1.564046,42.970075,992.415],[-1.564002,42.970125,992.315],[-1.564011,42.970173,987.559],[-1.563986,42.970225,987.52],[-1.563961,42.970279,987.552],[-1.563943,42.970328,987.453],[-1.56394,42.970378,987.408],[-1.563926,42.970426,987.508],[-1.563909,42.970471,987.233],[-1.563881,42.970521,987.122],[-1.563861,42.97057,987.156],[-1.563849,42.970619,987.135],[-1.563836,42.970666,987.037],[-1.563838,42.970717,986.877],[-1.563812,42.970762,986.651],[-1.563799,42.970811,986.672],[-1.563805,42.97086,987.516],[-1.563792,42.970909,988.976],[-1.563795,42.970955,989.213],[-1.563829,42.970999,989.308],[-1.563853,42.971047,989.429],[-1.563835,42.971095,989.418],[-1.563814,42.971142,989.462],[-1.563807,42.971192,989.731],[-1.563814,42.97124,990.593],[-1.563798,42.971302,991.383],[-1.56378,42.971352,991.417],[-1.563837,42.971372,990.228],[-1.563863,42.971413,988.671],[-1.563858,42.97146,987.641],[-1.563864,42.971514,987.615],[-1.563873,42.971564,987.608],[-1.563904,42.971616,987.015],[-1.563956,42.971645,986.914],[-1.564008,42.971673,986.818],[-1.564038,42.971715,985.017],[-1.564053,42.971762,983.059],[-1.56406,42.971816,982.149],[-1.564066,42.971862,981.593],[-1.564114,42.971895,980.754],[-1.564173,42.971923,979.513],[-1.564203,42.971965,978.543],[-1.564229,42.972019,977.207],[-1.564255,42.972062,976.308],[-1.564299,42.972098,975.689],[-1.564363,42.97212,975.058],[-1.564425,42.97213,973.672],[-1.564475,42.972164,971.521],[-1.564525,42.972197,970.853],[-1.564573,42.972226,969.333],[-1.564613,42.972264,968.917],[-1.564635,42.972308,966.428],[-1.564663,42.972353,965.116],[-1.564718,42.972381,961.576],[-1.564751,42.972432,959.313],[-1.564775,42.972474,959.208],[-1.564822,42.972509,959.169],[-1.564874,42.972533,959.138],[-1.564936,42.972552,959.962],[-1.565002,42.972565,960.171],[-1.565065,42.972575,960.323],[-1.565127,42.97259,960.543],[-1.565193,42.97261,960.797],[-1.565266,42.97262,962.228],[-1.565334,42.972621,965.717],[-1.565397,42.972629,967.587],[-1.565463,42.972638,969.215],[-1.565528,42.972648,969.508],[-1.565597,42.972654,969.999],[-1.565666,42.972665,970.818],[-1.565734,42.972668,972.662],[-1.56581,42.972663,973.291],[-1.565873,42.97265,976.243],[-1.565939,42.97264,977.473],[-1.565996,42.972601,977.927],[-1.56605,42.972579,978.568],[-1.566103,42.972615,978.655],[-1.566139,42.972654,978.607],[-1.56618,42.972699,978.417],[-1.566213,42.972737,976.708],[-1.566232,42.972782,974.283],[-1.566248,42.972831,971.852],[-1.566292,42.972869,968.896],[-1.566324,42.972909,967.985],[-1.566347,42.972954,967.157],[-1.566363,42.972999,967.047],[-1.566377,42.973043,966.791],[-1.566378,42.973091,966.082],[-1.566366,42.973137,964.896],[-1.56638,42.973185,964.331],[-1.566401,42.97323,964.324],[-1.566411,42.973278,964.308],[-1.566398,42.973323,964.437],[-1.566386,42.973368,965.966],[-1.566391,42.973418,967.26],[-1.566386,42.97347,967.769],[-1.566362,42.973512,967.731],[-1.56634,42.973558,967.381],[-1.566308,42.9736,966.295],[-1.5663,42.97365,964.866],[-1.566294,42.9737,963.866],[-1.566279,42.973751,963.129],[-1.566297,42.973809,962.621],[-1.566315,42.973852,962.208],[-1.566319,42.9739,962.024],[-1.566331,42.97395,961.973],[-1.56635,42.973995,961.927],[-1.56638,42.974041,962.096],[-1.566405,42.974083,962.038],[-1.566432,42.974134,962.198],[-1.56645,42.974177,963.222],[-1.566492,42.974222,964.153],[-1.566531,42.974261,964.916],[-1.566539,42.974306,964.976],[-1.566567,42.974359,965.013],[-1.566617,42.974394,964.808],[-1.566681,42.974417,963.939],[-1.566733,42.974442,962.998],[-1.566761,42.974482,961.962],[-1.566784,42.974527,961.851],[-1.566814,42.974568,961.713],[-1.566842,42.97461,961.753],[-1.566866,42.974655,961.517],[-1.566908,42.974691,961.318],[-1.566949,42.974727,961.225],[-1.566988,42.974765,961.226],[-1.567034,42.974799,961.208],[-1.567068,42.974838,961.508],[-1.567084,42.974886,961.75],[-1.567079,42.974937,962.029],[-1.567083,42.974985,962.443],[-1.567095,42.975033,963.222],[-1.5671,42.97508,963.894],[-1.567101,42.975134,964.224],[-1.567074,42.975181,964.718],[-1.567051,42.975226,965.089],[-1.567031,42.97527,965.275],[-1.567025,42.97532,965.328],[-1.567029,42.975367,965.52],[-1.567025,42.975415,964.008],[-1.567029,42.97546,963.275],[-1.567051,42.975502,963.224],[-1.56709,42.975537,963.268],[-1.567106,42.975583,963.367],[-1.567096,42.975633,963.729],[-1.567083,42.97568,964.439],[-1.567067,42.975724,966.123],[-1.567074,42.975769,967.334],[-1.567079,42.975817,967.953],[-1.567091,42.975864,968.904],[-1.567095,42.975911,970.114],[-1.567098,42.975957,971.708],[-1.567106,42.976003,973.423],[-1.567115,42.976053,973.982],[-1.567088,42.976101,974.236],[-1.567074,42.976157,974.695],[-1.567074,42.976204,976.397],[-1.567086,42.976251,976.787],[-1.567081,42.976304,976.851],[-1.567063,42.976351,976.892],[-1.567071,42.9764,976.855],[-1.567077,42.976447,977.007],[-1.56707,42.976496,977.117],[-1.567069,42.976544,977.208],[-1.567061,42.976593,978.463],[-1.567077,42.976637,979.912],[-1.567059,42.976681,981.416],[-1.567036,42.976725,982.325],[-1.567016,42.976775,982.977],[-1.567004,42.97683,982.987],[-1.566998,42.976884,983.031],[-1.566994,42.976933,980.492],[-1.566994,42.976979,978.948],[-1.566998,42.977029,978.061],[-1.566986,42.977079,977.617],[-1.566985,42.977126,977.408],[-1.567011,42.977167,977.552],[-1.567059,42.977203,977.411],[-1.567087,42.977251,977.825],[-1.567098,42.977301,978.254],[-1.567106,42.977354,978.886],[-1.56711,42.977402,979.266],[-1.567123,42.977455,980.45],[-1.567142,42.977501,981.711],[-1.567154,42.977548,983.016],[-1.567159,42.977598,985.476],[-1.567188,42.977644,986.013],[-1.567205,42.977689,986.008],[-1.567227,42.977733,986.369],[-1.567258,42.977774,986.678],[-1.567274,42.97782,986.932],[-1.567277,42.977865,987.081],[-1.567268,42.977915,986.813],[-1.567266,42.977962,987.043],[-1.567271,42.978007,986.887],[-1.567265,42.978052,986.828],[-1.567258,42.978099,986.889],[-1.567254,42.978147,987.506],[-1.567237,42.978198,988.326],[-1.567259,42.978243,989.508],[-1.567307,42.978287,991.196],[-1.567349,42.978322,992.245],[-1.567394,42.978354,992.369],[-1.567444,42.978395,992.558],[-1.567478,42.978434,992.51],[-1.567501,42.978477,992.67],[-1.567524,42.978522,992.864],[-1.567552,42.978563,993.475],[-1.567596,42.978602,993.829],[-1.567632,42.978643,994.0],[-1.567658,42.978688,994.42],[-1.567643,42.978732,994.608],[-1.567625,42.978776,994.62],[-1.567589,42.978819,994.619],[-1.567538,42.978847,994.553],[-1.567469,42.978863,994.032],[-1.567406,42.978875,990.394],[-1.567351,42.978899,989.314],[-1.567295,42.97892,989.448],[-1.56723,42.978924,989.729],[-1.567204,42.978967,990.387],[-1.5672,42.979012,990.642],[-1.567147,42.979053,990.626],[-1.567091,42.979083,990.608],[-1.567043,42.979111,990.836],[-1.566974,42.979141,990.495],[-1.566937,42.979179,988.879],[-1.566897,42.979219,988.898],[-1.566864,42.979257,988.87],[-1.566821,42.979294,989.59],[-1.566785,42.979331,990.944],[-1.566738,42.979368,991.555],[-1.5667,42.979405,992.127],[-1.566654,42.979439,992.468],[-1.566602,42.979474,992.514],[-1.566543,42.979492,992.808],[-1.566499,42.979524,993.09],[-1.566446,42.979554,993.129],[-1.566393,42.979577,993.453],[-1.56634,42.979602,993.852],[-1.566289,42.979631,993.944],[-1.566254,42.97967,995.624],[-1.566188,42.979692,996.998],[-1.566125,42.979707,998.539],[-1.566082,42.97974,998.675],[-1.566038,42.979781,998.728],[-1.56598,42.979807,998.72],[-1.56593,42.979844,998.708],[-1.565905,42.979894,999.035],[-1.565894,42.979946,998.524],[-1.565902,42.979991,998.578],[-1.565913,42.980039,998.817],[-1.565913,42.980087,998.869],[-1.565923,42.980138,998.889],[-1.565943,42.980181,998.973],[-1.565948,42.98023,1000.484],[-1.565966,42.980273,1001.051],[-1.565938,42.980316,1000.701],[-1.565919,42.980361,1000.611],[-1.565901,42.980409,1000.508],[-1.565889,42.98046,999.123],[-1.565889,42.980506,997.982],[-1.565898,42.98055,996.886],[-1.565893,42.980604,996.445],[-1.565908,42.980656,996.497],[-1.565942,42.980703,996.447],[-1.565969,42.98075,996.281],[-1.565997,42.980795,996.172],[-1.566009,42.980841,995.567],[-1.566013,42.98089,995.581],[-1.566017,42.980939,995.319],[-1.566005,42.980984,995.108],[-1.565985,42.98103,995.074],[-1.565966,42.981079,994.973],[-1.565968,42.981132,994.117],[-1.565958,42.981188,994.066],[-1.565918,42.981231,994.038],[-1.565888,42.981271,994.728],[-1.565858,42.981311,995.332],[-1.565816,42.981345,996.193],[-1.565788,42.981391,996.153],[-1.565774,42.981437,996.104],[-1.565763,42.981484,995.814],[-1.565745,42.981529,995.308],[-1.56573,42.981577,994.993],[-1.565728,42.981624,994.322],[-1.56574,42.981673,993.386],[-1.56575,42.981717,993.225],[-1.565762,42.981765,993.237],[-1.565767,42.981823,993.227],[-1.565755,42.981877,993.471],[-1.565741,42.981923,994.152],[-1.56572,42.981967,994.392],[-1.565692,42.98201,995.673],[-1.565689,42.982055,997.02],[-1.565685,42.982102,997.808],[-1.565672,42.982146,998.617],[-1.565653,42.982195,1000.036],[-1.565616,42.98224,1001.68],[-1.565574,42.982275,1002.319],[-1.565533,42.982315,1003.341],[-1.565491,42.982357,1003.981],[-1.565453,42.982398,1004.945],[-1.565424,42.982446,1004.736],[-1.565406,42.982506,1004.669],[-1.565368,42.982546,1003.304],[-1.565329,42.982587,1002.924],[-1.565298,42.982627,1002.808],[-1.565275,42.982674,1002.894],[-1.565251,42.982716,1004.343],[-1.565215,42.982764,1005.287],[-1.565169,42.982801,1007.136],[-1.565133,42.982839,1007.398],[-1.565092,42.982877,1008.118],[-1.565036,42.982906,1009.212],[-1.564981,42.98294,1009.693],[-1.564929,42.982969,1009.984],[-1.564883,42.983,1010.207],[-1.564836,42.983036,1010.317],[-1.564793,42.98307,1010.208],[-1.564765,42.983112,1010.146],[-1.564723,42.983151,1010.275],[-1.564675,42.983183,1010.279],[-1.564623,42.983211,1010.168],[-1.564566,42.983243,1010.49],[-1.564512,42.983276,1011.98],[-1.564473,42.983315,1012.314],[-1.564431,42.98336,1013.655],[-1.564386,42.983392,1014.526],[-1.564352,42.98343,1016.347],[-1.564316,42.983475,1016.411],[-1.564281,42.983518,1016.408],[-1.564234,42.983559,1016.13],[-1.564182,42.983596,1016.069],[-1.56413,42.983628,1015.683],[-1.564074,42.983655,1015.262],[-1.564015,42.983686,1015.134],[-1.563969,42.983722,1015.364],[-1.56393,42.983763,1015.818],[-1.563924,42.983809,1016.639],[-1.563939,42.983859,1017.857],[-1.563965,42.9839,1018.8],[-1.563964,42.98395,1018.82],[-1.563928,42.983996,1018.808],[-1.563891,42.984032,1018.443],[-1.563857,42.984071,1018.132],[-1.563828,42.984117,1017.316],[-1.563813,42.984167,1016.385],[-1.563798,42.984222,1016.167],[-1.563786,42.984273,1015.747],[-1.563764,42.98432,1014.831],[-1.563751,42.98437,1013.972],[-1.563759,42.984416,1014.791],[-1.563753,42.984469,1015.481],[-1.563764,42.984525,1017.019],[-1.563769,42.984574,1017.308],[-1.563765,42.984624,1017.697],[-1.563761,42.984673,1018.626],[-1.563759,42.98472,1019.79],[-1.563748,42.984766,1020.799],[-1.563732,42.984814,1022.351],[-1.563711,42.984857,1022.971],[-1.563707,42.984906,1024.685],[-1.563726,42.984954,1026.026],[-1.56373,42.985005,1027.049],[-1.563729,42.985053,1028.102],[-1.563719,42.985098,1030.422],[-1.563678,42.985133,1032.108],[-1.563628,42.985163,1032.892],[-1.563577,42.985188,1033.181],[-1.563521,42.985211,1033.685],[-1.563467,42.985241,1034.624],[-1.563436,42.985282,1034.766],[-1.56341,42.985333,1034.896],[-1.563394,42.985378,1035.06],[-1.563359,42.985424,1035.111],[-1.563347,42.985475,1035.544],[-1.563342,42.985522,1036.905],[-1.563338,42.985568,1038.515],[-1.563332,42.985616,1040.208],[-1.563315,42.985665,1040.382],[-1.563305,42.985717,1040.671],[-1.563292,42.985767,1040.885],[-1.563295,42.985815,1040.944],[-1.563304,42.985866,1041.076],[-1.56332,42.985917,1041.426],[-1.563309,42.985967,1042.06],[-1.563307,42.986023,1044.911],[-1.563317,42.986069,1047.081],[-1.563321,42.986117,1048.961],[-1.563341,42.986165,1049.617],[-1.563371,42.98621,1050.508],[-1.563395,42.986262,1051.756],[-1.563401,42.986309,1053.135],[-1.56342,42.986352,1055.039],[-1.563452,42.9864,1055.448],[-1.563479,42.986441,1055.58],[-1.5635,42.986484,1054.54],[-1.563525,42.986529,1054.474],[-1.563542,42.986577,1053.725],[-1.563563,42.98663,1051.445],[-1.563592,42.986677,1048.747],[-1.563637,42.986713,1048.311],[-1.563656,42.986758,1047.508],[-1.563663,42.986809,1047.282],[-1.563684,42.986858,1047.241],[-1.563714,42.986901,1047.745],[-1.563745,42.986946,1047.874],[-1.563751,42.986995,1048.116],[-1.563769,42.98704,1049.066],[-1.563797,42.987087,1049.19],[-1.563839,42.987124,1049.011],[-1.563877,42.987171,1048.835],[-1.5639,42.987214,1047.686],[-1.563919,42.987258,1047.414],[-1.56395,42.987304,1047.008],[-1.56396,42.987353,1046.371],[-1.563969,42.9874,1046.28],[-1.563998,42.987441,1045.554],[-1.564028,42.987489,1045.253],[-1.564054,42.987531,1044.965],[-1.564069,42.987576,1042.985],[-1.564075,42.987623,1042.469],[-1.564102,42.987665,1042.04],[-1.564147,42.98771,1042.169],[-1.564173,42.987753,1043.104],[-1.5642,42.987794,1043.724],[-1.564223,42.98784,1043.908],[-1.564229,42.987885,1044.424],[-1.564263,42.987929,1044.713],[-1.564288,42.987973,1044.847],[-1.564291,42.988021,1044.846],[-1.564295,42.988072,1046.348],[-1.564315,42.988117,1047.298],[-1.564334,42.988165,1048.962],[-1.564384,42.988197,1049.313],[-1.564418,42.988235,1050.333],[-1.564446,42.988281,1050.623],[-1.564471,42.988328,1050.615],[-1.564503,42.988366,1050.408],[-1.564547,42.988399,1050.091],[-1.56457,42.988442,1049.54],[-1.564581,42.988488,1048.654],[-1.56461,42.988529,1048.113],[-1.564642,42.988573,1046.745],[-1.564668,42.988619,1046.795],[-1.564698,42.988663,1046.669],[-1.564708,42.988713,1046.79],[-1.564699,42.988766,1047.613],[-1.564681,42.988814,1047.743],[-1.564672,42.988859,1047.807],[-1.564677,42.988908,1047.808],[-1.564684,42.988955,1047.849],[-1.564687,42.989002,1048.038],[-1.564713,42.98905,1048.082],[-1.564736,42.989093,1047.981],[-1.564762,42.989137,1047.613],[-1.564774,42.989186,1047.313],[-1.564773,42.989231,1046.577],[-1.564777,42.989285,1046.388],[-1.564781,42.989335,1045.484],[-1.56478,42.989385,1045.207],[-1.564789,42.98943,1045.017],[-1.564782,42.989476,1044.308],[-1.564753,42.989523,1044.426],[-1.56473,42.989572,1043.785],[-1.564703,42.989614,1043.689],[-1.564684,42.989659,1042.058],[-1.564657,42.989703,1040.51],[-1.564624,42.989745,1038.63],[-1.564595,42.989789,1038.074],[-1.564559,42.989829,1037.335],[-1.564527,42.989868,1036.473],[-1.564493,42.98991,1035.385],[-1.56446,42.989952,1033.613],[-1.56443,42.989991,1032.908],[-1.5644,42.990031,1031.245],[-1.564385,42.990078,1030.614],[-1.564381,42.990129,1029.228],[-1.564382,42.990182,1028.667],[-1.56435,42.990223,1028.329],[-1.564319,42.990266,1028.119],[-1.564297,42.990309,1028.093],[-1.564274,42.990357,1027.714],[-1.56425,42.990399,1027.296],[-1.564229,42.990442,1027.231],[-1.5642,42.990484,1027.224],[-1.564168,42.990525,1027.308],[-1.564138,42.990565,1028.497],[-1.564098,42.990603,1029.546],[-1.564068,42.99065,1030.53],[-1.564034,42.990691,1031.419],[-1.563982,42.990725,1031.771],[-1.563939,42.990764,1032.991],[-1.563903,42.990804,1033.955],[-1.563872,42.990848,1034.436],[-1.563843,42.990889,1034.682],[-1.56384,42.990934,1034.743],[-1.563841,42.990983,1034.917],[-1.563842,42.991032,1035.208],[-1.563842,42.991086,1035.736],[-1.563831,42.991134,1036.185],[-1.563813,42.991178,1036.439],[-1.563789,42.991224,1037.068],[-1.563771,42.991274,1037.62],[-1.563771,42.991324,1038.78],[-1.563745,42.99137,1039.954],[-1.563735,42.99142,1041.125],[-1.563727,42.99147,1041.882],[-1.563714,42.991517,1042.343],[-1.563701,42.991561,1042.717],[-1.563693,42.991609,1043.308],[-1.563685,42.991654,1043.196],[-1.563683,42.991706,1043.695],[-1.563686,42.991752,1044.789],[-1.563683,42.991798,1044.978],[-1.563677,42.99185,1045.24],[-1.563673,42.991897,1045.51],[-1.563669,42.991949,1046.114],[-1.563669,42.991995,1046.595],[-1.563669,42.992044,1046.211],[-1.563673,42.99209,1046.521],[-1.563668,42.992142,1046.603],[-1.563677,42.992188,1046.708],[-1.563676,42.992237,1047.349],[-1.56369,42.992192,1053.628],[-1.563736,42.992161,1054.932],[-1.563734,42.992209,1055.481],[-1.563696,42.992245,1055.883],[-1.563636,42.992263,1057.033],[-1.563601,42.992304,1058.677],[-1.563582,42.992348,1058.958],[-1.563581,42.992396,1059.552],[-1.563579,42.992445,1058.953],[-1.563582,42.992496,1057.908],[-1.563579,42.992541,1057.908],[-1.563572,42.992586,1057.563],[-1.56352,42.992617,1056.922],[-1.563482,42.992653,1056.576],[-1.563448,42.992699,1056.035],[-1.563435,42.992747,1054.047],[-1.563431,42.992795,1052.867],[-1.563415,42.99284,1052.171],[-1.563404,42.992887,1052.872],[-1.563395,42.992937,1052.761],[-1.563386,42.992982,1052.121],[-1.563388,42.993034,1051.913],[-1.563396,42.993085,1050.408],[-1.563424,42.99313,1049.684],[-1.563446,42.99318,1049.213],[-1.563463,42.993229,1048.357],[-1.563456,42.993274,1047.096],[-1.563515,42.993293,1046.698],[-1.563555,42.993331,1046.768],[-1.563584,42.993379,1046.952],[-1.563611,42.993419,1048.253],[-1.563664,42.993451,1050.033],[-1.563662,42.99351,1051.723],[-1.563694,42.993554,1055.015],[-1.563702,42.9936,1055.008],[-1.563714,42.993647,1055.321],[-1.563711,42.993701,1053.49],[-1.563715,42.993753,1053.474],[-1.563704,42.993797,1053.463],[-1.563681,42.993849,1053.515],[-1.563636,42.993805,1053.085],[-1.563593,42.993769,1052.789],[-1.563537,42.993737,1052.59],[-1.563471,42.993746,1052.395],[-1.563404,42.993763,1052.049],[-1.563342,42.993785,1051.123],[-1.56329,42.993812,1050.808],[-1.563273,42.993857,1049.967],[-1.563205,42.993844,1049.396],[-1.563152,42.993879,1049.44],[-1.563138,42.993924,1049.739],[-1.563099,42.99396,1053.981],[-1.563042,42.99398,1054.931],[-1.563063,42.994026,1056.035],[-1.563072,42.994071,1056.026],[-1.563071,42.994126,1055.449],[-1.563052,42.99417,1053.302],[-1.563037,42.994219,1052.222],[-1.563049,42.994264,1052.208],[-1.563064,42.994314,1052.232],[-1.563089,42.994358,1052.591],[-1.563102,42.994405,1052.895],[-1.563069,42.994443,1054.494],[-1.563017,42.994471,1056.556],[-1.562963,42.994502,1057.356],[-1.562922,42.994536,1057.81],[-1.562876,42.994568,1058.541],[-1.562818,42.994584,1059.078],[-1.562763,42.994623,1059.433],[-1.562705,42.994652,1060.126],[-1.562654,42.994684,1060.108],[-1.562612,42.994717,1060.655],[-1.562562,42.994745,1062.834],[-1.562518,42.994777,1065.498],[-1.562462,42.994807,1067.537],[-1.562407,42.994836,1068.779],[-1.562364,42.994873,1069.729],[-1.562331,42.994912,1071.383],[-1.562293,42.994949,1072.594],[-1.562238,42.994969,1073.399],[-1.562174,42.99499,1073.407],[-1.562123,42.995022,1073.627],[-1.562063,42.995038,1073.608],[-1.561996,42.995033,1073.877],[-1.561938,42.995056,1074.036],[-1.561883,42.995076,1075.18],[-1.56183,42.99511,1076.069],[-1.561773,42.995137,1078.121],[-1.561725,42.995169,1079.511],[-1.561685,42.995208,1081.625],[-1.56163,42.995229,1083.366],[-1.561614,42.995277,1084.159],[-1.561615,42.995322,1084.803],[-1.561607,42.995367,1085.823],[-1.56158,42.995415,1086.108],[-1.561525,42.995436,1086.463],[-1.561468,42.995464,1086.472],[-1.561417,42.9955,1086.496],[-1.561369,42.995536,1086.455],[-1.561308,42.99556,1086.687],[-1.561245,42.99558,1087.337],[-1.561188,42.995609,1088.271],[-1.561123,42.99561,1090.132],[-1.561057,42.99562,1093.069],[-1.560993,42.995637,1093.604],[-1.560931,42.995653,1093.924],[-1.560873,42.995675,1094.408],[-1.560816,42.995702,1094.634],[-1.560768,42.995735,1094.783],[-1.560713,42.995761,1098.927],[-1.560655,42.995781,1099.866],[-1.560596,42.995797,1101.368],[-1.560537,42.995817,1101.648],[-1.560482,42.995841,1101.862],[-1.560426,42.995861,1102.163],[-1.560368,42.995885,1102.324],[-1.560311,42.995913,1102.804],[-1.560256,42.99594,1103.214],[-1.5602,42.995961,1103.508],[-1.560137,42.995976,1104.68],[-1.560072,42.995987,1107.379],[-1.560012,42.996003,1108.813],[-1.559937,42.99601,1109.722],[-1.559872,42.996017,1110.424],[-1.559803,42.996025,1112.714],[-1.559744,42.996046,1113.548],[-1.55969,42.99607,1114.969],[-1.559627,42.996087,1115.474],[-1.559561,42.996091,1115.956],[-1.5595,42.996113,1116.121],[-1.559441,42.996133,1116.308],[-1.559372,42.996134,1116.645],[-1.559302,42.996134,1116.724],[-1.559247,42.996162,1117.168],[-1.559197,42.996195,1117.867],[-1.559139,42.996215,1118.469],[-1.559078,42.996226,1119.059],[-1.559017,42.996218,1119.853],[-1.558953,42.996213,1121.154],[-1.558892,42.996222,1122.039],[-1.55883,42.996239,1124.401],[-1.558764,42.996244,1126.621],[-1.558698,42.996247,1127.208],[-1.558625,42.996249,1127.511],[-1.55856,42.996256,1127.67],[-1.558497,42.99626,1127.534],[-1.558432,42.996255,1127.073],[-1.558375,42.996273,1127.245],[-1.558316,42.996258,1127.255],[-1.558254,42.996259,1127.669],[-1.558193,42.996251,1128.16],[-1.55812,42.99626,1129.353],[-1.558052,42.996257,1131.004],[-1.557986,42.996255,1133.214],[-1.557924,42.996272,1134.008],[-1.557876,42.996301,1134.473],[-1.557812,42.996298,1136.752],[-1.557754,42.996277,1137.136],[-1.557693,42.996265,1137.815],[-1.557631,42.996286,1139.967],[-1.557568,42.996289,1142.197],[-1.557504,42.996302,1142.941],[-1.557439,42.996317,1144.782],[-1.557372,42.996304,1144.899],[-1.557306,42.996306,1146.607],[-1.557245,42.996283,1149.227],[-1.557187,42.996304,1149.608],[-1.557142,42.996337,1150.387],[-1.557095,42.996368,1150.596],[-1.55706,42.996406,1151.54],[-1.557009,42.996431,1151.779],[-1.55695,42.996452,1151.951],[-1.556904,42.996484,1152.411],[-1.556945,42.996521,1153.595],[-1.556985,42.996559,1153.796],[-1.557022,42.996603,1154.321],[-1.557049,42.996647,1155.441],[-1.557083,42.996688,1157.105],[-1.557131,42.996722,1158.508],[-1.557166,42.99676,1160.27],[-1.557202,42.996797,1161.279],[-1.557226,42.996839,1162.113],[-1.557245,42.996883,1163.482],[-1.557273,42.996927,1166.674],[-1.557297,42.996973,1168.864],[-1.557302,42.997019,1170.688],[-1.557292,42.997067,1171.299],[-1.557321,42.997114,1172.861],[-1.557363,42.99715,1174.821],[-1.557363,42.9972,1176.413],[-1.557349,42.997247,1178.908],[-1.557322,42.997287,1179.654],[-1.557302,42.997331,1180.033],[-1.557315,42.997382,1180.727],[-1.557301,42.99743,1180.686],[-1.5573,42.997479,1180.558],[-1.557314,42.997524,1181.048],[-1.557322,42.997569,1181.372],[-1.557319,42.997616,1183.663],[-1.557336,42.997663,1187.627],[-1.557362,42.997706,1189.668],[-1.557379,42.997754,1190.514],[-1.557384,42.997802,1192.108],[-1.557358,42.997848,1193.76],[-1.557311,42.997885,1195.729],[-1.557257,42.997914,1196.993],[-1.557194,42.997934,1197.912],[-1.557149,42.997967,1199.374],[-1.557086,42.997978,1199.934],[-1.557028,42.997994,1200.438],[-1.556967,42.998011,1200.669],[-1.556901,42.998014,1200.758],[-1.556835,42.998019,1200.652],[-1.556767,42.998021,1200.517],[-1.556701,42.998022,1199.808],[-1.556639,42.998016,1199.813],[-1.55657,42.998017,1199.822],[-1.556501,42.998016,1200.166],[-1.556438,42.998027,1201.585],[-1.556376,42.998036,1202.067],[-1.55631,42.998046,1202.677],[-1.556249,42.998064,1203.931],[-1.556186,42.998079,1204.042],[-1.556121,42.998072,1204.271],[-1.556055,42.998067,1204.741],[-1.555993,42.998075,1204.715],[-1.555931,42.998085,1205.608],[-1.555869,42.998087,1206.945],[-1.555806,42.998086,1208.394],[-1.555741,42.998079,1208.568],[-1.555671,42.998077,1208.877],[-1.555604,42.998082,1208.989],[-1.555549,42.998104,1209.269],[-1.555492,42.998131,1210.193],[-1.555428,42.998143,1210.564],[-1.555372,42.998163,1211.376],[-1.555317,42.998183,1212.59],[-1.555259,42.998214,1213.819],[-1.555201,42.998233,1214.308],[-1.555145,42.998254,1214.655],[-1.555092,42.998284,1214.914],[-1.555038,42.998313,1215.238],[-1.554971,42.998331,1216.147],[-1.554908,42.998334,1216.699],[-1.554846,42.998336,1216.639],[-1.554779,42.99835,1217.813],[-1.554722,42.998374,1219.644],[-1.554657,42.998381,1221.021],[-1.55459,42.99838,1222.441],[-1.554524,42.998387,1224.705],[-1.554457,42.998401,1225.708],[-1.554399,42.99842,1226.43],[-1.554338,42.99843,1226.479],[-1.554277,42.998422,1226.043],[-1.55421,42.998426,1225.792],[-1.554148,42.998432,1225.714],[-1.55408,42.998444,1224.784],[-1.55414,42.998461,1225.468],[-1.554074,42.998467,1227.369],[-1.554007,42.998468,1227.132],[-1.553944,42.998458,1227.792],[-1.55389,42.998479,1229.011],[-1.55383,42.998465,1229.608],[-1.553786,42.998503,1230.061],[-1.55375,42.998542,1230.74],[-1.55379,42.998581,1234.964],[-1.553814,42.998624,1235.243],[-1.553825,42.998669,1235.585],[-1.55381,42.998716,1235.535],[-1.553795,42.998761,1235.239],[-1.553784,42.998808,1235.17],[-1.553788,42.998856,1235.969],[-1.553749,42.998894,1237.404],[-1.553683,42.998901,1237.924],[-1.553618,42.998927,1238.208],[-1.553555,42.998959,1238.524],[-1.553511,42.998992,1238.513],[-1.553451,42.999009,1238.897],[-1.553383,42.999008,1239.116],[-1.553321,42.999006,1239.538],[-1.553252,42.998996,1239.518],[-1.553186,42.998982,1239.772],[-1.553126,42.998962,1239.893],[-1.553064,42.998948,1239.751],[-1.553004,42.998938,1238.801],[-1.552937,42.998934,1237.911],[-1.552869,42.998949,1237.608],[-1.552807,42.998967,1237.093],[-1.552755,42.999004,1236.442],[-1.552705,42.999032,1236.196],[-1.552656,42.999063,1236.215],[-1.552593,42.999074,1236.167],[-1.552524,42.999077,1236.247],[-1.552477,42.99911,1236.641],[-1.552466,42.999157,1237.322],[-1.552469,42.999204,1237.653],[-1.552469,42.99925,1238.104],[-1.552458,42.999299,1238.614],[-1.552461,42.99935,1239.408],[-1.552455,42.999398,1242.173],[-1.552452,42.999448,1244.492],[-1.552407,42.999485,1246.986],[-1.552369,42.999522,1246.995],[-1.552354,42.999566,1246.847],[-1.552365,42.999612,1246.877],[-1.552389,42.999656,1246.541],[-1.552391,42.999704,1248.232],[-1.552403,42.999752,1248.596],[-1.552365,42.999792,1252.431],[-1.552392,42.999833,1257.124],[-1.552447,42.999858,1257.108],[-1.552484,42.999898,1256.157],[-1.552547,42.999884,1253.756],[-1.5526,42.999857,1253.82],[-1.552653,42.999833,1254.019],[-1.552719,42.99984,1252.371],[-1.55278,42.999851,1251.181],[-1.55284,42.999871,1249.715],[-1.552876,42.999911,1249.626],[-1.552916,42.99995,1246.492],[-1.552939,42.999992,1244.473],[-1.55297,43.000032,1244.42],[-1.553004,43.00007,1244.808],[-1.553062,43.00009,1245.297],[-1.553106,43.000122,1245.316],[-1.55312,43.000166,1245.39],[-1.553146,43.000209,1245.269],[-1.553174,43.000259,1244.291],[-1.553204,43.000301,1242.161],[-1.553224,43.00035,1241.345],[-1.553243,43.000396,1241.326],[-1.553263,43.000441,1241.585],[-1.553289,43.000486,1242.589],[-1.553321,43.000528,1243.617],[-1.55334,43.000571,1244.308],[-1.553369,43.000617,1244.936],[-1.553388,43.000661,1245.485],[-1.553423,43.000704,1246.469],[-1.553456,43.000748,1246.838],[-1.553503,43.000777,1247.15],[-1.553535,43.000816,1247.57],[-1.553574,43.000855,1248.054],[-1.553577,43.000906,1248.975],[-1.553584,43.000956,1249.567],[-1.553585,43.001002,1249.681],[-1.553607,43.001048,1249.719],[-1.553618,43.001093,1249.908],[-1.55356,43.001126,1250.184],[-1.553521,43.001169,1250.933],[-1.553499,43.001214,1251.037],[-1.553478,43.001261,1251.076],[-1.553469,43.001306,1250.868],[-1.553451,43.00135,1250.678],[-1.553463,43.001401,1250.782],[-1.553448,43.001447,1250.963],[-1.55344,43.001498,1251.298],[-1.553429,43.001543,1251.415],[-1.553411,43.001587,1251.926],[-1.553399,43.001639,1252.008],[-1.553377,43.001682,1252.037],[-1.553381,43.00173,1252.126],[-1.553369,43.001775,1251.84],[-1.553303,43.001772,1251.159],[-1.553255,43.001802,1250.221],[-1.553237,43.001845,1249.721],[-1.553186,43.001877,1249.155],[-1.553157,43.00192,1248.796],[-1.553111,43.001951,1248.117],[-1.55306,43.001979,1246.387],[-1.553003,43.001997,1245.815],[-1.552941,43.001994,1243.508],[-1.552881,43.001972,1242.899],[-1.552947,43.001972,1242.648],[-1.553006,43.001955,1242.552],[-1.553069,43.001947,1242.331],[-1.553096,43.001904,1242.173],[-1.553122,43.001859,1241.793],[-1.553156,43.00182,1241.097],[-1.553198,43.001783,1241.158],[-1.553259,43.001767,1241.356],[-1.553297,43.001729,1241.259],[-1.553306,43.001684,1241.114],[-1.553321,43.001638,1240.908],[-1.553342,43.001592,1239.863],[-1.553348,43.001547,1238.932],[-1.553355,43.001502,1238.766],[-1.553376,43.001456,1238.725],[-1.553406,43.001415,1238.957],[-1.553411,43.001368,1239.127],[-1.553415,43.001321,1239.481],[-1.553413,43.001271,1239.732],[-1.553423,43.001223,1239.822],[-1.553448,43.001179,1239.862],[-1.553491,43.001136,1239.908],[-1.553533,43.001101,1239.908],[-1.553533,43.001053,1240.03],[-1.553532,43.001005,1241.099],[-1.553523,43.000957,1241.093],[-1.553503,43.000914,1241.022],[-1.553463,43.000873,1240.914],[-1.553431,43.000832,1240.244],[-1.553396,43.000794,1239.038],[-1.553358,43.000752,1238.119],[-1.553325,43.000712,1237.736],[-1.553317,43.000662,1237.717],[-1.553307,43.000616,1237.718],[-1.553284,43.000568,1237.708],[-1.553259,43.000516,1237.791],[-1.553232,43.000472,1237.71],[-1.553189,43.000428,1237.664],[-1.553162,43.000381,1236.833],[-1.553135,43.000337,1236.335],[-1.553111,43.000292,1235.715],[-1.553116,43.000247,1235.619],[-1.553107,43.000198,1235.64],[-1.553092,43.000153,1235.787],[-1.553051,43.000119,1236.642],[-1.553009,43.000078,1236.826],[-1.552982,43.000032,1238.408],[-1.552942,42.999996,1239.356],[-1.552892,42.999966,1240.575],[-1.552863,42.999925,1241.389],[-1.55285,42.99988,1241.648],[-1.552851,42.999835,1242.59],[-1.552843,42.999788,1242.84],[-1.552869,42.999741,1242.874],[-1.552921,42.999708,1242.675],[-1.55296,42.999666,1240.957],[-1.552979,42.999613,1239.9],[-1.553016,42.999571,1239.72],[-1.553052,42.999527,1239.608],[-1.553078,42.999485,1239.623],[-1.553118,42.999449,1239.752],[-1.55314,42.999404,1239.736],[-1.553158,42.999358,1239.585],[-1.553184,42.999315,1239.527],[-1.553194,42.999269,1239.547],[-1.553206,42.999224,1239.491],[-1.553226,42.999171,1238.942],[-1.553272,42.999138,1238.627],[-1.553311,42.999097,1236.868],[-1.553359,42.999063,1236.114],[-1.553411,42.999028,1235.708],[-1.553454,42.998991,1235.65],[-1.553492,42.998952,1235.349],[-1.553519,42.998908,1234.553],[-1.55355,42.998869,1233.682],[-1.553582,42.99883,1232.344],[-1.553616,42.998792,1231.794],[-1.553664,42.99876,1229.818],[-1.553706,42.998725,1229.349],[-1.553723,42.998678,1227.635],[-1.553752,42.998636,1226.686],[-1.553771,42.998592,1226.314],[-1.553815,42.998557,1225.908],[-1.553873,42.998531,1225.971],[-1.553905,42.998491,1225.86],[-1.553958,42.998468,1226.594],[-1.554026,42.998455,1227.353],[-1.554087,42.998444,1227.545],[-1.554154,42.998435,1227.565],[-1.554217,42.998434,1227.599],[-1.554279,42.998409,1226.96],[-1.554342,42.998398,1224.142],[-1.554404,42.998401,1223.722],[-1.554466,42.998397,1222.014],[-1.554525,42.998383,1220.408],[-1.554584,42.998358,1220.112],[-1.554647,42.998343,1220.021],[-1.554709,42.998329,1219.925],[-1.554763,42.998298,1219.774],[-1.55482,42.998279,1219.866],[-1.554882,42.998265,1220.056],[-1.554947,42.998259,1219.56],[-1.555003,42.998239,1219.161],[-1.555053,42.998205,1218.456],[-1.555119,42.998192,1217.859],[-1.555181,42.998176,1217.514],[-1.555231,42.998144,1216.908],[-1.555301,42.998124,1215.943],[-1.555365,42.998118,1215.242],[-1.555427,42.998104,1214.256],[-1.555482,42.99808,1213.015],[-1.555546,42.998069,1211.697],[-1.555616,42.998067,1210.887],[-1.555679,42.99806,1210.531],[-1.55574,42.99805,1209.452],[-1.555814,42.998042,1208.194],[-1.555879,42.998044,1206.857],[-1.555956,42.998064,1204.922],[-1.556028,42.998078,1204.808],[-1.55609,42.998081,1204.537],[-1.556151,42.998084,1204.386],[-1.556215,42.998078,1204.27],[-1.556281,42.998063,1204.139],[-1.556345,42.99805,1203.961],[-1.55642,42.998035,1203.841],[-1.556482,42.998018,1203.675],[-1.556543,42.998012,1203.656],[-1.556617,42.998022,1203.719],[-1.556684,42.998044,1206.209],[-1.556746,42.998026,1206.219],[-1.556811,42.998021,1205.608],[-1.556882,42.998025,1205.169],[-1.556964,42.998024,1205.078],[-1.557037,42.998017,1204.532],[-1.557109,42.998007,1204.141],[-1.55717,42.997986,1201.493],[-1.557225,42.997963,1199.343],[-1.557282,42.997936,1198.337],[-1.557332,42.9979,1197.778],[-1.557367,42.997853,1197.229],[-1.557373,42.997805,1195.9],[-1.557371,42.997758,1194.52],[-1.557358,42.997708,1193.808],[-1.557335,42.997656,1193.15],[-1.5573,42.997608,1192.569],[-1.557283,42.997557,1191.463],[-1.557269,42.997507,1190.242],[-1.557268,42.997462,1187.994],[-1.557287,42.997414,1187.424],[-1.557327,42.997376,1184.948],[-1.557307,42.997332,1184.629],[-1.557285,42.997285,1183.751],[-1.557257,42.997242,1182.501],[-1.557285,42.997194,1181.611],[-1.557292,42.997149,1179.908],[-1.557279,42.997102,1177.623],[-1.557284,42.997057,1177.112],[-1.557284,42.997004,1175.026],[-1.557254,42.996961,1173.935],[-1.557251,42.996916,1172.867],[-1.557218,42.996869,1172.237],[-1.557206,42.996822,1170.761],[-1.557162,42.996786,1169.932],[-1.557122,42.99675,1169.573],[-1.557082,42.996713,1169.085],[-1.557043,42.996674,1168.513],[-1.557003,42.996629,1167.808],[-1.556968,42.996591,1165.695],[-1.556924,42.996553,1160.684],[-1.556894,42.996512,1156.448],[-1.55688,42.996464,1151.947],[-1.556924,42.996427,1149.059],[-1.556974,42.996395,1148.969],[-1.557025,42.996368,1149.083],[-1.557091,42.996354,1149.164],[-1.55715,42.99634,1149.993],[-1.557215,42.996329,1150.165],[-1.557275,42.996318,1150.321],[-1.557337,42.996313,1150.308],[-1.557403,42.996301,1150.487],[-1.557469,42.996301,1150.386],[-1.557536,42.996304,1150.14],[-1.557601,42.996303,1148.839],[-1.557662,42.996291,1147.661],[-1.557726,42.996279,1146.261],[-1.557797,42.996272,1145.055],[-1.557865,42.996262,1144.466],[-1.557928,42.996253,1143.466],[-1.557989,42.996262,1143.429],[-1.558052,42.996269,1143.421],[-1.558115,42.996263,1143.408],[-1.558176,42.996268,1143.654],[-1.558238,42.996267,1143.463],[-1.5583,42.996261,1143.327],[-1.558362,42.996263,1142.876],[-1.558431,42.99626,1141.978],[-1.558491,42.996247,1140.848],[-1.558553,42.996256,1139.362],[-1.558621,42.996262,1136.713],[-1.558686,42.996255,1136.174],[-1.558751,42.996254,1135.356],[-1.558811,42.996242,1134.221],[-1.558879,42.99624,1133.908],[-1.558945,42.99623,1133.275],[-1.559009,42.996225,1132.894],[-1.559072,42.996221,1130.958],[-1.559139,42.996199,1128.837],[-1.559194,42.996166,1125.779],[-1.559262,42.996151,1124.199],[-1.559346,42.996139,1123.013],[-1.559416,42.996139,1122.494],[-1.559477,42.996148,1119.645],[-1.559541,42.996162,1116.447],[-1.559596,42.996139,1115.611],[-1.559656,42.996115,1115.308],[-1.559716,42.996098,1115.272],[-1.559779,42.996084,1114.221],[-1.559841,42.996063,1113.835],[-1.559899,42.996047,1111.254],[-1.559961,42.996058,1110.936],[-1.560026,42.996049,1110.296],[-1.560031,42.996002,1106.75],[-1.560138,42.996012,1106.271],[-1.560212,42.996021,1105.515],[-1.560283,42.996017,1104.865],[-1.560341,42.995997,1104.711],[-1.560385,42.995963,1104.808],[-1.560433,42.995918,1105.319],[-1.560453,42.995875,1105.718],[-1.560506,42.995839,1106.912],[-1.560574,42.995821,1107.251],[-1.560635,42.995808,1107.113],[-1.560698,42.99579,1106.733],[-1.560757,42.995774,1106.547],[-1.560817,42.995751,1106.038],[-1.560877,42.995734,1105.894],[-1.56094,42.99571,1105.557],[-1.560995,42.995683,1105.322],[-1.561051,42.99566,1105.208],[-1.561111,42.995645,1104.637],[-1.561171,42.995627,1104.636],[-1.561248,42.995599,1103.73],[-1.561311,42.995578,1103.439],[-1.561375,42.995556,1101.791],[-1.561431,42.995534,1101.231],[-1.561468,42.995497,1098.535],[-1.561512,42.995455,1097.446],[-1.561554,42.995416,1096.677],[-1.561593,42.995372,1095.261],[-1.56164,42.995335,1094.227],[-1.561672,42.995288,1092.508],[-1.561631,42.995251,1090.525],[-1.561679,42.995217,1089.234],[-1.561737,42.995196,1088.368],[-1.561791,42.99517,1087.367],[-1.561844,42.995141,1086.649],[-1.561904,42.995102,1085.229],[-1.561965,42.995074,1083.783],[-1.56202,42.99504,1083.314],[-1.562075,42.995014,1082.947],[-1.562136,42.994998,1082.629],[-1.562184,42.994968,1082.421],[-1.562244,42.994933,1082.208],[-1.562301,42.994896,1082.162],[-1.562353,42.994868,1082.041],[-1.562404,42.994839,1081.715],[-1.562449,42.994806,1081.654],[-1.562505,42.994768,1080.836],[-1.56255,42.994736,1080.266],[-1.562595,42.994691,1080.09],[-1.562641,42.994649,1080.091],[-1.562704,42.994651,1079.258],[-1.562749,42.99461,1078.052],[-1.562793,42.994577,1075.917],[-1.562834,42.994542,1074.008],[-1.562852,42.994498,1072.253],[-1.562887,42.994456,1069.212],[-1.562955,42.994445,1067.616],[-1.563012,42.994422,1066.635],[-1.563062,42.994387,1065.147],[-1.563111,42.994346,1064.157],[-1.563143,42.994307,1062.841],[-1.563164,42.99426,1062.742],[-1.563178,42.994205,1062.576],[-1.563118,42.994184,1062.39],[-1.563114,42.994138,1062.119],[-1.563141,42.99409,1062.008],[-1.563154,42.994042,1059.675],[-1.563204,42.994003,1057.324],[-1.56324,42.993963,1057.068],[-1.563288,42.993924,1056.677],[-1.563334,42.993885,1056.489],[-1.563368,42.993843,1056.279],[-1.563398,42.993804,1056.343],[-1.563435,42.993762,1056.374],[-1.563471,42.993723,1055.918],[-1.5635,42.993678,1055.698],[-1.563534,42.993637,1055.017],[-1.563579,42.993602,1054.908],[-1.563561,42.993559,1055.529],[-1.563593,42.99352,1055.698],[-1.563635,42.993485,1055.742],[-1.563577,42.993462,1055.821],[-1.563611,42.9935,1059.253],[-1.563662,42.993526,1059.223],[-1.563729,42.993525,1059.117],[-1.56379,42.993501,1058.868],[-1.563831,42.993461,1057.716],[-1.563861,42.993415,1057.076],[-1.56389,42.993373,1056.313],[-1.563938,42.99333,1056.008],[-1.563977,42.993292,1054.669],[-1.564024,42.993248,1052.838],[-1.564064,42.993205,1052.492],[-1.56411,42.993171,1051.291],[-1.564179,42.993148,1050.153],[-1.564239,42.993137,1049.843],[-1.564308,42.993128,1049.477],[-1.564364,42.993099,1049.138],[-1.564409,42.993063,1048.614],[-1.564443,42.993019,1047.454],[-1.564477,42.992976,1046.409],[-1.564522,42.99293,1044.608],[-1.564584,42.992911,1043.469],[-1.564649,42.9929,1043.088],[-1.564713,42.99289,1043.052],[-1.564773,42.992874,1042.981],[-1.564832,42.992852,1042.963],[-1.564889,42.992824,1042.893],[-1.564953,42.992829,1042.887],[-1.564989,42.992788,1042.828],[-1.565031,42.992754,1042.753],[-1.565086,42.992734,1042.604],[-1.565152,42.992726,1042.614],[-1.56522,42.992723,1042.608],[-1.565285,42.992708,1042.663],[-1.565345,42.992696,1042.722],[-1.565418,42.992694,1043.946],[-1.56548,42.992695,1045.245],[-1.565542,42.992703,1045.797],[-1.5656,42.99272,1046.127],[-1.565663,42.992713,1046.641],[-1.565727,42.992709,1046.742],[-1.565795,42.992701,1046.381],[-1.565858,42.992695,1046.361],[-1.56593,42.992686,1045.317],[-1.565997,42.992691,1044.108],[-1.56606,42.992699,1043.156],[-1.566126,42.992699,1041.665],[-1.56619,42.992679,1040.759],[-1.566259,42.992647,1040.288],[-1.566328,42.992638,1039.89],[-1.566389,42.992616,1041.55],[-1.566444,42.992586,1041.574],[-1.566524,42.99258,1041.585],[-1.56659,42.992573,1041.511],[-1.56666,42.992572,1041.121],[-1.566723,42.992577,1040.203],[-1.566793,42.992593,1039.508],[-1.566857,42.992604,1039.569],[-1.566927,42.992607,1039.858],[-1.566984,42.992588,1040.082],[-1.567044,42.992567,1040.421],[-1.567076,42.992523,1040.573],[-1.567129,42.992497,1041.113],[-1.567196,42.992484,1042.687],[-1.567262,42.992474,1042.628],[-1.567318,42.992451,1042.996],[-1.56738,42.992434,1042.831],[-1.567443,42.992416,1042.524],[-1.567505,42.992407,1042.608],[-1.567565,42.992382,1042.727],[-1.56762,42.992347,1043.366],[-1.567689,42.992334,1044.45],[-1.567757,42.99232,1045.029],[-1.567818,42.992313,1045.511],[-1.567884,42.992307,1046.061],[-1.567942,42.992291,1046.095],[-1.567994,42.992254,1046.136],[-1.568094,42.992242,1046.995],[-1.568151,42.99222,1047.149],[-1.568082,42.992247,1047.523],[-1.568149,42.992228,1047.908],[-1.56822,42.992215,1048.127],[-1.568286,42.992212,1052.076],[-1.568348,42.992209,1051.69],[-1.568412,42.992198,1051.389],[-1.568474,42.99218,1051.381],[-1.568544,42.992172,1051.341],[-1.56861,42.992163,1051.465],[-1.568672,42.992152,1052.466],[-1.568739,42.992141,1054.333],[-1.568801,42.992131,1054.823],[-1.568866,42.992115,1055.215],[-1.568921,42.992094,1055.408],[-1.568985,42.992077,1055.661],[-1.56904,42.992057,1055.86],[-1.569101,42.992031,1056.644],[-1.56915,42.991993,1057.513],[-1.569205,42.991964,1057.885],[-1.569259,42.991938,1058.045],[-1.569316,42.991916,1058.169],[-1.569377,42.991894,1058.34],[-1.569429,42.991867,1058.536],[-1.569488,42.991842,1058.717],[-1.569533,42.991811,1058.918],[-1.569577,42.991778,1059.208],[-1.569623,42.991743,1059.811],[-1.569687,42.991731,1061.03],[-1.569695,42.991685,1061.354],[-1.56969,42.99163,1062.313],[-1.569722,42.991591,1066.865],[-1.569789,42.991581,1066.855],[-1.569845,42.991559,1067.119],[-1.569904,42.991541,1066.49],[-1.569961,42.991524,1065.024],[-1.570024,42.991503,1064.304],[-1.570077,42.991469,1063.514],[-1.570115,42.991433,1063.308],[-1.570159,42.99139,1063.04],[-1.570189,42.991348,1062.749],[-1.570224,42.991304,1062.683],[-1.570275,42.991273,1062.552],[-1.570291,42.991227,1062.594],[-1.570258,42.991186,1064.114],[-1.570276,42.991137,1064.178],[-1.57028,42.991081,1064.549],[-1.570275,42.991036,1064.132],[-1.570234,42.990997,1064.592],[-1.570236,42.990951,1062.811],[-1.570181,42.990904,1063.008],[-1.570137,42.990867,1063.391],[-1.570106,42.990827,1066.41],[-1.57006,42.990797,1068.634],[-1.569998,42.99078,1069.293],[-1.569933,42.99076,1069.745],[-1.569908,42.990718,1070.595],[-1.569848,42.990696,1071.799],[-1.569785,42.990683,1074.49],[-1.569723,42.99068,1074.433],[-1.569658,42.990656,1074.523],[-1.5696,42.990626,1074.615],[-1.569549,42.990597,1074.708],[-1.569495,42.990573,1077.651],[-1.569436,42.990552,1079.24],[-1.569377,42.990539,1079.944],[-1.569309,42.990528,1080.743],[-1.569233,42.990525,1081.835],[-1.569171,42.990514,1082.645],[-1.569101,42.990499,1084.059],[-1.56903,42.990505,1085.01],[-1.568962,42.99051,1085.591],[-1.568896,42.990506,1086.481],[-1.568831,42.990501,1087.119],[-1.568767,42.990504,1090.008],[-1.568704,42.99049,1090.777],[-1.568642,42.99047,1092.896],[-1.568579,42.990455,1093.64],[-1.568518,42.990444,1094.369],[-1.568455,42.990425,1094.911],[-1.568394,42.990414,1095.451],[-1.568336,42.990389,1095.765],[-1.568273,42.990387,1096.636],[-1.568209,42.990356,1098.056],[-1.568147,42.990346,1099.259],[-1.568084,42.990341,1099.514],[-1.56802,42.99033,1099.608],[-1.567961,42.990307,1099.433],[-1.567903,42.990282,1098.672],[-1.567843,42.990262,1098.766],[-1.567799,42.990221,1098.745],[-1.56775,42.99019,1099.997],[-1.567683,42.990195,1102.027],[-1.567627,42.990177,1103.481],[-1.567582,42.99014,1103.812],[-1.567533,42.990104,1103.973],[-1.567486,42.990072,1104.285],[-1.567441,42.990033,1104.413],[-1.567402,42.989996,1105.308],[-1.56735,42.989965,1106.045],[-1.567301,42.989929,1106.574],[-1.567254,42.989895,1107.148],[-1.567227,42.989848,1109.747],[-1.567246,42.989803,1113.459],[-1.567205,42.989765,1113.449],[-1.567165,42.989731,1114.163],[-1.567131,42.989693,1112.454],[-1.567086,42.989655,1109.948],[-1.567037,42.989623,1109.761],[-1.567004,42.989578,1109.617],[-1.566943,42.989564,1110.008],[-1.566889,42.989592,1111.242],[-1.566941,42.989565,1113.281],[-1.566947,42.989517,1112.925],[-1.56694,42.989471,1113.164],[-1.566906,42.989429,1113.846],[-1.566877,42.989385,1112.926],[-1.566862,42.989339,1112.65],[-1.566863,42.989286,1112.191],[-1.566847,42.98924,1111.116],[-1.566842,42.989194,1110.776],[-1.566836,42.989145,1110.213],[-1.566834,42.989091,1109.608],[-1.566819,42.989047,1109.659],[-1.566807,42.988997,1109.618],[-1.566802,42.988946,1109.662],[-1.566799,42.988896,1110.581],[-1.566801,42.988843,1110.813],[-1.566814,42.988792,1110.843],[-1.566841,42.988742,1110.867],[-1.566869,42.988694,1110.348],[-1.566857,42.988648,1109.458],[-1.566832,42.988604,1109.052],[-1.566847,42.988557,1109.117],[-1.566887,42.988517,1109.208],[-1.566862,42.988472,1109.333],[-1.56682,42.988436,1109.642],[-1.566804,42.988392,1110.546],[-1.566811,42.988346,1110.875],[-1.566881,42.988328,1110.937],[-1.566945,42.988316,1110.927],[-1.56699,42.98828,1110.981],[-1.567002,42.988233,1110.872],[-1.566997,42.988185,1109.021],[-1.567035,42.988147,1108.841],[-1.567058,42.988102,1108.505],[-1.567091,42.988063,1108.408],[-1.567113,42.988017,1108.43],[-1.567158,42.987986,1108.489],[-1.567204,42.98795,1109.983],[-1.567249,42.987911,1111.042],[-1.567279,42.987872,1111.714],[-1.567299,42.987824,1113.014],[-1.567315,42.987769,1113.728],[-1.567309,42.987721,1116.299],[-1.567339,42.987682,1117.139],[-1.567315,42.98764,1117.101],[-1.567301,42.98759,1117.321],[-1.567288,42.987541,1117.208],[-1.567252,42.987499,1117.181],[-1.567198,42.987473,1116.89],[-1.567181,42.987423,1117.194],[-1.567176,42.987377,1118.623],[-1.567168,42.987331,1118.955],[-1.56718,42.987283,1119.385],[-1.567229,42.987255,1119.979],[-1.567286,42.987226,1120.58],[-1.567335,42.987196,1121.084],[-1.567305,42.987154,1121.107],[-1.567339,42.987113,1121.317],[-1.567372,42.987075,1121.308],[-1.5674,42.987034,1121.856],[-1.567439,42.986993,1123.635],[-1.567464,42.986946,1123.799],[-1.567465,42.986894,1123.378],[-1.56743,42.986848,1122.96],[-1.567453,42.986801,1122.93],[-1.567494,42.986756,1122.984],[-1.567514,42.986708,1122.715],[-1.567506,42.986662,1122.416],[-1.56747,42.986617,1115.876],[-1.567448,42.986573,1115.013],[-1.567435,42.986529,1113.808],[-1.567483,42.986499,1109.199],[-1.567503,42.986454,1108.578],[-1.567514,42.986406,1108.052],[-1.567536,42.986359,1107.961],[-1.567558,42.986314,1107.613],[-1.567592,42.986271,1107.243],[-1.567592,42.986226,1106.637],[-1.56761,42.98618,1105.968],[-1.567651,42.986146,1105.435],[-1.567666,42.986101,1105.586],[-1.56771,42.986063,1105.614],[-1.567733,42.986018,1106.208],[-1.567761,42.985974,1106.881],[-1.567749,42.985929,1109.41],[-1.567758,42.985882,1111.594],[-1.567758,42.98583,1111.993],[-1.567756,42.985777,1112.495],[-1.567775,42.985734,1113.045],[-1.567804,42.985691,1113.549],[-1.56784,42.985649,1114.47],[-1.567862,42.985602,1114.995],[-1.56783,42.985563,1115.249],[-1.567822,42.985517,1115.223],[-1.56786,42.985481,1115.308],[-1.56787,42.985433,1115.887],[-1.567849,42.985384,1116.486],[-1.567856,42.985336,1116.67],[-1.567867,42.98529,1116.649],[-1.56785,42.985242,1116.671],[-1.56785,42.985197,1116.671],[-1.567891,42.985156,1115.365],[-1.567952,42.985144,1115.016],[-1.56801,42.985118,1114.796],[-1.568044,42.985077,1114.631],[-1.568093,42.98505,1118.524],[-1.568057,42.985013,1119.108],[-1.568031,42.984972,1121.627],[-1.568012,42.984929,1122.226],[-1.567979,42.984888,1122.15],[-1.56793,42.984854,1122.159],[-1.567883,42.984825,1122.031],[-1.567837,42.984785,1121.661],[-1.567789,42.98475,1121.595],[-1.567761,42.984708,1121.176],[-1.567774,42.984652,1120.737],[-1.567808,42.984606,1119.149],[-1.567825,42.984559,1117.513],[-1.56786,42.984522,1115.108],[-1.567872,42.98447,1114.721],[-1.567902,42.98443,1114.53],[-1.567942,42.984393,1114.324],[-1.567973,42.984349,1114.343],[-1.567972,42.9843,1114.255],[-1.567925,42.984271,1114.085],[-1.567881,42.984235,1111.459],[-1.567863,42.984191,1111.07],[-1.567891,42.984147,1110.378],[-1.567943,42.984119,1109.833],[-1.568001,42.984103,1109.026],[-1.568066,42.984099,1106.908],[-1.568116,42.984071,1103.275],[-1.568166,42.98404,1102.294],[-1.568206,42.984005,1101.368],[-1.568241,42.983963,1100.797],[-1.568287,42.983928,1099.959],[-1.568288,42.98388,1098.819],[-1.568276,42.98383,1098.483],[-1.568273,42.983779,1098.174],[-1.568265,42.983729,1098.167],[-1.568229,42.98369,1098.281],[-1.568181,42.983657,1098.219],[-1.568139,42.983616,1098.508],[-1.568112,42.98357,1099.124],[-1.568061,42.983541,1099.973],[-1.568017,42.983507,1100.897],[-1.567962,42.983485,1100.896],[-1.56792,42.98345,1100.958],[-1.567856,42.983426,1101.088],[-1.567817,42.983391,1100.932],[-1.567779,42.983349,1100.863],[-1.567735,42.983317,1100.568],[-1.567692,42.983282,1098.442],[-1.567652,42.983242,1097.826],[-1.567602,42.983211,1097.008],[-1.567541,42.983196,1096.364],[-1.567478,42.983196,1096.263],[-1.567421,42.983218,1095.927],[-1.567355,42.983214,1095.816],[-1.567288,42.983217,1095.078],[-1.567218,42.983202,1093.678],[-1.567142,42.983189,1090.912],[-1.567101,42.983155,1089.023],[-1.567102,42.983109,1089.095],[-1.567102,42.983062,1089.049],[-1.567115,42.983018,1089.023],[-1.567129,42.982973,1088.808],[-1.567129,42.982927,1087.487],[-1.567127,42.98288,1086.246],[-1.567137,42.982834,1084.23],[-1.567139,42.982784,1082.199],[-1.567155,42.982734,1080.161],[-1.567166,42.98269,1079.121],[-1.567139,42.982649,1078.155],[-1.567138,42.982603,1077.686],[-1.567145,42.982554,1074.724],[-1.567151,42.982507,1073.804],[-1.567126,42.982464,1072.314],[-1.567103,42.982422,1071.208],[-1.567083,42.982367,1069.16],[-1.56708,42.982322,1067.179],[-1.56707,42.982271,1062.513],[-1.567035,42.982229,1061.752],[-1.56705,42.982184,1061.474],[-1.567077,42.982138,1061.614],[-1.56706,42.982094,1062.038],[-1.567058,42.982041,1062.419],[-1.567078,42.98199,1062.344],[-1.567085,42.981942,1062.305],[-1.567092,42.981895,1062.315],[-1.56711,42.981844,1062.108],[-1.567126,42.981796,1061.792],[-1.567119,42.981744,1060.121],[-1.567101,42.981698,1059.675],[-1.567097,42.981651,1057.914],[-1.567044,42.981626,1057.536],[-1.567045,42.981579,1056.926],[-1.567028,42.981529,1055.22],[-1.567014,42.981476,1053.441],[-1.566996,42.981431,1051.879],[-1.566992,42.981383,1050.405],[-1.566931,42.981376,1049.125],[-1.566873,42.981355,1049.408],[-1.566876,42.981307,1050.445],[-1.566881,42.98126,1051.364],[-1.56691,42.981212,1051.458],[-1.566906,42.981164,1050.027],[-1.566889,42.981118,1046.629],[-1.566891,42.98107,1041.529],[-1.566881,42.981022,1039.163],[-1.566854,42.980979,1038.274],[-1.56686,42.980931,1035.829],[-1.566897,42.98089,1033.5],[-1.566889,42.980844,1032.02],[-1.56687,42.9808,1031.508],[-1.566839,42.980753,1030.48],[-1.566812,42.980712,1028.769],[-1.566823,42.980665,1026.333],[-1.566824,42.980619,1025.372],[-1.566802,42.980571,1024.994],[-1.566781,42.980528,1024.534],[-1.566761,42.980481,1023.828],[-1.566761,42.980427,1023.799],[-1.566725,42.980389,1023.788],[-1.566684,42.980352,1023.124],[-1.56668,42.980305,1023.126],[-1.566672,42.980258,1022.608],[-1.566648,42.980209,1021.756],[-1.566621,42.980162,1019.895],[-1.566595,42.980117,1018.929],[-1.566587,42.980072,1016.438],[-1.566585,42.980023,1014.07],[-1.566578,42.979978,1010.94],[-1.566558,42.979932,1009.424],[-1.566591,42.979888,1008.215],[-1.566617,42.979842,1008.171],[-1.566636,42.979798,1006.941],[-1.566688,42.979765,1006.215],[-1.566708,42.979716,1006.008],[-1.566722,42.979667,1006.035],[-1.566745,42.979611,1006.274],[-1.566749,42.979561,1003.788],[-1.566789,42.979517,997.927],[-1.566744,42.97948,991.859],[-1.566682,42.979463,991.099],[-1.566661,42.979413,989.753],[-1.566636,42.979357,989.734],[-1.566642,42.979308,988.432],[-1.566672,42.979266,990.492],[-1.566716,42.979233,992.711],[-1.566776,42.979213,993.008],[-1.566841,42.979197,993.041],[-1.566893,42.979167,992.96],[-1.566941,42.979122,992.784],[-1.566971,42.979081,992.383],[-1.567036,42.979055,992.015],[-1.567107,42.979029,992.075],[-1.567165,42.97901,991.619],[-1.567232,42.979008,989.84],[-1.56728,42.978978,989.763],[-1.56732,42.978944,989.744],[-1.567366,42.978912,989.718],[-1.567414,42.978877,990.008],[-1.567445,42.978832,990.584],[-1.567473,42.97878,990.753],[-1.567476,42.97873,990.557],[-1.567461,42.978667,990.356],[-1.567422,42.978628,990.038],[-1.567371,42.978593,990.658],[-1.567347,42.978543,991.212],[-1.567325,42.9785,991.283],[-1.567322,42.978447,991.278],[-1.567339,42.978401,991.233],[-1.567352,42.978354,990.026],[-1.567349,42.978303,988.608],[-1.567326,42.978257,987.675],[-1.567312,42.978207,987.374],[-1.567278,42.978156,987.438],[-1.567257,42.978106,987.347],[-1.567256,42.978052,987.829],[-1.567254,42.978004,988.189],[-1.567256,42.977955,989.243],[-1.567256,42.977909,989.964],[-1.567237,42.977859,990.056],[-1.567224,42.977807,990.059],[-1.567212,42.977761,989.914],[-1.567192,42.977713,989.208],[-1.567175,42.977665,988.793],[-1.567168,42.977615,988.322],[-1.567158,42.977564,987.846],[-1.567129,42.977521,986.755],[-1.567118,42.977473,985.547],[-1.567091,42.977432,985.267],[-1.567056,42.977393,984.911],[-1.567039,42.977349,984.712],[-1.567031,42.977297,984.713],[-1.567029,42.97725,984.643],[-1.567031,42.977204,984.407],[-1.567005,42.977162,984.408],[-1.56699,42.977118,984.369],[-1.566973,42.977069,984.068],[-1.566975,42.977023,983.632],[-1.56698,42.976976,982.841],[-1.566988,42.976927,982.223],[-1.566984,42.976879,981.383],[-1.566972,42.976834,979.597],[-1.566966,42.976785,979.158],[-1.566957,42.976734,977.798],[-1.566949,42.976687,977.215],[-1.566939,42.976639,976.526],[-1.566942,42.976593,976.008],[-1.566949,42.976541,975.137],[-1.566955,42.976494,974.886],[-1.566961,42.976443,973.95],[-1.566961,42.976395,973.489],[-1.566967,42.976348,973.321],[-1.566968,42.976301,973.071],[-1.566964,42.976254,973.015],[-1.566949,42.976209,973.286],[-1.56693,42.976164,973.237],[-1.566903,42.976121,973.149],[-1.566904,42.976073,973.013],[-1.566944,42.976036,971.508],[-1.566991,42.976002,970.551],[-1.567015,42.975956,969.68],[-1.567004,42.975907,969.214],[-1.566989,42.975856,969.023],[-1.566973,42.975808,968.695],[-1.566962,42.975755,967.585],[-1.566952,42.9757,965.899],[-1.566938,42.975656,965.57],[-1.566929,42.97561,965.394],[-1.566914,42.975564,963.657],[-1.5669,42.975516,962.722],[-1.566889,42.975465,960.908],[-1.566897,42.97542,959.467],[-1.566889,42.975366,958.136],[-1.566911,42.975321,956.95],[-1.566951,42.975271,956.439],[-1.56698,42.97523,955.411],[-1.566986,42.975173,952.541],[-1.566988,42.975125,953.065],[-1.566994,42.97508,953.796],[-1.56697,42.975034,955.217],[-1.566937,42.974996,956.087],[-1.566904,42.974951,958.015],[-1.566876,42.974904,959.708],[-1.566851,42.974862,960.769],[-1.56683,42.974814,960.788],[-1.566811,42.974768,960.762],[-1.566796,42.974718,960.761],[-1.566781,42.974672,960.043],[-1.566746,42.974631,959.473],[-1.566706,42.974584,957.977],[-1.566657,42.974549,957.038],[-1.566611,42.974511,955.542],[-1.566573,42.974473,954.022],[-1.566543,42.974428,953.214],[-1.566514,42.974387,952.608],[-1.56648,42.974343,952.272],[-1.566447,42.974294,952.171],[-1.566401,42.974263,952.015],[-1.566356,42.974225,952.064],[-1.566316,42.974189,952.176],[-1.56627,42.974158,952.316],[-1.566234,42.974119,952.44],[-1.566223,42.974069,952.591],[-1.566232,42.974022,952.848],[-1.56623,42.973966,953.261],[-1.566214,42.973912,953.317],[-1.5662,42.973861,954.708],[-1.566193,42.97381,954.992],[-1.566193,42.973761,955.141],[-1.566187,42.973714,955.435],[-1.566189,42.973668,955.344],[-1.566208,42.973622,955.346],[-1.566235,42.97358,955.756],[-1.566259,42.973534,956.75],[-1.56627,42.973486,958.671],[-1.566267,42.973439,961.064],[-1.566255,42.973391,963.606],[-1.566245,42.973346,964.516],[-1.566239,42.973294,964.908],[-1.566233,42.973245,965.484],[-1.566232,42.973195,965.713],[-1.566243,42.97315,965.987],[-1.566257,42.973102,966.576],[-1.566262,42.973051,966.748],[-1.56626,42.973006,966.998],[-1.566269,42.97296,968.052],[-1.566277,42.972915,968.513],[-1.566265,42.972868,969.657],[-1.566244,42.972821,969.8],[-1.566198,42.972783,969.92],[-1.566179,42.972739,970.108],[-1.566145,42.972696,970.493],[-1.566095,42.972659,971.342],[-1.566041,42.972633,972.456],[-1.565978,42.972619,973.815],[-1.565908,42.972618,974.027],[-1.565844,42.972625,975.037],[-1.565776,42.972629,975.261],[-1.565713,42.972626,975.152],[-1.565644,42.972633,975.266],[-1.565584,42.972642,975.529],[-1.565523,42.97262,975.521],[-1.565462,42.972605,975.608],[-1.565406,42.972573,975.964],[-1.565346,42.972562,976.383],[-1.565282,42.972554,976.657],[-1.56521,42.97255,978.166],[-1.56514,42.972553,978.988],[-1.565079,42.972539,979.058],[-1.565015,42.972519,979.192],[-1.564947,42.972504,979.053],[-1.564877,42.972501,978.229],[-1.564807,42.972502,975.7],[-1.56474,42.972489,975.42],[-1.564686,42.972467,974.508],[-1.564628,42.972441,973.77],[-1.564571,42.972422,971.529],[-1.564519,42.972396,970.733],[-1.564447,42.972364,966.842],[-1.564396,42.972332,965.284],[-1.564344,42.972301,965.114],[-1.564299,42.97226,961.328],[-1.564264,42.972214,960.039],[-1.564228,42.972173,959.473],[-1.56418,42.972137,959.485],[-1.564147,42.972099,959.413],[-1.564099,42.972064,959.408],[-1.564051,42.972031,960.345],[-1.564012,42.971995,960.624],[-1.564,42.971951,961.268],[-1.56398,42.971907,963.847],[-1.56396,42.97186,965.979],[-1.563938,42.971809,967.729],[-1.563922,42.971757,969.683],[-1.563901,42.971711,972.094],[-1.56387,42.971668,973.556],[-1.563838,42.971616,974.059],[-1.563821,42.971572,974.914],[-1.56382,42.971523,975.208],[-1.563827,42.971474,975.873],[-1.563822,42.971425,976.012],[-1.563809,42.971371,976.386],[-1.563791,42.971321,976.855],[-1.56378,42.971269,977.967],[-1.563759,42.97122,980.417],[-1.563758,42.971171,982.751],[-1.563755,42.971122,984.722],[-1.563754,42.971073,985.799],[-1.563763,42.971027,986.707],[-1.563772,42.970973,988.027],[-1.56376,42.970926,988.208],[-1.563738,42.970878,988.647],[-1.563726,42.970831,989.596],[-1.563733,42.970779,990.63],[-1.563742,42.970724,991.029],[-1.563745,42.970674,991.491],[-1.563749,42.970616,991.891],[-1.56375,42.970566,992.885],[-1.563778,42.970521,993.156],[-1.563808,42.970469,993.139],[-1.563825,42.970421,992.701],[-1.563846,42.970361,992.221],[-1.563864,42.970309,991.908],[-1.56391,42.970272,991.551],[-1.56393,42.970227,991.53],[-1.563938,42.970181,991.514],[-1.563934,42.970134,991.353],[-1.563955,42.970085,991.145],[-1.563979,42.970041,991.215],[-1.564003,42.969994,991.629],[-1.564034,42.969944,991.79],[-1.564044,42.969894,992.766],[-1.564068,42.969849,993.529],[-1.564103,42.969811,995.421],[-1.564119,42.969762,995.408],[-1.564103,42.969711,995.414],[-1.564136,42.969672,995.363],[-1.56414,42.969622,994.987],[-1.564143,42.969567,994.536],[-1.564145,42.969521,994.488],[-1.564144,42.969472,994.768],[-1.564116,42.969424,992.822],[-1.564105,42.969372,992.343],[-1.564114,42.969327,992.369],[-1.564127,42.969282,993.004],[-1.564139,42.969233,994.624],[-1.564158,42.969187,994.908],[-1.564166,42.969139,995.664],[-1.564185,42.969094,997.093],[-1.564218,42.969051,998.517],[-1.564239,42.969003,999.776],[-1.564244,42.968958,1000.998],[-1.564229,42.968911,1001.428],[-1.564218,42.96886,1001.872],[-1.564221,42.968807,1002.813],[-1.56421,42.968761,1003.329],[-1.564214,42.96871,1004.0],[-1.564235,42.968752,1004.62],[-1.564269,42.968802,1004.608],[-1.564276,42.968847,1004.62],[-1.564272,42.968801,1004.529],[-1.564244,42.968754,1004.463],[-1.564236,42.968704,1003.912],[-1.564249,42.968658,1002.954],[-1.56429,42.96862,1002.814],[-1.564325,42.968578,1002.238],[-1.564317,42.968528,999.049],[-1.56432,42.968479,997.677],[-1.56432,42.968431,996.461],[-1.564321,42.968384,993.627],[-1.564314,42.968339,992.508],[-1.564305,42.968288,991.435],[-1.564293,42.968236,990.964],[-1.564233,42.96822,989.918],[-1.564262,42.968179,989.717],[-1.564268,42.968128,988.799],[-1.56422,42.968085,988.539],[-1.56419,42.968043,989.363],[-1.564165,42.968,989.464],[-1.56415,42.967951,988.515],[-1.564169,42.967907,988.065],[-1.5642,42.967862,987.911],[-1.564243,42.967828,987.008],[-1.564253,42.967776,985.969],[-1.564272,42.967731,984.568],[-1.564316,42.967696,982.622],[-1.564374,42.967667,981.571],[-1.564426,42.967641,978.443],[-1.564458,42.967583,977.043],[-1.564489,42.967536,976.817],[-1.564496,42.967487,975.488],[-1.564514,42.967439,975.168],[-1.564523,42.967391,974.342],[-1.564541,42.967346,973.726],[-1.564563,42.967299,973.608],[-1.56459,42.967257,973.334],[-1.564591,42.967207,971.983],[-1.564618,42.96716,971.577],[-1.564645,42.967106,971.126],[-1.564646,42.967059,970.878],[-1.564647,42.967012,970.148],[-1.564665,42.966967,968.652],[-1.564686,42.966921,968.093],[-1.564693,42.966872,966.217],[-1.564699,42.966822,965.187],[-1.564698,42.966764,965.115],[-1.564689,42.966711,965.108],[-1.564656,42.966672,966.199],[-1.564671,42.966624,966.298],[-1.564662,42.966577,966.082],[-1.564651,42.966531,965.921],[-1.564646,42.966486,965.243],[-1.564628,42.966439,964.983],[-1.564623,42.966388,963.687],[-1.564621,42.966338,960.648],[-1.564624,42.966292,958.046],[-1.564636,42.966245,955.188],[-1.564631,42.966197,953.616],[-1.564612,42.966144,952.608],[-1.564614,42.966099,952.372],[-1.564589,42.966054,951.921],[-1.564571,42.966011,950.475],[-1.564556,42.965965,949.354],[-1.564556,42.965917,947.776],[-1.564553,42.965865,947.326],[-1.564565,42.965813,945.92],[-1.564568,42.965767,945.771],[-1.564564,42.965717,944.798],[-1.564557,42.965665,941.915],[-1.564547,42.965616,940.926],[-1.56453,42.965557,940.508],[-1.564539,42.965512,940.137],[-1.564561,42.965467,939.816],[-1.564565,42.965414,939.23],[-1.564542,42.965366,938.439],[-1.564501,42.965328,938.191],[-1.564474,42.965285,938.081],[-1.564467,42.965236,937.555],[-1.56447,42.965191,936.586],[-1.564444,42.965134,936.028],[-1.564403,42.965085,935.789],[-1.56436,42.965046,935.617],[-1.564315,42.965,934.808],[-1.564269,42.964961,932.12],[-1.564245,42.96492,930.239],[-1.564195,42.964892,927.453],[-1.564133,42.964889,925.162],[-1.564075,42.964864,922.254],[-1.564029,42.964829,918.914],[-1.564009,42.964783,916.928],[-1.563985,42.964735,914.929],[-1.563961,42.964684,912.392],[-1.563937,42.964634,910.273],[-1.563894,42.964594,908.82],[-1.563886,42.964545,905.908],[-1.563867,42.964494,905.077],[-1.563854,42.964448,903.996],[-1.56387,42.964401,900.35],[-1.563831,42.964362,899.779],[-1.56378,42.96433,899.021],[-1.563744,42.964287,898.581],[-1.56371,42.964247,898.315],[-1.563684,42.964205,898.166],[-1.563658,42.96416,898.279],[-1.563615,42.964114,898.205],[-1.563582,42.964075,898.325],[-1.563538,42.964025,898.108],[-1.563509,42.96398,898.235]]}}]}