{"type":"FeatureCollection","features":[{"type":"Feature","properties":{"ruta_id":"87269079","nombre":"AGUAS TUERTAS desde GUARRINZA ruta CIRCULAR","blog_url":"https://www.rutasporelmonte.com/aguas-tuertas-desde-guarrinza-ruta-circular/"},"geometry":{"type":"LineString","coordinates":[[-0.655298,42.841062,1365.636],[-0.655234,42.841086,1365.617],[-0.655172,42.841104,1365.618],[-0.655142,42.84105,1365.608],[-0.65515,42.841002,1365.671],[-0.655126,42.840957,1365.63],[-0.655086,42.840922,1365.695],[-0.655024,42.840906,1365.669],[-0.654952,42.840912,1365.662],[-0.654891,42.840901,1365.683],[-0.654819,42.840906,1365.66],[-0.654758,42.840927,1365.612],[-0.654691,42.840936,1365.675],[-0.654628,42.840953,1365.628],[-0.654559,42.840946,1365.62],[-0.6545,42.840921,1365.608],[-0.65444,42.840933,1365.665],[-0.654378,42.840947,1365.684],[-0.654315,42.840936,1365.679],[-0.654247,42.840926,1365.693],[-0.654184,42.84092,1365.696],[-0.654115,42.840914,1365.647],[-0.654055,42.840902,1365.694],[-0.653995,42.840883,1365.666],[-0.653929,42.840863,1365.622],[-0.653866,42.840838,1365.662],[-0.653804,42.840817,1365.608],[-0.653739,42.840798,1365.608],[-0.653672,42.840781,1366.86],[-0.653609,42.840756,1367.539],[-0.653549,42.840746,1368.784],[-0.653486,42.840735,1370.028],[-0.65343,42.840716,1369.041],[-0.653395,42.840673,1369.482],[-0.653362,42.840631,1369.229],[-0.653312,42.840602,1370.691],[-0.653247,42.840586,1370.368],[-0.653182,42.840582,1370.042],[-0.653134,42.84055,1366.726],[-0.653082,42.840519,1367.908],[-0.653027,42.840495,1369.114],[-0.652966,42.84048,1370.113],[-0.652905,42.840479,1371.088],[-0.652839,42.840478,1370.812],[-0.652776,42.840476,1372.325],[-0.652722,42.840448,1372.876],[-0.652664,42.840432,1375.623],[-0.6526,42.840423,1376.845],[-0.652538,42.840413,1377.796],[-0.652474,42.840406,1378.931],[-0.652418,42.840387,1380.424],[-0.652363,42.840356,1382.408],[-0.652314,42.840322,1382.397],[-0.652249,42.840304,1382.046],[-0.652183,42.840293,1382.671],[-0.652127,42.840267,1380.785],[-0.652078,42.840233,1380.238],[-0.652017,42.840209,1381.969],[-0.651965,42.840177,1381.886],[-0.651902,42.84016,1381.628],[-0.651833,42.840157,1381.822],[-0.651774,42.840135,1380.662],[-0.651722,42.84011,1381.008],[-0.651665,42.840091,1381.708],[-0.651616,42.84006,1382.45],[-0.651562,42.84003,1382.269],[-0.651502,42.84001,1383.734],[-0.651437,42.839993,1384.728],[-0.651377,42.839966,1386.261],[-0.651314,42.839967,1385.152],[-0.651249,42.839952,1385.669],[-0.651199,42.83992,1384.661],[-0.651143,42.839891,1384.933],[-0.651085,42.839859,1385.423],[-0.651041,42.839827,1383.915],[-0.651004,42.83979,1384.908],[-0.650958,42.839753,1388.151],[-0.650909,42.839717,1388.18],[-0.65086,42.839678,1388.365],[-0.650819,42.839641,1387.049],[-0.650768,42.839615,1386.562],[-0.650728,42.839577,1387.483],[-0.650694,42.839538,1387.74],[-0.650649,42.839507,1388.732],[-0.650612,42.839463,1388.342],[-0.650572,42.83942,1389.022],[-0.650526,42.839387,1388.414],[-0.650468,42.839356,1389.408],[-0.650432,42.839318,1389.782],[-0.650379,42.839282,1391.111],[-0.650332,42.839252,1393.196],[-0.650261,42.839252,1393.74],[-0.650196,42.839241,1395.733],[-0.650131,42.83923,1396.454],[-0.650075,42.839206,1397.231],[-0.650028,42.839177,1398.313],[-0.649964,42.83916,1399.443],[-0.649905,42.839129,1399.564],[-0.649852,42.839104,1399.11],[-0.6498,42.839074,1398.208],[-0.649744,42.839046,1398.252],[-0.649688,42.839018,1398.961],[-0.649636,42.838983,1398.726],[-0.649593,42.838949,1398.16],[-0.649539,42.838921,1399.333],[-0.64947,42.838909,1401.244],[-0.649403,42.838895,1400.311],[-0.649328,42.838878,1398.933],[-0.649284,42.83884,1398.849],[-0.649232,42.838806,1398.802],[-0.649171,42.838783,1398.822],[-0.649114,42.838753,1399.108],[-0.649066,42.83872,1398.312],[-0.649008,42.838694,1400.021],[-0.648944,42.838666,1400.846],[-0.648884,42.838641,1399.95],[-0.648833,42.838609,1400.183],[-0.648773,42.838581,1400.094],[-0.64872,42.838554,1400.721],[-0.648657,42.838532,1401.493],[-0.648601,42.838514,1402.159],[-0.648546,42.838494,1402.603],[-0.648488,42.838477,1404.523],[-0.648426,42.838465,1404.408],[-0.648369,42.83844,1404.343],[-0.648313,42.838415,1404.842],[-0.648251,42.838391,1404.347],[-0.648193,42.838364,1404.081],[-0.648142,42.838329,1404.734],[-0.648114,42.838283,1406.985],[-0.64807,42.838246,1407.742],[-0.648006,42.83824,1408.714],[-0.647939,42.838225,1408.977],[-0.647883,42.838206,1407.161],[-0.647824,42.838187,1406.727],[-0.647771,42.83816,1406.508],[-0.647707,42.838143,1407.475],[-0.647652,42.838119,1407.474],[-0.647588,42.838103,1408.059],[-0.647528,42.838089,1408.223],[-0.647468,42.838072,1408.466],[-0.647408,42.838048,1409.967],[-0.64736,42.838011,1409.834],[-0.647312,42.837973,1410.146],[-0.647255,42.837953,1412.978],[-0.647234,42.83791,1412.633],[-0.647191,42.837871,1410.426],[-0.64713,42.837841,1410.208],[-0.647079,42.8378,1409.835],[-0.647028,42.83776,1410.724],[-0.646984,42.837724,1410.739],[-0.646916,42.837708,1412.263],[-0.646851,42.83769,1413.626],[-0.646786,42.837684,1415.057],[-0.646724,42.837695,1414.484],[-0.646663,42.837709,1416.476],[-0.646602,42.837712,1416.178],[-0.646538,42.837703,1418.733],[-0.646476,42.837688,1418.926],[-0.646416,42.837705,1419.308],[-0.646347,42.837728,1418.645],[-0.646285,42.837743,1419.864],[-0.646209,42.837749,1419.349],[-0.646144,42.837752,1418.653],[-0.64608,42.837744,1416.846],[-0.646017,42.837742,1417.867],[-0.645959,42.837728,1416.954],[-0.645909,42.837694,1418.316],[-0.645843,42.837677,1418.081],[-0.645775,42.83767,1417.961],[-0.6457,42.837668,1419.217],[-0.645636,42.83766,1418.508],[-0.645573,42.837647,1419.986],[-0.645507,42.837642,1421.585],[-0.645446,42.837636,1421.25],[-0.645375,42.837626,1421.184],[-0.645312,42.83761,1420.487],[-0.645248,42.837592,1420.368],[-0.645184,42.837573,1421.555],[-0.64512,42.837557,1422.647],[-0.645052,42.837551,1423.128],[-0.644987,42.837551,1423.889],[-0.644925,42.837547,1424.617],[-0.644862,42.837535,1426.008],[-0.644799,42.837515,1425.54],[-0.644734,42.837497,1425.519],[-0.644671,42.837486,1425.814],[-0.644608,42.83748,1426.738],[-0.644544,42.837474,1426.711],[-0.64448,42.837468,1427.012],[-0.644416,42.837453,1427.629],[-0.644362,42.83743,1429.081],[-0.644297,42.837419,1428.324],[-0.644227,42.83741,1428.004],[-0.644159,42.837401,1429.114],[-0.644095,42.837381,1429.608],[-0.644031,42.837361,1428.75],[-0.64397,42.837338,1429.379],[-0.643914,42.837315,1429.284],[-0.643857,42.837295,1429.318],[-0.643799,42.837272,1430.361],[-0.64374,42.837257,1428.662],[-0.64368,42.837234,1429.199],[-0.643627,42.83721,1428.561],[-0.643564,42.837188,1429.435],[-0.643495,42.837179,1429.486],[-0.643433,42.837155,1429.414],[-0.643376,42.837137,1429.108],[-0.643317,42.837119,1430.391],[-0.643258,42.837095,1430.52],[-0.643193,42.837076,1431.085],[-0.643129,42.837059,1431.069],[-0.643064,42.837046,1432.172],[-0.643001,42.837033,1432.013],[-0.642943,42.837013,1434.14],[-0.642882,42.836993,1433.442],[-0.642822,42.836972,1434.531],[-0.642765,42.83695,1434.261],[-0.64271,42.836918,1434.207],[-0.64265,42.836896,1434.408],[-0.642591,42.836882,1435.581],[-0.642528,42.836859,1436.25],[-0.642466,42.836835,1435.675],[-0.642412,42.836812,1437.689],[-0.642357,42.83679,1439.092],[-0.642298,42.836766,1437.523],[-0.642249,42.836735,1438.75],[-0.642198,42.836703,1438.432],[-0.64217,42.836663,1437.031],[-0.642118,42.836627,1437.061],[-0.642069,42.836596,1435.207],[-0.642034,42.836557,1433.408],[-0.64198,42.836531,1431.791],[-0.641932,42.836501,1431.98],[-0.641874,42.836469,1431.915],[-0.641819,42.836442,1431.489],[-0.641765,42.83641,1433.762],[-0.641725,42.836373,1433.593],[-0.641678,42.836334,1433.68],[-0.641627,42.836301,1434.652],[-0.641573,42.836273,1436.021],[-0.641516,42.836247,1437.941],[-0.64146,42.836221,1440.105],[-0.641402,42.836196,1442.408],[-0.641336,42.836178,1443.99],[-0.641275,42.836157,1445.349],[-0.641214,42.83614,1446.164],[-0.641154,42.836116,1446.438],[-0.641094,42.8361,1447.921],[-0.641032,42.836079,1448.012],[-0.64097,42.836059,1449.329],[-0.640905,42.836037,1450.991],[-0.640849,42.836018,1452.533],[-0.640784,42.835998,1453.023],[-0.640732,42.83597,1451.815],[-0.640679,42.835936,1452.308],[-0.640616,42.835914,1452.441],[-0.640559,42.83589,1452.65],[-0.640507,42.83586,1451.875],[-0.640456,42.835825,1449.989],[-0.640399,42.835794,1449.662],[-0.640359,42.835756,1449.113],[-0.640309,42.835727,1448.66],[-0.640265,42.83569,1449.812],[-0.640204,42.835655,1450.335],[-0.64015,42.835625,1450.986],[-0.640094,42.835594,1451.514],[-0.640045,42.835563,1451.108],[-0.639998,42.83553,1451.271],[-0.63995,42.835495,1451.92],[-0.6399,42.835462,1452.735],[-0.639857,42.835421,1452.949],[-0.63982,42.835384,1451.362],[-0.639777,42.835345,1450.383],[-0.639732,42.835308,1449.76],[-0.639685,42.835268,1447.812],[-0.639641,42.835236,1448.543],[-0.639589,42.835211,1448.064],[-0.639535,42.83518,1448.21],[-0.639481,42.835158,1449.308],[-0.63942,42.835137,1449.792],[-0.639366,42.835115,1450.841],[-0.639301,42.835092,1450.626],[-0.639248,42.835067,1451.93],[-0.639194,42.835043,1453.613],[-0.639141,42.835014,1454.084],[-0.639081,42.83499,1454.581],[-0.639027,42.834968,1455.093],[-0.638972,42.834937,1456.544],[-0.63892,42.834906,1457.505],[-0.638863,42.834882,1458.315],[-0.638807,42.83486,1458.308],[-0.638754,42.834837,1458.012],[-0.638698,42.834806,1458.111],[-0.638645,42.834772,1458.256],[-0.638587,42.834746,1460.09],[-0.638533,42.834718,1461.623],[-0.638472,42.834696,1461.624],[-0.638413,42.834677,1462.421],[-0.638358,42.83465,1462.273],[-0.63831,42.834621,1462.787],[-0.638254,42.834592,1464.042],[-0.638202,42.834562,1464.226],[-0.638172,42.834516,1464.208],[-0.638142,42.83447,1462.056],[-0.638105,42.834434,1462.245],[-0.638093,42.834385,1461.78],[-0.63805,42.834352,1461.834],[-0.637999,42.83432,1461.257],[-0.637934,42.834295,1463.378],[-0.637879,42.834267,1462.995],[-0.637838,42.834223,1461.637],[-0.637808,42.83418,1460.691],[-0.637783,42.834136,1459.081],[-0.637761,42.834091,1459.319],[-0.637706,42.834067,1458.508],[-0.637693,42.834018,1458.617],[-0.637662,42.833977,1459.776],[-0.637632,42.833932,1461.041],[-0.637605,42.833885,1462.415],[-0.637571,42.833844,1463.698],[-0.637544,42.833802,1463.469],[-0.637501,42.833765,1465.566],[-0.63746,42.833724,1467.418],[-0.6374,42.833712,1469.364],[-0.637389,42.833665,1469.706],[-0.63734,42.833638,1470.116],[-0.637293,42.833597,1469.308],[-0.63727,42.833553,1469.374],[-0.63725,42.833507,1470.313],[-0.637214,42.833468,1470.918],[-0.6372,42.833423,1471.472],[-0.63716,42.833382,1471.195],[-0.637112,42.833348,1470.576],[-0.637069,42.833315,1471.293],[-0.637037,42.833275,1472.185],[-0.637011,42.833234,1473.728],[-0.636972,42.833195,1473.389],[-0.636933,42.833159,1474.617],[-0.636895,42.833119,1475.308],[-0.636847,42.833084,1476.25],[-0.636788,42.833066,1478.169],[-0.636718,42.833063,1478.844],[-0.636663,42.83304,1479.078],[-0.636607,42.833014,1480.551],[-0.636546,42.832989,1481.432],[-0.636482,42.832974,1482.899],[-0.636418,42.83295,1483.491],[-0.636357,42.832928,1483.664],[-0.636304,42.832905,1484.406],[-0.636247,42.832885,1485.116],[-0.636194,42.83286,1485.208],[-0.636143,42.832831,1485.194],[-0.636094,42.832794,1485.413],[-0.636044,42.832762,1485.618],[-0.635995,42.832734,1486.752],[-0.635936,42.832718,1486.235],[-0.635873,42.832709,1486.286],[-0.635807,42.832699,1485.693],[-0.635743,42.83269,1484.855],[-0.635679,42.83271,1486.325],[-0.635616,42.832724,1486.126],[-0.635539,42.832731,1487.608],[-0.635472,42.832728,1487.208],[-0.635405,42.832726,1488.62],[-0.635344,42.832733,1489.349],[-0.635272,42.832722,1491.194],[-0.635228,42.832688,1491.748],[-0.635175,42.832664,1492.641],[-0.635119,42.832646,1493.292],[-0.635065,42.832622,1494.949],[-0.635002,42.832594,1496.181],[-0.634942,42.83258,1497.084],[-0.634879,42.832566,1498.007],[-0.634819,42.832548,1498.417],[-0.634748,42.832538,1498.208],[-0.634683,42.832532,1498.166],[-0.634615,42.832529,1499.495],[-0.634558,42.832509,1499.57],[-0.634485,42.832494,1498.114],[-0.634432,42.832461,1496.257],[-0.634378,42.832437,1495.458],[-0.634337,42.832403,1494.775],[-0.634292,42.83237,1495.037],[-0.634228,42.832372,1495.266],[-0.63416,42.832349,1495.729],[-0.634107,42.832326,1495.521],[-0.634056,42.832297,1495.308],[-0.634009,42.832265,1497.334],[-0.633951,42.83225,1499.353],[-0.633875,42.83224,1500.238],[-0.633807,42.832242,1502.062],[-0.633755,42.832217,1503.555],[-0.633699,42.832196,1505.246],[-0.633644,42.832174,1506.433],[-0.633589,42.832148,1508.625],[-0.63353,42.832123,1509.972],[-0.633475,42.832099,1510.613],[-0.633426,42.83207,1511.614],[-0.633377,42.83204,1511.008],[-0.633326,42.832011,1510.885],[-0.633276,42.831984,1510.744],[-0.63321,42.831976,1511.649],[-0.633146,42.831967,1511.813],[-0.633083,42.831968,1513.086],[-0.633017,42.831959,1514.077],[-0.632955,42.831948,1514.264],[-0.632887,42.83194,1514.956],[-0.632821,42.831933,1515.688],[-0.63276,42.831924,1516.124],[-0.632697,42.831909,1517.826],[-0.632639,42.83189,1518.608],[-0.632578,42.831885,1517.746],[-0.632513,42.831867,1518.915],[-0.632453,42.831849,1519.32],[-0.632392,42.831826,1519.544],[-0.632332,42.831806,1519.287],[-0.63228,42.831776,1518.148],[-0.632216,42.831756,1518.155],[-0.632155,42.831738,1519.217],[-0.632094,42.831747,1519.134],[-0.632031,42.831758,1517.755],[-0.631969,42.831772,1518.31],[-0.631906,42.831779,1517.508],[-0.631845,42.831769,1518.211],[-0.631779,42.831775,1519.28],[-0.631717,42.831774,1518.645],[-0.631649,42.831789,1519.159],[-0.631615,42.831828,1518.772],[-0.631578,42.831871,1519.123],[-0.631551,42.831912,1518.79],[-0.631515,42.83196,1518.892],[-0.631473,42.832003,1520.545],[-0.631427,42.832041,1521.247],[-0.631384,42.832078,1522.111],[-0.631344,42.832118,1523.208],[-0.631311,42.83216,1523.732],[-0.631287,42.832207,1524.091],[-0.631259,42.832252,1525.746],[-0.631221,42.832301,1525.08],[-0.631204,42.832351,1524.683],[-0.631195,42.832401,1525.054],[-0.631183,42.832448,1525.681],[-0.631149,42.832498,1525.663],[-0.631082,42.832513,1526.659],[-0.631009,42.832514,1529.103],[-0.630963,42.832481,1529.623],[-0.630939,42.832439,1530.308],[-0.630931,42.83239,1530.713],[-0.630929,42.832337,1530.072],[-0.63092,42.832291,1529.177],[-0.630923,42.832244,1529.341],[-0.630935,42.832191,1529.784],[-0.630946,42.832137,1531.135],[-0.630982,42.832091,1533.012],[-0.631013,42.832046,1536.594],[-0.631003,42.831998,1540.016],[-0.630965,42.83196,1541.776],[-0.630962,42.831914,1543.513],[-0.630921,42.83188,1543.608],[-0.630867,42.831855,1545.249],[-0.63082,42.831819,1546.778],[-0.630769,42.831784,1546.963],[-0.630762,42.831736,1547.097],[-0.630724,42.831697,1547.09],[-0.630667,42.831722,1547.571],[-0.63061,42.831741,1548.538],[-0.630546,42.831744,1548.98],[-0.630504,42.831709,1553.019],[-0.630521,42.831662,1553.309],[-0.630527,42.831617,1554.819],[-0.630535,42.831572,1556.608],[-0.630555,42.831528,1556.279],[-0.630509,42.831497,1559.028],[-0.630448,42.83148,1559.333],[-0.630394,42.831513,1559.067],[-0.630344,42.831486,1561.97],[-0.630284,42.831471,1562.391],[-0.630228,42.831496,1562.028],[-0.630213,42.831547,1565.36],[-0.630187,42.831592,1565.459],[-0.630136,42.831621,1565.203],[-0.63007,42.831628,1567.123],[-0.63009,42.831674,1570.308],[-0.630028,42.831668,1572.913],[-0.629995,42.831628,1573.272],[-0.629963,42.831584,1572.847],[-0.629929,42.831543,1574.581],[-0.629877,42.831517,1576.744],[-0.629833,42.831484,1579.445],[-0.62979,42.831444,1581.042],[-0.629751,42.831408,1580.514],[-0.629787,42.831361,1580.889],[-0.629793,42.831313,1581.106],[-0.629841,42.831281,1581.726],[-0.629801,42.831243,1583.508],[-0.629748,42.831213,1586.836],[-0.629682,42.83121,1588.445],[-0.629628,42.831189,1588.65],[-0.629577,42.831161,1590.324],[-0.629531,42.831123,1590.677],[-0.629501,42.831083,1590.058],[-0.629439,42.831074,1592.865],[-0.629376,42.831068,1595.587],[-0.629314,42.831067,1595.361],[-0.629251,42.83107,1595.121],[-0.629196,42.831048,1594.913],[-0.629165,42.831007,1594.908],[-0.629115,42.83098,1596.884],[-0.629072,42.830946,1599.993],[-0.629003,42.830954,1601.798],[-0.628939,42.830948,1603.472],[-0.628897,42.830982,1605.765],[-0.628834,42.830972,1614.266],[-0.62877,42.830968,1617.063],[-0.628705,42.830947,1619.695],[-0.628652,42.830919,1621.932],[-0.628588,42.830915,1621.792],[-0.628526,42.830928,1620.811],[-0.628465,42.830913,1619.508],[-0.628453,42.830868,1619.891],[-0.62841,42.830835,1619.44],[-0.628359,42.830802,1618.285],[-0.628313,42.830766,1617.449],[-0.628255,42.83078,1614.752],[-0.628191,42.830755,1614.243],[-0.628145,42.830719,1613.48],[-0.628123,42.830676,1611.742],[-0.628065,42.830649,1609.947],[-0.628013,42.830619,1607.929],[-0.627975,42.830582,1606.221],[-0.627952,42.830537,1606.108],[-0.627902,42.830508,1606.982],[-0.62784,42.8305,1608.741],[-0.627803,42.830463,1612.556],[-0.62778,42.830418,1612.42],[-0.627769,42.830373,1612.983],[-0.627761,42.830326,1614.464],[-0.627711,42.830356,1614.751],[-0.62765,42.830335,1614.293],[-0.627607,42.8303,1613.559],[-0.62756,42.830268,1613.103],[-0.627548,42.830222,1612.123],[-0.627484,42.830227,1611.008],[-0.627426,42.830206,1610.093],[-0.62741,42.830161,1610.712],[-0.627385,42.830118,1614.537],[-0.627379,42.830071,1610.771],[-0.627373,42.830023,1611.184],[-0.627367,42.829978,1611.435],[-0.627349,42.82993,1611.642],[-0.627331,42.829886,1612.144],[-0.627363,42.829845,1611.685],[-0.627358,42.829788,1613.989],[-0.627367,42.829743,1613.017],[-0.627363,42.829692,1613.108],[-0.627379,42.829648,1612.646],[-0.627408,42.829606,1612.595],[-0.627432,42.829563,1613.18],[-0.627396,42.829523,1613.414],[-0.627362,42.829477,1613.937],[-0.627338,42.829435,1613.958],[-0.627307,42.829393,1614.155],[-0.627264,42.829356,1613.187],[-0.627217,42.829311,1613.362],[-0.627181,42.829266,1613.083],[-0.627136,42.82923,1612.811],[-0.627112,42.829272,1612.808],[-0.627061,42.829303,1611.674],[-0.627069,42.829257,1605.613],[-0.62713,42.829234,1603.648],[-0.627192,42.829224,1603.312],[-0.627176,42.829267,1606.345],[-0.627211,42.829229,1604.936],[-0.627172,42.829191,1610.553],[-0.627172,42.829145,1611.345],[-0.627145,42.829099,1611.597],[-0.62714,42.829052,1609.823],[-0.627132,42.829006,1608.225],[-0.627126,42.828955,1607.208],[-0.627078,42.828925,1607.517],[-0.627045,42.828884,1604.886],[-0.626997,42.82885,1603.761],[-0.626956,42.828814,1603.365],[-0.626987,42.828769,1602.298],[-0.626969,42.828724,1602.069],[-0.626901,42.828704,1601.596],[-0.626853,42.828667,1602.328],[-0.626837,42.82862,1601.423],[-0.626848,42.828575,1599.883],[-0.626883,42.828538,1599.511],[-0.626871,42.828493,1600.708],[-0.626839,42.828452,1601.03],[-0.626839,42.828407,1599.649],[-0.626847,42.828362,1601.464],[-0.62685,42.828317,1600.388],[-0.626853,42.82827,1602.931],[-0.626812,42.828233,1602.552],[-0.626781,42.828189,1602.259],[-0.626758,42.828139,1602.561],[-0.626718,42.828091,1604.243],[-0.626697,42.828046,1604.164],[-0.626664,42.828004,1603.31],[-0.626652,42.827959,1602.108],[-0.626599,42.82793,1603.282],[-0.62657,42.827887,1605.371],[-0.626523,42.827852,1607.336],[-0.626488,42.827815,1610.02],[-0.626465,42.827769,1611.073],[-0.626491,42.82772,1612.254],[-0.626492,42.827674,1612.741],[-0.62646,42.827628,1612.843],[-0.626452,42.827579,1612.895],[-0.626445,42.827532,1612.449],[-0.62641,42.827491,1611.523],[-0.62641,42.827445,1612.908],[-0.626434,42.827398,1610.777],[-0.62643,42.827351,1610.516],[-0.626425,42.8273,1609.891],[-0.626476,42.827258,1609.725],[-0.626494,42.82721,1610.378],[-0.62652,42.827167,1611.949],[-0.626481,42.827128,1611.026],[-0.626443,42.827088,1610.898],[-0.62639,42.827066,1609.021],[-0.626389,42.827018,1609.241],[-0.626366,42.826971,1607.605],[-0.626344,42.826923,1608.308],[-0.626322,42.826877,1607.43],[-0.626285,42.82684,1607.019],[-0.626258,42.8268,1607.114],[-0.626246,42.826755,1607.628],[-0.626219,42.826708,1608.011],[-0.626197,42.826666,1606.062],[-0.626153,42.826633,1608.139],[-0.626089,42.826622,1608.261],[-0.626035,42.826586,1608.533],[-0.626002,42.826537,1606.523],[-0.625979,42.826487,1606.215],[-0.62596,42.826434,1606.208],[-0.62592,42.8264,1605.021],[-0.625922,42.826351,1604.71],[-0.625907,42.826301,1604.845],[-0.625895,42.826253,1605.089],[-0.625894,42.826203,1606.922],[-0.625898,42.826154,1607.973],[-0.625893,42.826109,1608.03],[-0.625897,42.826055,1608.492],[-0.6259,42.826003,1608.143],[-0.625881,42.825956,1608.164],[-0.625857,42.825911,1608.91],[-0.625817,42.825874,1608.108],[-0.625814,42.825827,1607.062],[-0.625812,42.825778,1605.351],[-0.625823,42.82573,1605.496],[-0.625808,42.825677,1603.61],[-0.625798,42.825629,1603.873],[-0.625785,42.825584,1604.584],[-0.625786,42.825537,1605.051],[-0.625771,42.825492,1607.283],[-0.625764,42.825441,1608.433],[-0.625749,42.825394,1609.223],[-0.625701,42.825359,1609.215],[-0.625653,42.825329,1609.208],[-0.625622,42.825282,1609.131],[-0.625607,42.825233,1608.25],[-0.625626,42.825189,1608.775],[-0.625645,42.825144,1607.239],[-0.62568,42.825103,1606.422],[-0.625692,42.825055,1607.173],[-0.625706,42.825009,1608.01],[-0.625707,42.824961,1609.152],[-0.625677,42.82492,1611.925],[-0.625704,42.824871,1611.926],[-0.625701,42.824825,1612.308],[-0.625687,42.824778,1611.508],[-0.625674,42.82473,1613.34],[-0.625646,42.824689,1613.199],[-0.625609,42.824651,1612.984],[-0.625591,42.824608,1612.338],[-0.625654,42.824594,1610.641],[-0.625721,42.8246,1610.272],[-0.62574,42.824554,1611.119],[-0.625761,42.824511,1612.971],[-0.625699,42.824503,1613.952],[-0.62566,42.824467,1612.753],[-0.62563,42.824425,1611.008],[-0.625616,42.824379,1608.208],[-0.625613,42.824331,1607.373],[-0.62565,42.824294,1607.582],[-0.6257,42.824265,1609.167],[-0.625696,42.82422,1610.891],[-0.625645,42.824192,1609.764],[-0.625593,42.824164,1611.295],[-0.62555,42.824131,1611.672],[-0.625524,42.824087,1613.424],[-0.625523,42.824036,1611.026],[-0.62553,42.823987,1610.647],[-0.625526,42.82394,1612.311],[-0.625486,42.823902,1612.408],[-0.625433,42.823877,1610.94],[-0.625399,42.823839,1611.639],[-0.625372,42.823797,1610.724],[-0.625349,42.823751,1610.838],[-0.625331,42.823707,1613.121],[-0.625332,42.823654,1614.172],[-0.62531,42.823602,1614.239],[-0.625318,42.823552,1612.991],[-0.625321,42.823504,1612.078],[-0.625361,42.823456,1612.833],[-0.625309,42.823431,1611.826],[-0.625259,42.823403,1611.808],[-0.625212,42.82337,1612.595],[-0.625152,42.823341,1613.234],[-0.625093,42.823318,1612.419],[-0.62507,42.82327,1611.943],[-0.62506,42.823225,1611.146],[-0.625031,42.823184,1610.477],[-0.625024,42.823138,1612.254],[-0.625029,42.823092,1613.196],[-0.625015,42.823046,1614.541],[-0.625012,42.822997,1615.381],[-0.625002,42.822949,1614.709],[-0.624994,42.822903,1614.408],[-0.624986,42.822855,1615.342],[-0.62498,42.822803,1613.821],[-0.624963,42.822758,1613.666],[-0.624943,42.822714,1613.36],[-0.624943,42.822667,1612.733],[-0.624951,42.82261,1612.864],[-0.624978,42.822567,1611.451],[-0.624926,42.822534,1611.573],[-0.624852,42.822516,1611.056],[-0.624807,42.822483,1611.759],[-0.624776,42.82244,1611.014],[-0.62475,42.822393,1611.708],[-0.624759,42.822345,1612.323],[-0.624745,42.822294,1611.672],[-0.624757,42.822242,1611.857],[-0.624778,42.822197,1610.781],[-0.62481,42.822152,1611.844],[-0.624783,42.82211,1613.245],[-0.624763,42.82206,1615.312],[-0.624751,42.822011,1613.514],[-0.624731,42.821968,1613.263],[-0.624721,42.821923,1613.344],[-0.624721,42.821872,1610.918],[-0.624717,42.821827,1610.708],[-0.624735,42.821783,1609.194],[-0.624709,42.82174,1608.513],[-0.624753,42.821702,1609.828],[-0.624799,42.821671,1611.462],[-0.624848,42.821639,1612.495],[-0.624877,42.821592,1613.696],[-0.62489,42.821547,1616.433],[-0.624886,42.821497,1615.645],[-0.624901,42.821449,1616.072],[-0.624929,42.821404,1617.913],[-0.624962,42.821349,1616.814],[-0.62499,42.821306,1615.908],[-0.624971,42.821262,1615.565],[-0.624982,42.821217,1613.484],[-0.625034,42.82119,1613.739],[-0.625101,42.821177,1612.423],[-0.625111,42.821128,1612.726],[-0.625102,42.821079,1611.827],[-0.625052,42.821037,1610.774],[-0.625003,42.821006,1612.476],[-0.624963,42.82097,1614.427],[-0.624967,42.820923,1616.868],[-0.624978,42.820877,1618.114],[-0.624909,42.820883,1616.308],[-0.624844,42.820872,1614.64],[-0.62488,42.820832,1613.839],[-0.624908,42.820786,1611.784],[-0.624931,42.820741,1613.148],[-0.624958,42.820695,1614.691],[-0.624998,42.820661,1615.142],[-0.624993,42.820609,1615.329],[-0.625017,42.820556,1615.011],[-0.625023,42.820508,1616.418],[-0.625027,42.820461,1617.898],[-0.625006,42.820418,1618.517],[-0.625066,42.820403,1618.608],[-0.625069,42.820356,1617.769],[-0.625029,42.820319,1618.268],[-0.624981,42.820286,1619.353],[-0.62494,42.820251,1618.177],[-0.62488,42.820233,1618.71],[-0.624822,42.820206,1617.641],[-0.624769,42.820176,1617.388],[-0.624774,42.820127,1616.83],[-0.62479,42.820078,1618.424],[-0.624732,42.820057,1619.004],[-0.624667,42.82005,1618.914],[-0.624609,42.820022,1618.908],[-0.624546,42.820015,1619.88],[-0.624485,42.819999,1619.339],[-0.624422,42.819986,1618.424],[-0.62437,42.81996,1617.318],[-0.624337,42.819916,1616.631],[-0.624334,42.819868,1617.472],[-0.624315,42.819825,1616.179],[-0.624286,42.819776,1615.871],[-0.624252,42.819732,1614.572],[-0.624221,42.819689,1616.113],[-0.624197,42.819647,1616.314],[-0.624194,42.819595,1616.308],[-0.624181,42.819548,1614.665],[-0.624168,42.8195,1616.094],[-0.624171,42.819451,1615.299],[-0.624161,42.8194,1615.183],[-0.624158,42.819349,1615.096],[-0.62416,42.819295,1615.987],[-0.624168,42.819245,1615.944],[-0.624136,42.8192,1616.326],[-0.624134,42.819153,1616.855],[-0.624145,42.819108,1616.907],[-0.62416,42.819063,1619.217],[-0.624121,42.819019,1619.008],[-0.624094,42.818972,1617.963],[-0.624075,42.818926,1617.272],[-0.624048,42.818879,1616.547],[-0.624042,42.818832,1616.421],[-0.624043,42.818785,1617.214],[-0.624036,42.818739,1618.715],[-0.624028,42.818693,1619.462],[-0.624023,42.818647,1620.194],[-0.623985,42.818603,1620.076],[-0.623981,42.818556,1619.79],[-0.623989,42.818508,1621.819],[-0.623996,42.818462,1621.008],[-0.623991,42.818415,1621.625],[-0.623995,42.818362,1621.724],[-0.623982,42.818316,1621.969],[-0.623976,42.818261,1623.163],[-0.623953,42.81821,1624.576],[-0.623932,42.818165,1624.557],[-0.623925,42.818119,1624.894],[-0.623911,42.81807,1624.956],[-0.62391,42.818022,1624.993],[-0.623908,42.817975,1624.165],[-0.623872,42.817935,1624.921],[-0.623831,42.817892,1623.908],[-0.623806,42.817845,1624.557],[-0.623803,42.81779,1625.176],[-0.623776,42.817748,1626.211],[-0.623738,42.817711,1624.995],[-0.623734,42.817665,1624.128],[-0.623678,42.817634,1624.799],[-0.62369,42.817584,1624.976],[-0.623672,42.817536,1623.068],[-0.623634,42.817497,1622.656],[-0.623615,42.817452,1621.759],[-0.623588,42.817401,1621.614],[-0.623543,42.81736,1620.408],[-0.623503,42.817322,1621.483],[-0.623442,42.817266,1622.222],[-0.623411,42.81722,1622.697],[-0.62339,42.817169,1623.361],[-0.623362,42.817124,1622.774],[-0.623334,42.817079,1624.335],[-0.623284,42.817051,1625.892],[-0.623288,42.816999,1625.494],[-0.623276,42.81695,1626.175],[-0.623263,42.816901,1627.028],[-0.623259,42.816854,1625.92],[-0.623263,42.816807,1626.308],[-0.62324,42.816758,1626.625],[-0.623226,42.816711,1626.734],[-0.623226,42.816662,1626.699],[-0.623261,42.816624,1624.843],[-0.623284,42.81658,1624.626],[-0.623248,42.816543,1625.537],[-0.623188,42.816522,1623.744],[-0.623125,42.816495,1624.736],[-0.623091,42.816457,1624.546],[-0.623072,42.816411,1625.688],[-0.623078,42.816365,1625.916],[-0.623063,42.816308,1623.608],[-0.623055,42.816257,1623.522],[-0.623032,42.816213,1623.691],[-0.622978,42.816182,1623.496],[-0.622949,42.816139,1623.97],[-0.622946,42.816094,1625.393],[-0.622926,42.816046,1625.354],[-0.622901,42.816004,1626.391],[-0.62286,42.815966,1626.873],[-0.622824,42.81593,1626.428],[-0.622792,42.815891,1627.689],[-0.622778,42.815843,1627.117],[-0.622775,42.815795,1628.008],[-0.622793,42.81575,1627.12],[-0.622793,42.815697,1627.189],[-0.622786,42.815651,1628.694],[-0.622803,42.815607,1628.538],[-0.622834,42.815568,1627.761],[-0.622877,42.815533,1626.142],[-0.622905,42.815491,1624.969],[-0.622932,42.815451,1624.021],[-0.622955,42.815409,1621.812],[-0.622913,42.815372,1622.632],[-0.622897,42.815325,1622.405],[-0.622854,42.815284,1623.308],[-0.622799,42.815251,1623.039],[-0.622753,42.815216,1623.778],[-0.622763,42.815165,1623.683],[-0.622795,42.815122,1623.477],[-0.622803,42.815072,1623.78],[-0.622771,42.81502,1623.361],[-0.622733,42.814982,1622.328],[-0.622684,42.814954,1621.14],[-0.622652,42.814905,1622.499],[-0.622674,42.814863,1622.507],[-0.622685,42.814817,1621.927],[-0.622672,42.814769,1621.708],[-0.622659,42.814724,1622.627],[-0.622664,42.814674,1622.016],[-0.622671,42.814626,1622.231],[-0.622703,42.814587,1620.025],[-0.622696,42.814542,1619.748],[-0.622694,42.814487,1620.249],[-0.622714,42.814442,1622.116],[-0.622683,42.814402,1623.168],[-0.622685,42.814356,1624.497],[-0.622713,42.814314,1623.223],[-0.622723,42.814268,1622.225],[-0.622749,42.814226,1623.708],[-0.622765,42.814181,1622.337],[-0.622762,42.81413,1622.236],[-0.622755,42.814078,1622.161],[-0.622749,42.81403,1622.695],[-0.622729,42.813984,1624.028],[-0.622743,42.813933,1625.999],[-0.622723,42.813887,1628.196],[-0.62272,42.813837,1626.368],[-0.622704,42.813789,1625.619],[-0.622698,42.813744,1625.409],[-0.622757,42.813727,1625.219],[-0.622807,42.813696,1626.108],[-0.622851,42.81366,1626.329],[-0.62286,42.813613,1627.218],[-0.622911,42.813583,1627.963],[-0.622976,42.813585,1628.097],[-0.623034,42.813569,1627.55],[-0.623102,42.813566,1627.111],[-0.623145,42.81353,1626.438],[-0.623201,42.813499,1625.21],[-0.623262,42.813486,1624.613],[-0.623322,42.813474,1626.043],[-0.623389,42.813473,1627.407],[-0.623453,42.813468,1629.808],[-0.623519,42.813472,1629.839],[-0.623574,42.813443,1629.978],[-0.623621,42.813414,1630.773],[-0.623676,42.813385,1630.567],[-0.623721,42.813348,1630.24],[-0.623761,42.813309,1630.071],[-0.623815,42.813282,1630.228],[-0.623859,42.813246,1630.93],[-0.62391,42.813209,1631.563],[-0.623962,42.813175,1632.544],[-0.624005,42.813142,1633.418],[-0.624044,42.813105,1633.808],[-0.624067,42.81306,1634.534],[-0.624119,42.813026,1634.823],[-0.624174,42.812994,1634.548],[-0.624225,42.812963,1633.832],[-0.624265,42.812926,1635.545],[-0.624279,42.812878,1636.796],[-0.62424,42.812839,1636.853],[-0.624259,42.812794,1637.185],[-0.624313,42.812771,1635.852],[-0.624356,42.812733,1636.953],[-0.624399,42.812699,1636.208],[-0.624443,42.812658,1636.308],[-0.624483,42.812617,1637.593],[-0.624522,42.81258,1638.092],[-0.624557,42.812541,1639.227],[-0.624598,42.812505,1638.081],[-0.624655,42.812473,1638.914],[-0.624703,42.812442,1641.525],[-0.624767,42.812445,1655.612],[-0.624809,42.812401,1647.474],[-0.624841,42.812362,1643.717],[-0.624873,42.812321,1642.487],[-0.624938,42.812298,1642.115],[-0.625001,42.81228,1643.308],[-0.625047,42.812244,1644.299],[-0.625088,42.812206,1644.648],[-0.625142,42.812183,1645.173],[-0.625199,42.812165,1646.017],[-0.625245,42.812132,1647.17],[-0.625306,42.812109,1647.591],[-0.625354,42.812081,1647.778],[-0.625411,42.812056,1646.31],[-0.625475,42.812044,1646.839],[-0.625541,42.812034,1647.501],[-0.625581,42.811999,1648.121],[-0.625532,42.811963,1646.308],[-0.625572,42.811927,1645.961],[-0.625614,42.811891,1645.47],[-0.625676,42.811872,1645.945],[-0.625739,42.811863,1645.699],[-0.625806,42.811869,1648.372],[-0.625862,42.811845,1649.383],[-0.625904,42.811812,1651.81],[-0.625949,42.81178,1653.962],[-0.626007,42.811761,1653.685],[-0.626066,42.81174,1654.389],[-0.626124,42.811726,1655.517],[-0.626177,42.811703,1656.608],[-0.626231,42.811677,1656.466],[-0.62629,42.811654,1656.435],[-0.626359,42.811649,1658.71],[-0.626422,42.811662,1658.114],[-0.626484,42.811651,1661.547],[-0.626545,42.81164,1662.068],[-0.626612,42.811627,1662.165],[-0.626665,42.811603,1661.897],[-0.62673,42.811588,1663.344],[-0.626793,42.811571,1664.605],[-0.626855,42.811563,1665.015],[-0.62692,42.811546,1666.208],[-0.626969,42.811518,1664.942],[-0.627011,42.811483,1665.561],[-0.627069,42.811456,1666.916],[-0.627131,42.811459,1669.53],[-0.627193,42.811451,1671.783],[-0.627256,42.811442,1672.844],[-0.627319,42.81145,1674.371],[-0.627376,42.811475,1676.023],[-0.627441,42.811484,1675.783],[-0.627501,42.811466,1674.125],[-0.62756,42.811451,1675.517],[-0.627617,42.811432,1675.708],[-0.627682,42.811412,1675.736],[-0.627741,42.811378,1677.915],[-0.627795,42.811351,1680.15],[-0.62785,42.811324,1679.934],[-0.627912,42.811328,1681.137],[-0.627976,42.811329,1681.258],[-0.628039,42.811336,1683.395],[-0.628106,42.811325,1683.377],[-0.628171,42.811319,1684.111],[-0.628234,42.811316,1684.621],[-0.628295,42.8113,1684.003],[-0.62836,42.811306,1683.708],[-0.628427,42.811313,1683.939],[-0.628498,42.811308,1684.298],[-0.628562,42.811293,1685.243],[-0.628625,42.811299,1685.747],[-0.628688,42.811303,1685.76],[-0.628751,42.811295,1686.041],[-0.628815,42.811291,1686.678],[-0.628881,42.811303,1687.09],[-0.628951,42.811306,1687.374],[-0.629013,42.811302,1688.156],[-0.629078,42.811293,1688.721],[-0.629141,42.8113,1689.408],[-0.629192,42.811272,1689.015],[-0.629265,42.811282,1689.474],[-0.629337,42.811284,1689.499],[-0.629406,42.811278,1690.183],[-0.629468,42.811263,1690.966],[-0.629533,42.811254,1690.987],[-0.629599,42.811266,1692.734],[-0.629662,42.811281,1694.166],[-0.629727,42.811294,1694.845],[-0.629801,42.811289,1694.247],[-0.629864,42.811279,1694.311],[-0.629923,42.811254,1695.508],[-0.629978,42.81123,1696.792],[-0.630032,42.811204,1697.691],[-0.630084,42.811228,1696.456],[-0.630102,42.811272,1694.88],[-0.63015,42.811307,1693.133],[-0.630204,42.811334,1693.014],[-0.63027,42.811318,1695.471],[-0.630339,42.811313,1695.773],[-0.630401,42.8113,1697.265],[-0.630435,42.811262,1698.768],[-0.63044,42.811217,1700.114],[-0.630495,42.81119,1702.808],[-0.63056,42.811184,1703.774],[-0.630619,42.811168,1703.783],[-0.630678,42.811147,1704.128],[-0.630731,42.811117,1705.192],[-0.630802,42.811117,1706.995],[-0.630869,42.811118,1707.886],[-0.630935,42.811113,1709.473],[-0.630998,42.811098,1709.925],[-0.631054,42.811075,1712.136],[-0.631096,42.811039,1713.417],[-0.631107,42.810991,1716.318],[-0.631157,42.810963,1718.208],[-0.631219,42.810949,1719.481],[-0.631269,42.810916,1719.71],[-0.631321,42.810886,1721.035],[-0.631388,42.810877,1721.369],[-0.631439,42.810851,1721.022],[-0.631498,42.810832,1721.763],[-0.631558,42.810816,1724.03],[-0.631622,42.810809,1725.292],[-0.631675,42.810781,1727.334],[-0.63174,42.810769,1727.755],[-0.631805,42.810759,1729.91],[-0.631872,42.810771,1730.308],[-0.631937,42.810768,1731.281],[-0.632007,42.810766,1731.25],[-0.632074,42.810761,1731.145],[-0.632127,42.810735,1732.759],[-0.632189,42.810754,1734.772],[-0.632254,42.81075,1734.843],[-0.632301,42.810716,1734.06],[-0.632338,42.810676,1735.172],[-0.632389,42.810703,1735.342],[-0.632453,42.81072,1736.522],[-0.632516,42.810725,1737.214],[-0.632578,42.810714,1737.608],[-0.632631,42.810688,1740.872],[-0.632688,42.810712,1739.591],[-0.63274,42.810737,1738.266],[-0.632799,42.810725,1739.46],[-0.632844,42.810691,1741.793],[-0.63291,42.810684,1742.624],[-0.632979,42.81069,1742.871],[-0.633031,42.810725,1743.193],[-0.633077,42.810757,1741.876],[-0.633139,42.810769,1739.79],[-0.633208,42.810762,1738.919],[-0.63327,42.810754,1740.908],[-0.633339,42.810748,1743.525],[-0.633383,42.810708,1745.154],[-0.633445,42.810696,1746.259],[-0.633512,42.810715,1746.243],[-0.633577,42.810713,1746.176],[-0.633641,42.810692,1749.727],[-0.633708,42.810692,1751.124],[-0.633775,42.8107,1751.286],[-0.633834,42.81068,1751.127],[-0.633901,42.810684,1752.068],[-0.633965,42.810673,1754.814],[-0.63403,42.810654,1757.008],[-0.634097,42.810654,1758.34],[-0.634158,42.810643,1762.169],[-0.634222,42.810652,1761.894],[-0.634284,42.81066,1762.638],[-0.634347,42.810652,1764.081],[-0.634413,42.810652,1763.762],[-0.634478,42.810651,1763.749],[-0.634541,42.810637,1764.911],[-0.634597,42.81061,1766.244],[-0.634654,42.810593,1766.905],[-0.634713,42.810611,1766.815],[-0.63477,42.810633,1767.208],[-0.634825,42.810612,1767.422],[-0.634894,42.810612,1767.781],[-0.634958,42.810627,1768.326],[-0.635012,42.810606,1770.95],[-0.635063,42.810641,1771.933],[-0.635115,42.810671,1774.764],[-0.635177,42.810687,1774.921],[-0.635232,42.810708,1776.183],[-0.635289,42.810727,1776.069],[-0.635346,42.810748,1776.004],[-0.635411,42.810751,1776.324],[-0.635475,42.810749,1777.508],[-0.635541,42.81076,1779.334],[-0.635595,42.810792,1781.273],[-0.635641,42.810826,1779.168],[-0.635717,42.810852,1778.632],[-0.63577,42.810883,1779.165],[-0.635829,42.8109,1781.566],[-0.635884,42.810925,1783.763],[-0.635946,42.810919,1784.755],[-0.636011,42.810911,1784.722],[-0.636076,42.810925,1783.662],[-0.636132,42.810945,1783.908],[-0.636195,42.81096,1785.608],[-0.636252,42.810982,1786.24],[-0.636304,42.811008,1786.769],[-0.636365,42.810997,1787.274],[-0.636433,42.81099,1788.318],[-0.636495,42.811002,1790.111],[-0.636563,42.811002,1791.412],[-0.636624,42.81101,1794.379],[-0.63669,42.811015,1795.031],[-0.63675,42.811003,1796.622],[-0.636787,42.810966,1797.462],[-0.636847,42.810948,1798.008],[-0.636906,42.810933,1799.408],[-0.636971,42.810932,1800.39],[-0.637033,42.810949,1800.939],[-0.637093,42.810965,1801.874],[-0.637155,42.81097,1803.068],[-0.637227,42.810979,1801.181],[-0.637294,42.810993,1802.422],[-0.637355,42.810982,1803.179],[-0.637417,42.810994,1805.251],[-0.63748,42.810982,1806.834],[-0.637543,42.810965,1808.555],[-0.637603,42.810945,1810.01],[-0.637665,42.810925,1811.808],[-0.637725,42.81091,1812.941],[-0.637788,42.810911,1813.73],[-0.637846,42.810893,1813.735],[-0.637904,42.810874,1813.949],[-0.637969,42.810877,1813.812],[-0.63803,42.810888,1813.523],[-0.63808,42.810924,1811.55],[-0.638143,42.810924,1810.192],[-0.638198,42.810902,1810.488],[-0.638239,42.810868,1810.324],[-0.638304,42.810859,1811.326],[-0.638366,42.810852,1817.308],[-0.638428,42.810835,1818.986],[-0.638488,42.810823,1824.125],[-0.638554,42.810815,1829.27],[-0.638615,42.810805,1830.814],[-0.638681,42.810801,1833.727],[-0.638739,42.810785,1837.228],[-0.638799,42.810769,1838.675],[-0.638861,42.810753,1838.397],[-0.638923,42.81074,1841.276],[-0.638986,42.810721,1842.79],[-0.639035,42.81069,1842.019],[-0.639095,42.810677,1841.508],[-0.639156,42.810686,1842.365],[-0.639193,42.810729,1840.924],[-0.639248,42.810757,1840.259],[-0.639312,42.810752,1839.263],[-0.639371,42.81074,1839.166],[-0.639436,42.810732,1839.847],[-0.639486,42.810706,1839.294],[-0.639527,42.810665,1840.266],[-0.639556,42.810625,1841.119],[-0.639592,42.810583,1840.809],[-0.639625,42.810543,1839.619],[-0.639677,42.810519,1838.708],[-0.639741,42.810508,1840.059],[-0.639804,42.810492,1841.748],[-0.63986,42.810466,1843.253],[-0.639909,42.810439,1849.457],[-0.639952,42.810406,1850.96],[-0.639972,42.810363,1852.691],[-0.64001,42.810327,1854.938],[-0.64007,42.810341,1856.75],[-0.640131,42.81033,1857.938],[-0.640181,42.810298,1858.97],[-0.640209,42.810255,1860.217],[-0.640264,42.810233,1861.908],[-0.640319,42.810207,1863.261],[-0.640353,42.810168,1863.24],[-0.640409,42.810142,1864.875],[-0.640452,42.810108,1866.929],[-0.640483,42.810069,1867.812],[-0.640516,42.810029,1868.983],[-0.640573,42.81001,1870.46],[-0.640639,42.810004,1872.542],[-0.640687,42.809975,1874.371],[-0.640756,42.809969,1871.241],[-0.640813,42.809949,1871.415],[-0.640878,42.809954,1871.208],[-0.640941,42.80996,1873.015],[-0.641011,42.809949,1874.574],[-0.641074,42.809925,1877.069],[-0.641126,42.809897,1877.293],[-0.641187,42.809874,1878.166],[-0.641217,42.809834,1882.367],[-0.641239,42.809791,1882.874],[-0.6413,42.809776,1882.556],[-0.641332,42.809732,1883.616],[-0.641375,42.809697,1882.776],[-0.641426,42.809665,1881.513],[-0.641485,42.809637,1883.308],[-0.641547,42.809635,1884.499],[-0.64161,42.809619,1884.288],[-0.641681,42.809613,1884.293],[-0.641732,42.809583,1882.357],[-0.641765,42.809545,1881.55],[-0.641774,42.809496,1880.791],[-0.641794,42.809447,1881.378],[-0.641858,42.809436,1883.03],[-0.641905,42.809407,1884.498],[-0.641933,42.809367,1885.515],[-0.642,42.809359,1882.926],[-0.642063,42.809349,1881.708],[-0.642122,42.80933,1881.487],[-0.642139,42.809282,1881.546],[-0.642145,42.809236,1881.251],[-0.642122,42.809192,1880.265],[-0.642176,42.80917,1879.848],[-0.642238,42.809187,1879.279],[-0.642285,42.809223,1880.186],[-0.642335,42.809251,1879.468],[-0.642401,42.809257,1880.732],[-0.642457,42.809223,1879.992],[-0.642519,42.809197,1877.911],[-0.642585,42.809171,1878.008],[-0.64263,42.809138,1876.171],[-0.642655,42.809096,1874.33],[-0.642652,42.809047,1872.495],[-0.642692,42.808999,1871.729],[-0.642732,42.808963,1869.952],[-0.642769,42.808925,1869.633],[-0.642835,42.808929,1871.68],[-0.642897,42.80894,1873.232],[-0.642934,42.80898,1873.438],[-0.642997,42.808959,1873.37],[-0.643056,42.808945,1873.617],[-0.64312,42.808927,1872.408],[-0.643173,42.808902,1874.411],[-0.643193,42.808857,1879.12],[-0.643243,42.808826,1879.395],[-0.643305,42.808803,1881.189],[-0.643375,42.808796,1882.742],[-0.643429,42.808769,1882.153],[-0.643482,42.808746,1893.02],[-0.6435,42.808699,1891.732],[-0.643544,42.808667,1889.745],[-0.643551,42.808622,1888.847],[-0.643514,42.808585,1887.711],[-0.643468,42.808553,1888.108],[-0.643422,42.808515,1890.722],[-0.643359,42.80851,1891.791],[-0.6433,42.808493,1892.696],[-0.643236,42.80848,1895.07],[-0.643175,42.808472,1895.573],[-0.64311,42.808454,1895.594],[-0.643097,42.808404,1896.811],[-0.643139,42.80837,1899.163],[-0.643199,42.808334,1899.667],[-0.643237,42.808298,1901.481],[-0.643232,42.808249,1901.719],[-0.643255,42.808206,1902.108],[-0.643306,42.808175,1902.384],[-0.643367,42.808146,1904.483],[-0.643436,42.808135,1905.018],[-0.643489,42.80811,1905.132],[-0.643513,42.808064,1906.585],[-0.643568,42.808038,1908.316],[-0.643608,42.807998,1908.233],[-0.643625,42.807954,1909.935],[-0.64367,42.807923,1908.839],[-0.64373,42.807905,1909.801],[-0.643783,42.807879,1909.521],[-0.643823,42.807838,1912.008],[-0.643883,42.80782,1913.671],[-0.643945,42.807819,1916.08],[-0.64401,42.807805,1917.295],[-0.644064,42.807776,1917.469],[-0.644094,42.807732,1919.232],[-0.644146,42.807705,1918.683],[-0.644201,42.80768,1919.09],[-0.644254,42.807654,1919.222],[-0.644293,42.807619,1919.947],[-0.64431,42.807572,1922.629],[-0.644305,42.807524,1921.821],[-0.644356,42.80749,1920.908],[-0.644413,42.807463,1921.892],[-0.644414,42.807409,1921.121],[-0.644406,42.80735,1921.336],[-0.644438,42.807311,1921.31],[-0.644468,42.807266,1922.493],[-0.644462,42.807218,1923.834],[-0.644489,42.807177,1925.121],[-0.644491,42.807128,1926.133],[-0.644481,42.807079,1928.169],[-0.644535,42.807052,1935.104],[-0.644591,42.807073,1932.524],[-0.644653,42.807086,1932.008],[-0.644716,42.807077,1931.534],[-0.644715,42.807027,1931.343],[-0.64469,42.806986,1932.488],[-0.644743,42.806961,1933.252],[-0.644789,42.806926,1934.675],[-0.644776,42.806878,1934.936],[-0.644793,42.806834,1934.983],[-0.644831,42.806793,1937.695],[-0.644869,42.806757,1938.087],[-0.644914,42.806723,1938.942],[-0.644927,42.806679,1940.026],[-0.644937,42.806634,1941.108],[-0.644979,42.806592,1943.286],[-0.645009,42.806551,1947.015],[-0.645052,42.806516,1948.03],[-0.645115,42.806524,1948.484],[-0.645164,42.806496,1950.237],[-0.645233,42.806519,1954.188],[-0.645282,42.806549,1955.575],[-0.645344,42.806554,1957.127],[-0.645396,42.806527,1958.664],[-0.645424,42.806486,1959.506],[-0.645471,42.806454,1960.416],[-0.645513,42.806417,1963.408],[-0.645566,42.806394,1971.094],[-0.645627,42.806379,1974.523],[-0.645689,42.806379,1976.688],[-0.645743,42.806351,1977.882],[-0.64579,42.806321,1980.115],[-0.645826,42.806284,1979.046],[-0.645862,42.806247,1977.923],[-0.645926,42.806244,1979.125],[-0.645994,42.806252,1978.695],[-0.646056,42.806274,1979.449],[-0.646107,42.806302,1979.723],[-0.646153,42.806335,1981.408],[-0.646213,42.806347,1982.467],[-0.64626,42.806379,1980.646],[-0.646308,42.806416,1979.711],[-0.646369,42.806439,1980.415],[-0.646433,42.806451,1981.858],[-0.646496,42.806448,1983.249],[-0.64656,42.80645,1985.586],[-0.646612,42.806476,1986.648],[-0.646663,42.806502,1988.085],[-0.646719,42.806522,1988.689],[-0.646785,42.806532,1989.917],[-0.646849,42.806545,1991.108],[-0.646918,42.806558,1990.876],[-0.646989,42.806563,1989.975],[-0.647043,42.806587,1991.26],[-0.647107,42.806572,1991.914],[-0.647166,42.806555,1991.777],[-0.647225,42.806567,1992.038],[-0.647291,42.806555,1993.555],[-0.647349,42.806538,1995.987],[-0.647409,42.806524,1997.242],[-0.647478,42.806511,1998.322],[-0.647526,42.806476,2000.714],[-0.647575,42.806448,2002.508],[-0.647628,42.806417,2004.122],[-0.647676,42.806383,2005.441],[-0.64773,42.806361,2006.876],[-0.647766,42.806324,2008.08],[-0.647823,42.806297,2006.683],[-0.647851,42.806257,2006.974],[-0.647891,42.806216,2008.791],[-0.647933,42.806183,2009.023],[-0.647985,42.806154,2010.249],[-0.648028,42.80612,2011.402],[-0.648031,42.806073,2012.622],[-0.648095,42.806068,2017.108],[-0.648142,42.806038,2017.562],[-0.648199,42.80602,2017.021],[-0.648257,42.805999,2016.956],[-0.64831,42.805966,2018.31],[-0.648372,42.805961,2019.513],[-0.648433,42.805969,2021.864],[-0.648494,42.805959,2023.791],[-0.648562,42.805955,2026.423],[-0.648628,42.805971,2026.739],[-0.64867,42.806007,2027.901],[-0.648705,42.806052,2029.221],[-0.648752,42.806082,2029.508],[-0.648795,42.806119,2030.221],[-0.648839,42.806151,2030.45],[-0.648892,42.806123,2028.975],[-0.648939,42.806155,2029.939],[-0.648948,42.806202,2030.992],[-0.648998,42.806234,2032.413],[-0.64904,42.806274,2032.75],[-0.64908,42.806313,2031.852],[-0.649109,42.806353,2033.695],[-0.649153,42.806392,2034.949],[-0.64921,42.806422,2036.123],[-0.649262,42.806446,2037.308],[-0.649315,42.806474,2036.687],[-0.649355,42.806512,2038.786],[-0.649405,42.806545,2039.871],[-0.649443,42.806581,2041.485],[-0.649504,42.806592,2042.978],[-0.649544,42.806631,2043.999],[-0.649565,42.806676,2047.246],[-0.649607,42.806642,2048.968],[-0.649638,42.806683,2049.438],[-0.649683,42.806647,2052.17],[-0.649736,42.806623,2052.017],[-0.649773,42.806663,2052.708],[-0.649828,42.806691,2053.371],[-0.649867,42.806731,2054.83],[-0.649921,42.806759,2056.645],[-0.649932,42.806805,2057.649],[-0.649939,42.806855,2058.892],[-0.649945,42.806902,2060.983],[-0.649964,42.80695,2061.74],[-0.649984,42.806996,2063.352],[-0.650036,42.806968,2063.064],[-0.650069,42.807009,2063.806],[-0.650112,42.807042,2064.916],[-0.650146,42.80708,2070.808],[-0.650179,42.80712,2071.894],[-0.650195,42.807166,2071.473],[-0.650233,42.807208,2074.348],[-0.650268,42.807249,2076.572],[-0.650265,42.807296,2078.555],[-0.650296,42.807341,2082.656],[-0.650329,42.807383,2084.183],[-0.650371,42.807417,2083.975],[-0.650414,42.807454,2084.766],[-0.650472,42.80747,2088.529],[-0.65051,42.807512,2088.821],[-0.650506,42.807559,2090.408],[-0.650511,42.807605,2090.744],[-0.650523,42.807651,2091.823],[-0.650549,42.807693,2093.798],[-0.650565,42.807738,2094.292],[-0.650519,42.807772,2092.775],[-0.650504,42.807817,2093.526],[-0.650524,42.80786,2097.063],[-0.650552,42.807905,2100.565],[-0.650617,42.807924,2101.365],[-0.650624,42.807971,2101.768],[-0.650696,42.807984,2101.614],[-0.650763,42.80799,2102.608],[-0.650818,42.808013,2102.854],[-0.65088,42.808022,2103.663],[-0.650936,42.808041,2104.098],[-0.650993,42.808061,2103.812],[-0.651052,42.808081,2105.045],[-0.651109,42.808104,2105.956],[-0.651158,42.808132,2107.293],[-0.6512,42.808171,2108.525],[-0.651212,42.808215,2116.377],[-0.651229,42.80826,2118.661],[-0.651292,42.808265,2119.227],[-0.651326,42.808227,2120.908],[-0.651385,42.808203,2120.635],[-0.65145,42.808205,2122.824],[-0.651505,42.808239,2121.629],[-0.651555,42.808265,2123.143],[-0.651614,42.808252,2124.466],[-0.651676,42.808259,2125.547],[-0.651721,42.808228,2126.334],[-0.651776,42.808205,2126.296],[-0.651832,42.808186,2127.193],[-0.651885,42.808209,2131.065],[-0.651945,42.808229,2130.021],[-0.652007,42.808214,2130.208],[-0.652073,42.808201,2133.167],[-0.652136,42.808203,2133.266],[-0.652197,42.808197,2136.991],[-0.652261,42.808198,2137.535],[-0.65232,42.808181,2137.588],[-0.652383,42.808164,2138.819],[-0.652447,42.808171,2139.556],[-0.652507,42.808185,2141.878],[-0.65256,42.808156,2142.211],[-0.652634,42.808149,2142.121],[-0.652692,42.808165,2142.303],[-0.652757,42.808175,2144.508],[-0.652824,42.80818,2147.739],[-0.652889,42.808179,2147.828],[-0.652949,42.808194,2149.343],[-0.653009,42.808215,2150.757],[-0.653075,42.808212,2151.33],[-0.653137,42.80822,2154.191],[-0.653202,42.808234,2156.138],[-0.653259,42.808258,2158.28],[-0.653232,42.808214,2174.215],[-0.65317,42.808207,2181.565],[-0.653231,42.808185,2164.911],[-0.653294,42.808191,2156.308],[-0.653354,42.80818,2155.459],[-0.653413,42.808167,2153.058],[-0.653475,42.808173,2153.523],[-0.653573,42.808175,2152.347],[-0.653636,42.808189,2149.64],[-0.653702,42.808196,2148.821],[-0.653767,42.808188,2153.388],[-0.65383,42.808202,2152.29],[-0.653882,42.808227,2150.312],[-0.653943,42.808245,2147.432],[-0.653996,42.808269,2144.905],[-0.6547,42.808204,2144.908],[-0.654664,42.808243,2145.089],[-0.654712,42.808279,2145.398],[-0.654762,42.808312,2145.093],[-0.654822,42.808339,2144.417],[-0.654818,42.808385,2142.11],[-0.65479,42.808429,2136.911],[-0.654825,42.80847,2135.338],[-0.654861,42.808515,2133.93],[-0.65491,42.808551,2132.541],[-0.654952,42.808595,2131.981],[-0.655005,42.80862,2129.309],[-0.654986,42.808672,2128.008],[-0.654987,42.808723,2127.592],[-0.655029,42.80876,2127.241],[-0.655069,42.808795,2127.056],[-0.655054,42.808839,2135.73],[-0.655088,42.80888,2135.333],[-0.655121,42.808919,2134.774],[-0.655143,42.808962,2135.181],[-0.655148,42.809007,2123.543],[-0.655125,42.809052,2119.239],[-0.65518,42.809077,2116.401],[-0.655227,42.809108,2114.421],[-0.655266,42.809147,2113.208],[-0.655309,42.809183,2111.621],[-0.655357,42.809212,2109.03],[-0.65541,42.809234,2104.525],[-0.655385,42.809278,2103.329],[-0.655341,42.80932,2102.742],[-0.655275,42.809323,2102.363],[-0.655208,42.809328,2101.62],[-0.655151,42.809347,2098.912],[-0.655096,42.80937,2097.843],[-0.655034,42.80938,2097.664],[-0.654973,42.809397,2096.61],[-0.654914,42.809423,2095.908],[-0.654861,42.809449,2094.092],[-0.65483,42.809495,2092.061],[-0.654846,42.809544,2091.136],[-0.654904,42.809564,2090.89],[-0.654933,42.809609,2090.443],[-0.654968,42.809651,2090.244],[-0.655017,42.809689,2090.391],[-0.655067,42.809715,2090.583],[-0.655132,42.809731,2090.391],[-0.655194,42.809758,2092.181],[-0.655256,42.809779,2094.119],[-0.655266,42.809825,2095.708],[-0.655325,42.809845,2096.237],[-0.655386,42.809872,2096.816],[-0.655452,42.809867,2097.671],[-0.655514,42.809869,2098.265],[-0.655561,42.809904,2098.598],[-0.65562,42.809925,2098.629],[-0.655682,42.809943,2098.746],[-0.655744,42.809969,2098.678],[-0.655762,42.810014,2098.725],[-0.655774,42.810066,2098.626],[-0.655802,42.810111,2098.308],[-0.655841,42.810151,2098.208],[-0.655874,42.810191,2098.48],[-0.65587,42.810237,2098.799],[-0.655916,42.810274,2099.644],[-0.655946,42.810313,2099.698],[-0.655985,42.810357,2099.631],[-0.656031,42.810392,2099.512],[-0.65606,42.810437,2099.069],[-0.656084,42.810479,2098.861],[-0.656127,42.810513,2098.393],[-0.656171,42.810551,2098.265],[-0.656222,42.810579,2097.821],[-0.656281,42.8106,2097.408],[-0.656342,42.810611,2097.177],[-0.656382,42.810645,2096.866],[-0.656439,42.810674,2096.861],[-0.656502,42.810686,2097.255],[-0.656551,42.81072,2098.058],[-0.656573,42.810767,2098.329],[-0.65657,42.810816,2098.516],[-0.656575,42.810861,2098.668],[-0.65659,42.810907,2098.595],[-0.656609,42.810955,2098.349],[-0.65664,42.810999,2098.323],[-0.656668,42.81104,2098.608],[-0.656644,42.811086,2098.697],[-0.656627,42.81113,2098.866],[-0.656624,42.811176,2098.971],[-0.656629,42.811222,2099.045],[-0.656645,42.81127,2099.078],[-0.656628,42.811314,2098.939],[-0.656631,42.811362,2098.916],[-0.656609,42.811404,2098.518],[-0.656542,42.811409,2098.382],[-0.656487,42.811437,2097.643],[-0.656491,42.811485,2095.817],[-0.65649,42.811532,2095.908],[-0.656476,42.811581,2095.836],[-0.656442,42.811623,2096.595],[-0.656425,42.811671,2097.59],[-0.656393,42.811714,2097.674],[-0.656353,42.811753,2097.627],[-0.656319,42.811793,2097.568],[-0.656321,42.81184,2097.485],[-0.656326,42.811885,2097.427],[-0.656353,42.811926,2097.281],[-0.656359,42.811977,2097.761],[-0.656328,42.812022,2097.917],[-0.656376,42.811993,2098.408],[-0.656404,42.812039,2099.026],[-0.656422,42.812083,2099.945],[-0.656441,42.812128,2100.86],[-0.656423,42.812172,2101.494],[-0.656425,42.812221,2102.687],[-0.656416,42.812269,2104.558],[-0.656444,42.812318,2106.025],[-0.656461,42.812367,2106.677],[-0.656485,42.812412,2106.919],[-0.656523,42.812448,2110.109],[-0.656461,42.812468,2110.219],[-0.65642,42.812506,2110.208],[-0.656394,42.812552,2110.339],[-0.656401,42.812597,2110.668],[-0.656409,42.812649,2116.163],[-0.656419,42.8127,2113.137],[-0.656392,42.812749,2111.97],[-0.656345,42.812792,2110.641],[-0.6563,42.812825,2110.488],[-0.656262,42.812863,2110.47],[-0.65624,42.812908,2110.598],[-0.656206,42.812955,2110.915],[-0.656213,42.813011,2111.826],[-0.656222,42.813066,2111.808],[-0.656249,42.813111,2110.617],[-0.656244,42.813157,2110.696],[-0.656241,42.813207,2110.331],[-0.656277,42.813245,2110.135],[-0.656326,42.813278,2109.998],[-0.656378,42.813303,2110.089],[-0.656406,42.813352,2109.326],[-0.656444,42.813396,2108.138],[-0.656501,42.81342,2105.624],[-0.656529,42.813463,2104.404],[-0.656547,42.81351,2103.314],[-0.656564,42.813557,2102.508],[-0.656552,42.813603,2101.45],[-0.656515,42.813649,2100.389],[-0.656504,42.813694,2099.054],[-0.656517,42.813738,2098.268],[-0.656541,42.813784,2097.811],[-0.656545,42.813832,2097.312],[-0.656553,42.813883,2096.819],[-0.656562,42.813932,2096.881],[-0.656522,42.813966,2096.478],[-0.656538,42.814012,2096.333],[-0.656563,42.814062,2096.226],[-0.656592,42.81411,2096.108],[-0.656601,42.814165,2095.665],[-0.65659,42.814215,2094.364],[-0.656602,42.814262,2092.679],[-0.656589,42.814311,2092.483],[-0.656582,42.814359,2091.956],[-0.656558,42.814404,2091.697],[-0.656532,42.814448,2090.634],[-0.656495,42.814485,2090.066],[-0.656454,42.814519,2089.598],[-0.656417,42.814559,2089.115],[-0.65641,42.814617,2088.326],[-0.656418,42.814662,2086.608],[-0.656411,42.814709,2086.137],[-0.656363,42.814743,2084.366],[-0.656315,42.814781,2080.931],[-0.656282,42.814826,2078.595],[-0.65627,42.81487,2077.578],[-0.656269,42.814921,2077.069],[-0.656245,42.814967,2076.696],[-0.656242,42.815019,2076.528],[-0.656214,42.815067,2076.717],[-0.656144,42.81507,2076.987],[-0.656082,42.815078,2076.915],[-0.656027,42.815098,2076.908],[-0.655987,42.815135,2076.699],[-0.655994,42.815185,2076.148],[-0.655999,42.815235,2074.293],[-0.655991,42.815282,2072.687],[-0.65598,42.815326,2072.04],[-0.655961,42.815372,2069.421],[-0.655935,42.81542,2068.538],[-0.655947,42.815471,2067.54],[-0.655961,42.815515,2067.192],[-0.655971,42.815559,2065.173],[-0.655993,42.815603,2064.62],[-0.656027,42.815643,2063.508],[-0.656052,42.815688,2062.487],[-0.65605,42.815735,2061.536],[-0.656051,42.815785,2061.251],[-0.656054,42.815831,2060.355],[-0.656046,42.815878,2059.028],[-0.656033,42.815923,2059.059],[-0.655992,42.815965,2058.696],[-0.656005,42.816013,2058.648],[-0.656045,42.816055,2058.015],[-0.656068,42.816097,2057.265],[-0.656099,42.816142,2054.411],[-0.656103,42.816192,2052.608],[-0.656117,42.816236,2052.289],[-0.656125,42.816284,2051.568],[-0.656132,42.81633,2051.223],[-0.656143,42.816381,2049.247],[-0.656143,42.816427,2046.17],[-0.656182,42.81647,2045.491],[-0.656226,42.816506,2044.838],[-0.656272,42.816539,2044.67],[-0.65631,42.816577,2044.196],[-0.656323,42.816627,2041.131],[-0.656304,42.816675,2039.124],[-0.656285,42.816721,2037.808],[-0.65628,42.816769,2037.347],[-0.656304,42.816817,2036.286],[-0.656318,42.816862,2032.761],[-0.656375,42.816883,2032.515],[-0.656419,42.816917,2031.618],[-0.656441,42.816967,2030.569],[-0.656463,42.817014,2028.456],[-0.656439,42.817058,2028.088],[-0.656405,42.817099,2027.514],[-0.656354,42.81713,2026.954],[-0.656338,42.817176,2024.109],[-0.65636,42.817219,2022.608],[-0.656382,42.817263,2022.449],[-0.656418,42.817304,2022.218],[-0.656454,42.817345,2022.173],[-0.656474,42.817392,2023.327],[-0.656496,42.817441,2023.59],[-0.656529,42.817487,2023.621],[-0.656583,42.817508,2023.648],[-0.656638,42.817533,2021.23],[-0.656682,42.817573,2020.312],[-0.656727,42.817617,2019.432],[-0.656763,42.817654,2019.005],[-0.656789,42.817702,2018.208],[-0.656793,42.817751,2017.099],[-0.656813,42.817796,2016.898],[-0.656865,42.817832,2016.723],[-0.656927,42.817851,2016.347],[-0.656981,42.817875,2014.36],[-0.657019,42.817914,2009.491],[-0.65702,42.817964,2008.978],[-0.657048,42.818007,2007.45],[-0.657066,42.818061,2006.692],[-0.657091,42.818113,2005.873],[-0.657098,42.818159,2004.02],[-0.6571,42.818208,2003.308],[-0.65711,42.818255,2002.457],[-0.657121,42.818302,2001.766],[-0.657102,42.81835,2001.691],[-0.657125,42.818395,2001.565],[-0.657162,42.818437,2001.158],[-0.657209,42.81847,1997.579],[-0.65726,42.818496,1996.636],[-0.65729,42.818538,1996.058],[-0.657268,42.81858,1995.566],[-0.657295,42.818621,1995.329],[-0.657335,42.818662,1995.021],[-0.657391,42.818689,1994.308],[-0.657435,42.818722,1991.744],[-0.657467,42.818765,1991.063],[-0.657471,42.818811,1990.748],[-0.657477,42.818861,1989.752],[-0.657527,42.818905,1988.015],[-0.657581,42.818935,1987.026],[-0.657604,42.81898,1985.613],[-0.65763,42.819024,1985.095],[-0.657656,42.819069,1984.543],[-0.657697,42.819106,1984.464],[-0.657733,42.819147,1984.41],[-0.657763,42.819187,1984.208],[-0.657775,42.819238,1983.992],[-0.657797,42.819282,1983.061],[-0.657862,42.8193,1982.216],[-0.657908,42.819336,1981.08],[-0.657888,42.819385,1979.733],[-0.657872,42.81943,1978.424],[-0.657819,42.819464,1977.371],[-0.657775,42.819496,1976.553],[-0.657736,42.819535,1973.725],[-0.657714,42.819578,1972.926],[-0.657693,42.819623,1971.808],[-0.657704,42.819668,1971.008],[-0.657732,42.81971,1969.87],[-0.657721,42.819756,1965.759],[-0.657714,42.819804,1965.214],[-0.657754,42.819846,1964.138],[-0.657758,42.819892,1963.841],[-0.657755,42.819937,1963.682],[-0.657692,42.819954,1962.049],[-0.657663,42.819998,1961.391],[-0.657668,42.820048,1960.063],[-0.657665,42.820094,1959.644],[-0.657647,42.820137,1959.618],[-0.657627,42.820181,1959.608],[-0.657584,42.820223,1959.894],[-0.657517,42.820241,1960.063],[-0.657471,42.820275,1960.048],[-0.657442,42.820329,1960.082],[-0.657431,42.820379,1960.165],[-0.657445,42.820427,1960.616],[-0.657465,42.820476,1961.383],[-0.657515,42.820513,1961.665],[-0.657569,42.82054,1960.984],[-0.657628,42.820552,1960.607],[-0.657681,42.820576,1960.217],[-0.657708,42.820621,1960.208],[-0.657724,42.820665,1959.946],[-0.657734,42.820711,1959.895],[-0.6578,42.820706,1959.64],[-0.657811,42.820756,1957.994],[-0.657858,42.820789,1953.147],[-0.657921,42.820801,1949.098],[-0.657992,42.820809,1947.315],[-0.658054,42.820811,1945.947],[-0.658116,42.820819,1944.537],[-0.658163,42.820848,1943.349],[-0.658226,42.820856,1939.813],[-0.658234,42.820903,1938.708],[-0.658239,42.820953,1937.831],[-0.658269,42.820993,1935.92],[-0.658279,42.82104,1933.745],[-0.65832,42.821077,1932.439],[-0.658357,42.821116,1931.752],[-0.65839,42.821154,1931.553],[-0.658415,42.821204,1931.15],[-0.658441,42.821249,1930.412],[-0.658411,42.821292,1930.242],[-0.658352,42.82128,1930.822],[-0.658293,42.821267,1930.514],[-0.658236,42.821242,1931.008],[-0.658181,42.821264,1931.632],[-0.658165,42.821308,1932.371],[-0.65815,42.821355,1932.656],[-0.65809,42.821371,1933.29],[-0.658036,42.821394,1933.313],[-0.658022,42.821442,1933.134],[-0.658021,42.821488,1932.661],[-0.657974,42.821527,1932.623],[-0.657914,42.821548,1930.966],[-0.657858,42.821576,1930.629],[-0.65781,42.821605,1929.921],[-0.657755,42.821632,1928.008],[-0.657693,42.821629,1927.244],[-0.657629,42.821628,1926.723],[-0.65761,42.821671,1926.258],[-0.657549,42.82169,1925.362],[-0.657488,42.821683,1923.755],[-0.657425,42.821679,1922.766],[-0.657362,42.821675,1922.573],[-0.65729,42.821679,1918.065],[-0.657228,42.821667,1915.584],[-0.657163,42.821663,1914.407],[-0.657098,42.821659,1911.717],[-0.657036,42.821671,1909.908],[-0.656997,42.821706,1908.046],[-0.656928,42.821715,1907.495],[-0.656867,42.821736,1906.41],[-0.656823,42.821769,1905.984],[-0.656782,42.821808,1905.347],[-0.656746,42.821848,1904.018],[-0.65669,42.821873,1898.825],[-0.656635,42.821905,1898.087],[-0.656588,42.821941,1896.822],[-0.656542,42.821976,1896.362],[-0.656493,42.82201,1895.108],[-0.656454,42.822046,1893.208],[-0.656431,42.822097,1892.05],[-0.656493,42.822121,1890.919],[-0.656548,42.822144,1889.354],[-0.656571,42.822191,1889.018],[-0.656574,42.822237,1888.741],[-0.656565,42.822286,1888.742],[-0.656528,42.822323,1884.659],[-0.656511,42.822367,1883.741],[-0.65654,42.822409,1883.261],[-0.656571,42.822455,1882.821],[-0.656587,42.8225,1882.613],[-0.656569,42.822545,1882.508],[-0.656535,42.822589,1880.174],[-0.656504,42.822628,1879.243],[-0.656568,42.822622,1876.758],[-0.656629,42.822612,1876.782],[-0.656695,42.822599,1876.635],[-0.656733,42.822636,1876.366],[-0.65679,42.82266,1872.013],[-0.656846,42.822685,1871.265],[-0.656905,42.82271,1870.761],[-0.656972,42.822721,1870.821],[-0.657033,42.822724,1870.613],[-0.657021,42.822772,1868.508],[-0.656988,42.82282,1867.074],[-0.657006,42.822866,1866.253],[-0.656987,42.82291,1865.318],[-0.657015,42.822956,1864.932],[-0.657038,42.823001,1864.785],[-0.65706,42.823045,1864.796],[-0.65709,42.823085,1864.993],[-0.657151,42.823078,1865.965],[-0.657164,42.823124,1868.676],[-0.657181,42.823173,1868.89],[-0.657222,42.823212,1868.919],[-0.657281,42.823226,1869.208],[-0.657343,42.823237,1870.795],[-0.657372,42.823278,1868.194],[-0.657365,42.823337,1867.349],[-0.657376,42.823383,1867.243],[-0.65734,42.823338,1866.616],[-0.657312,42.823379,1865.627],[-0.657348,42.823439,1865.144],[-0.657383,42.82348,1863.796],[-0.657424,42.823514,1860.817],[-0.65747,42.823545,1859.687],[-0.657515,42.823578,1859.515],[-0.65757,42.823616,1859.508],[-0.657601,42.823659,1859.379],[-0.657622,42.823707,1859.128],[-0.657644,42.823754,1858.293],[-0.657639,42.823802,1857.937],[-0.657627,42.823848,1856.79],[-0.657647,42.823891,1856.371],[-0.657665,42.823937,1856.138],[-0.657677,42.823989,1855.63],[-0.657692,42.82404,1855.666],[-0.657715,42.824084,1855.629],[-0.657724,42.82413,1855.621],[-0.657706,42.824175,1856.808],[-0.657669,42.824212,1857.184],[-0.657669,42.824257,1857.153],[-0.657658,42.824307,1857.458],[-0.657653,42.824356,1857.962],[-0.65761,42.824395,1857.765],[-0.657566,42.824431,1857.776],[-0.657527,42.82447,1857.793],[-0.657481,42.824504,1856.915],[-0.657455,42.824551,1853.339],[-0.657496,42.824591,1850.301],[-0.657538,42.824626,1849.821],[-0.657593,42.824648,1849.808],[-0.657647,42.824674,1849.951],[-0.657677,42.824714,1850.33],[-0.657687,42.824764,1850.725],[-0.657702,42.824811,1851.199],[-0.657712,42.824861,1852.972],[-0.657657,42.824887,1852.973],[-0.65764,42.824937,1852.93],[-0.657633,42.824987,1850.892],[-0.657626,42.825032,1848.358],[-0.657631,42.825077,1844.352],[-0.657674,42.825115,1843.317],[-0.657687,42.82516,1843.508],[-0.65773,42.825193,1843.583],[-0.657762,42.825232,1843.542],[-0.657813,42.825261,1843.787],[-0.657852,42.825308,1843.721],[-0.657873,42.825351,1843.644],[-0.657919,42.825381,1843.115],[-0.657982,42.825397,1842.712],[-0.658042,42.82542,1842.364],[-0.658061,42.825464,1841.691],[-0.65805,42.825416,1840.881],[-0.658113,42.825416,1840.719],[-0.658138,42.82546,1840.608],[-0.658128,42.825506,1840.517],[-0.658112,42.825551,1840.446],[-0.658071,42.825587,1835.091],[-0.658068,42.825637,1833.165],[-0.658089,42.825684,1831.828],[-0.65812,42.825724,1830.219],[-0.65815,42.825769,1828.496],[-0.658089,42.825791,1826.838],[-0.658059,42.825831,1825.048],[-0.658082,42.82588,1824.861],[-0.658088,42.82593,1824.717],[-0.658075,42.825978,1825.608],[-0.658121,42.826012,1826.562],[-0.658059,42.826028,1826.621],[-0.658014,42.825992,1826.776],[-0.657951,42.825984,1826.65],[-0.657921,42.826026,1826.583],[-0.657884,42.826063,1826.434],[-0.657862,42.826105,1819.571],[-0.657859,42.826157,1817.213],[-0.657868,42.826207,1815.331],[-0.657874,42.82626,1815.261],[-0.657862,42.826306,1813.607],[-0.65785,42.82635,1810.708],[-0.657827,42.826398,1810.291],[-0.657826,42.826447,1810.79],[-0.657858,42.826485,1811.545],[-0.657919,42.826497,1811.669],[-0.657984,42.826508,1811.652],[-0.658016,42.82655,1811.723],[-0.658057,42.82659,1811.74],[-0.658064,42.826636,1811.622],[-0.658039,42.826677,1811.762],[-0.657997,42.826718,1812.083],[-0.657971,42.826762,1812.211],[-0.657942,42.826821,1812.208],[-0.657929,42.826871,1812.424],[-0.657918,42.826926,1812.533],[-0.657919,42.826974,1812.478],[-0.657883,42.827013,1811.572],[-0.657857,42.827058,1809.845],[-0.657846,42.827114,1808.986],[-0.65783,42.827161,1807.833],[-0.657813,42.827206,1806.695],[-0.65782,42.827254,1806.591],[-0.657806,42.827301,1806.481],[-0.657768,42.827338,1806.019],[-0.657729,42.827384,1805.308],[-0.657702,42.827433,1804.817],[-0.657687,42.827478,1804.846],[-0.657681,42.827526,1804.861],[-0.657664,42.827571,1804.495],[-0.657651,42.827619,1804.268],[-0.657651,42.82767,1804.219],[-0.65761,42.82771,1802.846],[-0.657566,42.827754,1801.388],[-0.657526,42.827788,1800.445],[-0.657515,42.827834,1798.047],[-0.657524,42.827882,1793.811],[-0.657495,42.827926,1792.408],[-0.65745,42.827961,1792.262],[-0.657443,42.828006,1792.261],[-0.657453,42.828054,1791.856],[-0.657451,42.828105,1791.43],[-0.657446,42.828154,1791.143],[-0.65744,42.828199,1790.354],[-0.657386,42.828227,1788.721],[-0.657362,42.82827,1788.053],[-0.657337,42.828314,1787.838],[-0.657286,42.828341,1787.07],[-0.65723,42.828368,1786.117],[-0.657163,42.828383,1783.908],[-0.657128,42.82842,1781.141],[-0.657086,42.828457,1779.74],[-0.657018,42.828465,1779.715],[-0.656961,42.828446,1779.949],[-0.656904,42.828462,1780.272],[-0.65691,42.828508,1780.473],[-0.656909,42.828559,1780.56],[-0.656945,42.828598,1780.582],[-0.656969,42.828643,1780.591],[-0.656949,42.82869,1779.981],[-0.656998,42.828719,1777.419],[-0.657006,42.828764,1775.508],[-0.656996,42.828813,1774.967],[-0.657016,42.828858,1773.246],[-0.657039,42.828904,1772.771],[-0.657053,42.828951,1772.655],[-0.657071,42.828996,1772.368],[-0.65707,42.829054,1772.269],[-0.657079,42.829108,1772.196],[-0.657087,42.82916,1771.828],[-0.657083,42.829211,1771.493],[-0.657096,42.829258,1768.165],[-0.657088,42.829309,1766.921],[-0.657118,42.82935,1766.408],[-0.657163,42.82938,1766.437],[-0.657183,42.829431,1766.436],[-0.657209,42.829478,1767.291],[-0.657224,42.829527,1767.825],[-0.657267,42.829569,1768.188],[-0.657288,42.829617,1768.239],[-0.657332,42.829655,1768.436],[-0.657386,42.829677,1768.978],[-0.657448,42.829675,1768.938],[-0.657513,42.829677,1768.97],[-0.657572,42.829697,1768.817],[-0.657621,42.829729,1767.808],[-0.657691,42.829735,1766.621],[-0.657746,42.829757,1764.48],[-0.657805,42.829773,1764.165],[-0.657866,42.829797,1762.549],[-0.657925,42.829817,1762.032],[-0.657986,42.829843,1761.843],[-0.658035,42.829875,1761.78],[-0.6581,42.829873,1761.582],[-0.658162,42.829867,1761.099],[-0.658226,42.829862,1760.007],[-0.65829,42.829879,1759.727],[-0.658337,42.829916,1757.608],[-0.658356,42.829959,1755.027],[-0.658361,42.830007,1753.476],[-0.658387,42.830053,1752.251],[-0.658445,42.830071,1751.735],[-0.658514,42.830072,1751.598],[-0.658583,42.830059,1751.479],[-0.658645,42.830066,1751.226],[-0.658715,42.830064,1750.748],[-0.658778,42.830059,1750.434],[-0.658841,42.830072,1749.555],[-0.658885,42.830108,1749.21],[-0.658943,42.830127,1749.008],[-0.658998,42.830154,1748.741],[-0.659037,42.83019,1747.78],[-0.65909,42.830213,1746.875],[-0.659083,42.830258,1743.359],[-0.659044,42.830295,1740.322],[-0.659074,42.830335,1738.913],[-0.65908,42.830386,1738.53],[-0.659074,42.830431,1736.712],[-0.659118,42.830463,1734.115],[-0.659179,42.830451,1725.365],[-0.659238,42.830473,1725.211],[-0.659283,42.830516,1725.008],[-0.659299,42.830562,1724.869],[-0.659292,42.830609,1724.388],[-0.659279,42.830654,1723.853],[-0.659277,42.830706,1720.687],[-0.659303,42.830749,1718.64],[-0.659275,42.830791,1718.181],[-0.659251,42.830836,1717.928],[-0.65922,42.830876,1713.84],[-0.659187,42.83092,1712.982],[-0.659136,42.83095,1710.843],[-0.659109,42.830993,1709.417],[-0.659068,42.831031,1706.908],[-0.659021,42.831061,1706.576],[-0.65898,42.831099,1705.875],[-0.658981,42.831145,1705.65],[-0.658957,42.831187,1704.224],[-0.658894,42.831215,1703.597],[-0.658851,42.831254,1703.328],[-0.658839,42.831299,1702.035],[-0.658795,42.831336,1701.147],[-0.658757,42.831372,1700.511],[-0.658724,42.831414,1700.321],[-0.658689,42.831451,1699.703],[-0.658665,42.831495,1699.608],[-0.658659,42.831541,1696.759],[-0.658696,42.831579,1696.448],[-0.658697,42.831629,1695.513],[-0.658711,42.831678,1695.157],[-0.658681,42.831725,1693.37],[-0.658658,42.831768,1691.111],[-0.65864,42.831816,1689.678],[-0.658614,42.83186,1688.14],[-0.658611,42.831906,1687.751],[-0.65861,42.831954,1687.501],[-0.658606,42.832004,1687.211],[-0.658572,42.832044,1685.908],[-0.658517,42.832071,1684.473],[-0.65848,42.832115,1682.472],[-0.658434,42.832145,1680.177],[-0.658364,42.832154,1679.811],[-0.658309,42.832185,1677.244],[-0.65824,42.832212,1673.475],[-0.658182,42.832239,1671.232],[-0.658119,42.832259,1669.524],[-0.658057,42.832278,1669.174],[-0.65802,42.832318,1668.656],[-0.657972,42.832355,1668.421],[-0.657941,42.832396,1666.808],[-0.657923,42.832446,1666.555],[-0.65792,42.832493,1665.034],[-0.657912,42.832548,1662.219],[-0.657912,42.832595,1660.253],[-0.657885,42.832637,1658.256],[-0.657871,42.832682,1657.587],[-0.657885,42.832729,1657.064],[-0.657874,42.832776,1657.326],[-0.657859,42.832823,1657.023],[-0.657847,42.832871,1657.683],[-0.657812,42.832913,1657.611],[-0.657749,42.832918,1657.608],[-0.657685,42.832918,1656.95],[-0.657663,42.832967,1655.979],[-0.657672,42.833012,1653.734],[-0.657646,42.833053,1650.838],[-0.657621,42.833098,1650.131],[-0.657603,42.833142,1649.982],[-0.657607,42.833191,1649.689],[-0.657607,42.833241,1649.421],[-0.657582,42.833289,1648.815],[-0.657588,42.833334,1648.365],[-0.65757,42.833379,1646.911],[-0.657526,42.83341,1644.708],[-0.657503,42.833452,1642.629],[-0.65748,42.833499,1640.948],[-0.657465,42.833546,1639.013],[-0.657431,42.833593,1638.137],[-0.657407,42.833635,1636.19],[-0.657395,42.833687,1633.791],[-0.657381,42.833733,1633.068],[-0.65737,42.833778,1632.76],[-0.657359,42.833825,1632.488],[-0.657381,42.83387,1632.024],[-0.657352,42.833912,1630.526],[-0.657305,42.833945,1628.908],[-0.657278,42.833991,1628.286],[-0.657257,42.834033,1626.095],[-0.657251,42.834078,1624.27],[-0.657272,42.834125,1621.694],[-0.657236,42.834165,1621.487],[-0.657223,42.83421,1621.098],[-0.657197,42.834255,1620.115],[-0.657208,42.834302,1619.427],[-0.657175,42.834344,1617.338],[-0.657159,42.834388,1614.77],[-0.657131,42.834428,1614.317],[-0.657094,42.834473,1612.708],[-0.657064,42.834519,1610.691],[-0.65703,42.834562,1609.27],[-0.657039,42.834613,1608.065],[-0.657036,42.834662,1605.669],[-0.656996,42.834703,1605.032],[-0.656981,42.834751,1604.113],[-0.656979,42.834802,1603.05],[-0.657009,42.834845,1601.912],[-0.657019,42.834891,1600.214],[-0.656974,42.834925,1599.854],[-0.656948,42.834966,1599.709],[-0.656945,42.835013,1599.308],[-0.656991,42.835043,1599.269],[-0.65702,42.835084,1599.038],[-0.657,42.835133,1599.083],[-0.656983,42.835181,1598.967],[-0.656967,42.83523,1598.26],[-0.656998,42.835274,1597.171],[-0.657009,42.835319,1595.618],[-0.656994,42.835363,1595.05],[-0.65695,42.835397,1594.183],[-0.656917,42.835439,1592.225],[-0.656939,42.835483,1588.917],[-0.656909,42.835523,1588.808],[-0.65687,42.835558,1588.246],[-0.656871,42.835606,1588.015],[-0.65685,42.835649,1587.83],[-0.656817,42.83569,1586.234],[-0.656855,42.835727,1584.867],[-0.656848,42.835774,1583.678],[-0.65684,42.835824,1583.235],[-0.656789,42.835854,1582.577],[-0.656735,42.835883,1581.914],[-0.656699,42.835924,1580.854],[-0.65665,42.835958,1579.509],[-0.656602,42.835992,1579.208],[-0.656566,42.836029,1578.759],[-0.65653,42.836068,1578.498],[-0.656478,42.836093,1575.983],[-0.65647,42.836138,1572.727],[-0.656482,42.836183,1569.56],[-0.656503,42.836228,1567.771],[-0.656543,42.836269,1565.928],[-0.656546,42.83632,1565.79],[-0.656549,42.836368,1565.275],[-0.656557,42.836414,1564.728],[-0.656565,42.836459,1563.32],[-0.656542,42.836506,1561.408],[-0.656551,42.836555,1559.785],[-0.656581,42.836598,1558.074],[-0.656586,42.836643,1557.279],[-0.65658,42.836688,1557.283],[-0.656535,42.83673,1557.396],[-0.656514,42.836777,1557.367],[-0.656515,42.836826,1557.234],[-0.656506,42.836874,1555.136],[-0.656482,42.83692,1554.488],[-0.656458,42.836963,1554.024],[-0.656417,42.836997,1553.026],[-0.656418,42.837043,1551.608],[-0.65639,42.837091,1547.686],[-0.656378,42.837156,1547.125],[-0.656378,42.837206,1546.78],[-0.656366,42.837251,1546.354],[-0.656372,42.8373,1546.047],[-0.656366,42.837352,1544.578],[-0.656365,42.837409,1544.235],[-0.656381,42.837456,1543.527],[-0.656379,42.837507,1543.134],[-0.656375,42.837552,1541.955],[-0.656392,42.837597,1540.41],[-0.656399,42.837644,1539.908],[-0.656386,42.837692,1537.771],[-0.656352,42.837733,1535.85],[-0.656326,42.837777,1533.265],[-0.656312,42.837823,1529.879],[-0.656319,42.837871,1519.542],[-0.656314,42.837921,1519.513],[-0.656319,42.837966,1519.55],[-0.656324,42.838016,1519.222],[-0.6563,42.838058,1518.991],[-0.6563,42.838106,1519.481],[-0.656303,42.838153,1518.419],[-0.656319,42.838197,1517.708],[-0.656334,42.838243,1516.627],[-0.656333,42.83829,1515.576],[-0.656354,42.838333,1514.141],[-0.65637,42.838381,1512.335],[-0.656365,42.838427,1510.618],[-0.656377,42.838474,1509.489],[-0.656386,42.838522,1506.836],[-0.656374,42.838566,1505.148],[-0.656386,42.838615,1503.063],[-0.656387,42.838663,1501.344],[-0.65637,42.838709,1499.818],[-0.656332,42.838746,1499.108],[-0.656301,42.838789,1498.194],[-0.656237,42.838795,1495.753],[-0.656184,42.838822,1491.448],[-0.656135,42.838851,1489.612],[-0.656108,42.838901,1487.435],[-0.656067,42.838945,1486.056],[-0.656013,42.838969,1483.073],[-0.655953,42.838987,1481.365],[-0.655912,42.839024,1479.161],[-0.655851,42.83905,1476.721],[-0.655799,42.839075,1475.813],[-0.655799,42.839121,1472.708],[-0.655737,42.83913,1472.134],[-0.655707,42.83917,1470.463],[-0.655649,42.839193,1469.638],[-0.655588,42.839187,1467.132],[-0.655536,42.839211,1465.055],[-0.655478,42.839226,1464.636],[-0.655423,42.839251,1464.473],[-0.655359,42.839274,1464.375],[-0.655308,42.839312,1464.393],[-0.655267,42.839347,1463.765],[-0.655206,42.839361,1460.121],[-0.655189,42.839406,1457.408],[-0.655147,42.839446,1453.947],[-0.655099,42.839477,1451.746],[-0.655063,42.839514,1448.631],[-0.655038,42.839562,1446.445],[-0.654996,42.839598,1444.578],[-0.654976,42.839643,1444.099],[-0.654993,42.839687,1443.736],[-0.65497,42.839729,1443.438],[-0.65494,42.839769,1441.531],[-0.654906,42.839808,1439.561],[-0.654875,42.839847,1438.607],[-0.654825,42.839873,1437.408],[-0.654766,42.839891,1436.741],[-0.654704,42.839902,1434.83],[-0.654653,42.839933,1432.925],[-0.654592,42.839941,1431.889],[-0.654539,42.839978,1431.092],[-0.654485,42.840003,1429.813],[-0.654423,42.840006,1427.73],[-0.654363,42.840019,1427.422],[-0.65431,42.840044,1426.134],[-0.654247,42.840058,1424.555],[-0.654183,42.840066,1423.21],[-0.654128,42.840087,1419.308],[-0.654072,42.840111,1419.051],[-0.654029,42.840147,1418.87],[-0.653983,42.840179,1417.815],[-0.653929,42.840202,1417.419],[-0.653939,42.840247,1415.132],[-0.654001,42.840258,1412.333],[-0.654051,42.84029,1410.88],[-0.654106,42.840315,1408.812],[-0.654167,42.840321,1406.952],[-0.654213,42.840352,1405.453],[-0.65424,42.840394,1404.608],[-0.654273,42.840436,1402.308],[-0.654314,42.840477,1401.643],[-0.654367,42.840506,1400.822],[-0.654432,42.840527,1400.397],[-0.654492,42.840514,1398.261],[-0.654561,42.840508,1394.864],[-0.654626,42.840505,1393.165],[-0.654667,42.84054,1392.812],[-0.654714,42.840574,1391.124],[-0.654782,42.840573,1388.841],[-0.654839,42.840605,1386.781],[-0.654889,42.840637,1384.109],[-0.654949,42.840651,1383.308],[-0.655005,42.840678,1381.822],[-0.654993,42.840725,1380.751],[-0.65493,42.840749,1377.196],[-0.654865,42.840743,1376.12],[-0.654841,42.840785,1375.733],[-0.654882,42.84082,1375.014],[-0.654947,42.840837,1374.321],[-0.655007,42.84086,1371.673],[-0.65506,42.840885,1369.564],[-0.655132,42.840884,1367.606],[-0.655193,42.84087,1367.116],[-0.655222,42.840912,1366.408],[-0.655232,42.840963,1363.584]]}}]}