{"type":"FeatureCollection","features":[{"type":"Feature","properties":{"ruta_id":"91630629","nombre":"AITZORROTZ ruta circular desde NUESTRA SEÑORA de DORLETA","blog_url":"https://www.rutasporelmonte.com/aitzorrotz-desde-dorleta/"},"geometry":{"type":"LineString","coordinates":[[-2.565117,42.981567,485.959],[-2.564984,42.981692,485.803],[-2.565041,42.981639,486.023],[-2.565098,42.981619,485.708],[-2.565035,42.981629,486.184],[-2.564968,42.981646,486.426],[-2.5649,42.981644,486.971],[-2.564835,42.981664,487.298],[-2.564772,42.981687,487.415],[-2.564705,42.981707,487.821],[-2.564652,42.981739,488.627],[-2.564602,42.981771,489.554],[-2.564474,42.981766,492.684],[-2.564464,42.981816,493.007],[-2.564452,42.981869,493.517],[-2.564434,42.981912,494.308],[-2.564456,42.981962,493.337],[-2.564444,42.982009,493.169],[-2.564417,42.982057,493.434],[-2.564374,42.982099,494.371],[-2.564331,42.982141,495.338],[-2.564281,42.982173,496.684],[-2.564231,42.982206,497.94],[-2.564169,42.982214,500.097],[-2.564104,42.982221,501.648],[-2.564036,42.982233,503.061],[-2.563978,42.982265,503.817],[-2.56394,42.982303,504.108],[-2.563885,42.982328,505.213],[-2.563848,42.98237,505.335],[-2.563791,42.982388,506.11],[-2.563726,42.982413,506.847],[-2.563663,42.98241,508.214],[-2.56359,42.982418,509.58],[-2.563527,42.982421,511.166],[-2.563465,42.982421,512.793],[-2.563403,42.982438,513.687],[-2.56333,42.98244,515.542],[-2.563267,42.982433,517.626],[-2.563199,42.982441,519.208],[-2.563139,42.982451,520.557],[-2.563106,42.982491,519.979],[-2.563098,42.982536,518.244],[-2.563058,42.982573,517.811],[-2.563008,42.982616,518.428],[-2.562973,42.982659,518.224],[-2.56292,42.982686,519.63],[-2.562865,42.982708,521.327],[-2.562805,42.982731,523.157],[-2.562737,42.982761,524.9],[-2.562697,42.982796,524.92],[-2.562665,42.982836,524.008],[-2.562625,42.982881,523.394],[-2.562568,42.982914,524.446],[-2.562508,42.982947,525.871],[-2.562433,42.982967,527.198],[-2.562366,42.98297,528.965],[-2.562293,42.982963,531.531],[-2.562221,42.982958,534.097],[-2.562161,42.982975,535.254],[-2.562123,42.983023,534.367],[-2.562078,42.983058,534.681],[-2.562043,42.983105,533.619],[-2.561993,42.983142,533.708],[-2.561958,42.983194,532.065],[-2.561908,42.983224,532.127],[-2.561863,42.983267,531.482],[-2.561806,42.983295,532.169],[-2.561733,42.983312,534.396],[-2.561675,42.983332,535.732],[-2.56161,42.983345,537.048],[-2.56154,42.983348,538.575],[-2.561468,42.983361,539.864],[-2.5614,42.983364,541.206],[-2.56135,42.983391,541.316],[-2.56132,42.983433,541.008],[-2.561273,42.983471,541.085],[-2.561218,42.983508,541.297],[-2.56118,42.983545,541.432],[-2.561163,42.983593,541.289],[-2.561161,42.98364,541.296],[-2.561133,42.983688,541.872],[-2.561063,42.983681,543.458],[-2.560995,42.983684,545.015],[-2.56093,42.983691,546.673],[-2.56086,42.983706,548.485],[-2.560795,42.983683,549.613],[-2.560753,42.983718,550.808],[-2.560588,42.983803,554.466],[-2.560533,42.983838,555.498],[-2.56048,42.983876,556.413],[-2.560442,42.983919,556.87],[-2.560375,42.983931,557.827],[-2.560315,42.983949,558.793],[-2.560253,42.983949,559.779],[-2.560185,42.983939,560.776],[-2.560118,42.983937,561.699],[-2.560048,42.98393,562.607],[-2.559988,42.98392,563.627],[-2.559915,42.983915,564.408],[-2.55985,42.983907,565.398],[-2.559787,42.983899,566.17],[-2.559719,42.983877,567.225],[-2.559661,42.983859,568.062],[-2.559593,42.983836,568.929],[-2.559526,42.983819,569.795],[-2.559458,42.983804,570.441],[-2.559393,42.983792,571.258],[-2.559326,42.983787,572.086],[-2.559254,42.983765,573.26],[-2.559189,42.983758,574.126],[-2.559122,42.98377,574.808],[-2.55906,42.983785,575.657],[-2.558992,42.983785,576.959],[-2.558925,42.983778,578.384],[-2.558867,42.98376,579.821],[-2.558802,42.983773,580.938],[-2.55874,42.983771,582.224],[-2.558683,42.983751,583.68],[-2.558613,42.983746,585.067],[-2.558548,42.983736,586.783],[-2.558496,42.983769,587.725],[-2.558443,42.983794,588.717],[-2.558378,42.983801,590.208],[-2.558318,42.983814,591.227],[-2.558251,42.983819,591.769],[-2.558191,42.983799,592.784],[-2.558129,42.983797,593.321],[-2.558076,42.983769,594.428],[-2.558019,42.983737,595.554],[-2.557952,42.983725,596.19],[-2.55789,42.98371,596.847],[-2.557822,42.983723,596.996],[-2.557747,42.983733,597.231],[-2.557689,42.983755,597.024],[-2.557632,42.983777,596.708],[-2.557597,42.983815,595.648],[-2.557524,42.983807,596.14],[-2.557462,42.983797,596.845],[-2.557394,42.9838,597.012],[-2.557319,42.983803,597.289],[-2.557244,42.983811,597.125],[-2.557181,42.983816,597.971],[-2.557124,42.983839,598.018],[-2.557064,42.983854,598.551],[-2.556997,42.983882,598.301],[-2.556929,42.983895,599.011],[-2.556861,42.98391,599.308],[-2.556801,42.983935,599.484],[-2.556741,42.983952,599.786],[-2.556669,42.983969,600.241],[-2.556596,42.983977,600.858],[-2.556528,42.983962,601.995],[-2.556526,42.983904,603.621],[-2.556526,42.983951,602.287],[-2.556431,42.983986,602.174],[-2.556384,42.983948,604.042],[-2.556317,42.983968,604.422],[-2.556262,42.983996,604.314],[-2.556214,42.984026,603.908],[-2.556156,42.984043,604.213],[-2.556124,42.98409,602.825],[-2.556079,42.98413,602.05],[-2.556034,42.984172,601.567],[-2.555977,42.98419,602.934],[-2.555902,42.984202,604.52],[-2.555834,42.984202,605.886],[-2.555757,42.984195,605.853],[-2.555692,42.984203,606.266],[-2.555627,42.984193,606.029],[-2.555569,42.984238,608.021],[-2.555561,42.984293,610.408],[-2.555593,42.984335,611.835],[-2.555613,42.984385,613.577],[-2.555668,42.98441,613.472],[-2.555735,42.984405,612.099],[-2.555798,42.984423,611.296],[-2.555838,42.984468,612.182],[-2.55589,42.984493,612.468],[-2.55595,42.984513,612.175],[-2.556017,42.984521,611.244],[-2.55607,42.984549,611.405],[-2.556118,42.984586,612.015],[-2.556186,42.984608,612.008],[-2.556243,42.984643,612.923],[-2.55631,42.984668,613.255],[-2.556365,42.984695,613.93],[-2.556425,42.984728,615.157],[-2.556487,42.98474,615.414],[-2.556552,42.984763,616.55],[-2.556597,42.984808,619.286],[-2.55666,42.984836,620.833],[-2.556707,42.984871,622.761],[-2.556755,42.984906,624.521],[-2.5568,42.984938,626.113],[-2.556858,42.984976,627.708],[-2.556908,42.985003,628.665],[-2.556973,42.98504,629.147],[-2.557031,42.985063,629.062],[-2.557078,42.985096,629.459],[-2.557118,42.985133,629.976],[-2.557178,42.985171,629.912],[-2.557226,42.985201,629.728],[-2.557288,42.985221,628.775],[-2.557333,42.985254,628.833],[-2.557393,42.985267,627.923],[-2.557405,42.985315,628.115],[-2.557393,42.985363,628.608],[-2.557375,42.98541,629.372],[-2.557357,42.985455,630.174],[-2.557322,42.985497,631.619],[-2.557285,42.985539,633.376],[-2.557243,42.985579,635.153],[-2.557193,42.985614,636.669],[-2.557151,42.985647,637.845],[-2.557131,42.985695,638.522],[-2.557103,42.985735,639.549],[-2.557056,42.985773,641.302],[-2.557023,42.985815,642.822],[-2.55699,42.985853,644.108],[-2.556953,42.98589,645.423],[-2.556931,42.985937,646.095],[-2.556886,42.985982,647.14],[-2.556848,42.98602,648.177],[-2.556823,42.986065,648.714],[-2.556806,42.986113,649.08],[-2.556789,42.986166,649.886],[-2.556789,42.986223,650.153],[-2.556787,42.986271,650.437],[-2.556775,42.986316,651.149],[-2.556763,42.986364,651.713],[-2.556736,42.986411,653.008],[-2.556733,42.986456,653.632],[-2.556723,42.986501,654.594],[-2.556701,42.986553,655.779],[-2.556659,42.9866,657.566],[-2.556627,42.986642,658.753],[-2.556584,42.986682,660.189],[-2.556576,42.98673,660.435],[-2.556549,42.986777,661.082],[-2.556529,42.98682,661.591],[-2.556532,42.986868,661.481],[-2.55647,42.98689,662.619],[-2.55649,42.986938,662.208],[-2.556513,42.98699,661.448],[-2.556523,42.987037,660.99],[-2.556511,42.987084,660.835],[-2.556509,42.987142,660.442],[-2.556502,42.987195,660.269],[-2.556494,42.987247,660.195],[-2.556557,42.98727,659.041],[-2.556562,42.98732,659.068],[-2.556562,42.987375,659.035],[-2.556562,42.987427,659.186],[-2.556562,42.987472,659.114],[-2.556567,42.987517,659.108],[-2.556575,42.987569,659.182],[-2.5566,42.987622,658.854],[-2.556598,42.987674,658.949],[-2.556538,42.987699,659.746],[-2.556478,42.987726,660.693],[-2.556421,42.987749,661.479],[-2.556363,42.987769,662.395],[-2.556296,42.987786,663.182],[-2.556231,42.987801,663.921],[-2.556179,42.987828,664.941],[-2.556126,42.987853,665.905],[-2.556059,42.987873,666.608],[-2.556004,42.987901,667.381],[-2.555932,42.987926,668.123],[-2.55587,42.987948,668.988],[-2.555815,42.98798,669.895],[-2.555753,42.988003,670.732],[-2.555693,42.988015,671.458],[-2.555628,42.988032,672.154],[-2.555563,42.988045,672.861],[-2.555505,42.98807,673.333],[-2.555442,42.988087,673.723],[-2.55539,42.988114,674.215],[-2.55533,42.988137,674.808],[-2.555282,42.988165,675.542],[-2.555224,42.988192,676.514],[-2.555167,42.988224,677.659],[-2.555107,42.988234,678.496],[-2.555045,42.988241,679.263],[-2.55499,42.988263,680.129],[-2.554928,42.988283,680.945],[-2.554861,42.9883,681.652],[-2.554801,42.988312,682.237],[-2.554733,42.988334,682.949],[-2.554681,42.988359,683.513],[-2.554621,42.988384,684.008],[-2.554563,42.988414,684.862],[-2.5545,42.988434,685.324],[-2.554438,42.988451,685.839],[-2.554361,42.988466,686.336],[-2.554299,42.988496,687.273],[-2.554242,42.988521,687.839],[-2.55417,42.988549,688.485],[-2.554113,42.988567,688.872],[-2.55406,42.988594,689.381],[-2.554003,42.988617,689.661],[-2.553945,42.988642,690.117],[-2.553878,42.988655,690.208],[-2.55382,42.988682,690.417],[-2.553778,42.98872,691.079],[-2.553725,42.988755,691.444],[-2.553672,42.988793,691.731],[-2.553625,42.98883,691.988],[-2.553532,42.988842,691.854],[-2.553492,42.988887,692.55],[-2.553437,42.988935,692.457],[-2.553397,42.988975,692.379],[-2.553334,42.988988,692.005],[-2.553362,42.989031,692.225],[-2.553292,42.989039,692.408],[-2.553229,42.989057,693.196],[-2.553184,42.989095,693.678],[-2.553157,42.989138,693.963],[-2.553112,42.98921,693.53],[-2.553067,42.989253,693.377],[-2.553015,42.989283,693.583],[-2.552962,42.989316,693.769],[-2.552892,42.989334,694.356],[-2.552832,42.989359,694.846],[-2.552767,42.989377,695.488],[-2.552695,42.989382,696.616],[-2.55263,42.989405,697.408],[-2.552567,42.989425,698.173],[-2.552524,42.989465,698.085],[-2.552466,42.989492,698.49],[-2.552394,42.989515,699.567],[-2.552356,42.989557,699.344],[-2.552293,42.98958,700.38],[-2.552233,42.98961,701.186],[-2.55218,42.98964,701.653],[-2.552127,42.989665,702.082],[-2.552067,42.989675,702.943],[-2.552005,42.98969,703.717],[-2.551993,42.989782,700.608],[-2.551921,42.98978,701.747],[-2.551858,42.989758,703.319],[-2.551793,42.989766,703.634],[-2.551726,42.989753,704.931],[-2.551651,42.989755,705.568],[-2.551588,42.989745,706.464],[-2.551525,42.989742,707.01],[-2.551455,42.989742,707.597],[-2.551375,42.989734,708.555],[-2.55129,42.989742,708.607],[-2.551217,42.98974,709.217],[-2.551139,42.989745,709.508],[-2.551077,42.989755,709.154],[-2.551015,42.989767,708.516],[-2.550948,42.989752,709.431],[-2.550885,42.989744,709.928],[-2.550823,42.989719,711.275],[-2.550756,42.989706,711.941],[-2.550689,42.989706,712.497],[-2.550616,42.989713,712.814],[-2.550551,42.989696,713.613],[-2.550486,42.989689,713.843],[-2.550419,42.989679,714.207],[-2.550424,42.989727,712.808],[-2.550407,42.989777,710.78],[-2.550382,42.989824,708.832],[-2.550334,42.989862,707.697],[-2.550254,42.989869,708.154],[-2.550177,42.989871,709.551],[-2.550104,42.989874,710.717],[-2.550041,42.989886,711.573],[-2.549986,42.989863,713.11],[-2.549926,42.989853,714.349],[-2.549848,42.989858,715.302],[-2.549795,42.989885,715.422],[-2.54973,42.989887,716.308],[-2.549663,42.989885,717.433],[-2.549596,42.989895,718.255],[-2.549568,42.98994,717.87],[-2.54952,42.989978,718.067],[-2.549472,42.990015,718.594],[-2.54941,42.990032,719.62],[-2.549355,42.99001,720.696],[-2.549307,42.989967,721.823],[-2.549265,42.989932,722.748],[-2.549195,42.989915,723.961],[-2.549133,42.989925,724.617],[-2.549071,42.989942,725.208],[-2.548996,42.989939,725.943],[-2.548929,42.989917,726.685],[-2.548862,42.989907,727.23],[-2.548795,42.989904,727.867],[-2.54872,42.989916,728.534],[-2.548657,42.989924,729.05],[-2.548594,42.989884,729.376],[-2.548529,42.989876,729.623],[-2.548452,42.989886,730.116],[-2.548375,42.989894,730.676],[-2.548307,42.989882,730.913],[-2.548254,42.989859,731.008],[-2.548186,42.989847,731.41],[-2.548144,42.989809,731.392],[-2.548099,42.989777,731.367],[-2.548022,42.989767,731.654],[-2.547957,42.989769,731.921],[-2.5479,42.989787,732.327],[-2.547842,42.989809,732.713],[-2.547769,42.989829,733.14],[-2.547701,42.989824,732.814],[-2.547636,42.989829,732.654],[-2.547574,42.989826,732.409],[-2.547496,42.989804,731.908],[-2.547423,42.989782,731.04],[-2.547348,42.98976,730.272],[-2.547286,42.989732,729.537],[-2.547216,42.989722,729.084],[-2.547154,42.989737,729.331],[-2.547082,42.989744,729.677],[-2.547024,42.989766,729.833],[-2.546954,42.989758,730.01],[-2.546889,42.989765,729.574],[-2.546824,42.989757,728.956],[-2.546761,42.989757,728.321],[-2.546701,42.989747,727.908],[-2.546631,42.989734,728.156],[-2.546556,42.989751,728.498],[-2.546496,42.989763,728.643],[-2.546436,42.989783,728.87],[-2.546364,42.989788,729.177],[-2.546314,42.989816,729.013],[-2.546236,42.989821,729.449],[-2.546164,42.989816,729.746],[-2.546101,42.989816,730.141],[-2.546028,42.989803,730.581],[-2.545961,42.989798,730.809],[-2.545893,42.989791,731.208],[-2.54583,42.989786,731.493],[-2.545752,42.989783,731.145],[-2.545689,42.989775,730.73],[-2.545624,42.989765,730.367],[-2.545549,42.989748,729.514],[-2.545476,42.989746,729.35],[-2.545406,42.989739,728.996],[-2.545344,42.989746,728.933],[-2.545269,42.989751,728.823],[-2.545189,42.989759,728.783],[-2.545121,42.989781,729.011],[-2.545066,42.989808,729.508],[-2.544994,42.989811,729.221],[-2.544936,42.989796,728.613],[-2.544864,42.989778,727.828],[-2.544787,42.98978,727.575],[-2.544712,42.989767,726.932],[-2.544649,42.989774,726.868],[-2.544574,42.989789,726.774],[-2.544526,42.989822,726.921],[-2.544464,42.98984,726.834],[-2.544402,42.989842,726.355],[-2.544337,42.989845,725.71],[-2.544285,42.989872,725.308],[-2.544232,42.989899,724.832],[-2.544169,42.989919,724.074],[-2.544101,42.989934,723.279],[-2.544039,42.989946,722.486],[-2.543979,42.989958,721.613],[-2.543929,42.990001,720.679],[-2.543864,42.990031,720.165],[-2.543864,42.990031,720.112],[-2.543829,42.990073,720.366],[-2.543827,42.990123,720.029],[-2.543782,42.990165,720.121],[-2.54373,42.990207,720.108],[-2.543687,42.990252,720.095],[-2.543634,42.990295,719.767],[-2.543604,42.99035,719.262],[-2.543557,42.990395,718.949],[-2.543522,42.990447,718.576],[-2.543472,42.990484,718.332],[-2.54341,42.990509,718.298],[-2.543365,42.990552,717.985],[-2.543323,42.99059,717.545],[-2.543283,42.990637,717.147],[-2.543248,42.990682,716.611],[-2.543211,42.990722,716.308],[-2.543181,42.990764,716.073],[-2.543149,42.990804,715.795],[-2.543121,42.990846,715.42],[-2.543098,42.990896,715.287],[-2.54307,42.990936,715.264],[-2.543047,42.990983,715.09],[-2.543019,42.991036,714.986],[-2.543009,42.991093,714.623],[-2.542979,42.991136,714.722],[-2.542962,42.991193,714.662],[-2.542965,42.991245,714.308],[-2.542973,42.991303,714.008],[-2.542983,42.99135,713.781],[-2.542968,42.991397,713.613],[-2.542941,42.991439,713.628],[-2.542936,42.991484,713.425],[-2.542921,42.991537,713.292],[-2.542908,42.99159,713.068],[-2.542896,42.991637,712.734],[-2.542901,42.991687,712.521],[-2.542898,42.991742,712.463],[-2.5429,42.991787,712.344],[-2.54288,42.991842,712.218],[-2.542922,42.991889,712.108],[-2.542959,42.991932,712.075],[-2.543001,42.991984,712.037],[-2.543044,42.992031,712.052],[-2.543051,42.992091,712.049],[-2.543068,42.992146,711.936],[-2.5431,42.992198,711.832],[-2.543133,42.992246,712.378],[-2.543186,42.992284,712.955],[-2.543231,42.992331,713.637],[-2.543283,42.992368,714.049],[-2.543328,42.992413,714.513],[-2.543388,42.992431,713.608],[-2.54343,42.992471,713.412],[-2.543475,42.992508,713.054],[-2.543473,42.992556,713.749],[-2.543461,42.992606,714.546],[-2.543453,42.992654,715.263],[-2.543436,42.992701,715.899],[-2.543411,42.992753,716.565],[-2.543411,42.992801,717.192],[-2.543394,42.992846,718.021],[-2.543354,42.992883,718.641],[-2.543297,42.992911,718.805],[-2.543224,42.992921,718.608],[-2.543122,42.992914,718.251],[-2.54308,42.992947,718.123],[-2.543147,42.992955,718.518],[-2.543207,42.992928,718.685],[-2.54316,42.992968,718.712],[-2.543113,42.992998,718.488],[-2.543048,42.993031,718.014],[-2.542988,42.993064,717.761],[-2.542915,42.993082,717.683],[-2.542842,42.993105,717.525],[-2.542782,42.993122,717.217],[-2.542725,42.993144,717.608],[-2.542667,42.993159,717.877],[-2.542617,42.993189,718.129],[-2.542575,42.993227,718.524],[-2.542517,42.993257,718.591],[-2.542457,42.993297,718.528],[-2.542412,42.993329,718.464],[-2.542359,42.993356,718.46],[-2.542291,42.993384,718.377],[-2.542236,42.993411,718.218],[-2.542169,42.993431,718.598],[-2.542109,42.993459,718.817],[-2.542042,42.993479,719.108],[-2.54198,42.993496,719.24],[-2.541907,42.993504,719.272],[-2.541852,42.993532,719.387],[-2.541802,42.993559,719.374],[-2.541765,42.993607,719.331],[-2.541727,42.993644,719.967],[-2.541659,42.993667,720.093],[-2.541586,42.993679,720.16],[-2.541518,42.993692,720.163],[-2.541441,42.993707,720.244],[-2.541386,42.99373,720.318],[-2.541326,42.993752,720.408],[-2.541254,42.993767,720.435],[-2.541209,42.993802,720.467],[-2.541154,42.993845,720.262],[-2.541106,42.993893,720.159],[-2.541059,42.993936,720.726],[-2.541019,42.993971,721.112],[-2.540979,42.994019,721.578],[-2.540941,42.994071,721.695],[-2.540911,42.994118,721.657],[-2.540883,42.994158,721.5],[-2.540843,42.994205,721.12],[-2.540826,42.994248,721.008],[-2.540794,42.994295,721.054],[-2.540759,42.994338,721.096],[-2.540704,42.994378,721.091],[-2.540654,42.994425,721.068],[-2.540617,42.994467,720.995],[-2.540567,42.994507,720.821],[-2.540532,42.994557,720.697],[-2.54048,42.994607,720.664],[-2.540442,42.994645,720.633],[-2.540402,42.994687,720.623],[-2.540357,42.99472,720.715],[-2.540309,42.994765,721.408],[-2.540287,42.994812,721.992],[-2.540257,42.994859,722.534],[-2.540217,42.994894,722.979],[-2.540174,42.994942,723.516],[-2.540137,42.994979,723.853],[-2.54009,42.995017,724.319],[-2.540032,42.995054,725.055],[-2.539977,42.995089,725.752],[-2.539909,42.995086,726.045],[-2.539857,42.995111,726.647],[-2.539825,42.995151,727.311],[-2.539767,42.995176,727.808],[-2.539707,42.995204,728.263],[-2.539624,42.995236,728.785],[-2.539554,42.995259,728.95],[-2.539497,42.995279,729.017],[-2.53946,42.995322,729.324],[-2.539407,42.995354,729.45],[-2.539364,42.995314,729.116],[-2.539304,42.995292,729.023],[-2.539296,42.995345,729.186],[-2.539344,42.995397,729.46],[-2.539382,42.995435,729.826],[-2.539392,42.995485,730.108],[-2.539375,42.995535,730.217],[-2.539323,42.995577,730.019],[-2.539278,42.995619,730.044],[-2.539273,42.995666,730.591],[-2.539321,42.995706,731.668],[-2.539328,42.995758,732.494],[-2.539345,42.995806,733.23],[-2.539362,42.995853,733.997],[-2.53936,42.9959,734.095],[-2.539357,42.995955,734.049],[-2.539365,42.99601,734.323],[-2.539382,42.99606,734.708],[-2.539402,42.996113,735.278],[-2.53941,42.99616,735.22],[-2.539435,42.996205,735.585],[-2.539467,42.996248,735.712],[-2.539482,42.996296,735.789],[-2.539502,42.996341,735.815],[-2.539509,42.996391,735.781],[-2.539534,42.996434,735.968],[-2.539551,42.996479,736.017],[-2.539566,42.996536,736.087],[-2.539568,42.996581,736.015],[-2.539563,42.996631,735.808],[-2.539561,42.996684,735.86],[-2.539556,42.996737,736.222],[-2.539551,42.996799,736.697],[-2.539551,42.996852,737.044],[-2.539558,42.9969,737.571],[-2.53958,42.996948,738.037],[-2.539588,42.996996,737.933],[-2.539603,42.997044,737.93],[-2.53962,42.997096,737.966],[-2.539678,42.997139,738.129],[-2.53973,42.997172,738.221],[-2.53978,42.99721,738.308],[-2.539827,42.99726,738.215],[-2.539855,42.997308,738.087],[-2.539912,42.997338,738.152],[-2.539957,42.99738,738.259],[-2.539987,42.997427,738.236],[-2.539997,42.997482,738.032],[-2.540035,42.997534,737.888],[-2.540065,42.997577,737.585],[-2.540075,42.99763,737.051],[-2.540083,42.997682,736.501],[-2.540096,42.997744,736.011],[-2.540121,42.997799,735.808],[-2.540146,42.997844,735.864],[-2.540163,42.997889,735.856],[-2.540171,42.997949,735.691],[-2.540183,42.997994,735.528],[-2.5402,42.998044,735.565],[-2.54019,42.998096,735.441],[-2.540172,42.998143,735.487],[-2.54018,42.998191,735.544],[-2.540192,42.998259,735.649],[-2.540182,42.998307,735.602],[-2.540179,42.998357,735.722],[-2.540154,42.998415,735.708],[-2.540152,42.998465,735.823],[-2.540144,42.99852,735.815],[-2.540179,42.998562,735.94],[-2.540214,42.998604,736.077],[-2.540249,42.998646,736.064],[-2.540249,42.998696,736.08],[-2.540251,42.998744,736.076],[-2.540234,42.998799,735.963],[-2.540241,42.998847,735.923],[-2.540236,42.998905,735.883],[-2.540201,42.998958,735.411],[-2.540196,42.999006,735.208],[-2.540196,42.999059,734.981],[-2.540193,42.999104,734.783],[-2.540183,42.999149,734.488],[-2.540181,42.999206,734.055],[-2.540178,42.999259,733.612],[-2.540195,42.999302,733.488],[-2.54021,42.999349,733.294],[-2.540212,42.999404,732.851],[-2.540215,42.999464,732.522],[-2.540213,42.999514,732.362],[-2.540213,42.999559,732.208],[-2.54021,42.999604,732.108],[-2.540215,42.999649,732.091],[-2.540217,42.999699,731.883],[-2.54022,42.999744,731.688],[-2.540223,42.999799,731.085],[-2.540231,42.999852,730.442],[-2.540263,42.999897,730.138],[-2.540285,42.999945,729.634],[-2.540298,42.999993,729.181],[-2.540298,43.000038,728.429],[-2.540296,43.000085,727.5],[-2.540326,43.000128,726.92],[-2.540319,43.000183,725.908],[-2.540316,43.000238,724.951],[-2.540313,43.000291,723.813],[-2.540303,43.000336,722.878],[-2.540283,43.000381,721.815],[-2.540283,43.000428,720.832],[-2.540256,43.000471,719.758],[-2.540238,43.000514,718.814],[-2.54023,43.000566,717.731],[-2.540235,43.000614,717.061],[-2.54024,43.000659,716.421],[-2.54022,43.000711,715.713],[-2.540202,43.000763,714.908],[-2.540177,43.000811,714.325],[-2.540175,43.000858,714.157],[-2.540168,43.000908,714.482],[-2.540191,43.000951,714.759],[-2.540166,43.000994,714.946],[-2.540138,43.001034,715.152],[-2.540108,43.001084,715.348],[-2.540093,43.001137,716.575],[-2.540068,43.001187,718.545],[-2.54003,43.001224,719.847],[-2.540025,43.001271,721.611],[-2.54001,43.001321,723.508],[-2.539988,43.001364,724.163],[-2.539986,43.001412,723.975],[-2.540034,43.001444,724.56],[-2.540096,43.001439,726.227],[-2.540154,43.001419,728.134],[-2.540219,43.001427,729.56],[-2.540299,43.001444,730.276],[-2.540294,43.001491,730.143],[-2.540286,43.001536,730.282],[-2.540301,43.001583,729.543],[-2.540311,43.001641,728.917],[-2.540289,43.001686,727.108],[-2.540256,43.001644,728.947],[-2.540251,43.001587,729.069],[-2.540244,43.001534,729.234],[-2.540191,43.001511,727.541],[-2.540151,43.001469,727.088],[-2.540078,43.001471,724.884],[-2.54,43.001466,722.74],[-2.53993,43.001421,719.167],[-2.540097,43.001143,716.854],[-2.540115,43.001098,715.356],[-2.540168,43.001068,715.411],[-2.54019,43.00102,715.108],[-2.540193,43.00097,714.824],[-2.540186,43.000915,714.546],[-2.540194,43.000867,714.251],[-2.540206,43.000812,714.318],[-2.540201,43.000765,714.965],[-2.540188,43.000707,715.771],[-2.540181,43.000655,716.367],[-2.540211,43.00061,717.024],[-2.540216,43.000562,717.795],[-2.540221,43.000515,718.749],[-2.540243,43.000465,719.823],[-2.540248,43.00042,720.808],[-2.540253,43.000373,721.918],[-2.540275,43.000321,723.18],[-2.540292,43.000276,724.125],[-2.540275,43.000228,724.972],[-2.540283,43.000175,725.959],[-2.540286,43.000128,726.775],[-2.540286,43.000078,727.651],[-2.540274,43.000031,728.428],[-2.540234,42.999989,729.056],[-2.540216,42.999939,729.459],[-2.540204,42.999881,730.014],[-2.540176,42.999834,730.408],[-2.540166,42.999786,730.924],[-2.540161,42.999738,731.476],[-2.540158,42.999693,731.681],[-2.54017,42.999641,731.818],[-2.540162,42.999594,731.915],[-2.540165,42.999534,732.071],[-2.540172,42.999482,732.267],[-2.540175,42.999432,732.444],[-2.540178,42.999385,732.768],[-2.540181,42.99934,733.142],[-2.540179,42.999285,733.426],[-2.540174,42.99923,733.808],[-2.540172,42.999182,734.145],[-2.540194,42.999134,734.567],[-2.540196,42.999087,734.872],[-2.540186,42.99903,735.099],[-2.540194,42.99898,735.356],[-2.540176,42.998933,735.472],[-2.540176,42.998886,735.688],[-2.540199,42.998841,735.845],[-2.540216,42.998793,735.938],[-2.540211,42.998741,735.97],[-2.540206,42.998696,735.917],[-2.540224,42.998644,736.008],[-2.540179,42.998604,736.032],[-2.540162,42.998546,735.974],[-2.540177,42.998494,735.899],[-2.540194,42.998434,735.856],[-2.540211,42.998377,735.813],[-2.540209,42.99833,735.759],[-2.540197,42.998282,735.765],[-2.540197,42.998229,735.672],[-2.540214,42.998176,735.687],[-2.540219,42.998128,735.642],[-2.540219,42.99808,735.626],[-2.540209,42.998035,735.608],[-2.540206,42.997982,735.777],[-2.540199,42.997935,735.989],[-2.540174,42.997882,735.954],[-2.540174,42.997824,736.141],[-2.540167,42.997777,736.258],[-2.540152,42.997727,736.584],[-2.540137,42.997679,736.98],[-2.540107,42.997632,737.167],[-2.540089,42.997584,737.572],[-2.540057,42.997537,737.813],[-2.54003,42.997495,738.114],[-2.540013,42.997442,738.308],[-2.53998,42.997404,738.276],[-2.539947,42.997361,738.258],[-2.539902,42.997314,738.243],[-2.539855,42.997269,738.25],[-2.539808,42.997237,738.227],[-2.539755,42.997192,738.263],[-2.539715,42.997157,738.299],[-2.53967,42.997125,738.136],[-2.53965,42.997075,738.131],[-2.53961,42.997033,738.061],[-2.539602,42.996988,738.007],[-2.539577,42.99694,737.908],[-2.539584,42.996882,737.682],[-2.539589,42.99683,737.224],[-2.539596,42.99678,737.039],[-2.539601,42.996732,736.766],[-2.539603,42.996682,736.473],[-2.539615,42.996612,736.599],[-2.539615,42.996555,736.615],[-2.539618,42.996503,736.752],[-2.539593,42.996455,736.595],[-2.539546,42.996403,736.149],[-2.539519,42.99636,735.923],[-2.539497,42.996313,735.808],[-2.539462,42.996273,735.668],[-2.539444,42.996223,735.65],[-2.539447,42.996176,735.865],[-2.53943,42.996126,735.772],[-2.539403,42.996073,735.169],[-2.539368,42.99602,734.445],[-2.539348,42.99597,733.951],[-2.53933,42.995927,733.518],[-2.539317,42.995879,733.334],[-2.539317,42.995831,733.155],[-2.539315,42.995784,732.51],[-2.539313,42.995736,731.908],[-2.539303,42.995686,731.122],[-2.53933,42.995633,730.824],[-2.539345,42.995585,730.399],[-2.539365,42.995538,730.186],[-2.539375,42.99548,729.933],[-2.539402,42.995423,729.839],[-2.539385,42.995361,729.465],[-2.539345,42.995326,729.282],[-2.539307,42.995289,729.042],[-2.539275,42.995246,729.022],[-2.53922,42.995213,729.114],[-2.539183,42.99517,729.308],[-2.539151,42.995117,729.633],[-2.539116,42.995079,729.995],[-2.539088,42.995031,730.34],[-2.539063,42.994986,730.997],[-2.539028,42.994943,731.534],[-2.538975,42.994903,732.36],[-2.538943,42.994856,733.136],[-2.538913,42.994808,733.853],[-2.538861,42.994765,734.776],[-2.538818,42.994727,735.59],[-2.538771,42.994682,736.319],[-2.538734,42.994642,737.108],[-2.538679,42.994607,738.116],[-2.538641,42.994564,739.098],[-2.538591,42.994526,739.943],[-2.538548,42.994481,740.71],[-2.538516,42.994439,741.427],[-2.538474,42.994399,742.083],[-2.538431,42.994351,742.849],[-2.538381,42.994314,743.556],[-2.538361,42.994269,744.324],[-2.538324,42.994226,745.204],[-2.538292,42.994186,745.914],[-2.538244,42.994149,746.408],[-2.538202,42.994114,746.791],[-2.538142,42.994091,747.183],[-2.538109,42.994053,747.548],[-2.538069,42.994018,748.015],[-2.538012,42.993988,748.732],[-2.537957,42.993961,749.548],[-2.537904,42.993929,750.324],[-2.537884,42.993882,750.991],[-2.537817,42.993864,751.738],[-2.53775,42.993829,752.87],[-2.537705,42.993787,753.617],[-2.537642,42.99378,754.408],[-2.537587,42.993748,755.462],[-2.537549,42.993708,756.394],[-2.537504,42.993666,757.449],[-2.537467,42.993629,758.136],[-2.537412,42.993602,758.963],[-2.53735,42.993579,759.639],[-2.53729,42.993542,760.225],[-2.53723,42.993495,760.982],[-2.537188,42.99346,761.244],[-2.537153,42.993422,761.505],[-2.537123,42.993372,761.915],[-2.537095,42.993327,762.408],[-2.537057,42.993282,763.143],[-2.537007,42.993239,763.925],[-2.536954,42.993211,764.86],[-2.536896,42.993188,765.397],[-2.536849,42.993148,765.954],[-2.536791,42.993115,766.67],[-2.536759,42.993075,767.166],[-2.536739,42.99303,767.873],[-2.536716,42.992982,768.666],[-2.536691,42.992929,769.629],[-2.536644,42.992889,770.521],[-2.536607,42.992851,771.208],[-2.536564,42.992801,772.195],[-2.536529,42.992748,772.827],[-2.536504,42.992696,773.592],[-2.536481,42.992641,774.329],[-2.536511,42.992588,774.766],[-2.536533,42.992541,775.092],[-2.536551,42.992486,775.458],[-2.536569,42.992433,775.865],[-2.536584,42.992388,776.135],[-2.536589,42.992341,776.686],[-2.536591,42.992283,777.214],[-2.536576,42.992231,777.908],[-2.536563,42.992178,778.732],[-2.536571,42.992128,779.374],[-2.536551,42.992083,780.099],[-2.536504,42.992038,781.046],[-2.536497,42.99199,781.713],[-2.536495,42.991945,782.259],[-2.536478,42.991898,783.435],[-2.536465,42.991851,784.582],[-2.53644,42.991799,785.833],[-2.536412,42.991754,786.923],[-2.536392,42.991707,788.115],[-2.536397,42.991662,789.108],[-2.536394,42.991617,790.282],[-2.536391,42.991572,791.424],[-2.536409,42.991527,792.429],[-2.536407,42.991482,793.516],[-2.536407,42.991437,794.743],[-2.536427,42.991387,795.849],[-2.536475,42.991357,796.425],[-2.536502,42.991312,797.682],[-2.536545,42.991275,798.398],[-2.536585,42.991238,799.115],[-2.536615,42.991198,800.026],[-2.536637,42.99115,801.208],[-2.536657,42.991083,803.158],[-2.536664,42.991035,804.81],[-2.537002,42.990845,809.475],[-2.536994,42.990798,811.232],[-2.536977,42.990741,813.559],[-2.537049,42.990731,813.565],[-2.537052,42.990686,815.251],[-2.537074,42.990639,816.948],[-2.537101,42.990597,818.373],[-2.537128,42.990544,820.185],[-2.537171,42.990502,821.513],[-2.537226,42.990477,822.108],[-2.537271,42.990445,823.396],[-2.537333,42.990428,823.938],[-2.537393,42.990418,824.193],[-2.53746,42.990391,824.98],[-2.537517,42.990369,825.297],[-2.537587,42.990344,825.253],[-2.537644,42.990316,825.469],[-2.537689,42.990281,825.966],[-2.537739,42.990246,826.543],[-2.537789,42.990209,827.264],[-2.537846,42.990161,827.61],[-2.537883,42.990119,828.208],[-2.537943,42.990086,827.933],[-2.537983,42.990049,828.265],[-2.538036,42.990007,828.38],[-2.538054,42.98996,829.587],[-2.538112,42.989932,829.234],[-2.538167,42.989884,829.64],[-2.538207,42.989841,830.196],[-2.538257,42.989801,830.353],[-2.538302,42.989759,830.694],[-2.538347,42.989719,830.757],[-2.538397,42.989692,830.222],[-2.538442,42.989647,830.208],[-2.538495,42.98961,829.818],[-2.538545,42.989553,829.97],[-2.538595,42.98951,829.865],[-2.538608,42.989465,830.622],[-2.538643,42.989415,830.799],[-2.538683,42.989377,830.465],[-2.538718,42.989329,830.471],[-2.538745,42.989286,830.558],[-2.538745,42.989238,831.383],[-2.538762,42.989178,832.025],[-2.53876,42.989126,832.517],[-2.538767,42.989079,832.708],[-2.538775,42.989031,832.837],[-2.538795,42.988986,832.779],[-2.538792,42.988929,833.214],[-2.538794,42.988881,833.431],[-2.538767,42.988831,834.228],[-2.538755,42.988783,834.614],[-2.538717,42.98873,835.55],[-2.538687,42.988687,836.347],[-2.538664,42.988644,836.894],[-2.538652,42.988597,837.257],[-2.538635,42.988549,837.722],[-2.53861,42.988502,838.408],[-2.538592,42.988449,839.078],[-2.538574,42.988401,839.77],[-2.538584,42.988344,839.685],[-2.538584,42.988284,839.832],[-2.538576,42.988239,840.299],[-2.538571,42.988192,840.495],[-2.538576,42.988135,840.561],[-2.538571,42.988087,840.848],[-2.538551,42.988034,841.493],[-2.538533,42.987989,842.065],[-2.538528,42.987941,842.421],[-2.538505,42.987888,843.008],[-2.538485,42.98784,843.668],[-2.538467,42.987792,844.08],[-2.538454,42.987739,844.635],[-2.538442,42.987692,845.242],[-2.538422,42.987647,846.029],[-2.538404,42.9876,846.725],[-2.538384,42.987552,847.631],[-2.538366,42.987497,848.498],[-2.538346,42.987447,849.151],[-2.538336,42.987395,849.701],[-2.538349,42.987348,849.811],[-2.538331,42.987301,850.508],[-2.538339,42.987246,850.724],[-2.538336,42.987199,851.256],[-2.538331,42.987147,851.921],[-2.538333,42.987097,852.468],[-2.538343,42.987044,852.795],[-2.53836,42.986984,852.851],[-2.538377,42.986934,852.867],[-2.538379,42.986889,852.834],[-2.538376,42.986841,853.082],[-2.538376,42.986786,853.243],[-2.538379,42.986734,853.217],[-2.538362,42.986691,853.908],[-2.538357,42.986638,853.877],[-2.538317,42.986583,854.519],[-2.538299,42.986535,854.494],[-2.538257,42.986493,855.061],[-2.538219,42.986443,855.548],[-2.538201,42.9864,855.594],[-2.538181,42.98635,855.49],[-2.538149,42.986303,855.717],[-2.538121,42.986251,855.978],[-2.538083,42.986199,856.333],[-2.538056,42.986154,856.526],[-2.538009,42.986111,856.808],[-2.537967,42.986078,857.386],[-2.537902,42.986038,858.198],[-2.537859,42.986001,858.533],[-2.537804,42.985963,859.01],[-2.537742,42.985933,859.657],[-2.537695,42.985896,859.993],[-2.537648,42.985861,860.219],[-2.537608,42.985826,860.416],[-2.537553,42.985788,860.768],[-2.537501,42.985755,861.142],[-2.537439,42.985725,861.626],[-2.537382,42.985703,862.108],[-2.53733,42.985666,862.485],[-2.537268,42.985628,862.967],[-2.537213,42.985606,863.592],[-2.53716,42.985566,863.729],[-2.537107,42.985523,864.016],[-2.537059,42.985486,864.372],[-2.536994,42.985456,865.078],[-2.536937,42.985433,865.775],[-2.536879,42.985398,866.327],[-2.536827,42.985365,866.968],[-2.536767,42.985337,867.614],[-2.536725,42.985295,868.208],[-2.536673,42.98526,868.971],[-2.536605,42.985235,869.963],[-2.53657,42.98519,870.578],[-2.536535,42.98515,871.125],[-2.536487,42.985112,872.022],[-2.536435,42.985087,872.968],[-2.536393,42.985054,873.724],[-2.536356,42.985009,874.631],[-2.536318,42.984972,875.449],[-2.536291,42.984927,876.002],[-2.536253,42.98489,876.822],[-2.536225,42.984842,877.508],[-2.536193,42.984794,878.363],[-2.536135,42.984767,879.445],[-2.536103,42.984727,880.26],[-2.536073,42.984679,881.037],[-2.536045,42.984636,881.754],[-2.53602,42.984594,882.42],[-2.536013,42.984549,882.746],[-2.535966,42.984506,883.943],[-2.535918,42.984474,885.169],[-2.535885,42.984424,885.904],[-2.53586,42.984374,886.424],[-2.535833,42.984332,887.008],[-2.535798,42.984294,887.745],[-2.535761,42.984247,888.517],[-2.535738,42.984205,889.022],[-2.535735,42.984158,889.249],[-2.535733,42.984106,889.536],[-2.535706,42.984049,890.422],[-2.535701,42.983997,890.848],[-2.535678,42.983949,891.595],[-2.535673,42.983901,891.831],[-2.535656,42.983848,892.461],[-2.535656,42.983795,892.707],[-2.535646,42.983745,893.108],[-2.535636,42.983693,893.542],[-2.535639,42.983636,893.794],[-2.535642,42.983589,894.089],[-2.535647,42.983531,894.726],[-2.535657,42.983481,895.383],[-2.53569,42.983441,895.589],[-2.535685,42.983393,896.235],[-2.53566,42.983351,897.022],[-2.535647,42.983306,897.878],[-2.535659,42.983254,898.533],[-2.535646,42.983207,899.326],[-2.535639,42.983159,900.108],[-2.535641,42.983106,900.926],[-2.535646,42.983058,901.618],[-2.535618,42.98301,902.323],[-2.535598,42.982963,902.94],[-2.53558,42.982916,903.547],[-2.535573,42.982866,904.173],[-2.535575,42.982818,904.689],[-2.535592,42.982765,905.116],[-2.535614,42.982717,905.246],[-2.535587,42.982674,905.088],[-2.535602,42.982624,905.116],[-2.535629,42.982574,905.508],[-2.535681,42.982537,906.573],[-2.535733,42.9825,907.855],[-2.535771,42.982455,908.94],[-2.535806,42.982415,909.957],[-2.535846,42.982378,910.974],[-2.535884,42.982336,911.41],[-2.535906,42.982291,911.936],[-2.535936,42.982243,912.553],[-2.535984,42.9822,913.519],[-2.536024,42.982163,914.509],[-2.536044,42.982118,915.619],[-2.536082,42.982081,916.708],[-2.536065,42.982034,917.53],[-2.536065,42.981987,918.532],[-2.536087,42.981935,919.997],[-2.53611,42.981893,921.114],[-2.536093,42.981846,921.961],[-2.536083,42.981796,922.987],[-2.536075,42.981748,923.863],[-2.536077,42.9817,924.92],[-2.536065,42.981653,925.855],[-2.53606,42.981605,926.907],[-2.536065,42.981558,928.117],[-2.536108,42.981518,929.708],[-2.536138,42.981478,931.054],[-2.536145,42.98143,932.386],[-2.536198,42.981402,933.671],[-2.536211,42.981352,934.788],[-2.536241,42.981307,935.925],[-2.536268,42.981265,937.051],[-2.536296,42.981225,938.117],[-2.536314,42.98117,939.534],[-2.536342,42.981127,940.876],[-2.536372,42.98108,942.29],[-2.536412,42.981043,943.619],[-2.536444,42.980996,944.908],[-2.536444,42.980948,945.716],[-2.536481,42.98091,946.978],[-2.536494,42.980863,948.083],[-2.536521,42.980818,949.06],[-2.536568,42.980788,950.027],[-2.536623,42.980751,951.283],[-2.536665,42.980714,952.359],[-2.536702,42.980671,953.176],[-2.536724,42.980624,953.916],[-2.536752,42.980582,954.676],[-2.536712,42.980532,954.613],[-2.536737,42.980489,955.108],[-2.536779,42.980451,955.77],[-2.536807,42.980409,956.342],[-2.536855,42.980372,957.187],[-2.536873,42.980325,957.714],[-2.536918,42.980282,958.681],[-2.53697,42.980249,959.267],[-2.537022,42.980214,959.773],[-2.537039,42.980167,959.99],[-2.537081,42.980129,960.543],[-2.537138,42.980109,961.364],[-2.537191,42.980079,962.21],[-2.537216,42.980034,962.808],[-2.537249,42.979992,963.183],[-2.537242,42.979942,963.665],[-2.53726,42.979897,964.01],[-2.537297,42.979845,964.297],[-2.5373,42.979797,964.684],[-2.537295,42.979745,965.04],[-2.537242,42.979703,965.836],[-2.537204,42.979663,966.283],[-2.537152,42.979628,966.331],[-2.537104,42.979593,966.661],[-2.537076,42.979546,967.107],[-2.537034,42.979506,967.708],[-2.536992,42.979464,968.432],[-2.536939,42.979439,969.084],[-2.536884,42.979412,969.129],[-2.536831,42.979374,969.336],[-2.536781,42.979342,969.723],[-2.536739,42.979292,970.289],[-2.536702,42.97925,970.845],[-2.536665,42.979212,971.572],[-2.536613,42.979182,971.827],[-2.536575,42.979144,972.168],[-2.536543,42.979099,972.214],[-2.536498,42.979061,972.508],[-2.536446,42.979014,972.951],[-2.536414,42.978969,973.333],[-2.536384,42.978929,973.748],[-2.536364,42.978884,973.915],[-2.536346,42.978836,974.322],[-2.536318,42.978796,974.538],[-2.536281,42.978751,974.894],[-2.536241,42.978713,975.121],[-2.536203,42.97866,975.526],[-2.536166,42.978623,975.947],[-2.536126,42.978578,976.411],[-2.536064,42.978543,976.708],[-2.536011,42.978515,977.091],[-2.535944,42.978527,976.953],[-2.535896,42.978499,977.288],[-2.535873,42.978454,977.715],[-2.535843,42.978409,978.262],[-2.535813,42.978361,978.638],[-2.535771,42.978326,978.944],[-2.535728,42.978283,979.331],[-2.5357,42.978238,979.978],[-2.535673,42.978185,980.633],[-2.535646,42.978142,981.126],[-2.535606,42.978107,981.408],[-2.535569,42.978065,981.926],[-2.535546,42.978022,982.698],[-2.535528,42.977975,983.493],[-2.535501,42.977932,984.01],[-2.535476,42.97789,984.767],[-2.535491,42.97784,985.643],[-2.535503,42.97779,986.679],[-2.535493,42.977742,987.116],[-2.535506,42.977694,987.523],[-2.535534,42.977652,987.983],[-2.535559,42.977605,988.211],[-2.535569,42.977557,988.508],[-2.535564,42.977505,988.941],[-2.535571,42.977455,989.213],[-2.535573,42.977408,989.548],[-2.53557,42.977355,989.975],[-2.535545,42.977312,990.492],[-2.535532,42.977267,990.748],[-2.535509,42.977217,991.234],[-2.535484,42.977175,991.671],[-2.535471,42.977125,992.121],[-2.535461,42.97708,992.541],[-2.535436,42.97703,993.105],[-2.535436,42.976978,993.608],[-2.535433,42.97692,994.021],[-2.535383,42.97688,994.443],[-2.535316,42.97687,994.898],[-2.535259,42.97684,994.975],[-2.535322,42.97685,994.892],[-2.535355,42.976805,994.778],[-2.535367,42.976758,994.874],[-2.535382,42.976703,994.911],[-2.535397,42.976646,994.838],[-2.53541,42.976586,994.47],[-2.535402,42.976531,994.017],[-2.53539,42.976479,993.508],[-2.535363,42.976432,993.082],[-2.535328,42.976387,992.494],[-2.535303,42.976339,992.279],[-2.535253,42.976289,991.896],[-2.535263,42.976242,991.973],[-2.535261,42.976197,991.959],[-2.535238,42.976144,991.785],[-2.535236,42.976094,991.782],[-2.535226,42.976039,991.621],[-2.535211,42.975987,991.541],[-2.535219,42.975942,991.605],[-2.535237,42.975882,991.708],[-2.535237,42.975822,991.751],[-2.535247,42.975769,991.843],[-2.535244,42.975721,991.848],[-2.535209,42.975666,991.755],[-2.535224,42.975621,991.822],[-2.535229,42.975571,991.878],[-2.535234,42.975523,991.714],[-2.535232,42.975476,991.681],[-2.535217,42.975423,991.478],[-2.535172,42.975381,991.233],[-2.535159,42.975334,991.126],[-2.535142,42.975287,991.008],[-2.53513,42.975225,990.716],[-2.535107,42.975178,990.528],[-2.535085,42.97513,990.363],[-2.535078,42.97507,990.03],[-2.53507,42.975005,989.867],[-2.535077,42.974955,989.593],[-2.535072,42.974907,989.219],[-2.535089,42.97485,988.826],[-2.535091,42.974805,988.554],[-2.535073,42.974742,988.356],[-2.535055,42.974697,988.211],[-2.53503,42.974649,988.108],[-2.535008,42.974601,988.054],[-2.534981,42.974558,987.876],[-2.534966,42.97451,987.431],[-2.534956,42.974453,987.168],[-2.534951,42.974401,986.975],[-2.534956,42.974351,986.721],[-2.534939,42.974296,986.677],[-2.534907,42.974246,986.554],[-2.534887,42.974188,986.521],[-2.53488,42.974143,986.441],[-2.53487,42.974098,986.305],[-2.53486,42.974053,986.308],[-2.534842,42.973996,986.361],[-2.534825,42.973946,986.313],[-2.534812,42.973899,986.478],[-2.534799,42.973842,986.535],[-2.534797,42.973797,986.632],[-2.534784,42.973747,986.778],[-2.534777,42.973695,986.764],[-2.534769,42.973647,986.821],[-2.534756,42.973597,986.987],[-2.534743,42.973547,987.142],[-2.534738,42.9735,987.326],[-2.534728,42.973455,987.508],[-2.53472,42.973405,987.757],[-2.534702,42.97335,987.959],[-2.534682,42.973305,988.044],[-2.534669,42.973255,988.151],[-2.534666,42.97321,988.238],[-2.534659,42.973165,988.494],[-2.534652,42.973112,988.59],[-2.534664,42.973065,988.827],[-2.534671,42.973015,988.896],[-2.534678,42.972948,988.831],[-2.534668,42.972903,988.824],[-2.53467,42.972846,988.808],[-2.53467,42.972796,988.828],[-2.534677,42.972736,989.02],[-2.534685,42.972673,989.245],[-2.534683,42.972626,989.332],[-2.534708,42.972574,989.649],[-2.53472,42.972529,989.955],[-2.534742,42.972486,989.821],[-2.534752,42.972433,989.938],[-2.534752,42.972383,990.167],[-2.534757,42.972338,990.381],[-2.534764,42.972286,990.419],[-2.534766,42.972236,990.608],[-2.534788,42.972184,990.895],[-2.534793,42.972139,991.067],[-2.5348,42.972091,991.332],[-2.53481,42.972039,991.529],[-2.534808,42.971992,991.836],[-2.534823,42.971947,991.972],[-2.534775,42.971914,992.488],[-2.534835,42.971892,991.835],[-2.534868,42.971854,991.621],[-2.534851,42.971897,991.741],[-2.534866,42.971942,991.505],[-2.534871,42.971995,991.108],[-2.534894,42.972047,990.631],[-2.534914,42.972097,990.273],[-2.534892,42.972142,990.258],[-2.534875,42.972189,990.165],[-2.534833,42.972224,990.252],[-2.534801,42.972266,990.258],[-2.534758,42.972311,990.434],[-2.534741,42.972364,990.371],[-2.534754,42.972412,990.086],[-2.534829,42.97242,989.26],[-2.534892,42.972407,988.726],[-2.53495,42.97237,988.408],[-2.535,42.97233,988.277],[-2.53505,42.97229,987.479],[-2.535093,42.972255,986.854],[-2.53513,42.972208,986.391],[-2.535193,42.972191,985.198],[-2.535258,42.972178,983.944],[-2.535323,42.972201,982.46],[-2.535395,42.972208,981.067],[-2.535462,42.972223,979.752],[-2.535522,42.972241,978.353],[-2.535582,42.972213,977.408],[-2.535632,42.972176,976.608],[-2.535699,42.972158,975.244],[-2.535771,42.972155,973.536],[-2.535829,42.972175,971.811],[-2.535894,42.972163,970.528],[-2.535947,42.972188,969.055],[-2.535995,42.972221,967.571],[-2.53602,42.972271,966.387],[-2.536038,42.972316,965.224],[-2.53605,42.972361,964.386],[-2.53605,42.972409,963.66],[-2.536045,42.972454,963.126],[-2.536035,42.972506,962.608],[-2.536028,42.972554,962.357],[-2.536031,42.972599,961.979],[-2.536038,42.972649,961.334],[-2.536056,42.972701,960.331],[-2.536116,42.972738,958.378],[-2.536169,42.972761,956.964],[-2.536221,42.972786,955.67],[-2.536216,42.972833,955.537],[-2.536289,42.972853,953.751],[-2.536351,42.972853,952.301],[-2.536414,42.972868,950.611],[-2.536459,42.972906,948.908],[-2.536449,42.972953,948.944],[-2.536424,42.973005,949.356],[-2.536402,42.973052,949.611],[-2.536405,42.973099,949.238],[-2.536417,42.973147,948.575],[-2.53644,42.97319,947.641],[-2.536453,42.97324,946.827],[-2.536486,42.973297,945.524],[-2.536509,42.97334,944.551],[-2.536536,42.973382,943.601],[-2.536588,42.973424,941.911],[-2.53665,42.973481,939.908],[-2.536692,42.973521,938.714],[-2.53673,42.973564,937.766],[-2.536763,42.973606,936.951],[-2.536785,42.973654,936.368],[-2.536815,42.973699,935.585],[-2.536847,42.973751,934.641],[-2.536872,42.973794,933.947],[-2.536917,42.973829,932.824],[-2.536969,42.973862,931.615],[-2.537024,42.973897,930.665],[-2.537064,42.973932,929.911],[-2.537104,42.97398,929.108],[-2.537144,42.974038,928.29],[-2.537169,42.974088,927.592],[-2.537194,42.97414,926.857],[-2.537216,42.974193,926.324],[-2.537244,42.974243,926.121],[-2.537301,42.974283,925.447],[-2.537349,42.974323,924.923],[-2.537412,42.974353,924.23],[-2.537479,42.974378,923.457],[-2.537537,42.974401,923.4],[-2.53761,42.974396,923.32],[-2.537675,42.974364,922.408],[-2.537755,42.974332,921.184],[-2.537815,42.974305,920.076],[-2.537895,42.974282,919.391],[-2.537963,42.974259,918.578],[-2.538043,42.974249,918.255],[-2.538115,42.974249,918.351],[-2.538193,42.974236,917.937],[-2.538256,42.974219,917.294],[-2.538319,42.974201,916.586],[-2.538386,42.974216,917.06],[-2.538468,42.974218,917.026],[-2.538546,42.974218,916.908],[-2.538619,42.97422,916.867],[-2.538682,42.97421,916.029],[-2.538749,42.974208,915.524],[-2.538801,42.974181,914.041],[-2.538874,42.974183,913.888],[-2.538942,42.974185,914.524],[-2.539005,42.974197,915.68],[-2.53907,42.974219,916.997],[-2.539128,42.974194,916.948],[-2.539183,42.974171,917.161],[-2.539256,42.974168,917.317],[-2.539328,42.97416,917.408],[-2.539393,42.974137,917.383],[-2.539456,42.974134,917.555],[-2.539443,42.974189,918.09],[-2.539378,42.974191,917.817],[-2.539345,42.974236,918.044],[-2.53934,42.974291,918.36],[-2.53931,42.974334,918.776],[-2.539267,42.974372,919.233],[-2.53921,42.974399,920.035],[-2.539233,42.974357,919.386],[-2.539295,42.97433,918.714],[-2.539312,42.974378,919.008],[-2.539354,42.974431,918.922],[-2.539372,42.974478,918.784],[-2.539385,42.974523,918.569],[-2.539392,42.97457,918.396],[-2.539437,42.974608,917.553],[-2.539494,42.97463,916.829],[-2.539552,42.974658,916.125],[-2.539615,42.974675,915.372],[-2.539672,42.974707,914.669],[-2.539724,42.974737,913.704],[-2.539779,42.974762,912.324],[-2.539839,42.974792,910.908],[-2.539912,42.974797,909.685],[-2.539957,42.974832,908.537],[-2.540049,42.974874,906.872],[-2.540104,42.974904,905.999],[-2.540149,42.974936,905.136],[-2.540216,42.974961,904.142],[-2.540279,42.974998,903.098],[-2.540324,42.975045,900.935],[-2.540391,42.975038,899.738],[-2.540463,42.975026,898.47],[-2.540526,42.975004,897.517],[-2.540581,42.974979,896.408],[-2.540651,42.974957,894.582],[-2.540704,42.97492,893.184],[-2.540761,42.974898,891.529],[-2.540843,42.974905,889.096],[-2.540901,42.97493,886.863],[-2.540958,42.974953,884.749],[-2.541023,42.974976,882.365],[-2.54104,42.975029,881.282],[-2.541087,42.975067,879.131],[-2.54112,42.975109,877.561],[-2.541162,42.975147,875.507],[-2.541195,42.975185,874.108],[-2.541225,42.975233,872.942],[-2.541253,42.975276,871.974],[-2.541315,42.975303,869.419],[-2.541377,42.975313,867.436],[-2.541434,42.975343,865.683],[-2.541499,42.975366,864.369],[-2.541584,42.975398,862.915],[-2.541646,42.97543,862.232],[-2.541711,42.975458,861.649],[-2.541761,42.975495,861.202],[-2.541816,42.97554,860.922],[-2.541871,42.975578,860.108],[-2.541933,42.9756,859.633],[-2.541985,42.975635,858.775],[-2.542047,42.975652,858.01],[-2.542109,42.975679,857.277],[-2.542169,42.975707,856.474],[-2.542227,42.975737,855.75],[-2.542292,42.975749,855.546],[-2.542364,42.975759,855.363],[-2.542424,42.975784,855.141],[-2.542489,42.975801,855.081],[-2.542561,42.975821,855.209],[-2.542628,42.975844,855.408],[-2.54268,42.975869,855.513],[-2.54274,42.975904,855.735],[-2.542792,42.975937,855.83],[-2.542844,42.97598,855.147],[-2.542876,42.976022,854.724],[-2.542901,42.976072,854.53],[-2.542931,42.976122,854.326],[-2.542961,42.976169,854.143],[-2.543003,42.976202,853.871],[-2.543038,42.976252,853.641],[-2.543078,42.976297,853.015],[-2.543115,42.976342,852.308],[-2.54315,42.97638,851.636],[-2.543198,42.97641,850.568],[-2.543261,42.976448,849.243],[-2.543308,42.976496,848.43],[-2.543351,42.976539,847.547],[-2.543373,42.976592,847.373],[-2.543421,42.97663,846.239],[-2.543478,42.976648,844.786],[-2.543498,42.976698,844.359],[-2.543531,42.976741,843.503],[-2.543566,42.976781,842.623],[-2.543601,42.976849,841.908],[-2.543633,42.976891,841.164],[-2.543676,42.976929,839.896],[-2.543713,42.976972,838.561],[-2.543746,42.977019,837.288],[-2.543816,42.977104,834.935],[-2.543859,42.977154,833.741],[-2.543871,42.977199,833.447],[-2.543928,42.977239,831.514],[-2.543985,42.977266,829.531],[-2.544033,42.977314,827.661],[-2.544063,42.977357,826.307],[-2.544118,42.977385,824.808],[-2.544165,42.977427,823.682],[-2.544203,42.97747,822.334],[-2.544236,42.977518,820.749],[-2.544289,42.977541,818.876],[-2.544272,42.977589,817.943],[-2.544287,42.977637,816.419],[-2.544322,42.977689,814.585],[-2.544335,42.977749,812.952],[-2.54428,42.977777,812.896],[-2.544335,42.977804,811.231],[-2.544397,42.977819,810.124],[-2.54447,42.977831,808.808],[-2.544537,42.977844,807.288],[-2.54461,42.977881,805.08],[-2.544677,42.977886,803.855],[-2.544737,42.977904,802.542],[-2.54479,42.977877,801.999],[-2.544863,42.977869,800.695],[-2.544938,42.977866,799.231],[-2.545001,42.977856,798.138],[-2.545069,42.977878,796.448],[-2.545112,42.97792,795.061],[-2.545172,42.977947,793.517],[-2.54523,42.97798,791.808],[-2.545293,42.978005,790.343],[-2.54536,42.978027,788.865],[-2.545435,42.97804,787.32],[-2.545498,42.97805,786.157],[-2.545588,42.978053,784.624],[-2.545655,42.978041,783.73],[-2.545733,42.978038,782.616],[-2.545803,42.978026,781.773],[-2.54587,42.978019,781.153],[-2.545937,42.978009,780.704],[-2.545999,42.978006,780.314],[-2.546092,42.978006,779.808],[-2.546172,42.978004,779.594],[-2.546245,42.978006,779.316],[-2.546328,42.978008,779.191],[-2.546395,42.978001,778.828],[-2.546477,42.977998,778.675],[-2.546554,42.978003,778.691],[-2.546636,42.97802,779.087],[-2.546714,42.978018,779.094],[-2.546779,42.978001,778.726],[-2.546854,42.978006,779.047],[-2.546917,42.978004,779.111],[-2.546954,42.977962,777.808],[-2.547027,42.97794,778.081],[-2.547087,42.977917,778.143],[-2.547142,42.977894,778.178],[-2.547205,42.977887,778.955],[-2.54726,42.97786,779.032],[-2.547332,42.97785,779.948],[-2.547402,42.977833,780.474],[-2.547474,42.977826,781.311],[-2.547536,42.977824,781.858],[-2.547613,42.977817,781.952],[-2.547676,42.977824,782.417],[-2.547753,42.977841,783.408],[-2.547831,42.977858,783.254],[-2.547896,42.977876,782.846],[-2.547966,42.977896,782.511],[-2.548024,42.977923,782.828],[-2.548082,42.977946,783.155],[-2.548157,42.977954,782.441],[-2.548215,42.977981,783.187],[-2.548292,42.977989,782.584],[-2.548355,42.977986,781.661],[-2.548435,42.977974,780.221],[-2.548498,42.977957,778.813],[-2.548585,42.977945,777.608],[-2.548648,42.977955,777.165],[-2.54871,42.977978,776.947],[-2.548773,42.977986,775.952],[-2.548853,42.977998,774.539],[-2.54892,42.978018,773.876],[-2.548982,42.978036,773.222],[-2.549047,42.978059,772.668],[-2.54911,42.978071,771.165],[-2.549202,42.978083,769.749],[-2.549265,42.978083,769.202],[-2.549342,42.978085,768.722],[-2.54943,42.978082,768.108],[-2.54951,42.978089,767.963],[-2.5496,42.978091,767.775],[-2.549682,42.978089,767.68],[-2.549754,42.978081,767.427],[-2.549824,42.978083,767.574],[-2.549891,42.978073,767.47],[-2.549958,42.978055,767.046],[-2.550023,42.978022,767.143],[-2.550083,42.978,767.128],[-2.550145,42.97798,766.989],[-2.550223,42.977982,766.917],[-2.5503,42.977999,767.208],[-2.550308,42.977947,765.641],[-2.550386,42.977949,765.183],[-2.550514,42.977961,764.668],[-2.550584,42.977978,764.775],[-2.550659,42.977981,764.252],[-2.550721,42.977986,763.938],[-2.550783,42.977969,762.794],[-2.550861,42.977962,761.791],[-2.550934,42.977965,761.222],[-2.551007,42.977957,760.362],[-2.551074,42.977955,759.708],[-2.551139,42.977963,759.308],[-2.551204,42.977958,758.411],[-2.551286,42.977968,757.783],[-2.551348,42.977978,757.358],[-2.55141,42.977995,757.195],[-2.55147,42.978018,757.412],[-2.551543,42.978026,757.198],[-2.551603,42.978044,757.294],[-2.551666,42.978062,757.191],[-2.551748,42.978075,756.619],[-2.551816,42.978062,756.009],[-2.551881,42.978069,755.619],[-2.551941,42.978032,754.708],[-2.552006,42.978029,754.24],[-2.552079,42.978027,753.792],[-2.552149,42.978039,753.427],[-2.552209,42.978059,753.144],[-2.552276,42.978089,753.131],[-2.552341,42.978107,753.027],[-2.552489,42.978134,752.753],[-2.552551,42.978134,752.59],[-2.552618,42.978137,752.298],[-2.552691,42.978144,751.815],[-2.552766,42.978149,751.426],[-2.552836,42.978154,751.008],[-2.552908,42.978161,750.698],[-2.552983,42.978168,750.27],[-2.553063,42.978188,749.595],[-2.553161,42.978228,748.852],[-2.553256,42.978243,748.369],[-2.553338,42.978261,747.715],[-2.553396,42.978298,746.911],[-2.553469,42.97835,745.928],[-2.553542,42.978378,745.182],[-2.553614,42.978388,744.443],[-2.553696,42.978375,743.317],[-2.553761,42.978357,742.608],[-2.553833,42.978327,741.957],[-2.55391,42.978309,740.919],[-2.553995,42.978292,739.784],[-2.554072,42.97827,738.761],[-2.554155,42.978243,737.538],[-2.554213,42.97822,736.524],[-2.554255,42.978178,736.04],[-2.554303,42.97813,735.587],[-2.554348,42.978097,735.082],[-2.554381,42.978055,734.943],[-2.554428,42.97802,734.117],[-2.554485,42.977978,733.408],[-2.554518,42.97794,732.957],[-2.554555,42.97789,732.489],[-2.554592,42.97785,731.864],[-2.55461,42.977797,731.351],[-2.554645,42.97774,730.418],[-2.554685,42.977702,729.614],[-2.554708,42.977657,728.82],[-2.554761,42.977587,727.647],[-2.554839,42.977567,726.841],[-2.554906,42.977559,726.281],[-2.554976,42.977554,725.609],[-2.555029,42.977584,725.108],[-2.555081,42.977616,724.373],[-2.555141,42.977643,723.295],[-2.555184,42.977676,722.56],[-2.555226,42.977713,721.877],[-2.555261,42.977756,721.344],[-2.555289,42.977806,721.04],[-2.555322,42.977853,720.676],[-2.555365,42.977893,719.913],[-2.555408,42.977933,719.068],[-2.555463,42.977971,717.742],[-2.555455,42.978018,717.926],[-2.555487,42.978061,717.008],[-2.555484,42.978109,717.155],[-2.555522,42.978154,716.057],[-2.555574,42.978192,714.652],[-2.555606,42.978234,713.739],[-2.555644,42.978277,712.616],[-2.555699,42.978325,710.922],[-2.555756,42.978353,709.238],[-2.555819,42.978358,707.425],[-2.555892,42.978356,706.119],[-2.555969,42.978344,705.009],[-2.556034,42.978354,704.019],[-2.556099,42.978384,702.808],[-2.556166,42.978429,701.69],[-2.556241,42.978454,700.352],[-2.556291,42.978502,699.197],[-2.556294,42.978552,698.454],[-2.556292,42.978619,697.611],[-2.556295,42.978681,696.657],[-2.556288,42.978739,695.843],[-2.556281,42.978802,695.07],[-2.556269,42.978859,694.525],[-2.556277,42.978907,693.526],[-2.556309,42.978969,691.408],[-2.556351,42.979007,689.508],[-2.556413,42.979009,688.291],[-2.556478,42.978979,688.243],[-2.55656,42.978986,687.318],[-2.556617,42.979009,686.365],[-2.55667,42.979037,685.332],[-2.556737,42.979044,684.758],[-2.556797,42.979062,683.834],[-2.556862,42.979042,683.861],[-2.556945,42.979039,683.237],[-2.557018,42.979026,682.549],[-2.557083,42.979019,681.713],[-2.557151,42.979012,680.808],[-2.557214,42.979019,679.842],[-2.557286,42.979004,679.174],[-2.557354,42.978979,678.619],[-2.557432,42.978957,677.916],[-2.557499,42.978945,677.243],[-2.557559,42.978932,676.199],[-2.557619,42.978922,675.095],[-2.557687,42.97889,673.912],[-2.557717,42.978843,673.587],[-2.557754,42.978805,672.842],[-2.557782,42.97876,672.426],[-2.557827,42.978725,671.608],[-2.55788,42.9787,670.627],[-2.55794,42.97866,669.769],[-2.557992,42.97862,669.174],[-2.558042,42.978578,668.591],[-2.558084,42.978541,667.958],[-2.558112,42.978494,667.544],[-2.558154,42.978459,666.82],[-2.558181,42.978414,666.437],[-2.558198,42.978366,666.284],[-2.558228,42.978309,665.607],[-2.558231,42.978262,665.417],[-2.558233,42.978214,665.308],[-2.558238,42.978166,665.067],[-2.558251,42.978109,664.539],[-2.558259,42.978052,664.174],[-2.558247,42.977997,664.291],[-2.55825,42.977947,663.918],[-2.558273,42.977894,663.034],[-2.558301,42.977839,662.13],[-2.558326,42.977787,661.277],[-2.558336,42.97774,660.988],[-2.558333,42.977685,661.024],[-2.558323,42.977638,661.226],[-2.558345,42.977588,660.708],[-2.558355,42.977535,660.587],[-2.558363,42.97749,660.379],[-2.558373,42.977443,660.074],[-2.558393,42.977391,659.661],[-2.558403,42.977338,659.438],[-2.558423,42.97729,659.044],[-2.558465,42.977245,658.55],[-2.55852,42.977212,658.197],[-2.55858,42.977187,657.738],[-2.558647,42.977154,657.27],[-2.558699,42.977124,656.717],[-2.558751,42.977086,656.208],[-2.558803,42.977053,655.622],[-2.558833,42.977011,655.554],[-2.558853,42.976964,655.529],[-2.55889,42.976921,655.056],[-2.55892,42.976874,654.443],[-2.55894,42.976811,654.069],[-2.558947,42.976763,653.955],[-2.558974,42.976713,653.462],[-2.559012,42.976663,652.866],[-2.55904,42.976623,652.129],[-2.559047,42.97657,651.721],[-2.559089,42.976528,650.808],[-2.559149,42.976538,649.885],[-2.559216,42.976571,648.967],[-2.559256,42.976606,648.512],[-2.559304,42.976654,648.059],[-2.559321,42.976704,647.556],[-2.559321,42.976751,647.192],[-2.559329,42.976814,646.518],[-2.559341,42.976866,645.915],[-2.559356,42.976926,645.123],[-2.559373,42.976974,644.383],[-2.559406,42.977019,643.311],[-2.559456,42.977046,642.108],[-2.559528,42.977053,641.171],[-2.559576,42.977083,640.383],[-2.559641,42.977091,639.518],[-2.559703,42.977094,638.875],[-2.559781,42.977107,638.632],[-2.559858,42.977107,638.758],[-2.55995,42.977097,638.664],[-2.560018,42.977082,638.611],[-2.560088,42.977057,638.844],[-2.56016,42.977045,639.205],[-2.560225,42.97702,639.615],[-2.560307,42.977008,640.108],[-2.56038,42.97701,640.223],[-2.560443,42.977,640.455],[-2.560496,42.976977,640.68],[-2.560564,42.976972,640.717],[-2.560629,42.976967,640.134],[-2.560739,42.97696,638.93],[-2.560829,42.976952,638.046],[-2.560916,42.97695,637.753],[-2.560984,42.976955,637.494],[-2.561049,42.97696,637.057],[-2.561137,42.976963,636.722],[-2.56123,42.976971,636.508],[-2.561317,42.976973,636.498],[-2.561389,42.976973,636.46],[-2.561462,42.976971,636.415],[-2.561542,42.976966,636.532],[-2.561609,42.976953,636.859],[-2.561682,42.976958,636.655],[-2.561747,42.976965,635.991],[-2.561827,42.97696,635.568],[-2.561894,42.976955,635.269],[-2.561966,42.976942,634.704],[-2.562029,42.976924,633.824],[-2.562074,42.976886,633.008],[-2.562122,42.976823,632.275],[-2.562165,42.976773,631.347],[-2.562217,42.97673,630.382],[-2.562255,42.976692,629.619],[-2.562292,42.976647,628.836],[-2.56234,42.976605,627.772],[-2.562382,42.976557,626.788],[-2.562432,42.976507,625.745],[-2.562484,42.976464,624.731],[-2.562534,42.976427,623.961],[-2.562582,42.976397,623.207],[-2.562654,42.976394,622.408],[-2.562729,42.976409,621.692],[-2.562809,42.976447,621.024],[-2.562862,42.97647,620.739],[-2.562924,42.976485,620.366],[-2.562981,42.976503,619.923],[-2.563039,42.976533,619.669],[-2.563089,42.97657,619.425],[-2.563136,42.976602,619.022],[-2.563186,42.976637,618.693],[-2.563203,42.97668,618.365],[-2.5632,42.976735,617.721],[-2.563263,42.976737,617.008],[-2.563316,42.976764,616.178],[-2.563364,42.976806,615.49],[-2.563409,42.976853,614.855],[-2.563436,42.976906,614.172],[-2.563473,42.976959,613.439],[-2.563528,42.977014,612.875],[-2.563575,42.977062,612.371],[-2.563625,42.977105,611.878],[-2.563682,42.977147,611.182],[-2.56374,42.977195,610.043],[-2.56379,42.977233,609.017],[-2.563837,42.977268,608.208],[-2.563909,42.977308,607.357],[-2.563969,42.97733,606.959],[-2.564037,42.977342,606.414],[-2.564087,42.977369,605.871],[-2.564142,42.977392,605.188],[-2.564195,42.977419,604.234],[-2.564257,42.977444,603.23],[-2.56431,42.977469,602.227],[-2.564377,42.977496,600.849],[-2.56443,42.977524,599.502],[-2.564505,42.977534,598.422],[-2.564588,42.977544,597.208],[-2.564663,42.977559,595.943],[-2.56474,42.977577,594.745],[-2.564822,42.977587,593.95],[-2.564899,42.9776,593.177],[-2.564972,42.977618,592.234],[-2.565057,42.977645,592.07],[-2.565127,42.977668,592.036],[-2.565185,42.977705,591.543],[-2.565233,42.977735,591.065],[-2.56528,42.97777,590.368],[-2.56531,42.977812,589.614],[-2.565238,42.977824,588.308],[-2.56517,42.977812,588.135],[-2.5651,42.977815,587.437],[-2.56503,42.977807,587.112],[-2.564967,42.97783,586.149],[-2.564892,42.977865,584.966],[-2.564824,42.977892,584.142],[-2.564737,42.97789,584.578],[-2.564669,42.977905,584.775],[-2.564616,42.97794,584.263],[-2.564546,42.977953,584.844],[-2.564471,42.97796,585.718],[-2.564409,42.977963,586.308],[-2.564352,42.977993,585.815],[-2.564305,42.978026,585.197],[-2.564247,42.978049,584.732],[-2.564184,42.978091,583.879],[-2.564119,42.978118,583.836],[-2.564059,42.978145,583.782],[-2.563997,42.978177,583.448],[-2.563935,42.97821,583.095],[-2.563882,42.978258,581.825],[-2.56381,42.978281,582.026],[-2.563745,42.978288,582.708],[-2.563693,42.978313,582.608],[-2.563631,42.978346,582.481],[-2.563571,42.978376,582.253],[-2.563509,42.978398,582.118],[-2.563456,42.978426,581.845],[-2.563393,42.978463,581.362],[-2.563338,42.9785,580.868],[-2.56328,42.978545,580.114],[-2.563213,42.978577,580.051],[-2.56315,42.9786,580.276],[-2.563107,42.978638,579.59],[-2.563065,42.978681,578.819],[-2.563015,42.978726,578.708],[-2.562987,42.978769,578.226],[-2.563019,42.978814,576.128],[-2.562966,42.978841,576.873],[-2.562941,42.978883,576.55],[-2.562926,42.978968,573.637],[-2.562896,42.979011,572.973],[-2.562884,42.979066,571.249],[-2.562852,42.979143,569.766],[-2.56281,42.979205,569.193],[-2.562803,42.979262,567.265],[-2.562756,42.979295,567.221],[-2.562683,42.979345,566.308],[-2.562588,42.979468,563.268],[-2.562526,42.979505,563.66],[-2.562521,42.97955,563.015],[-2.562558,42.979587,561.472],[-2.562565,42.979639,560.129],[-2.562582,42.979686,558.565],[-2.562625,42.979738,555.991],[-2.562658,42.979778,554.488],[-2.562701,42.979811,552.535],[-2.562738,42.979851,551.086],[-2.56277,42.979893,549.714],[-2.56276,42.979945,549.808],[-2.5627,42.980043,551.252],[-2.562722,42.980093,550.154],[-2.562812,42.98019,546.729],[-2.562862,42.980237,545.146],[-2.5629,42.980289,544.383],[-2.562975,42.980277,542.099],[-2.563048,42.980255,540.295],[-2.56311,42.980258,538.682],[-2.563163,42.980293,537.651],[-2.563236,42.980295,535.801],[-2.563308,42.980298,534.011],[-2.563366,42.980325,532.508],[-2.563428,42.980348,530.324],[-2.563495,42.980363,527.926],[-2.563538,42.9804,527.081],[-2.563586,42.980435,525.918],[-2.563634,42.980495,525.425],[-2.563657,42.980548,525.571],[-2.563684,42.980596,525.237],[-2.563717,42.980638,524.684],[-2.563725,42.980683,525.266],[-2.563763,42.980733,524.529],[-2.56385,42.980771,521.321],[-2.563883,42.980814,520.808],[-2.563926,42.980847,518.985],[-2.563973,42.980895,516.777],[-2.564018,42.980947,514.552],[-2.564055,42.981,512.949],[-2.564093,42.981037,510.996],[-2.564161,42.981117,507.482],[-2.564156,42.981165,507.788],[-2.564176,42.981212,506.695],[-2.564229,42.981245,504.237],[-2.564244,42.981303,503.549],[-2.564284,42.981361,501.613],[-2.564276,42.981411,501.808],[-2.564296,42.981456,500.782],[-2.564289,42.981511,500.844],[-2.564296,42.981568,500.329],[-2.564348,42.98162,497.756],[-2.564398,42.981655,495.263],[-2.564485,42.981673,492.369],[-2.564555,42.98168,491.035],[-2.564635,42.981657,489.632],[-2.564693,42.98163,488.768],[-2.564763,42.981587,488.142],[-2.564828,42.981589,487.726],[-2.56488,42.981554,487.708]]}}]}