{"type":"FeatureCollection","features":[{"type":"Feature","properties":{"ruta_id":"95195486","nombre":"MONTE UNANUA y SAN JUAN XAR desde IGANTZI","blog_url":"https://www.rutasporelmonte.com/monte-unanua-654-m-y-san-juan-xar-desde-igantzi/"},"geometry":{"type":"LineString","coordinates":[[-1.699745,43.225172,202.297],[-1.699715,43.225219,202.023],[-1.699743,43.225269,202.225],[-1.699781,43.225316,202.608],[-1.699814,43.225354,202.998],[-1.699866,43.225381,203.464],[-1.699914,43.225413,203.97],[-1.699989,43.225425,204.558],[-1.700052,43.225425,205.184],[-1.700089,43.22538,205.323],[-1.700144,43.225343,205.857],[-1.700211,43.22533,206.575],[-1.700301,43.22533,207.513],[-1.700239,43.225258,206.743],[-1.700296,43.225236,207.407],[-1.700323,43.225189,207.808],[-1.70032,43.225134,207.99],[-1.700327,43.225079,208.066],[-1.700375,43.225036,208.412],[-1.700368,43.224989,208.37],[-1.700345,43.224946,208.276],[-1.700413,43.224939,208.435],[-1.700471,43.224972,208.649],[-1.700544,43.224982,208.937],[-1.700609,43.224992,209.047],[-1.700676,43.225019,209.129],[-1.700736,43.225037,209.321],[-1.700799,43.22505,209.408],[-1.700862,43.225058,209.423],[-1.700909,43.225088,209.639],[-1.700969,43.2251,209.765],[-1.701022,43.225123,209.923],[-1.701094,43.225125,209.949],[-1.701156,43.22512,209.978],[-1.701208,43.225093,209.852],[-1.701273,43.225095,209.96],[-1.701333,43.225127,210.345],[-1.7014,43.225117,210.347],[-1.701448,43.225089,210.311],[-1.701385,43.225102,210.108],[-1.701383,43.225149,210.623],[-1.701435,43.225181,211.299],[-1.701477,43.225224,211.885],[-1.701495,43.225267,212.333],[-1.701532,43.22531,213.039],[-1.70159,43.225325,213.438],[-1.701655,43.225317,213.522],[-1.70172,43.225342,214.51],[-1.701775,43.225364,215.398],[-1.701838,43.225376,216.015],[-1.701905,43.225379,216.726],[-1.701967,43.225391,217.608],[-1.702027,43.225408,218.618],[-1.702082,43.225436,219.654],[-1.702124,43.225469,220.49],[-1.702172,43.225497,221.278],[-1.702229,43.225525,222.014],[-1.702291,43.225555,223.573],[-1.702338,43.225588,225.067],[-1.702388,43.225621,226.555],[-1.702455,43.225603,227.717],[-1.702515,43.225588,228.987],[-1.702555,43.22555,229.615],[-1.702607,43.22551,230.908],[-1.702664,43.225488,232.33],[-1.702721,43.225456,233.726],[-1.702771,43.225428,234.912],[-1.702828,43.22541,236.22],[-1.702885,43.225373,237.196],[-1.70294,43.225338,237.985],[-1.702997,43.22532,238.779],[-1.703055,43.2253,239.567],[-1.703117,43.225275,240.178],[-1.703182,43.225253,240.933],[-1.703237,43.225221,241.326],[-1.703292,43.225184,241.608],[-1.703354,43.225169,242.466],[-1.703429,43.225142,243.192],[-1.703476,43.22511,243.248],[-1.703536,43.225087,243.716],[-1.703593,43.225059,244.032],[-1.703655,43.225032,244.591],[-1.703717,43.225024,245.465],[-1.703777,43.225009,246.243],[-1.703809,43.224964,245.881],[-1.703862,43.224932,246.161],[-1.70393,43.224917,246.717],[-1.703993,43.224907,247.208],[-1.704048,43.224882,247.387],[-1.704111,43.224865,247.513],[-1.704163,43.22484,247.469],[-1.704226,43.224827,247.747],[-1.704296,43.22481,248.143],[-1.704354,43.224793,248.422],[-1.704414,43.224766,248.576],[-1.704471,43.224744,248.944],[-1.704513,43.224696,248.689],[-1.70458,43.224671,249.106],[-1.704642,43.224649,249.726],[-1.704704,43.224626,250.208],[-1.704764,43.224598,250.597],[-1.704826,43.224568,250.693],[-1.704878,43.224543,250.749],[-1.704935,43.22452,251.067],[-1.704998,43.224502,251.443],[-1.705053,43.22448,252.072],[-1.705113,43.224465,252.926],[-1.70518,43.224447,253.944],[-1.705238,43.224429,254.643],[-1.705295,43.224406,254.964],[-1.705335,43.224371,254.51],[-1.705368,43.224331,253.908],[-1.705416,43.224291,253.883],[-1.705456,43.224256,254.089],[-1.705508,43.224216,254.585],[-1.705546,43.224168,254.713],[-1.705581,43.224125,254.929],[-1.705619,43.224083,255.198],[-1.705636,43.224036,254.812],[-1.705661,43.223993,254.95],[-1.705679,43.223941,254.717],[-1.705717,43.223896,255.187],[-1.705737,43.223853,255.315],[-1.705769,43.223811,255.808],[-1.705801,43.223771,256.37],[-1.705828,43.223728,256.746],[-1.70589,43.223705,257.632],[-1.705942,43.223677,258.38],[-1.706002,43.223645,259.276],[-1.706055,43.223617,260.055],[-1.706118,43.223592,261.049],[-1.70619,43.223564,262.027],[-1.706247,43.223544,262.871],[-1.706302,43.223517,263.541],[-1.70637,43.223499,264.515],[-1.706425,43.223476,265.108],[-1.706482,43.223441,265.526],[-1.706534,43.223414,266.042],[-1.706591,43.223379,266.428],[-1.706651,43.223351,267.066],[-1.706708,43.223319,267.482],[-1.70678,43.223296,268.221],[-1.706843,43.223276,268.845],[-1.706901,43.223253,269.333],[-1.706958,43.223221,269.552],[-1.707015,43.223198,269.653],[-1.707083,43.22319,269.908],[-1.707141,43.22317,270.108],[-1.707198,43.223152,270.234],[-1.707265,43.223147,270.31],[-1.70733,43.223155,270.436],[-1.7074,43.22318,270.654],[-1.707472,43.22319,270.57],[-1.70753,43.223205,270.639],[-1.707595,43.223218,270.713],[-1.707658,43.223243,270.961],[-1.707723,43.223258,270.923],[-1.707765,43.223223,271.083],[-1.707782,43.223266,271.011],[-1.707755,43.223219,271.008],[-1.707788,43.223177,271.041],[-1.707851,43.223157,270.727],[-1.707906,43.223135,270.653],[-1.707964,43.223108,270.691],[-1.708029,43.223096,270.677],[-1.708104,43.223079,270.426],[-1.708159,43.223047,270.37],[-1.708227,43.223015,270.248],[-1.70827,43.222982,270.328],[-1.708322,43.222955,270.589],[-1.708389,43.222928,270.317],[-1.708451,43.222915,270.008],[-1.708516,43.222882,269.991],[-1.708579,43.222857,269.847],[-1.708636,43.222837,269.833],[-1.708696,43.222819,269.661],[-1.708773,43.222797,269.567],[-1.708833,43.222775,269.486],[-1.708885,43.222742,269.33],[-1.708947,43.222722,268.988],[-1.709017,43.222702,268.573],[-1.709084,43.222695,268.185],[-1.709142,43.222673,268.113],[-1.709209,43.222653,267.808],[-1.709282,43.222636,267.316],[-1.709352,43.222619,266.882],[-1.709407,43.222596,266.428],[-1.709469,43.222584,265.986],[-1.709544,43.222569,265.392],[-1.709611,43.222556,264.731],[-1.709679,43.222546,264.125],[-1.709744,43.222519,263.793],[-1.709804,43.222497,263.442],[-1.709877,43.222494,262.922],[-1.70995,43.222499,262.414],[-1.710027,43.222506,262.008],[-1.710099,43.222508,262.043],[-1.710167,43.222505,262.059],[-1.710229,43.222495,262.075],[-1.710302,43.222497,262.183],[-1.710364,43.2225,262.319],[-1.710432,43.222498,262.638],[-1.710494,43.222495,262.882],[-1.710572,43.222498,263.15],[-1.71064,43.222481,263.221],[-1.710717,43.222463,263.441],[-1.710787,43.222463,263.605],[-1.710859,43.22245,263.908],[-1.710921,43.22246,264.611],[-1.710996,43.222468,265.447],[-1.711076,43.222458,266.143],[-1.711153,43.222448,266.661],[-1.711223,43.22244,267.247],[-1.711286,43.222427,267.556],[-1.711351,43.222419,267.91],[-1.711421,43.222412,268.558],[-1.711503,43.222415,269.737],[-1.711568,43.222422,270.749],[-1.711635,43.222424,271.713],[-1.711705,43.222421,272.708],[-1.711785,43.222423,274.352],[-1.711847,43.222418,275.488],[-1.711912,43.222428,276.814],[-1.71198,43.222425,278.242],[-1.712055,43.222422,280.038],[-1.712118,43.22241,281.247],[-1.712166,43.222372,281.541],[-1.712233,43.222347,282.449],[-1.71229,43.222327,283.392],[-1.712352,43.222307,284.373],[-1.7124,43.222279,284.82],[-1.712458,43.222261,285.808],[-1.712526,43.222248,286.958],[-1.712588,43.222245,287.864],[-1.712661,43.222245,288.91],[-1.712726,43.222258,290.228],[-1.712794,43.222278,291.734],[-1.712856,43.222283,292.053],[-1.712906,43.222323,293.427],[-1.712928,43.222368,294.735],[-1.712941,43.222413,296.155],[-1.712956,43.222466,297.707],[-1.712919,43.222503,298.617],[-1.712877,43.222548,299.908],[-1.712839,43.222593,301.194],[-1.712801,43.222635,302.18],[-1.712791,43.222683,303.426],[-1.712799,43.222735,305.054],[-1.712836,43.222775,306.87],[-1.712878,43.22281,308.879],[-1.712948,43.222822,310.353],[-1.713018,43.222835,311.921],[-1.713086,43.222835,312.514],[-1.713159,43.222847,313.354],[-1.713224,43.222867,314.409],[-1.713281,43.222897,316.208],[-1.713336,43.22292,317.75],[-1.713394,43.222955,319.936],[-1.713462,43.22297,321.032],[-1.713524,43.222982,321.93],[-1.713589,43.222982,322.276],[-1.713662,43.222994,323.525],[-1.713734,43.223002,324.789],[-1.713802,43.223,325.427],[-1.713867,43.223012,326.716],[-1.713942,43.223017,327.676],[-1.714012,43.223019,328.313],[-1.714087,43.223027,329.208],[-1.71415,43.22302,329.57],[-1.714212,43.223038,330.826],[-1.714279,43.22303,331.382],[-1.714344,43.22304,332.42],[-1.714407,43.223052,333.516],[-1.71447,43.223064,334.365],[-1.714545,43.223067,335.129],[-1.714608,43.223077,335.727],[-1.71468,43.223079,336.469],[-1.714742,43.223089,337.004],[-1.714814,43.223092,337.824],[-1.714881,43.223095,338.508],[-1.714944,43.223083,339.525],[-1.715001,43.223056,341.031],[-1.715054,43.223033,341.567],[-1.715119,43.223028,342.295],[-1.715189,43.223013,342.921],[-1.715251,43.222981,343.74],[-1.715299,43.222953,344.424],[-1.715364,43.222931,345.522],[-1.715422,43.222909,346.675],[-1.715475,43.222877,347.828],[-1.715535,43.222847,349.12],[-1.715597,43.222824,350.408],[-1.71565,43.222791,351.696],[-1.715705,43.222751,352.582],[-1.715748,43.222718,353.148],[-1.715785,43.22268,353.766],[-1.71583,43.222642,354.492],[-1.715878,43.22261,355.611],[-1.715941,43.222597,357.295],[-1.715998,43.222574,358.643],[-1.71607,43.222559,360.491],[-1.716128,43.222539,361.881],[-1.716195,43.222517,363.519],[-1.716245,43.222489,364.708],[-1.7163,43.222459,365.748],[-1.71637,43.222446,367.574],[-1.716437,43.222444,369.33],[-1.7165,43.222429,370.878],[-1.71656,43.222417,372.284],[-1.716623,43.222404,373.743],[-1.716686,43.222391,375.227],[-1.716746,43.222373,376.435],[-1.716808,43.222353,377.718],[-1.716836,43.222308,377.598],[-1.716898,43.222293,379.017],[-1.71697,43.222285,380.808],[-1.717033,43.222263,382.22],[-1.717103,43.222251,384.016],[-1.717158,43.222228,385.282],[-1.717223,43.22222,387.09],[-1.71729,43.222227,388.866],[-1.71735,43.222239,390.375],[-1.717415,43.222244,392.069],[-1.717483,43.222259,393.767],[-1.717536,43.222229,394.766],[-1.717598,43.222237,395.829],[-1.717668,43.222247,397.021],[-1.71774,43.222249,398.208],[-1.717812,43.222247,399.685],[-1.717882,43.22225,401.141],[-1.717944,43.222242,402.437],[-1.718012,43.222242,403.985],[-1.718082,43.222224,405.561],[-1.718154,43.222222,406.85],[-1.718221,43.222207,407.964],[-1.718283,43.222185,409.032],[-1.718346,43.222155,410.325],[-1.718406,43.222142,411.826],[-1.718448,43.222109,412.708],[-1.718511,43.222092,414.208],[-1.718574,43.222069,415.631],[-1.718622,43.222036,416.677],[-1.718677,43.222006,417.643],[-1.718734,43.221981,418.741],[-1.718792,43.221958,419.977],[-1.718842,43.22193,420.666],[-1.718912,43.22191,421.74],[-1.718969,43.221882,422.488],[-1.719022,43.221847,422.957],[-1.719079,43.221822,423.7],[-1.719147,43.221829,425.62],[-1.719209,43.221821,426.808],[-1.719279,43.221819,428.374],[-1.719342,43.221829,430.02],[-1.719399,43.221851,431.966],[-1.719417,43.221901,433.954],[-1.71941,43.221954,435.24],[-1.719435,43.222001,436.019],[-1.719472,43.222048,436.833],[-1.719515,43.222081,437.671],[-1.719565,43.222113,438.522],[-1.719632,43.222133,439.662],[-1.719695,43.222126,440.608],[-1.71976,43.222121,441.508],[-1.719825,43.222104,442.531],[-1.719895,43.222092,443.567],[-1.719955,43.22208,444.483],[-1.720023,43.222077,445.331],[-1.720085,43.222064,446.167],[-1.720148,43.222051,446.986],[-1.720211,43.222041,447.87],[-1.720283,43.222031,448.748],[-1.720346,43.222019,449.263],[-1.720421,43.222026,449.644],[-1.720498,43.222029,450.018],[-1.72056,43.222022,450.508],[-1.720633,43.222007,451.375],[-1.720703,43.222002,452.191],[-1.720775,43.221995,452.987],[-1.72084,43.221997,453.595],[-1.72091,43.221999,454.721],[-1.720982,43.222009,455.95],[-1.72105,43.222014,457.044],[-1.721118,43.222022,458.052],[-1.721178,43.22205,459.094],[-1.721235,43.222073,459.957],[-1.721303,43.222081,461.222],[-1.721373,43.222098,462.308],[-1.721436,43.22211,463.758],[-1.721488,43.222138,464.614],[-1.721546,43.222158,465.81],[-1.721613,43.22218,467.258],[-1.721673,43.222198,468.654],[-1.721731,43.222215,470.083],[-1.721794,43.22223,471.397],[-1.721851,43.222253,471.865],[-1.721911,43.222271,472.534],[-1.722003,43.222268,475.155],[-1.722066,43.222271,476.71],[-1.722128,43.222286,477.808],[-1.722195,43.222309,478.882],[-1.722253,43.222329,479.928],[-1.722306,43.222357,480.894],[-1.722338,43.222397,480.482],[-1.722386,43.22243,480.858],[-1.722436,43.222463,481.357],[-1.722496,43.222488,482.431],[-1.722546,43.222523,482.789],[-1.722601,43.222546,483.868],[-1.722651,43.222573,484.942],[-1.722713,43.222595,486.726],[-1.722768,43.222623,488.408],[-1.722796,43.222663,488.955],[-1.722819,43.222708,489.451],[-1.722829,43.22276,489.217],[-1.722819,43.222812,488.615],[-1.722824,43.22286,489.231],[-1.722836,43.222917,490.35],[-1.722853,43.222974,491.664],[-1.722846,43.223022,491.532],[-1.722846,43.22307,491.984],[-1.722851,43.223127,492.807],[-1.722874,43.223179,494.517],[-1.722854,43.223226,494.108],[-1.722846,43.223289,494.427],[-1.722816,43.223336,493.813],[-1.722784,43.223388,494.499],[-1.722731,43.223426,493.647],[-1.722694,43.223468,493.753],[-1.722662,43.223516,494.262],[-1.722629,43.223554,494.346],[-1.722614,43.223602,495.624],[-1.722607,43.223647,496.341],[-1.722604,43.223697,497.281],[-1.722622,43.223744,498.909],[-1.722614,43.223789,499.408],[-1.722611,43.223837,500.253],[-1.722594,43.223889,500.449],[-1.722587,43.223942,501.055],[-1.722584,43.223995,501.833],[-1.722586,43.22404,502.789],[-1.722573,43.224085,502.998],[-1.72256,43.22413,503.162],[-1.722555,43.224175,503.76],[-1.722543,43.224232,503.843],[-1.722525,43.224289,503.764],[-1.722508,43.224332,503.71],[-1.72248,43.224389,503.308],[-1.722448,43.224437,502.553],[-1.722428,43.22448,501.969],[-1.72242,43.224538,502.025],[-1.722413,43.22459,502.123],[-1.722416,43.224642,502.669],[-1.722431,43.22469,503.588],[-1.722481,43.224728,505.482],[-1.722511,43.224776,506.63],[-1.722561,43.224804,507.486],[-1.722608,43.224839,508.16],[-1.72268,43.224849,509.026],[-1.72274,43.224836,509.708],[-1.722792,43.224809,510.497],[-1.72282,43.224766,510.933],[-1.722805,43.224719,511.259],[-1.72279,43.224672,511.517],[-1.722808,43.224725,511.293],[-1.722846,43.224765,511.132],[-1.722904,43.22474,511.736],[-1.722952,43.224712,512.454],[-1.723,43.224675,513.356],[-1.723048,43.224645,514.359],[-1.723103,43.224623,514.914],[-1.723161,43.2246,515.508],[-1.723208,43.224568,516.474],[-1.723255,43.22453,517.58],[-1.723303,43.224502,518.446],[-1.723361,43.224472,519.484],[-1.723419,43.224452,520.14],[-1.723487,43.224427,521.049],[-1.723552,43.224404,522.043],[-1.723612,43.224387,522.931],[-1.723667,43.224365,523.834],[-1.723707,43.224323,525.455],[-1.723764,43.224296,526.71],[-1.723821,43.224269,527.908],[-1.723893,43.224244,529.242],[-1.723955,43.224232,529.888],[-1.72402,43.224202,531.194],[-1.72408,43.224187,531.952],[-1.724135,43.224165,532.988],[-1.724182,43.224128,534.497],[-1.724232,43.224101,535.561],[-1.724287,43.224066,536.919],[-1.724334,43.224031,538.547],[-1.724382,43.224003,539.829],[-1.724427,43.223968,541.521],[-1.724484,43.223943,542.608],[-1.724537,43.22392,543.623],[-1.724595,43.223893,544.879],[-1.724648,43.223866,545.925],[-1.724696,43.223829,547.533],[-1.724746,43.223797,549.049],[-1.724803,43.223772,550.188],[-1.724861,43.22375,551.282],[-1.724914,43.223717,553.09],[-1.724974,43.223702,554.068],[-1.725032,43.22368,555.242],[-1.72508,43.22365,556.626],[-1.725135,43.223622,557.908],[-1.725187,43.223595,559.125],[-1.725239,43.223565,560.451],[-1.725289,43.223533,561.927],[-1.725364,43.223493,563.865],[-1.725424,43.223468,565.091],[-1.725469,43.223436,566.64],[-1.725524,43.223414,567.724],[-1.725574,43.223376,569.662],[-1.725629,43.223344,571.156],[-1.725687,43.223317,572.359],[-1.725737,43.22329,573.614],[-1.72579,43.223265,574.808],[-1.725842,43.223233,576.444],[-1.725895,43.223203,578.34],[-1.725955,43.223186,579.476],[-1.72601,43.223159,581.084],[-1.72607,43.223144,582.16],[-1.72612,43.223114,583.949],[-1.726178,43.223094,585.033],[-1.726231,43.223066,586.541],[-1.726279,43.223026,587.254],[-1.726319,43.222984,587.556],[-1.726342,43.222939,587.811],[-1.726377,43.222891,588.208],[-1.726419,43.222853,588.564],[-1.726481,43.222856,588.77],[-1.726558,43.222849,589.086],[-1.726625,43.222836,589.114],[-1.726687,43.222833,589.43],[-1.726772,43.22282,590.029],[-1.726847,43.222817,590.643],[-1.726912,43.222839,591.421],[-1.726975,43.222836,591.955],[-1.727048,43.222824,592.307],[-1.727113,43.222812,592.717],[-1.727176,43.222807,593.108],[-1.727216,43.22277,593.094],[-1.727289,43.222743,593.26],[-1.727356,43.222736,593.566],[-1.727426,43.222734,593.734],[-1.727491,43.222721,594.08],[-1.727564,43.222716,594.249],[-1.727636,43.222698,594.353],[-1.727701,43.222696,594.521],[-1.727764,43.222689,594.613],[-1.727834,43.222699,595.243],[-1.727904,43.222689,595.807],[-1.727967,43.222686,596.308],[-1.728035,43.222696,596.99],[-1.728098,43.222698,597.876],[-1.72816,43.222706,598.962],[-1.728222,43.222698,599.87],[-1.728289,43.22271,601.126],[-1.728362,43.222707,602.185],[-1.72843,43.22271,603.289],[-1.728487,43.222735,604.447],[-1.728559,43.222748,605.741],[-1.728631,43.222748,606.681],[-1.728711,43.222748,607.209],[-1.728778,43.222756,607.808],[-1.728841,43.222764,608.493],[-1.728909,43.222769,609.139],[-1.728974,43.222782,610.135],[-1.729042,43.222787,610.923],[-1.729114,43.2228,611.689],[-1.729181,43.222817,611.998],[-1.729246,43.222834,612.272],[-1.729321,43.222841,613.06],[-1.729383,43.222843,613.875],[-1.729456,43.222855,614.528],[-1.729523,43.22286,615.42],[-1.729598,43.222868,616.408],[-1.729665,43.222873,617.446],[-1.72973,43.222871,618.582],[-1.7298,43.222858,619.688],[-1.729865,43.22286,620.616],[-1.729927,43.222865,621.632],[-1.73,43.22288,622.611],[-1.730072,43.222882,624.575],[-1.730129,43.222907,626.283],[-1.730196,43.222912,628.142],[-1.730274,43.222924,630.522],[-1.730336,43.222911,631.514],[-1.730401,43.222919,632.808],[-1.730461,43.222931,634.013],[-1.730523,43.222948,635.399],[-1.730586,43.222946,636.935],[-1.730646,43.222921,638.693],[-1.730718,43.222919,641.189],[-1.730783,43.222926,643.468],[-1.730846,43.222939,645.482],[-1.730913,43.222929,645.97],[-1.730943,43.222972,646.748],[-1.730966,43.223022,647.561],[-1.730988,43.223069,648.017],[-1.73101,43.223114,648.008],[-1.731063,43.223139,648.493],[-1.731128,43.223122,648.879],[-1.73116,43.223164,648.535],[-1.73112,43.223124,648.943],[-1.731097,43.223077,648.969],[-1.73107,43.223035,648.538],[-1.731035,43.22299,647.782],[-1.731003,43.222947,646.95],[-1.731008,43.222902,646.448],[-1.731053,43.22286,646.361],[-1.731073,43.222805,645.917],[-1.731108,43.222765,645.608],[-1.731138,43.22272,644.463],[-1.731168,43.222672,643.199],[-1.731205,43.222627,641.935],[-1.731187,43.222582,640.933],[-1.731197,43.222534,639.879],[-1.731212,43.222487,638.648],[-1.731209,43.222437,637.162],[-1.731226,43.22239,635.89],[-1.731234,43.222338,634.348],[-1.731244,43.222288,632.961],[-1.731259,43.222235,631.417],[-1.731271,43.222187,630.008],[-1.731293,43.222142,628.743],[-1.73131,43.222097,627.419],[-1.731328,43.222049,626.285],[-1.731326,43.222004,624.753],[-1.731323,43.221947,622.959],[-1.731338,43.2219,621.668],[-1.731345,43.22185,620.152],[-1.731347,43.2218,618.51],[-1.73136,43.221752,617.224],[-1.731353,43.221702,615.404],[-1.731368,43.221649,614.014],[-1.731383,43.221604,613.108],[-1.731376,43.221556,611.641],[-1.731389,43.221511,610.557],[-1.731381,43.221466,609.133],[-1.731374,43.221413,607.451],[-1.731346,43.221366,605.467],[-1.731319,43.221323,603.516],[-1.731316,43.221268,601.69],[-1.731289,43.221211,599.318],[-1.731254,43.221161,597.296],[-1.731256,43.221109,595.531],[-1.731289,43.221057,594.524],[-1.731301,43.221005,593.308],[-1.731299,43.220952,591.878],[-1.731281,43.220897,590.164],[-1.731276,43.220849,588.81],[-1.731284,43.220794,588.078],[-1.731282,43.220744,587.394],[-1.73128,43.220692,586.613],[-1.731282,43.220642,586.057],[-1.731289,43.22059,585.465],[-1.731291,43.220542,584.723],[-1.731294,43.220494,584.083],[-1.731302,43.220439,583.311],[-1.731317,43.220392,582.708],[-1.731317,43.22034,581.981],[-1.731344,43.220295,581.697],[-1.731367,43.22025,581.123],[-1.731407,43.220203,580.281],[-1.731444,43.220166,579.197],[-1.731472,43.220114,577.786],[-1.7315,43.220067,576.62],[-1.731507,43.22002,575.658],[-1.73152,43.219972,574.353],[-1.731537,43.219919,572.704],[-1.731535,43.219872,571.514],[-1.731547,43.219827,570.108],[-1.731564,43.219774,568.554],[-1.731577,43.219724,567.05],[-1.731595,43.219674,565.396],[-1.731585,43.219622,563.934],[-1.731582,43.219574,562.52],[-1.73162,43.219529,560.859],[-1.731622,43.219472,559.163],[-1.731627,43.219424,557.641],[-1.73161,43.219381,556.363],[-1.73161,43.219333,554.644],[-1.731603,43.219278,552.818],[-1.731605,43.21923,551.208],[-1.731618,43.219182,549.595],[-1.73162,43.219137,548.231],[-1.731597,43.219092,547.017],[-1.731604,43.219039,545.685],[-1.731626,43.218994,544.571],[-1.731628,43.218944,543.28],[-1.731625,43.218894,541.864],[-1.731632,43.218839,540.842],[-1.731619,43.218786,539.755],[-1.731609,43.218726,538.407],[-1.731586,43.218678,537.217],[-1.731554,43.218628,535.708],[-1.731556,43.218581,534.874],[-1.731551,43.218536,533.95],[-1.731559,43.218488,533.196],[-1.731549,43.218435,532.054],[-1.731554,43.218388,531.28],[-1.731541,43.218333,530.199],[-1.731509,43.218288,529.293],[-1.731477,43.218248,528.491],[-1.731449,43.2182,527.716],[-1.731446,43.21815,527.076],[-1.731438,43.218102,526.413],[-1.731441,43.218057,525.808],[-1.731451,43.218002,525.24],[-1.731441,43.217955,524.746],[-1.731451,43.21791,524.132],[-1.731483,43.217858,523.36],[-1.731518,43.21781,522.546],[-1.731535,43.217762,521.845],[-1.731578,43.217725,521.059],[-1.731621,43.217675,520.077],[-1.731649,43.21763,519.177],[-1.731667,43.217585,518.261],[-1.731687,43.21754,517.327],[-1.73171,43.217492,516.208],[-1.731702,43.217445,515.396],[-1.731709,43.2174,514.252],[-1.731717,43.21735,513.098],[-1.731717,43.217303,512.086],[-1.73172,43.217255,510.942],[-1.73171,43.217208,510.011],[-1.731688,43.217161,508.935],[-1.73166,43.217119,508.033],[-1.731642,43.217072,506.788],[-1.731629,43.217027,505.324],[-1.731606,43.216985,504.026],[-1.731591,43.216932,502.408],[-1.731571,43.216874,500.687],[-1.731529,43.216834,499.383],[-1.731507,43.216781,497.739],[-1.731487,43.216731,496.297],[-1.73147,43.216688,494.953],[-1.731452,43.216633,493.432],[-1.731432,43.21658,492.166],[-1.731395,43.216528,491.094],[-1.731377,43.216473,489.722],[-1.731362,43.216421,488.562],[-1.731322,43.216374,487.308],[-1.73129,43.216331,486.308],[-1.731278,43.216281,485.491],[-1.731266,43.216231,484.517],[-1.731261,43.216181,483.713],[-1.731246,43.216133,482.891],[-1.731229,43.216088,482.067],[-1.731187,43.216043,481.396],[-1.731154,43.215993,480.65],[-1.731127,43.215941,480.198],[-1.73111,43.215898,479.723],[-1.731062,43.215853,479.083],[-1.731017,43.215813,478.611],[-1.730975,43.21578,478.408],[-1.730957,43.215725,478.471],[-1.730915,43.215673,478.667],[-1.730873,43.215628,479.123],[-1.73085,43.215586,479.611],[-1.730823,43.215543,479.947],[-1.730793,43.215496,479.836],[-1.730763,43.215446,479.89],[-1.730758,43.215401,480.288],[-1.73074,43.215354,480.533],[-1.73072,43.215307,480.823],[-1.730705,43.215259,481.015],[-1.730697,43.215206,480.808],[-1.730685,43.215148,480.562],[-1.730662,43.2151,480.428],[-1.73062,43.215052,480.534],[-1.730602,43.214997,480.762],[-1.730579,43.214954,480.868],[-1.730537,43.214911,480.787],[-1.730502,43.214861,480.271],[-1.730469,43.214823,479.959],[-1.730436,43.214778,479.873],[-1.730396,43.214738,479.785],[-1.730383,43.214688,479.613],[-1.730356,43.214646,479.308],[-1.730328,43.214596,479.066],[-1.730298,43.214544,479.042],[-1.730268,43.214504,478.738],[-1.730243,43.214462,478.186],[-1.730216,43.21442,477.432],[-1.730183,43.21437,476.731],[-1.730158,43.21432,476.415],[-1.73015,43.214273,476.513],[-1.730125,43.214221,476.638],[-1.730107,43.214178,476.97],[-1.730084,43.214125,476.717],[-1.730052,43.21407,476.508],[-1.730024,43.214015,476.352],[-1.729986,43.213967,476.268],[-1.729961,43.213915,476.034],[-1.729933,43.213857,475.312],[-1.729898,43.213819,474.498],[-1.729851,43.213777,473.687],[-1.729811,43.21374,473.081],[-1.729784,43.213693,472.219],[-1.729761,43.213641,471.347],[-1.729748,43.213589,470.329],[-1.729696,43.213547,469.321],[-1.729671,43.2135,468.208],[-1.729626,43.213458,467.313],[-1.729578,43.213416,466.599],[-1.729526,43.213378,466.185],[-1.729474,43.21334,465.973],[-1.729426,43.213298,464.829],[-1.729396,43.213251,463.288],[-1.729359,43.213209,461.962],[-1.729311,43.213161,460.81],[-1.729269,43.213121,460.216],[-1.729226,43.213079,460.076],[-1.729223,43.213029,459.813],[-1.729201,43.212976,459.108],[-1.729189,43.212928,458.59],[-1.729174,43.212881,458.016],[-1.729157,43.212833,457.592],[-1.729139,43.21279,457.01],[-1.729116,43.21274,455.996],[-1.729074,43.212705,455.155],[-1.729039,43.212667,454.349],[-1.729009,43.212627,453.617],[-1.728972,43.212589,453.061],[-1.728932,43.212546,452.421],[-1.728909,43.212499,451.813],[-1.728874,43.212446,450.708],[-1.728847,43.212403,449.695],[-1.728832,43.21235,448.581],[-1.728819,43.212302,447.517],[-1.728796,43.212247,446.475],[-1.728774,43.212204,445.531],[-1.728741,43.212162,444.53],[-1.728704,43.212122,443.674],[-1.728667,43.212074,442.652],[-1.728645,43.212014,441.323],[-1.728653,43.211967,440.283],[-1.728666,43.211917,438.711],[-1.728673,43.211867,437.008],[-1.728673,43.211822,435.541],[-1.728656,43.211779,434.247],[-1.728659,43.211732,432.623],[-1.728662,43.211684,431.011],[-1.728667,43.211637,429.357],[-1.728655,43.211585,427.526],[-1.728657,43.21153,425.54],[-1.728634,43.211485,424.278],[-1.728627,43.211433,422.427],[-1.728592,43.211385,420.868],[-1.728562,43.211338,419.414],[-1.728534,43.211298,418.208],[-1.728487,43.211251,416.891],[-1.728435,43.211204,415.557],[-1.728392,43.211156,414.223],[-1.728389,43.211111,413.031],[-1.728386,43.211064,411.957],[-1.728323,43.211029,411.196],[-1.728275,43.210991,409.64],[-1.72825,43.210938,408.458],[-1.728203,43.210905,407.582],[-1.72819,43.210858,406.843],[-1.7282,43.210813,406.017],[-1.728195,43.210765,404.908],[-1.728195,43.210705,403.567],[-1.728205,43.210653,402.363],[-1.728218,43.210608,401.239],[-1.728241,43.210566,400.367],[-1.728269,43.210519,399.083],[-1.728297,43.210476,398.092],[-1.728325,43.210433,396.996],[-1.728358,43.210395,395.724],[-1.7284,43.210353,394.431],[-1.728427,43.210311,393.161],[-1.728445,43.210261,391.707],[-1.728458,43.210216,390.208],[-1.728461,43.210171,388.872],[-1.728501,43.210134,387.628],[-1.728573,43.210116,387.044],[-1.72862,43.210086,386.072],[-1.728683,43.210054,384.438],[-1.728725,43.210019,383.247],[-1.728767,43.209979,381.611],[-1.728799,43.209929,379.749],[-1.728817,43.209881,378.017],[-1.728825,43.209829,376.387],[-1.728848,43.209781,374.815],[-1.728885,43.209738,373.508],[-1.728927,43.209705,371.89],[-1.728955,43.209658,369.876],[-1.728998,43.20958,366.662],[-1.729013,43.209533,364.93],[-1.729038,43.209491,363.346],[-1.729085,43.209454,361.585],[-1.729138,43.209422,360.029],[-1.729181,43.209387,358.647],[-1.729221,43.209352,357.025],[-1.729263,43.209312,355.526],[-1.729328,43.209287,353.808],[-1.729371,43.209254,352.708],[-1.729429,43.209232,351.561],[-1.729479,43.209205,350.387],[-1.729549,43.209192,348.773],[-1.729604,43.209164,347.541],[-1.729641,43.209126,345.987],[-1.729664,43.209081,344.586],[-1.729676,43.209029,343.33],[-1.729661,43.208976,342.448],[-1.729636,43.208929,341.815],[-1.729616,43.208886,341.065],[-1.729571,43.208848,340.111],[-1.729533,43.208805,338.808],[-1.729485,43.208767,337.83],[-1.729435,43.208734,336.976],[-1.729403,43.208692,335.132],[-1.729363,43.208647,333.29],[-1.729301,43.208624,332.056],[-1.729238,43.208607,331.135],[-1.729195,43.208569,329.419],[-1.729223,43.208512,327.257],[-1.729278,43.208489,326.431],[-1.729338,43.208462,325.461],[-1.729396,43.208439,324.507],[-1.729479,43.208436,324.208],[-1.729556,43.208433,323.562],[-1.729628,43.208426,322.778],[-1.729695,43.208446,323.184],[-1.729768,43.208453,322.662],[-1.729843,43.208465,322.228],[-1.729923,43.208452,320.877],[-1.73,43.208459,320.131],[-1.730058,43.208477,319.629],[-1.730123,43.208485,318.722],[-1.730198,43.208495,317.662],[-1.730268,43.208505,316.508],[-1.730336,43.208518,315.508],[-1.730401,43.208541,314.771],[-1.730466,43.208563,313.867],[-1.730524,43.208585,313.193],[-1.730569,43.208617,312.761],[-1.730614,43.20865,311.887],[-1.730657,43.208688,311.046],[-1.730695,43.208735,310.37],[-1.730747,43.208762,308.998],[-1.73078,43.208722,307.579],[-1.730788,43.208674,306.805],[-1.730795,43.208624,306.225],[-1.730798,43.208572,305.208],[-1.730788,43.208524,304.476],[-1.730785,43.208472,303.442],[-1.730807,43.208425,301.798],[-1.730787,43.20838,301.346],[-1.730784,43.208323,300.182],[-1.730776,43.208276,299.141],[-1.730751,43.208231,298.565],[-1.730736,43.208178,297.373],[-1.730709,43.208131,296.553],[-1.730689,43.208074,295.204],[-1.730684,43.208026,293.614],[-1.730664,43.207976,292.108],[-1.730619,43.207934,291.264],[-1.730561,43.207897,290.69],[-1.730508,43.207864,289.496],[-1.730463,43.207832,287.994],[-1.730406,43.20781,286.62],[-1.730341,43.207805,286.059],[-1.730271,43.207795,285.043],[-1.730206,43.207788,284.411],[-1.730139,43.20778,283.619],[-1.730067,43.207773,282.909],[-1.730005,43.20776,281.919],[-1.729947,43.207742,281.308],[-1.729872,43.207715,280.42],[-1.729824,43.207687,279.226],[-1.729772,43.207654,277.842],[-1.72973,43.207621,276.32],[-1.729678,43.207591,275.656],[-1.729645,43.207549,273.955],[-1.72959,43.207517,273.319],[-1.729537,43.207479,272.577],[-1.729497,43.207436,271.255],[-1.729464,43.207396,269.907],[-1.729431,43.207354,268.517],[-1.729391,43.207317,267.508],[-1.729344,43.207272,266.214],[-1.729306,43.20723,264.97],[-1.729258,43.207202,264.746],[-1.729196,43.207172,264.964],[-1.729134,43.207145,265.15],[-1.729081,43.207108,264.589],[-1.729041,43.207063,263.323],[-1.729001,43.207028,262.521],[-1.728961,43.206991,261.686],[-1.728886,43.206961,261.86],[-1.728833,43.206921,261.426],[-1.72881,43.206873,260.208],[-1.728748,43.206841,260.357],[-1.72871,43.206804,259.763],[-1.72866,43.206769,259.229],[-1.728603,43.206732,258.767],[-1.728565,43.206695,257.693],[-1.728537,43.206643,256.062],[-1.72852,43.206598,254.656],[-1.728468,43.206556,253.514],[-1.728413,43.206513,252.443],[-1.728353,43.206483,251.664],[-1.728301,43.206455,250.41],[-1.728233,43.20643,249.008],[-1.728166,43.206427,248.453],[-1.728084,43.206429,247.999],[-1.728016,43.206431,247.315],[-1.727954,43.206428,246.383],[-1.727877,43.206435,245.529],[-1.72781,43.206435,244.688],[-1.727743,43.206427,243.142],[-1.727675,43.206404,241.03],[-1.727617,43.206371,239.186],[-1.727577,43.206324,237.26],[-1.727535,43.206281,235.626],[-1.727497,43.206238,234.208],[-1.727524,43.206188,233.687],[-1.727547,43.206141,232.843],[-1.727599,43.206113,232.499],[-1.727646,43.206081,231.557],[-1.727689,43.206044,230.483],[-1.727739,43.206006,229.252],[-1.727776,43.205964,227.796],[-1.727834,43.205949,226.964],[-1.727896,43.205937,226.221],[-1.727948,43.205912,225.041],[-1.728018,43.205894,223.805],[-1.728091,43.205882,223.008],[-1.728156,43.205865,222.131],[-1.728223,43.20584,220.717],[-1.728286,43.205825,219.973],[-1.728348,43.205828,219.871],[-1.728376,43.205785,218.587],[-1.728403,43.205743,217.366],[-1.728341,43.20575,217.34],[-1.728271,43.205757,217.728],[-1.728204,43.205747,217.553],[-1.728132,43.205737,217.404],[-1.728054,43.205749,218.014],[-1.727981,43.205776,219.408],[-1.727913,43.205773,219.764],[-1.72784,43.205761,219.75],[-1.727778,43.205764,220.386],[-1.727706,43.205767,220.894],[-1.727638,43.205767,221.19],[-1.727573,43.20577,221.679],[-1.727511,43.205777,222.163],[-1.727449,43.205789,222.531],[-1.727379,43.205804,222.831],[-1.727304,43.205812,222.861],[-1.727244,43.205824,222.907],[-1.727192,43.205854,223.308],[-1.72712,43.205879,223.222],[-1.727052,43.205896,222.878],[-1.726985,43.205904,222.214],[-1.72693,43.205927,221.732],[-1.726878,43.205962,220.928],[-1.72683,43.205997,219.927],[-1.726805,43.206044,219.441],[-1.726813,43.206089,219.749],[-1.726808,43.206134,219.383],[-1.726786,43.206184,218.025],[-1.726754,43.206232,216.417],[-1.726747,43.206289,215.508],[-1.726772,43.206341,215.697],[-1.726789,43.206389,215.553],[-1.726784,43.206439,215.989],[-1.726787,43.206487,216.447],[-1.726757,43.206527,216.363],[-1.726685,43.206535,215.422],[-1.72662,43.206528,215.136],[-1.726558,43.206505,214.584],[-1.726486,43.20649,213.945],[-1.726418,43.206487,213.647],[-1.726343,43.206492,214.111],[-1.726268,43.206477,213.808],[-1.726205,43.206454,212.893],[-1.72614,43.206421,211.039],[-1.726083,43.206384,209.665],[-1.726041,43.206346,209.733],[-1.725996,43.206299,209.259],[-1.725943,43.206276,209.228],[-1.725881,43.206234,208.332],[-1.725819,43.206192,207.12],[-1.725776,43.206154,206.146],[-1.725746,43.206112,204.688],[-1.725711,43.206069,204.516],[-1.725659,43.206031,204.408],[-1.725594,43.206011,204.583],[-1.725561,43.205966,203.399],[-1.725508,43.205943,202.795],[-1.725451,43.205906,201.563],[-1.725394,43.205879,200.479],[-1.725312,43.205872,200.088],[-1.725259,43.205847,199.082],[-1.725194,43.205832,199.58],[-1.725136,43.205809,200.144],[-1.725104,43.205761,199.505],[-1.725062,43.205728,199.315],[-1.725027,43.20569,198.608],[-1.724992,43.205637,197.543],[-1.72496,43.205585,196.939],[-1.724948,43.205535,196.025],[-1.724925,43.205487,195.853],[-1.72488,43.20544,196.249],[-1.72489,43.20539,195.248],[-1.724913,43.205342,193.912],[-1.724945,43.2053,192.57],[-1.724973,43.205247,191.169],[-1.724986,43.205197,189.904],[-1.725011,43.205147,188.724],[-1.725026,43.205097,187.808],[-1.725046,43.20504,186.825],[-1.725054,43.204993,185.971],[-1.725057,43.204936,185.267],[-1.72506,43.204883,184.575],[-1.725063,43.204828,183.821],[-1.725073,43.204776,183.21],[-1.725065,43.204716,182.424],[-1.725065,43.204663,181.532],[-1.725062,43.204615,180.729],[-1.725054,43.204567,179.8],[-1.725076,43.20452,179.32],[-1.725084,43.204473,178.708],[-1.725092,43.20442,177.681],[-1.725099,43.204373,176.377],[-1.725096,43.204325,174.813],[-1.725099,43.20428,173.651],[-1.725104,43.204232,172.347],[-1.725114,43.204172,170.826],[-1.725117,43.204119,169.96],[-1.725114,43.204062,168.848],[-1.725121,43.204017,168.259],[-1.725113,43.203952,166.803],[-1.725125,43.203905,166.323],[-1.725138,43.203858,165.808],[-1.725156,43.203808,165.324],[-1.725174,43.203756,164.66],[-1.725191,43.203708,164.056],[-1.725206,43.203661,163.414],[-1.725229,43.203616,162.98],[-1.725242,43.203563,161.829],[-1.725245,43.203516,160.623],[-1.725265,43.203464,159.521],[-1.725293,43.203417,158.736],[-1.725313,43.203365,157.417],[-1.725376,43.203333,157.418],[-1.725441,43.203326,158.108],[-1.725498,43.203294,157.592],[-1.725571,43.203281,157.848],[-1.725628,43.203253,157.154],[-1.725686,43.203211,155.772],[-1.725751,43.203188,155.138],[-1.725814,43.203166,154.627],[-1.725882,43.203134,153.761],[-1.725942,43.203114,153.219],[-1.726007,43.203092,152.786],[-1.726065,43.203067,152.16],[-1.726127,43.203044,151.826],[-1.726185,43.203022,151.408],[-1.726127,43.202997,150.647],[-1.726065,43.202979,149.793],[-1.726003,43.202964,148.979],[-1.725943,43.202942,147.937],[-1.725895,43.202912,146.823],[-1.725835,43.202887,145.812],[-1.725777,43.202867,144.786],[-1.725715,43.202857,143.864],[-1.72564,43.202842,142.783],[-1.725592,43.202814,141.425],[-1.725535,43.202782,140.017],[-1.725478,43.202752,139.308],[-1.725416,43.202722,138.637],[-1.725408,43.202677,137.843],[-1.725403,43.202624,137.019],[-1.725358,43.202586,136.337],[-1.725308,43.202613,136.733],[-1.725243,43.202626,136.662],[-1.725183,43.202644,136.696],[-1.725105,43.202651,136.354],[-1.725042,43.202668,136.227],[-1.72498,43.202666,135.968],[-1.724908,43.202674,135.714],[-1.72484,43.202674,135.408],[-1.724775,43.202691,135.361],[-1.72471,43.202718,135.327],[-1.724648,43.20274,135.433],[-1.724585,43.202753,135.371],[-1.724525,43.202765,135.257],[-1.724463,43.202775,135.046],[-1.724405,43.20279,135.12],[-1.724335,43.202803,134.998],[-1.72427,43.202813,134.837],[-1.72421,43.202831,134.849],[-1.72415,43.202854,135.113],[-1.724083,43.202869,135.108],[-1.724023,43.202887,135.262],[-1.723938,43.202897,134.928],[-1.723858,43.202905,134.644],[-1.72378,43.202907,134.462],[-1.723707,43.202907,134.248],[-1.723629,43.202905,133.957],[-1.723547,43.202905,133.811],[-1.72348,43.202903,133.889],[-1.723415,43.202895,133.764],[-1.72335,43.202885,133.506],[-1.723285,43.202863,133.216],[-1.723213,43.202868,133.308],[-1.723146,43.202848,133.035],[-1.723086,43.202825,132.711],[-1.723023,43.202795,132.267],[-1.722965,43.202778,132.065],[-1.722855,43.202773,132.031],[-1.722758,43.20275,132.14],[-1.722683,43.202777,132.044],[-1.722621,43.202824,132.562],[-1.722556,43.202846,132.788],[-1.722503,43.202869,133.024],[-1.722448,43.202894,133.126],[-1.722383,43.202902,132.908],[-1.722298,43.20289,132.567],[-1.722235,43.202895,132.383],[-1.722163,43.202895,132.339],[-1.72209,43.202895,132.387],[-1.722023,43.20289,132.363],[-1.721961,43.202882,132.442],[-1.721888,43.20287,132.286],[-1.721808,43.202857,131.934],[-1.721738,43.20286,131.858],[-1.721676,43.202863,131.652],[-1.721598,43.202868,131.717],[-1.721536,43.202861,131.608],[-1.721471,43.202853,131.584],[-1.721401,43.202861,131.63],[-1.721329,43.202868,131.796],[-1.721267,43.202898,131.964],[-1.721202,43.202915,132.07],[-1.721135,43.202933,132.099],[-1.721057,43.202941,132.263],[-1.720989,43.202953,132.541],[-1.720917,43.202973,132.611],[-1.720845,43.202995,132.621],[-1.720783,43.203022,132.603],[-1.72073,43.203052,132.108],[-1.720667,43.203065,132.58],[-1.720594,43.203075,133.076],[-1.720529,43.203085,133.582],[-1.720466,43.203082,133.36],[-1.720403,43.203087,133.556],[-1.720333,43.203089,133.655],[-1.720275,43.203064,132.499],[-1.720212,43.203094,133.547],[-1.720145,43.203119,134.355],[-1.720088,43.203154,135.407],[-1.720018,43.203194,136.617],[-1.719931,43.203214,136.708],[-1.719866,43.203217,136.244],[-1.719793,43.203219,135.69],[-1.719726,43.203209,134.846],[-1.719661,43.203217,134.734],[-1.719593,43.203225,134.54],[-1.719523,43.203242,134.439],[-1.719458,43.203249,134.213],[-1.719391,43.203269,134.081],[-1.719329,43.203281,133.785],[-1.719257,43.203296,133.289],[-1.719207,43.203336,132.517],[-1.719169,43.203374,132.208],[-1.719151,43.203424,132.337],[-1.719119,43.203466,132.353],[-1.719092,43.203513,132.479],[-1.719055,43.203558,132.417],[-1.719008,43.203593,132.483],[-1.718963,43.203625,132.752],[-1.718898,43.203627,132.696],[-1.718825,43.203604,132.414],[-1.718753,43.203592,132.867],[-1.718691,43.203577,133.181],[-1.718613,43.203574,133.619],[-1.718551,43.203577,133.408],[-1.718468,43.203575,133.265],[-1.718393,43.203573,132.961],[-1.718318,43.203568,132.667],[-1.718255,43.203548,132.315],[-1.718188,43.203553,132.211],[-1.71812,43.203573,132.15],[-1.71806,43.20359,131.984],[-1.718007,43.203615,131.422],[-1.717945,43.203635,131.419],[-1.71789,43.203658,131.609],[-1.717825,43.203666,131.119],[-1.717762,43.203693,131.708],[-1.717692,43.203718,132.15],[-1.717627,43.203733,132.126],[-1.717567,43.203748,132.142],[-1.717497,43.203771,132.58],[-1.717434,43.203803,133.246],[-1.717369,43.203828,133.495],[-1.717279,43.203838,132.539],[-1.717197,43.203853,131.967],[-1.717132,43.203875,132.028],[-1.717069,43.203885,131.889],[-1.717022,43.203917,133.017],[-1.716967,43.203939,133.708],[-1.716902,43.203956,133.791],[-1.716819,43.203984,133.787],[-1.716751,43.204012,133.843],[-1.716679,43.204057,134.591],[-1.716612,43.204085,134.527],[-1.716534,43.204103,133.816],[-1.716459,43.204128,133.35],[-1.716401,43.204148,132.718],[-1.716339,43.204176,133.111],[-1.716269,43.204189,133.221],[-1.716209,43.204211,134.003],[-1.716134,43.204223,133.908],[-1.716059,43.20423,133.44],[-1.716007,43.204257,134.476],[-1.715939,43.204279,134.852],[-1.715881,43.204294,134.95],[-1.715809,43.204317,135.586],[-1.715746,43.204337,136.145],[-1.715673,43.204347,135.899],[-1.7156,43.204349,135.137],[-1.715525,43.204344,134.069],[-1.715435,43.204349,133.204],[-1.715352,43.204371,133.424],[-1.715274,43.204386,133.208],[-1.715209,43.204406,133.385],[-1.715139,43.204419,132.911],[-1.715052,43.204426,132.027],[-1.714989,43.204431,131.475],[-1.714924,43.204428,130.431],[-1.714844,43.204445,129.83],[-1.714776,43.204452,129.274],[-1.714688,43.204457,128.192],[-1.714641,43.204489,128.959],[-1.714583,43.204521,129.303],[-1.714523,43.204553,129.523],[-1.714458,43.204583,129.308],[-1.714413,43.204615,129.574],[-1.71437,43.204668,130.26],[-1.71434,43.204713,130.746],[-1.714287,43.204748,130.514],[-1.714242,43.204791,130.84],[-1.714207,43.204833,131.339],[-1.714162,43.204875,131.473],[-1.714112,43.204902,130.971],[-1.714045,43.204935,129.914],[-1.71399,43.204965,128.954],[-1.71393,43.205002,127.609],[-1.71386,43.205034,127.108],[-1.713773,43.205066,126.75],[-1.713693,43.205099,126.216],[-1.713616,43.205134,125.542],[-1.713539,43.205161,124.94],[-1.713486,43.205184,124.626],[-1.713441,43.205222,124.585],[-1.713369,43.205257,123.649],[-1.713311,43.205302,123.517],[-1.713248,43.205339,123.647],[-1.7132,43.205376,123.629],[-1.713148,43.205423,123.521],[-1.7131,43.205466,123.008],[-1.713053,43.205514,122.433],[-1.71301,43.205552,122.169],[-1.712992,43.205595,122.945],[-1.71293,43.205628,122.493],[-1.712902,43.205676,122.779],[-1.712875,43.205726,122.988],[-1.712878,43.205783,124.012],[-1.71287,43.20583,124.64],[-1.712862,43.205885,126.322],[-1.712849,43.205933,127.662],[-1.712844,43.205985,129.308],[-1.712809,43.206033,129.208],[-1.712791,43.20608,129.841],[-1.712786,43.206137,132.047],[-1.712768,43.206184,133.753],[-1.7127,43.206192,130.721],[-1.712643,43.20615,125.997],[-1.712583,43.20621,125.546],[-1.71259,43.206268,128.32],[-1.712562,43.206318,128.518],[-1.712517,43.206366,127.494],[-1.712475,43.206409,127.757],[-1.712442,43.206449,129.322],[-1.712387,43.206486,129.508],[-1.71232,43.206513,128.288],[-1.71226,43.20654,126.974],[-1.712212,43.206582,126.72],[-1.712169,43.206625,127.168],[-1.712119,43.20667,126.714],[-1.712074,43.206702,126.783],[-1.712021,43.206729,125.997],[-1.711959,43.206766,125.085],[-1.711901,43.206786,124.447],[-1.711844,43.206813,124.129],[-1.711797,43.206846,124.021],[-1.711737,43.206871,122.808],[-1.711689,43.206904,122.063],[-1.711642,43.206934,121.419],[-1.711595,43.206967,121.115],[-1.71153,43.206992,120.393],[-1.711467,43.207,119.359],[-1.711397,43.20701,118.368],[-1.711352,43.206977,117.512],[-1.711284,43.206969,117.36],[-1.711217,43.206966,117.263],[-1.711149,43.206963,117.244],[-1.711071,43.206971,117.218],[-1.711141,43.206956,117.108],[-1.711209,43.206971,117.355],[-1.711269,43.206983,117.571],[-1.711336,43.207011,118.127],[-1.711409,43.207019,118.715],[-1.711439,43.207071,120.111],[-1.711457,43.207114,121.18],[-1.711409,43.207149,121.034],[-1.711371,43.207186,121.232],[-1.711338,43.207228,121.892],[-1.711308,43.20727,123.573],[-1.711256,43.207307,124.42],[-1.711213,43.20735,125.408],[-1.711161,43.207382,125.428],[-1.711109,43.207414,125.284],[-1.711049,43.207447,124.95],[-1.710994,43.207482,124.698],[-1.710947,43.207515,125.154],[-1.710895,43.207547,126.183],[-1.710835,43.207565,125.757],[-1.710782,43.207595,126.825],[-1.710727,43.207618,127.282],[-1.710677,43.207651,128.043],[-1.710612,43.207683,128.117],[-1.710544,43.20769,126.608],[-1.710489,43.207715,126.347],[-1.710424,43.207727,125.043],[-1.710357,43.207754,123.999],[-1.710312,43.207791,124.257],[-1.710244,43.207819,124.523],[-1.710186,43.207854,125.512],[-1.710121,43.207862,124.066],[-1.710063,43.20789,123.814],[-1.710011,43.207918,123.552],[-1.709951,43.207951,123.353],[-1.709914,43.207989,123.708],[-1.709861,43.208026,123.108],[-1.709819,43.208064,122.674],[-1.709762,43.208106,122.25],[-1.709704,43.208144,121.626],[-1.709654,43.208184,121.834],[-1.709607,43.208214,121.21],[-1.709569,43.208259,120.949],[-1.709562,43.208312,121.853],[-1.709547,43.208364,122.351],[-1.709517,43.208407,121.886],[-1.709502,43.208454,122.16],[-1.709457,43.208507,121.126],[-1.709415,43.208549,120.708],[-1.709365,43.208584,120.217],[-1.709337,43.208629,120.543],[-1.709315,43.208677,121.329],[-1.709288,43.208719,121.727],[-1.709258,43.208762,122.023],[-1.709225,43.208805,122.042],[-1.709202,43.208847,122.336],[-1.709172,43.2089,122.674],[-1.709142,43.208955,123.472],[-1.709124,43.209003,124.313],[-1.709112,43.209051,125.414],[-1.709089,43.209096,126.108],[-1.709074,43.209151,127.286],[-1.709041,43.209198,127.992],[-1.708998,43.209236,128.068],[-1.70896,43.209289,128.746],[-1.708918,43.209331,128.762],[-1.708871,43.209369,128.471],[-1.708834,43.209419,128.995],[-1.708806,43.209464,129.623],[-1.708751,43.209497,128.946],[-1.708694,43.209544,128.588],[-1.708646,43.209587,128.216],[-1.708609,43.209624,128.008],[-1.708576,43.209674,128.543],[-1.708524,43.209727,127.999],[-1.708491,43.20977,128.785],[-1.708448,43.209807,128.733],[-1.708413,43.20985,129.429],[-1.708363,43.209883,128.858],[-1.708315,43.209928,129.082],[-1.708278,43.209968,129.18],[-1.70824,43.210013,128.971],[-1.708183,43.21005,127.141],[-1.708135,43.210092,126.215],[-1.708082,43.210124,124.408],[-1.708049,43.210164,124.476],[-1.708007,43.210197,124.232],[-1.70796,43.210244,123.528],[-1.707917,43.210281,122.126],[-1.707867,43.210319,119.862],[-1.707787,43.210326,115.511],[-1.707807,43.210456,119.325],[-1.707822,43.210518,121.213],[-1.707789,43.210458,118.411],[-1.707767,43.210345,115.521],[-1.707704,43.210353,115.603],[-1.707662,43.21039,115.908],[-1.707705,43.21048,117.41],[-1.707863,43.210565,124.076],[-1.707871,43.210618,126.052],[-1.707864,43.210668,127.53],[-1.707856,43.210713,128.726],[-1.707834,43.210756,129.825],[-1.707771,43.210731,127.539],[-1.707709,43.210726,126.617],[-1.707644,43.210721,125.765],[-1.707589,43.210689,123.368],[-1.707586,43.210639,120.514],[-1.707574,43.210591,117.608],[-1.707524,43.210521,114.735],[-1.707524,43.210584,116.241],[-1.707577,43.210547,115.747],[-1.707622,43.210515,116.445],[-1.707622,43.210568,117.371],[-1.707629,43.210615,119.95],[-1.707656,43.21066,122.794],[-1.707656,43.210707,125.182],[-1.707746,43.210772,129.186],[-1.707654,43.210779,128.86],[-1.707586,43.210789,128.826],[-1.707523,43.210787,128.308],[-1.70746,43.210789,127.817],[-1.707392,43.210741,124.243],[-1.707332,43.210806,127.159],[-1.707289,43.210844,128.747],[-1.707216,43.210871,129.383],[-1.707153,43.210901,129.982],[-1.707088,43.210928,130.226],[-1.707031,43.210963,131.344],[-1.706974,43.210983,131.314],[-1.706919,43.211015,132.054],[-1.706856,43.21104,131.509],[-1.706818,43.211093,133.408],[-1.706771,43.211125,133.66],[-1.706711,43.211147,132.986],[-1.706666,43.211189,134.022],[-1.706619,43.211222,134.12],[-1.706569,43.211255,133.946],[-1.706537,43.211297,135.115],[-1.706367,43.211435,135.139],[-1.706325,43.21149,135.647],[-1.706267,43.21153,134.332],[-1.706224,43.211565,133.692],[-1.706196,43.211612,134.311],[-1.706184,43.21166,135.908],[-1.706197,43.211707,138.192],[-1.706212,43.211757,140.288],[-1.706224,43.21181,142.224],[-1.706234,43.211858,143.822],[-1.706241,43.211903,145.228],[-1.706198,43.211938,144.617],[-1.706136,43.21197,144.671],[-1.706078,43.211993,145.129],[-1.706013,43.211991,144.211],[-1.705945,43.212018,145.021],[-1.705887,43.212036,145.103],[-1.70583,43.212059,145.308],[-1.705753,43.212074,143.56],[-1.70569,43.212109,143.676],[-1.705637,43.212142,144.312],[-1.705587,43.21217,145.03],[-1.705517,43.212207,145.486],[-1.705457,43.212225,144.375],[-1.70541,43.212255,144.499],[-1.70537,43.212302,146.157],[-1.705308,43.212327,145.928],[-1.705253,43.212369,147.189],[-1.705203,43.212412,148.717],[-1.705156,43.21245,150.208],[-1.705104,43.212478,151.091],[-1.705042,43.212506,151.617],[-1.70498,43.212534,151.343],[-1.704942,43.212576,152.291],[-1.704882,43.212599,151.187],[-1.704832,43.212631,150.746],[-1.704787,43.212664,150.34],[-1.704749,43.212709,150.528],[-1.704721,43.212756,151.014],[-1.704683,43.212799,149.754],[-1.704658,43.212842,148.909],[-1.704648,43.212895,149.408],[-1.704641,43.212943,149.93],[-1.704618,43.212995,148.726],[-1.704588,43.213038,146.222],[-1.704546,43.21308,142.26],[-1.704499,43.213128,137.726],[-1.704451,43.213165,133.145],[-1.704449,43.213215,133.999],[-1.704417,43.21326,132.687],[-1.704399,43.213313,132.692],[-1.704356,43.213361,131.773],[-1.704314,43.213408,131.52],[-1.704306,43.213458,133.808],[-1.704306,43.213513,136.728],[-1.704318,43.21356,139.844],[-1.704348,43.21361,143.84],[-1.704358,43.213662,143.728],[-1.704356,43.213712,143.184],[-1.704348,43.213765,142.253],[-1.704351,43.213817,141.747],[-1.704343,43.213862,140.945],[-1.704325,43.21391,139.682],[-1.704317,43.213967,138.543],[-1.704344,43.214015,139.117],[-1.704327,43.214067,137.708],[-1.704279,43.2141,135.157],[-1.704251,43.214148,133.213],[-1.704218,43.214191,132.399],[-1.704168,43.214228,131.347],[-1.704115,43.21426,129.653],[-1.704087,43.214308,129.632],[-1.704074,43.214365,130.816],[-1.704046,43.214412,130.644],[-1.704021,43.214459,129.973],[-1.704023,43.214512,129.485],[-1.70404,43.214555,129.713],[-1.704057,43.214603,129.908],[-1.70409,43.21465,130.636],[-1.704127,43.214692,131.262],[-1.704152,43.21474,132.058],[-1.70417,43.214788,134.036],[-1.704165,43.214836,135.212],[-1.704103,43.214864,133.611],[-1.704053,43.214892,132.365],[-1.703993,43.214915,130.433],[-1.703951,43.214953,129.629],[-1.703901,43.214988,128.3],[-1.703881,43.215043,128.92],[-1.703881,43.215088,130.108],[-1.703873,43.215133,131.091],[-1.703853,43.215185,131.477],[-1.703838,43.21524,132.143],[-1.703821,43.215288,132.121],[-1.703808,43.215343,131.377],[-1.703816,43.215395,131.876],[-1.703806,43.215447,131.25],[-1.703808,43.215492,131.348],[-1.703821,43.215549,132.119],[-1.703821,43.215596,130.509],[-1.703804,43.215644,127.719],[-1.703827,43.215689,127.108],[-1.703859,43.215731,127.01],[-1.703894,43.215771,127.096],[-1.703942,43.215801,128.132],[-1.704002,43.215824,130.16],[-1.704022,43.215874,129.836],[-1.704035,43.215919,129.435],[-1.704045,43.215974,128.549],[-1.704055,43.216022,127.957],[-1.704095,43.216067,128.766],[-1.704115,43.216125,128.829],[-1.704113,43.216172,129.421],[-1.704153,43.216212,132.108],[-1.704201,43.216245,135.285],[-1.704233,43.216293,137.421],[-1.704261,43.216338,139.037],[-1.704259,43.216391,139.485],[-1.704251,43.216443,141.091],[-1.704258,43.216501,143.35],[-1.704228,43.216544,143.644],[-1.7042,43.216589,143.942],[-1.704145,43.216621,142.391],[-1.704098,43.216658,140.881],[-1.704038,43.216686,138.419],[-1.703988,43.216728,137.508],[-1.703941,43.216765,136.748],[-1.703896,43.216797,135.914],[-1.703848,43.216827,134.86],[-1.703798,43.21686,133.668],[-1.703741,43.216898,132.084],[-1.703706,43.216945,131.813],[-1.703684,43.216988,130.887],[-1.703629,43.217031,128.255],[-1.703589,43.217069,127.039],[-1.703561,43.217117,126.601],[-1.703576,43.217162,127.821],[-1.703568,43.217207,128.108],[-1.703565,43.217254,127.392],[-1.703578,43.217302,126.438],[-1.70361,43.217347,125.974],[-1.703667,43.21738,126.152],[-1.703714,43.21742,125.348],[-1.703759,43.217523,122.637],[-1.703742,43.217571,123.551],[-1.703717,43.217614,124.389],[-1.703682,43.217576,123.322],[-1.703617,43.217559,122.562],[-1.703537,43.217551,122.208],[-1.703462,43.217541,121.808],[-1.703385,43.217538,121.661],[-1.703317,43.217548,122.287],[-1.703255,43.217566,124.013],[-1.703193,43.217563,125.061],[-1.703141,43.217531,124.337],[-1.703066,43.217521,125.016],[-1.703009,43.217493,125.62],[-1.702936,43.217486,128.278],[-1.702889,43.217446,129.711],[-1.702867,43.217403,130.321],[-1.702897,43.21735,128.903],[-1.702859,43.217312,130.208],[-1.702811,43.217272,131.99],[-1.702758,43.217242,133.266],[-1.702753,43.217195,132.682],[-1.702751,43.217148,131.67],[-1.702713,43.217101,130.726],[-1.70266,43.217134,131.865],[-1.702665,43.217182,132.979],[-1.70267,43.21723,133.827],[-1.702667,43.217277,134.273],[-1.702655,43.21733,134.885],[-1.702667,43.21738,135.013],[-1.702675,43.217432,135.308],[-1.702613,43.21755,138.796],[-1.702606,43.217603,140.752],[-1.702599,43.21765,142.448],[-1.702584,43.217705,144.676],[-1.702567,43.21776,146.922],[-1.702565,43.217812,148.481],[-1.702573,43.217862,149.485],[-1.70256,43.217907,150.623],[-1.702542,43.217959,151.974],[-1.702542,43.218007,153.056],[-1.702547,43.218052,153.921],[-1.702539,43.21811,155.408],[-1.702537,43.218162,156.736],[-1.702527,43.218209,157.962],[-1.702512,43.218254,159.078],[-1.7025,43.218306,160.386],[-1.702483,43.218353,161.332],[-1.70248,43.218401,162.581],[-1.702475,43.218451,163.765],[-1.70247,43.218501,165.083],[-1.702468,43.218546,166.215],[-1.702458,43.218591,167.365],[-1.70245,43.218638,168.611],[-1.702445,43.218683,169.908],[-1.702422,43.218726,171.11],[-1.702389,43.218773,172.576],[-1.702347,43.218806,173.462],[-1.702332,43.218853,174.92],[-1.702305,43.218895,176.296],[-1.702268,43.218938,177.485],[-1.70224,43.218985,178.879],[-1.702215,43.219027,180.067],[-1.702203,43.219074,181.369],[-1.702186,43.219127,182.704],[-1.702161,43.219172,183.924],[-1.702148,43.219222,184.908],[-1.70213,43.219265,185.855],[-1.702097,43.219303,186.531],[-1.70206,43.219345,187.397],[-1.702042,43.219388,188.175],[-1.702039,43.21944,189.261],[-1.702029,43.219507,190.49],[-1.702019,43.219552,191.264],[-1.702001,43.219595,191.992],[-1.701953,43.21963,192.429],[-1.701916,43.219668,193.0],[-1.701889,43.219718,193.92],[-1.701866,43.219768,194.808],[-1.701818,43.219821,195.621],[-1.701793,43.219866,196.337],[-1.701778,43.219926,197.253],[-1.70179,43.219971,198.071],[-1.701762,43.220016,198.687],[-1.701754,43.220066,199.446],[-1.701744,43.220123,200.45],[-1.701731,43.220175,201.268],[-1.701709,43.220225,202.165],[-1.701682,43.220275,203.068],[-1.701647,43.220313,203.214],[-1.701622,43.220366,203.408],[-1.701595,43.220414,203.685],[-1.701587,43.220461,203.861],[-1.701565,43.220514,204.017],[-1.701552,43.220561,204.255],[-1.701534,43.220614,204.231],[-1.701524,43.220664,204.22],[-1.701511,43.220709,204.184],[-1.701493,43.220762,204.062],[-1.701465,43.220815,203.824],[-1.701447,43.220868,203.804],[-1.701417,43.22092,203.614],[-1.701387,43.220973,203.508],[-1.701374,43.22103,203.581],[-1.701349,43.221088,203.267],[-1.701337,43.221135,203.093],[-1.701327,43.221187,202.861],[-1.701329,43.221235,202.777],[-1.701321,43.221283,202.566],[-1.701304,43.221331,202.03],[-1.701289,43.221378,201.558],[-1.701282,43.221445,201.155],[-1.701282,43.221507,200.907],[-1.70129,43.221552,200.917],[-1.701287,43.221604,200.708],[-1.701299,43.221654,200.844],[-1.701311,43.221706,200.64],[-1.701328,43.221766,200.426],[-1.70135,43.221819,200.494],[-1.701373,43.221866,200.43],[-1.701403,43.221909,200.629],[-1.701445,43.221952,200.953],[-1.701488,43.221997,201.071],[-1.701531,43.222044,201.114],[-1.701573,43.222092,201.454],[-1.701616,43.222147,201.609],[-1.701646,43.22219,201.808],[-1.701693,43.222242,202.11],[-1.701716,43.222285,201.636],[-1.701766,43.222325,201.862],[-1.701816,43.222355,202.34],[-1.701851,43.222405,202.236],[-1.701886,43.222467,202.155],[-1.701923,43.222524,202.099],[-1.701956,43.222571,201.977],[-1.702003,43.222623,201.891],[-1.70203,43.222671,201.581],[-1.702068,43.222711,201.719],[-1.702101,43.222763,201.608],[-1.702144,43.222813,201.748],[-1.702161,43.222866,201.074],[-1.702148,43.222911,199.96],[-1.702151,43.222969,198.978],[-1.702153,43.223016,198.014],[-1.702166,43.223061,197.493],[-1.702178,43.223123,197.317],[-1.702181,43.223171,197.215],[-1.702184,43.223226,197.114],[-1.702172,43.223281,196.854],[-1.702162,43.223341,196.609],[-1.702145,43.223399,196.508],[-1.702135,43.223447,196.53],[-1.70213,43.223495,196.526],[-1.702128,43.223558,196.672],[-1.702126,43.223611,196.74],[-1.702123,43.223664,197.336],[-1.702096,43.223709,197.855],[-1.702073,43.223752,198.299],[-1.702048,43.223795,198.617],[-1.702033,43.22384,199.198],[-1.702,43.223893,199.515],[-1.701967,43.223935,200.026],[-1.70191,43.223973,200.308],[-1.701857,43.224005,200.588],[-1.701825,43.224048,200.994],[-1.701788,43.224088,201.28],[-1.701766,43.224148,201.828],[-1.701758,43.224193,202.364],[-1.701731,43.224246,202.663],[-1.701726,43.224293,203.157],[-1.701723,43.224348,203.725],[-1.701705,43.224401,204.188],[-1.701683,43.224444,204.224],[-1.701663,43.224491,204.726],[-1.701661,43.224541,205.408],[-1.701648,43.224586,206.097],[-1.701625,43.224631,206.523],[-1.701613,43.224678,207.169],[-1.701596,43.224731,207.617],[-1.701589,43.224781,208.183],[-1.701601,43.224833,208.782],[-1.701596,43.224886,209.316],[-1.701599,43.224934,209.854],[-1.701531,43.224959,209.693],[-1.701489,43.224992,209.665],[-1.701452,43.225035,209.821],[-1.701385,43.225068,209.708],[-1.701332,43.225106,210.138],[-1.701262,43.225121,210.124],[-1.701189,43.225123,210.09],[-1.701127,43.225111,209.868],[-1.701077,43.225081,209.614],[-1.701019,43.225058,209.483],[-1.700959,43.225038,209.367],[-1.700886,43.225038,209.325],[-1.700823,43.225048,209.374],[-1.700763,43.225005,209.056],[-1.700683,43.224988,208.921],[-1.700625,43.224971,208.908],[-1.700543,43.224956,208.836],[-1.700461,43.224948,208.542],[-1.700394,43.22496,208.458],[-1.700337,43.224982,208.216],[-1.700292,43.225032,208.082],[-1.700297,43.225082,207.831],[-1.700319,43.225127,207.935],[-1.700342,43.225187,208.093],[-1.700365,43.225235,208.389],[-1.7003,43.22526,207.406],[-1.70025,43.225297,206.826],[-1.700202,43.225332,206.408],[-1.700152,43.225379,206.027],[-1.700095,43.225411,205.563],[-1.700035,43.225443,205.049],[-1.699962,43.225428,204.337],[-1.699907,43.225401,203.883],[-1.699855,43.225358,203.272],[-1.699827,43.225311,202.976]]}}]}