{"type":"FeatureCollection","features":[{"type":"Feature","properties":{"ruta_id":"98331545","nombre":"OKORO (1259 m) desde URKIAGA","blog_url":"https://www.rutasporelmonte.com/okoro-1259-m-desde-urkiaga/"},"geometry":{"type":"LineString","coordinates":[[-1.47014,43.035893,912.642],[-1.470147,43.035941,912.622],[-1.470155,43.035896,912.614],[-1.470217,43.035906,912.608],[-1.470275,43.035884,912.613],[-1.47034,43.035872,912.662],[-1.470417,43.035869,912.627],[-1.470479,43.035866,912.647],[-1.470542,43.035871,912.635],[-1.47061,43.035883,912.659],[-1.470678,43.035881,912.688],[-1.47074,43.035901,912.639],[-1.470812,43.035896,912.647],[-1.470887,43.035893,914.029],[-1.47095,43.035896,913.921],[-1.471017,43.035913,913.708],[-1.471082,43.035913,913.793],[-1.471149,43.03592,913.742],[-1.471211,43.035923,915.247],[-1.471283,43.035928,917.647],[-1.471331,43.03596,919.545],[-1.471389,43.03599,921.729],[-1.471447,43.036015,924.478],[-1.471492,43.036047,926.299],[-1.471519,43.036089,930.112],[-1.471506,43.036042,928.632],[-1.471574,43.036037,929.505],[-1.471691,43.036092,927.408],[-1.471748,43.036114,927.72],[-1.471811,43.036136,927.949],[-1.471856,43.036168,927.744],[-1.471886,43.036211,927.144],[-1.471914,43.036251,925.492],[-1.471916,43.036298,925.646],[-1.471994,43.036285,924.685],[-1.472062,43.03627,925.076],[-1.472122,43.036258,925.386],[-1.472182,43.036241,925.86],[-1.472252,43.036213,927.126],[-1.472315,43.036218,932.708],[-1.472425,43.036258,939.517],[-1.472502,43.036275,938.936],[-1.472559,43.036293,939.541],[-1.472631,43.036303,939.721],[-1.472679,43.036336,940.299],[-1.472722,43.036391,942.483],[-1.472765,43.036426,943.242],[-1.472813,43.036454,943.263],[-1.472866,43.036479,944.318],[-1.472929,43.036504,944.398],[-1.472976,43.036541,944.217],[-1.473013,43.036584,944.408],[-1.473063,43.036622,944.45],[-1.473143,43.036659,944.899],[-1.473208,43.036676,944.224],[-1.473296,43.036729,945.334],[-1.473324,43.036779,946.192],[-1.473362,43.036816,947.646],[-1.473419,43.036853,948.065],[-1.473496,43.036895,949.286],[-1.473571,43.036928,950.863],[-1.473638,43.036948,953.344],[-1.473706,43.036968,953.518],[-1.473769,43.037,954.308],[-1.473826,43.037023,955.445],[-1.473874,43.037051,957.074],[-1.473927,43.037078,958.219],[-1.473995,43.037116,959.749],[-1.474077,43.037149,960.377],[-1.474167,43.037161,960.561],[-1.474257,43.037154,961.23],[-1.474305,43.037182,960.261],[-1.474373,43.037204,959.736],[-1.474453,43.037202,957.917],[-1.474525,43.037197,956.118],[-1.474588,43.037184,955.508],[-1.474661,43.037181,954.942],[-1.474729,43.037173,954.181],[-1.474801,43.037163,954.496],[-1.474854,43.03714,954.746],[-1.474921,43.037123,954.634],[-1.474994,43.037128,958.238],[-1.475069,43.037126,959.657],[-1.475139,43.037118,960.948],[-1.475204,43.037101,962.929],[-1.475267,43.037099,964.9],[-1.475334,43.037101,966.52],[-1.475407,43.037093,968.908],[-1.47547,43.037073,970.091],[-1.475532,43.037055,971.76],[-1.475592,43.037027,971.985],[-1.47567,43.037019,971.515],[-1.475745,43.037022,971.773],[-1.475813,43.037012,973.057],[-1.475883,43.037017,976.736],[-1.475951,43.037024,978.967],[-1.476014,43.037022,984.141],[-1.476072,43.037042,986.581],[-1.476167,43.037069,988.309],[-1.476222,43.037097,989.408],[-1.47628,43.03713,989.273],[-1.476342,43.03716,989.672],[-1.476404,43.037178,990.337],[-1.476469,43.037205,990.537],[-1.476509,43.037245,991.325],[-1.476534,43.037288,991.169],[-1.476579,43.037328,990.288],[-1.476627,43.037368,989.639],[-1.476685,43.037395,988.136],[-1.476722,43.037438,987.417],[-1.476757,43.037476,986.818],[-1.476794,43.037519,986.708],[-1.476834,43.037562,986.852],[-1.476884,43.0376,986.851],[-1.476934,43.037633,985.936],[-1.476974,43.037678,986.426],[-1.477021,43.037715,986.854],[-1.477071,43.037745,987.058],[-1.477126,43.037767,988.247],[-1.477181,43.037789,990.298],[-1.477243,43.037814,992.334],[-1.477298,43.037842,993.155],[-1.477366,43.037862,993.51],[-1.477441,43.037877,994.108],[-1.477509,43.037894,994.192],[-1.477576,43.037897,994.111],[-1.477638,43.037904,994.276],[-1.47771,43.037902,994.816],[-1.477792,43.037875,995.374],[-1.477857,43.037883,997.518],[-1.477919,43.037865,999.077],[-1.477992,43.037863,999.378],[-1.478045,43.037836,999.447],[-1.478108,43.037809,1000.129],[-1.478171,43.037772,1000.021],[-1.478266,43.037732,999.308],[-1.478339,43.037715,999.183],[-1.478416,43.037703,999.572],[-1.478493,43.037693,1000.077],[-1.478543,43.037665,1000.397],[-1.478588,43.037632,1000.755],[-1.478646,43.0376,1002.559],[-1.478703,43.03757,1003.718],[-1.478756,43.037537,1004.269],[-1.478818,43.03751,1004.991],[-1.478891,43.037505,1006.381],[-1.478959,43.037498,1007.519],[-1.479021,43.037506,1009.508],[-1.479103,43.037521,1011.318],[-1.479173,43.037534,1012.127],[-1.479256,43.037546,1012.222],[-1.479333,43.037574,1011.582],[-1.479401,43.037594,1011.51],[-1.479458,43.037622,1011.564],[-1.479531,43.03765,1011.013],[-1.479599,43.037648,1009.944],[-1.479664,43.037658,1009.514],[-1.479726,43.037685,1009.254],[-1.479778,43.037713,1008.809],[-1.479841,43.037738,1007.608],[-1.479903,43.037763,1007.18],[-1.47996,43.037781,1006.889],[-1.480013,43.037806,1006.564],[-1.48009,43.037849,1005.944],[-1.480143,43.037876,1007.132],[-1.480195,43.037906,1007.346],[-1.480257,43.037929,1007.545],[-1.480327,43.037949,1008.666],[-1.48039,43.037969,1008.527],[-1.480472,43.037984,1009.368],[-1.480535,43.037994,1010.014],[-1.480607,43.037979,1010.708],[-1.48067,43.037974,1010.931],[-1.480748,43.037967,1011.17],[-1.480813,43.037944,1010.665],[-1.480873,43.037926,1009.975],[-1.480935,43.037888,1008.913],[-1.480997,43.037863,1007.727],[-1.481042,43.037831,1005.926],[-1.481082,43.037783,1005.017],[-1.481119,43.037746,1005.296],[-1.481157,43.037706,1004.331],[-1.48121,43.037664,1004.324],[-1.481223,43.037619,1005.308],[-1.481221,43.037569,1005.988],[-1.481224,43.037516,1006.237],[-1.481257,43.037471,1006.752],[-1.481324,43.037458,1008.232],[-1.481382,43.037488,1009.63],[-1.481444,43.0375,1010.784],[-1.481522,43.03753,1010.483],[-1.481612,43.037553,1010.564],[-1.481674,43.037568,1010.796],[-1.481736,43.037583,1012.131],[-1.481811,43.0376,1013.824],[-1.481903,43.037643,1015.908],[-1.481971,43.037678,1017.518],[-1.482039,43.037706,1019.477],[-1.482124,43.037729,1021.042],[-1.482191,43.037731,1022.062],[-1.482264,43.037743,1022.33],[-1.482319,43.037775,1022.744],[-1.482397,43.037838,1023.153],[-1.482459,43.037865,1022.924],[-1.482519,43.03788,1022.663],[-1.482577,43.037897,1021.244],[-1.482649,43.037917,1021.318],[-1.482716,43.03793,1021.608],[-1.482784,43.037955,1023.255],[-1.482827,43.03799,1023.674],[-1.482875,43.038032,1024.539],[-1.482922,43.038067,1024.779],[-1.48295,43.038107,1025.267],[-1.482993,43.038149,1025.471],[-1.48305,43.038171,1024.81],[-1.48311,43.038194,1024.771],[-1.483168,43.038217,1025.687],[-1.48323,43.038232,1026.542],[-1.483293,43.038242,1026.226],[-1.483366,43.038269,1026.808],[-1.483438,43.038276,1027.717],[-1.483501,43.038263,1029.296],[-1.483563,43.038286,1029.741],[-1.4836,43.038324,1030.091],[-1.483637,43.038361,1029.559],[-1.48368,43.038401,1029.843],[-1.483742,43.038421,1029.812],[-1.48379,43.038453,1029.413],[-1.483843,43.038491,1028.556],[-1.483893,43.038523,1028.059],[-1.483966,43.038528,1028.014],[-1.484033,43.038525,1027.408],[-1.484103,43.038537,1026.564],[-1.484175,43.03855,1025.493],[-1.484252,43.038543,1025.728],[-1.484302,43.038583,1024.918],[-1.48432,43.038626,1024.786],[-1.484365,43.038668,1027.13],[-1.484413,43.038696,1027.799],[-1.484475,43.038709,1027.28],[-1.48455,43.038717,1026.156],[-1.48462,43.038757,1025.759],[-1.484663,43.038802,1025.714],[-1.484706,43.038835,1026.308],[-1.484759,43.038868,1027.314],[-1.484802,43.038908,1029.193],[-1.484822,43.038951,1031.728],[-1.484847,43.038998,1034.768],[-1.484869,43.039051,1037.636],[-1.484911,43.039094,1039.73],[-1.484961,43.039122,1041.799],[-1.485016,43.039149,1044.46],[-1.485061,43.039199,1047.833],[-1.485096,43.039239,1048.523],[-1.485164,43.039256,1048.215],[-1.485216,43.039283,1048.608],[-1.485278,43.0393,1048.722],[-1.48533,43.039338,1049.511],[-1.485382,43.03937,1051.236],[-1.485417,43.039412,1053.526],[-1.485479,43.039435,1053.324],[-1.485541,43.03945,1054.238],[-1.485598,43.039472,1055.657],[-1.485645,43.039504,1055.998],[-1.485665,43.039547,1057.685],[-1.485663,43.03961,1054.789],[-1.485713,43.03964,1055.417],[-1.485753,43.039702,1054.308],[-1.48577,43.039759,1054.197],[-1.485778,43.039819,1053.376],[-1.4858,43.039874,1052.361],[-1.485832,43.039931,1051.231],[-1.485874,43.039964,1050.759],[-1.485926,43.040001,1051.333],[-1.485976,43.040039,1050.882],[-1.485989,43.040089,1051.853],[-1.486021,43.040131,1051.438],[-1.486063,43.040164,1049.97],[-1.486116,43.040187,1052.217],[-1.486168,43.04023,1054.808],[-1.486205,43.040273,1056.172],[-1.486262,43.040298,1058.491],[-1.486325,43.04033,1060.526],[-1.486355,43.040377,1061.426],[-1.486412,43.040409,1061.434],[-1.486474,43.040447,1061.268],[-1.486526,43.040482,1061.877],[-1.486563,43.04052,1063.618],[-1.486613,43.040548,1065.816],[-1.486668,43.040581,1067.876],[-1.486728,43.040613,1069.813],[-1.486776,43.040655,1072.108],[-1.486818,43.040698,1073.26],[-1.486835,43.04075,1073.329],[-1.486873,43.040793,1073.134],[-1.48693,43.040835,1070.924],[-1.486962,43.040878,1068.672],[-1.487007,43.040915,1069.036],[-1.487057,43.040942,1069.595],[-1.487099,43.040975,1071.236],[-1.487132,43.041015,1071.479],[-1.487165,43.041055,1070.805],[-1.487217,43.041087,1069.525],[-1.48728,43.04112,1069.008],[-1.487332,43.041158,1069.536],[-1.48738,43.041188,1071.235],[-1.487423,43.041221,1071.87],[-1.487441,43.041271,1072.92],[-1.487449,43.041323,1073.228],[-1.487479,43.04137,1074.642],[-1.487511,43.041412,1075.211],[-1.487551,43.04146,1076.052],[-1.487578,43.041505,1077.548],[-1.487578,43.041552,1079.561],[-1.487635,43.041582,1082.617],[-1.487673,43.04162,1083.308],[-1.487728,43.04165,1086.213],[-1.487791,43.041655,1087.312],[-1.487849,43.04167,1087.367],[-1.487866,43.041713,1087.817],[-1.487929,43.041693,1090.935],[-1.487996,43.041688,1092.429],[-1.488054,43.041703,1091.988],[-1.488112,43.041721,1091.729],[-1.488175,43.041731,1094.076],[-1.488248,43.041736,1097.19],[-1.488313,43.041736,1099.119],[-1.488378,43.041738,1099.408],[-1.488446,43.041743,1103.766],[-1.488501,43.04177,1104.775],[-1.488566,43.041782,1103.73],[-1.488643,43.041827,1105.09],[-1.48869,43.041872,1104.988],[-1.4888,43.041972,1105.312],[-1.488943,43.042112,1104.011],[-1.488998,43.042144,1103.292],[-1.489073,43.042169,1103.924],[-1.489153,43.042189,1104.104],[-1.489228,43.042206,1103.714],[-1.4893,43.042204,1103.008],[-1.489323,43.042247,1101.511],[-1.489375,43.042287,1101.89],[-1.489423,43.042332,1105.295],[-1.489466,43.042372,1107.715],[-1.489496,43.042419,1110.453],[-1.489548,43.042446,1113.957],[-1.48962,43.042466,1116.416],[-1.489687,43.042459,1117.537],[-1.489745,43.042482,1118.091],[-1.489803,43.042509,1118.781],[-1.489863,43.042541,1119.819],[-1.489933,43.042564,1121.008],[-1.489996,43.042579,1121.368],[-1.490064,43.042574,1122.217],[-1.490127,43.042564,1123.472],[-1.490185,43.042549,1124.152],[-1.490247,43.042544,1125.66],[-1.490312,43.042547,1125.914],[-1.490375,43.042542,1126.973],[-1.490448,43.042529,1128.054],[-1.490516,43.042526,1129.187],[-1.490606,43.042499,1131.642],[-1.490606,43.042499,1131.626],[-1.490606,43.042499,1131.608],[-1.490606,43.042499,1131.627],[-1.490649,43.042464,1133.916],[-1.490701,43.042436,1135.881],[-1.490771,43.042424,1136.971],[-1.490843,43.042419,1137.149],[-1.490908,43.042409,1138.793],[-1.490971,43.042399,1139.992],[-1.491029,43.042384,1141.063],[-1.491086,43.042361,1142.459],[-1.491134,43.042331,1144.103],[-1.491186,43.042306,1143.923],[-1.491248,43.042284,1144.508],[-1.491301,43.042256,1144.314],[-1.491343,43.042218,1145.713],[-1.491383,43.042181,1146.788],[-1.491425,43.042146,1147.638],[-1.491467,43.042111,1147.966],[-1.491499,43.042071,1147.91],[-1.491547,43.042033,1147.689],[-1.49159,43.041986,1149.02],[-1.491643,43.041954,1150.347],[-1.491695,43.041921,1150.729],[-1.491737,43.041881,1148.021],[-1.491792,43.041854,1149.608],[-1.491854,43.041816,1151.633],[-1.491921,43.041786,1152.842],[-1.491984,43.041764,1152.527],[-1.492037,43.041739,1153.157],[-1.492092,43.041709,1154.465],[-1.492149,43.041686,1155.839],[-1.492202,43.041663,1156.088],[-1.492254,43.041633,1156.599],[-1.492321,43.041613,1156.967],[-1.492368,43.041578,1157.581],[-1.492438,43.041551,1159.119],[-1.492486,43.041521,1159.308],[-1.492534,43.041484,1159.775],[-1.492587,43.041447,1159.054],[-1.492647,43.041425,1159.549],[-1.492702,43.041388,1159.479],[-1.492759,43.04136,1160.817],[-1.492836,43.041332,1161.231],[-1.492886,43.041299,1160.55],[-1.492943,43.041271,1161.051],[-1.493005,43.041246,1161.167],[-1.493053,43.041214,1160.781],[-1.493123,43.041182,1160.819],[-1.493175,43.041155,1160.708],[-1.493222,43.041125,1161.075],[-1.493277,43.041087,1161.444],[-1.493325,43.041127,1163.369],[-1.493347,43.041174,1162.339],[-1.493372,43.041222,1161.837],[-1.493392,43.041269,1162.171],[-1.493417,43.041316,1162.99],[-1.493455,43.041356,1162.841],[-1.493493,43.041403,1165.285],[-1.493523,43.041451,1164.589],[-1.493556,43.041496,1164.817],[-1.493593,43.041534,1165.408],[-1.493635,43.041574,1166.057],[-1.493662,43.041626,1165.356],[-1.493684,43.041671,1166.051],[-1.493696,43.041719,1166.271],[-1.493716,43.041762,1166.019],[-1.493744,43.041802,1166.263],[-1.493754,43.041854,1167.022],[-1.493764,43.041899,1169.693],[-1.493792,43.041946,1171.195],[-1.49382,43.041989,1172.849],[-1.493848,43.042034,1176.123],[-1.493878,43.042086,1176.608],[-1.493896,43.042131,1177.718],[-1.493899,43.042176,1177.227],[-1.493917,43.042224,1178.632],[-1.493937,43.042271,1178.942],[-1.49395,43.042318,1177.64],[-1.493973,43.042368,1178.744],[-1.494005,43.042413,1180.043],[-1.494035,43.042463,1180.054],[-1.494055,43.042506,1181.437],[-1.494082,43.042548,1182.149],[-1.494109,43.042593,1181.813],[-1.494127,43.042643,1181.208],[-1.494144,43.042688,1181.772],[-1.494136,43.042745,1182.781],[-1.494129,43.042798,1184.446],[-1.494116,43.042853,1185.376],[-1.494099,43.042898,1185.054],[-1.494074,43.042946,1186.848],[-1.494039,43.042994,1186.997],[-1.494016,43.043037,1186.678],[-1.493983,43.043084,1188.147],[-1.493953,43.043124,1189.429],[-1.493928,43.043166,1190.821],[-1.493901,43.043214,1190.608],[-1.493868,43.043257,1192.313],[-1.493846,43.043302,1194.232],[-1.493809,43.043349,1194.237],[-1.493776,43.043387,1194.537],[-1.493768,43.043434,1195.785],[-1.493776,43.043489,1198.079],[-1.493763,43.043536,1198.878],[-1.493758,43.043581,1199.569],[-1.493768,43.043634,1198.175],[-1.493771,43.043679,1196.328],[-1.493796,43.043727,1195.42],[-1.493813,43.043772,1195.308],[-1.493836,43.04382,1194.916],[-1.493861,43.043862,1195.315],[-1.493883,43.043909,1193.91],[-1.4939,43.043961,1191.64],[-1.493935,43.044009,1191.258],[-1.49397,43.044056,1191.562],[-1.494013,43.044099,1192.291],[-1.494043,43.044149,1192.052],[-1.494066,43.044202,1193.195],[-1.494104,43.044244,1192.949],[-1.494146,43.044291,1192.223],[-1.494183,43.044329,1191.508],[-1.494213,43.044371,1191.888],[-1.49424,43.044416,1191.997],[-1.494273,43.044456,1191.932],[-1.494296,43.044506,1192.472],[-1.494299,43.044551,1191.36],[-1.494299,43.044596,1190.434],[-1.494317,43.044648,1188.283],[-1.494329,43.044705,1186.064],[-1.494347,43.04475,1185.895],[-1.49435,43.044798,1185.849],[-1.494347,43.04485,1185.423],[-1.494357,43.044902,1184.708],[-1.494359,43.044949,1183.738],[-1.494354,43.044999,1182.467],[-1.494361,43.045056,1182.332],[-1.494346,43.045101,1182.462],[-1.494346,43.045151,1184.87],[-1.494353,43.045203,1182.564],[-1.494361,43.045255,1181.563],[-1.494354,43.045313,1181.094],[-1.494354,43.045361,1182.142],[-1.494362,43.045414,1180.122],[-1.494365,43.045467,1180.214],[-1.494362,43.045512,1180.508],[-1.494362,43.045565,1179.453],[-1.494359,43.045615,1178.272],[-1.494361,43.04567,1178.947],[-1.494359,43.045722,1178.087],[-1.494366,43.04577,1178.545],[-1.494381,43.045818,1178.679],[-1.494401,43.045866,1179.368],[-1.494406,43.045916,1178.569],[-1.494433,43.045968,1180.466],[-1.494455,43.046016,1181.129],[-1.494483,43.046058,1182.021],[-1.494508,43.046108,1181.708],[-1.494535,43.04615,1181.945],[-1.49456,43.046202,1182.274],[-1.494595,43.046242,1182.749],[-1.494633,43.046287,1183.179],[-1.494665,43.046335,1182.597],[-1.494698,43.04638,1182.461],[-1.494725,43.046422,1182.93],[-1.494757,43.046467,1183.861],[-1.49479,43.046512,1184.188],[-1.494825,43.046554,1184.724],[-1.494863,43.046594,1185.026],[-1.49491,43.046627,1186.808],[-1.494937,43.046672,1187.697],[-1.494962,43.046714,1189.756],[-1.494999,43.046754,1190.421],[-1.495044,43.046791,1191.321],[-1.495079,43.046833,1194.059],[-1.495111,43.046875,1195.923],[-1.495136,43.046922,1197.032],[-1.495159,43.046975,1198.033],[-1.495174,43.04702,1198.982],[-1.495204,43.047065,1199.743],[-1.495211,43.04711,1200.317],[-1.495234,43.047155,1200.408],[-1.495282,43.047195,1201.047],[-1.4953,43.047245,1201.826],[-1.495335,43.047292,1204.421],[-1.49534,43.047339,1207.071],[-1.495362,43.047389,1208.069],[-1.495377,43.047436,1210.153],[-1.4954,43.047478,1211.632],[-1.495443,43.047518,1212.573],[-1.495488,43.047558,1213.458],[-1.49551,43.04761,1213.752],[-1.495542,43.047653,1215.017],[-1.49557,43.047698,1216.708],[-1.495582,43.047745,1217.384],[-1.495595,43.047793,1218.423],[-1.495615,43.047836,1219.318],[-1.495628,43.047883,1219.398],[-1.495653,43.047926,1220.766],[-1.495685,43.047969,1222.31],[-1.495707,43.048014,1222.839],[-1.495745,43.048052,1223.43],[-1.495763,43.048097,1224.288],[-1.495773,43.04815,1224.924],[-1.495803,43.04819,1226.326],[-1.495826,43.048233,1226.708],[-1.495843,43.048276,1227.737],[-1.495865,43.048321,1228.276],[-1.495892,43.048364,1228.381],[-1.495915,43.048411,1228.561],[-1.495928,43.048459,1228.629],[-1.495945,43.048504,1229.783],[-1.495975,43.048547,1229.772],[-1.496,43.04859,1230.123],[-1.496017,43.048643,1229.349],[-1.496032,43.048691,1229.202],[-1.496054,43.048734,1229.222],[-1.496091,43.048779,1228.708],[-1.496101,43.048832,1229.133],[-1.496129,43.048877,1229.172],[-1.496156,43.048925,1229.367],[-1.496169,43.048973,1231.387],[-1.496166,43.049023,1232.365],[-1.496188,43.049068,1232.889],[-1.496191,43.049125,1231.478],[-1.496203,43.049172,1230.419],[-1.496211,43.049225,1229.766],[-1.496209,43.049277,1228.729],[-1.496204,43.049334,1227.721],[-1.496209,43.049379,1227.508],[-1.496222,43.049424,1227.035],[-1.496257,43.049462,1225.344],[-1.496304,43.049494,1223.869],[-1.496336,43.049534,1223.149],[-1.496366,43.049591,1223.747],[-1.496386,43.049644,1224.761],[-1.496423,43.049682,1223.26],[-1.496465,43.049742,1222.221],[-1.496507,43.049782,1223.072],[-1.496547,43.04984,1222.713],[-1.496595,43.049868,1222.814],[-1.496653,43.049905,1222.408],[-1.496721,43.049935,1222.666],[-1.496781,43.04997,1223.185],[-1.496848,43.049987,1222.38],[-1.496893,43.05002,1222.52],[-1.496946,43.050047,1222.358],[-1.497006,43.050072,1221.762],[-1.497078,43.050092,1221.881],[-1.497131,43.050117,1222.332],[-1.497189,43.050142,1221.725],[-1.497242,43.050165,1221.826],[-1.497295,43.050188,1222.708],[-1.49736,43.050211,1223.208],[-1.49742,43.050248,1223.051],[-1.49749,43.050271,1223.18],[-1.49756,43.050309,1222.685],[-1.497617,43.050339,1222.315],[-1.497662,43.050386,1221.243],[-1.497714,43.050423,1219.327],[-1.497784,43.050483,1216.076],[-1.497856,43.05052,1214.577],[-1.497916,43.050537,1213.074],[-1.497978,43.050544,1210.656],[-1.49804,43.050584,1208.021],[-1.498102,43.050594,1207.808],[-1.498132,43.050637,1206.336],[-1.498194,43.050664,1204.735],[-1.498257,43.050706,1203.34],[-1.498322,43.050738,1202.52],[-1.498389,43.050761,1201.118],[-1.498457,43.050776,1200.222],[-1.498517,43.050794,1197.351],[-1.498607,43.050811,1196.082],[-1.498662,43.050856,1195.296],[-1.49871,43.050901,1192.231],[-1.49878,43.050919,1189.024],[-1.498852,43.050961,1188.408],[-1.498902,43.050996,1187.368],[-1.498955,43.051021,1188.247],[-1.499012,43.051054,1189.282],[-1.499062,43.051086,1189.652],[-1.499134,43.051126,1189.74],[-1.499182,43.051166,1189.784],[-1.499264,43.051193,1189.233],[-1.499344,43.051216,1188.764],[-1.499401,43.051253,1188.455],[-1.499468,43.051281,1188.907],[-1.499535,43.051293,1188.217],[-1.499607,43.051296,1188.608],[-1.499669,43.051301,1188.954],[-1.499734,43.051316,1189.443],[-1.499811,43.051341,1188.858],[-1.499871,43.051359,1187.198],[-1.499933,43.051391,1185.036],[-1.5,43.051411,1183.88],[-1.500062,43.051428,1183.819],[-1.500129,43.051455,1184.33],[-1.500199,43.051478,1185.285],[-1.500256,43.0515,1185.289],[-1.500324,43.051507,1184.517],[-1.500391,43.051509,1185.008],[-1.500453,43.051501,1185.827],[-1.500526,43.051508,1186.176],[-1.500601,43.051495,1186.881],[-1.500663,43.051487,1188.251],[-1.500738,43.051475,1189.149],[-1.500801,43.051473,1189.063],[-1.500881,43.05148,1189.542],[-1.500951,43.051485,1190.933],[-1.501011,43.051495,1192.118],[-1.501086,43.051508,1192.298],[-1.501154,43.0515,1191.817],[-1.501216,43.051503,1191.808],[-1.501288,43.051503,1192.42],[-1.501353,43.05151,1193.299],[-1.501415,43.05151,1194.724],[-1.501485,43.051518,1195.354],[-1.50155,43.051518,1196.482],[-1.501625,43.051516,1197.296],[-1.5017,43.051516,1198.785],[-1.501773,43.051513,1199.596],[-1.501848,43.05151,1200.286],[-1.501915,43.051513,1201.16],[-1.501978,43.051503,1201.826],[-1.502043,43.051501,1202.308],[-1.502118,43.051503,1202.297],[-1.50219,43.05152,1202.876],[-1.502252,43.051528,1203.631],[-1.502319,43.05152,1203.371],[-1.502391,43.051523,1204.499],[-1.502451,43.051535,1205.823],[-1.502523,43.051532,1206.382],[-1.502585,43.051535,1207.533],[-1.502647,43.051535,1207.786],[-1.50272,43.051542,1208.96],[-1.502785,43.051539,1210.126],[-1.502853,43.051544,1210.408],[-1.502915,43.051544,1211.427],[-1.502982,43.051546,1211.846],[-1.50305,43.051541,1212.981],[-1.503105,43.051518,1213.981],[-1.503168,43.051496,1215.989],[-1.503235,43.051488,1215.653],[-1.503302,43.05147,1216.922],[-1.50336,43.051453,1217.813],[-1.503423,43.051455,1219.288],[-1.503486,43.051465,1221.624],[-1.503543,43.051433,1223.426],[-1.503593,43.051403,1224.908],[-1.503653,43.051386,1225.487],[-1.503721,43.051371,1226.886],[-1.503781,43.051386,1228.341],[-1.503849,43.051371,1228.881],[-1.503907,43.051386,1228.959],[-1.503969,43.051374,1231.153],[-1.504036,43.051384,1232.892],[-1.504104,43.051377,1235.073],[-1.504169,43.051377,1236.941],[-1.504236,43.051377,1239.381],[-1.504298,43.051354,1241.209],[-1.504356,43.051329,1243.108],[-1.504423,43.051316,1244.493],[-1.504485,43.051308,1245.862],[-1.504548,43.051301,1247.147],[-1.504615,43.051308,1248.797],[-1.504678,43.051306,1250.875],[-1.50474,43.051298,1251.829],[-1.50481,43.051291,1252.068],[-1.504877,43.051283,1253.079],[-1.504949,43.051278,1254.588],[-1.505014,43.051283,1256.224],[-1.505082,43.051276,1256.326],[-1.505149,43.051281,1257.108],[-1.505221,43.051279,1257.637],[-1.505289,43.051279,1257.956],[-1.505356,43.051274,1259.481],[-1.505423,43.051266,1259.471],[-1.505486,43.051261,1260.449],[-1.505553,43.051256,1260.593],[-1.505551,43.051204,1258.382],[-1.505506,43.051169,1259.283],[-1.505523,43.051122,1259.258],[-1.505456,43.05112,1257.052],[-1.505519,43.051112,1257.117],[-1.505532,43.051159,1256.408],[-1.50553,43.051211,1257.524],[-1.505542,43.051256,1257.463],[-1.505487,43.051281,1260.118],[-1.505422,43.051281,1258.838],[-1.50534,43.051269,1259.656],[-1.505263,43.051266,1259.42],[-1.505193,43.051264,1257.679],[-1.50512,43.051269,1255.32],[-1.505057,43.051282,1253.334],[-1.50499,43.051282,1252.355],[-1.504922,43.051282,1250.71],[-1.50484,43.051294,1249.008],[-1.50477,43.051291,1247.582],[-1.504692,43.051286,1246.921],[-1.504627,43.051283,1247.216],[-1.50457,43.051301,1245.846],[-1.504495,43.051306,1244.294],[-1.504427,43.051313,1242.058],[-1.504362,43.051313,1239.957],[-1.504289,43.05131,1238.338],[-1.504212,43.051325,1237.194],[-1.504147,43.05135,1235.757],[-1.5041,43.05138,1234.622],[-1.504048,43.051412,1233.208],[-1.503985,43.051419,1231.768],[-1.503917,43.051439,1229.967],[-1.503845,43.051439,1228.442],[-1.503798,43.051409,1225.692],[-1.50373,43.051397,1224.29],[-1.503667,43.051402,1222.694],[-1.503599,43.051417,1223.153],[-1.503541,43.051437,1222.634],[-1.503491,43.051477,1221.423],[-1.503428,43.05148,1219.983],[-1.503365,43.051467,1217.911],[-1.503295,43.051469,1213.908],[-1.503218,43.051469,1212.161],[-1.503141,43.051481,1212.13],[-1.503141,43.051481,1212.175],[-1.503076,43.051513,1210.765],[-1.503009,43.051533,1209.973],[-1.502941,43.051548,1208.147],[-1.502879,43.051556,1206.646],[-1.502816,43.051558,1205.757],[-1.502816,43.051558,1205.749],[-1.502751,43.051561,1204.502],[-1.502676,43.051564,1204.122],[-1.502613,43.051562,1203.608],[-1.502545,43.051557,1202.813],[-1.502477,43.051559,1202.722],[-1.502405,43.051549,1202.127],[-1.502342,43.051542,1200.297],[-1.502279,43.051545,1198.925],[-1.502204,43.051545,1198.819],[-1.502131,43.051533,1198.768],[-1.502066,43.05153,1197.719],[-1.501996,43.051537,1197.877],[-1.501929,43.051539,1197.061],[-1.501864,43.051534,1196.827],[-1.501794,43.051534,1195.708],[-1.501722,43.051542,1193.946],[-1.501655,43.051542,1192.795],[-1.501575,43.051534,1192.14],[-1.501497,43.051526,1191.87],[-1.501435,43.051518,1191.618],[-1.501362,43.051518,1191.152],[-1.501284,43.05152,1190.151],[-1.501202,43.051528,1189.182],[-1.501134,43.051523,1188.769],[-1.501059,43.051521,1188.704],[-1.500992,43.051518,1188.124],[-1.500915,43.051516,1187.808],[-1.50085,43.051513,1187.755],[-1.500772,43.051523,1187.124],[-1.50071,43.051523,1186.079],[-1.500637,43.051526,1185.039],[-1.500564,43.051518,1184.827],[-1.500487,43.051505,1184.161],[-1.50042,43.051517,1183.28],[-1.500347,43.051519,1182.691],[-1.500274,43.051516,1181.981],[-1.500201,43.051508,1182.561],[-1.500133,43.051483,1183.317],[-1.500068,43.051451,1183.408],[-1.500013,43.051423,1183.627],[-1.499958,43.051391,1183.996],[-1.499908,43.051361,1183.691],[-1.499855,43.051321,1183.421],[-1.499782,43.051299,1183.999],[-1.499717,43.051266,1184.353],[-1.499657,43.051241,1184.522],[-1.499604,43.051218,1185.043],[-1.499541,43.051186,1185.824],[-1.499479,43.051163,1186.604],[-1.499422,43.051143,1187.214],[-1.499359,43.051118,1188.308],[-1.499316,43.051078,1187.481],[-1.499254,43.051053,1187.79],[-1.499194,43.051028,1187.645],[-1.499126,43.05101,1188.015],[-1.499056,43.051,1189.633],[-1.498999,43.050968,1191.427],[-1.498951,43.050938,1192.796],[-1.498893,43.05091,1192.357],[-1.498838,43.050888,1193.491],[-1.498775,43.050861,1193.381],[-1.498718,43.050838,1193.419],[-1.498655,43.050821,1194.508],[-1.498608,43.050789,1195.858],[-1.498548,43.050766,1196.697],[-1.498498,43.050733,1196.652],[-1.49844,43.0507,1197.182],[-1.498383,43.050673,1199.44],[-1.498326,43.050651,1202.284],[-1.498266,43.050628,1203.743],[-1.498209,43.050606,1204.864],[-1.498146,43.050584,1206.515],[-1.498086,43.050574,1208.765],[-1.498038,43.050544,1210.311],[-1.497968,43.050537,1211.908],[-1.497908,43.050509,1212.36],[-1.497881,43.050467,1213.319],[-1.497816,43.050464,1214.944],[-1.497773,43.050431,1216.464],[-1.497745,43.050384,1217.322],[-1.497695,43.050356,1218.896],[-1.497633,43.050349,1220.525],[-1.497566,43.050332,1223.566],[-1.497503,43.050307,1224.753],[-1.497445,43.050277,1224.804],[-1.497392,43.050242,1223.714],[-1.497332,43.05022,1223.708],[-1.497284,43.050192,1223.654],[-1.497232,43.050164,1222.953],[-1.49717,43.050134,1222.478],[-1.49711,43.050117,1221.898],[-1.497047,43.05009,1221.896],[-1.496977,43.050057,1222.42],[-1.496927,43.050027,1223.479],[-1.496859,43.050005,1223.64],[-1.496791,43.04999,1223.219],[-1.496726,43.049963,1222.709],[-1.496673,43.049936,1224.419],[-1.49663,43.049893,1225.308],[-1.4966,43.04985,1225.81],[-1.496547,43.049813,1225.349],[-1.496502,43.049773,1224.934],[-1.496465,43.049723,1224.814],[-1.496427,43.049676,1225.822],[-1.49639,43.049634,1226.126],[-1.496362,43.049591,1226.145],[-1.496334,43.049549,1227.286],[-1.496286,43.049507,1227.869],[-1.496258,43.049462,1228.404],[-1.49627,43.049415,1228.824],[-1.496235,43.049377,1230.508],[-1.496232,43.049322,1231.085],[-1.496215,43.049279,1231.344],[-1.496198,43.049229,1231.889],[-1.496193,43.049182,1232.229],[-1.496173,43.049132,1232.827],[-1.496176,43.049087,1232.941],[-1.496146,43.049044,1232.56],[-1.496124,43.048986,1231.671],[-1.496097,43.048943,1231.329],[-1.496075,43.048886,1232.1],[-1.49605,43.048841,1233.52],[-1.49604,43.048781,1233.408],[-1.496023,43.048729,1232.981],[-1.496,43.048679,1232.88],[-1.49599,43.048632,1232.955],[-1.49598,43.048587,1232.065],[-1.495962,43.048537,1231.533],[-1.49594,43.048494,1231.567],[-1.495927,43.048436,1231.636],[-1.495915,43.048391,1231.657],[-1.495898,43.048346,1231.639],[-1.495876,43.048301,1230.901],[-1.495843,43.048256,1230.921],[-1.495816,43.048213,1230.408],[-1.495789,43.048165,1230.662],[-1.495777,43.048115,1230.181],[-1.495749,43.048065,1228.226],[-1.495732,43.048022,1227.636],[-1.495702,43.047982,1227.344],[-1.495677,43.04794,1226.688],[-1.49567,43.047892,1226.027],[-1.495643,43.04784,1222.798],[-1.495615,43.047792,1219.596],[-1.495593,43.047749,1220.131],[-1.495571,43.047694,1218.724],[-1.495538,43.047647,1218.308],[-1.495518,43.047597,1217.538],[-1.495483,43.047554,1216.727],[-1.495441,43.047519,1214.522],[-1.495409,43.047471,1212.462],[-1.495377,43.047424,1210.28],[-1.495372,43.047374,1208.654],[-1.495357,43.047319,1206.433],[-1.495337,43.047262,1204.294],[-1.495292,43.047222,1203.052],[-1.495242,43.047179,1202.853],[-1.495235,43.047127,1201.708],[-1.49522,43.04708,1200.808],[-1.4952,43.047032,1199.864],[-1.495183,43.046975,1198.443],[-1.495143,43.046923,1197.618],[-1.495105,43.046883,1196.558],[-1.49506,43.046843,1194.596],[-1.495025,43.046798,1191.81],[-1.494992,43.046751,1189.929],[-1.494947,43.046706,1188.56],[-1.494909,43.046658,1186.332],[-1.494884,43.04661,1184.292],[-1.494851,43.046562,1183.711],[-1.494809,43.046529,1183.208],[-1.494766,43.046496,1183.382],[-1.494749,43.046443,1183.911],[-1.494716,43.0464,1183.256],[-1.494683,43.04635,1182.316],[-1.494665,43.046307,1182.424],[-1.49464,43.046262,1181.988],[-1.494598,43.046215,1182.097],[-1.494561,43.04617,1182.348],[-1.494531,43.04613,1182.946],[-1.494503,43.046077,1181.788],[-1.494478,43.046032,1181.916],[-1.494463,43.045979,1181.908],[-1.494431,43.045931,1181.843],[-1.494403,43.045886,1180.742],[-1.494378,43.045843,1180.097],[-1.494381,43.045793,1179.077],[-1.494379,43.045746,1178.145],[-1.494376,43.045698,1177.249],[-1.494378,43.045653,1177.258],[-1.494395,43.045605,1177.439],[-1.494403,43.045555,1177.042],[-1.49441,43.045502,1177.222],[-1.494402,43.04545,1178.214],[-1.494414,43.0454,1178.508],[-1.494402,43.045347,1179.453],[-1.494384,43.045297,1179.562],[-1.494396,43.04525,1179.697],[-1.494388,43.045195,1181.047],[-1.494388,43.045138,1181.715],[-1.494368,43.04509,1183.459],[-1.494366,43.045043,1184.878],[-1.494399,43.044993,1185.179],[-1.494396,43.04494,1184.869],[-1.494384,43.04489,1186.304],[-1.494369,43.044838,1186.924],[-1.494346,43.044783,1188.408],[-1.494339,43.04473,1189.965],[-1.494359,43.044685,1191.164],[-1.494374,43.044635,1191.819],[-1.494374,43.044583,1192.669],[-1.494366,43.044533,1192.727],[-1.494344,43.04449,1191.761],[-1.494326,43.044442,1192.55],[-1.494286,43.044399,1192.481],[-1.494259,43.044354,1192.068],[-1.494224,43.044309,1191.942],[-1.494189,43.044257,1191.626],[-1.494152,43.044207,1191.708],[-1.494122,43.04416,1191.985],[-1.494097,43.044117,1191.944],[-1.494057,43.044074,1192.299],[-1.49403,43.044031,1192.929],[-1.494008,43.043984,1193.277],[-1.493981,43.043941,1194.221],[-1.493946,43.043899,1195.01],[-1.493894,43.043866,1195.921],[-1.493864,43.043811,1195.586],[-1.493836,43.043764,1194.96],[-1.493811,43.043719,1196.126],[-1.493788,43.043669,1197.808],[-1.493776,43.043621,1197.447],[-1.493768,43.043574,1196.936],[-1.493771,43.043527,1196.861],[-1.493771,43.043482,1196.371],[-1.493781,43.043435,1196.079],[-1.493788,43.043388,1195.983],[-1.493821,43.043348,1195.112],[-1.493846,43.043305,1194.073],[-1.493858,43.043258,1192.193],[-1.493868,43.04321,1191.065],[-1.493875,43.043158,1190.221],[-1.493905,43.043115,1188.108],[-1.49396,43.043078,1186.418],[-1.493997,43.043035,1185.937],[-1.494035,43.04299,1185.642],[-1.494073,43.04294,1183.992],[-1.494121,43.042908,1183.22],[-1.494134,43.042858,1182.684],[-1.494151,43.042813,1182.153],[-1.494164,43.042766,1180.694],[-1.494176,43.042716,1181.193],[-1.494159,43.042659,1181.565],[-1.494127,43.042612,1181.621],[-1.494104,43.042569,1181.808],[-1.494082,43.042516,1181.548],[-1.494057,43.042474,1181.557],[-1.494032,43.042431,1179.832],[-1.494012,43.042383,1178.852],[-1.493985,43.042333,1178.56],[-1.49395,43.04229,1178.044],[-1.493967,43.042245,1175.913],[-1.493952,43.042197,1174.854],[-1.493922,43.042139,1174.417],[-1.493902,43.042089,1174.987],[-1.493874,43.042041,1175.515],[-1.493842,43.041998,1175.808],[-1.493822,43.041955,1173.57],[-1.493805,43.041908,1171.779],[-1.493785,43.041821,1170.024],[-1.493753,43.041776,1169.184],[-1.49371,43.041716,1169.352],[-1.49369,43.041659,1169.566],[-1.493668,43.041614,1169.415],[-1.493635,43.041571,1168.266],[-1.49361,43.041516,1166.888],[-1.493572,43.041471,1166.324],[-1.493527,43.041421,1166.126],[-1.493477,43.041379,1166.208],[-1.493439,43.041329,1165.387],[-1.493392,43.041281,1165.216],[-1.493365,43.041236,1164.831],[-1.493338,43.041194,1164.881],[-1.493311,43.041147,1165.629],[-1.493314,43.041102,1165.353],[-1.493277,43.041062,1162.452],[-1.493237,43.041017,1162.143],[-1.493217,43.040967,1162.994],[-1.493195,43.04091,1167.257],[-1.493172,43.040863,1169.822],[-1.493149,43.040818,1166.608],[-1.493121,43.040773,1166.238],[-1.493108,43.040721,1165.847],[-1.493078,43.040681,1166.572],[-1.493053,43.040636,1167.132],[-1.493025,43.040589,1166.64],[-1.493,43.040537,1166.334],[-1.492982,43.040494,1166.433],[-1.492949,43.040444,1166.464],[-1.492929,43.040396,1166.845],[-1.492904,43.040346,1166.547],[-1.492889,43.040301,1167.811],[-1.492876,43.040251,1168.208],[-1.492858,43.040208,1168.643],[-1.492833,43.040163,1168.612],[-1.492801,43.040106,1169.377],[-1.492774,43.040056,1169.067],[-1.492762,43.040009,1170.135],[-1.49275,43.039964,1170.019],[-1.49274,43.039917,1169.438],[-1.492718,43.039864,1170.479],[-1.492701,43.039819,1171.097],[-1.492666,43.039744,1170.223],[-1.492666,43.039744,1170.225],[-1.492666,43.039744,1170.208],[-1.492644,43.039689,1170.388],[-1.492626,43.039637,1171.427],[-1.492609,43.039592,1172.432],[-1.492591,43.039547,1172.612],[-1.492566,43.0395,1172.38],[-1.492543,43.039455,1172.544],[-1.492525,43.039408,1172.623],[-1.492508,43.039363,1173.174],[-1.492475,43.039323,1173.271],[-1.492445,43.039273,1174.441],[-1.492415,43.039221,1174.115],[-1.49239,43.039179,1173.108],[-1.492352,43.039129,1172.356],[-1.492309,43.039086,1172.375],[-1.492269,43.039048,1172.17],[-1.492239,43.039001,1174.12],[-1.492177,43.038969,1174.548],[-1.492134,43.038936,1175.232],[-1.492082,43.038896,1174.981],[-1.492032,43.038858,1174.852],[-1.492007,43.038815,1175.185],[-1.491952,43.038785,1175.489],[-1.491912,43.038748,1176.717],[-1.491877,43.03871,1176.508],[-1.491849,43.038662,1175.647],[-1.491811,43.038617,1175.236],[-1.491754,43.038574,1175.561],[-1.491709,43.038537,1175.291],[-1.491682,43.038492,1174.959],[-1.491652,43.038452,1174.973],[-1.491585,43.038417,1175.122],[-1.49153,43.038387,1174.773],[-1.49147,43.03835,1173.853],[-1.491427,43.038312,1172.504],[-1.491369,43.038275,1172.314],[-1.491331,43.038238,1172.508],[-1.491271,43.038216,1172.274],[-1.491209,43.038208,1172.833],[-1.491157,43.038173,1172.858],[-1.491104,43.038136,1172.548],[-1.491052,43.038096,1173.456],[-1.490979,43.038078,1173.13],[-1.490922,43.038041,1173.299],[-1.490859,43.038026,1172.26],[-1.490797,43.038018,1171.644],[-1.490734,43.038001,1171.505],[-1.490674,43.037969,1170.115],[-1.490609,43.037942,1169.108],[-1.490541,43.03792,1167.023],[-1.490464,43.037912,1165.482],[-1.490397,43.037905,1164.217],[-1.490334,43.0379,1163.257],[-1.490271,43.0379,1162.825],[-1.490201,43.03789,1161.549],[-1.490138,43.037888,1160.328],[-1.490065,43.037891,1160.059],[-1.489998,43.037893,1159.785],[-1.489933,43.037898,1159.689],[-1.489871,43.037891,1158.217],[-1.489778,43.037898,1157.408],[-1.489696,43.037898,1156.757],[-1.489628,43.037905,1156.446],[-1.489561,43.0379,1156.331],[-1.489489,43.037893,1154.091],[-1.489424,43.037885,1152.679],[-1.489359,43.037882,1151.613],[-1.489297,43.037895,1151.052],[-1.489234,43.037895,1151.023],[-1.489166,43.037883,1150.423],[-1.489106,43.037868,1149.683],[-1.489026,43.037866,1148.511],[-1.488949,43.037864,1149.008],[-1.488881,43.037861,1148.851],[-1.488811,43.037854,1148.29],[-1.488736,43.037864,1149.195],[-1.488673,43.037867,1149.195],[-1.488611,43.037865,1149.073],[-1.488541,43.037858,1146.417],[-1.488479,43.037826,1144.286],[-1.488421,43.037809,1143.937],[-1.488361,43.037786,1142.839],[-1.488298,43.037769,1142.001],[-1.488238,43.037734,1140.821],[-1.488181,43.037712,1139.208],[-1.488131,43.037672,1136.842],[-1.488078,43.037645,1135.841],[-1.488026,43.037617,1137.086],[-1.487978,43.037587,1137.986],[-1.487923,43.037564,1138.114],[-1.487873,43.037532,1139.418],[-1.48781,43.037512,1140.937],[-1.48775,43.037475,1139.668],[-1.487705,43.037443,1140.194],[-1.487657,43.03741,1141.157],[-1.487605,43.037377,1141.222],[-1.487545,43.037404,1142.408],[-1.487492,43.037434,1142.778],[-1.48744,43.037469,1142.157],[-1.487397,43.037514,1142.012],[-1.48734,43.037542,1141.122],[-1.487273,43.037554,1141.72],[-1.487208,43.037546,1143.884],[-1.48714,43.037554,1141.523],[-1.487073,43.037549,1140.964],[-1.487006,43.037534,1147.918],[-1.486946,43.037504,1147.798],[-1.486881,43.037479,1146.917],[-1.486818,43.037456,1146.508],[-1.486765,43.037426,1144.51],[-1.4867,43.037408,1144.359],[-1.486637,43.037396,1146.074],[-1.486577,43.037383,1148.484],[-1.486517,43.03736,1149.142],[-1.486457,43.037338,1148.886],[-1.48639,43.037333,1148.025],[-1.486332,43.037316,1147.576],[-1.486332,43.037316,1147.562],[-1.486332,43.037316,1147.583],[-1.48626,43.037299,1146.611],[-1.486198,43.037269,1146.008],[-1.486136,43.037264,1147.475],[-1.486068,43.037261,1150.054],[-1.486,43.037244,1150.159],[-1.48594,43.037216,1150.739],[-1.485872,43.037203,1150.827],[-1.48579,43.037196,1150.431],[-1.485745,43.037161,1146.83],[-1.485667,43.037131,1145.041],[-1.485614,43.037108,1144.169],[-1.485572,43.03707,1142.704],[-1.485532,43.037032,1142.024],[-1.485492,43.036995,1142.008],[-1.485457,43.036955,1141.685],[-1.48543,43.03691,1140.514],[-1.485393,43.036868,1139.539],[-1.485353,43.036823,1138.719],[-1.48532,43.03678,1138.217],[-1.485293,43.036737,1139.061],[-1.48527,43.036694,1139.08],[-1.485225,43.036652,1138.111],[-1.485183,43.036612,1138.572],[-1.48515,43.036565,1138.913],[-1.485105,43.036523,1140.114],[-1.48506,43.036488,1139.908],[-1.48502,43.036435,1140.576],[-1.484983,43.03639,1140.075],[-1.484931,43.036355,1139.66],[-1.484881,43.036325,1139.33],[-1.484823,43.036293,1139.918],[-1.484763,43.036266,1139.682],[-1.484705,43.036246,1139.421],[-1.484642,43.036218,1139.382],[-1.484579,43.036196,1138.657],[-1.484511,43.036166,1138.3],[-1.484458,43.036138,1137.62],[-1.484391,43.036115,1137.208],[-1.484326,43.036098,1136.684],[-1.484263,43.036073,1135.643],[-1.484216,43.036043,1135.388],[-1.484151,43.036005,1134.688],[-1.484091,43.03598,1134.526],[-1.484038,43.035953,1135.32],[-1.483986,43.035926,1133.519],[-1.483941,43.035884,1133.49],[-1.483884,43.035859,1134.087],[-1.483834,43.035819,1134.542],[-1.483794,43.035779,1134.226],[-1.483731,43.035752,1135.408],[-1.483681,43.035724,1136.657],[-1.483618,43.035712,1136.956],[-1.48355,43.035682,1136.741],[-1.483485,43.03566,1137.061],[-1.483422,43.035653,1137.219],[-1.483347,43.035641,1138.213],[-1.48328,43.035609,1138.572],[-1.483225,43.035584,1138.233],[-1.48315,43.035577,1138.167],[-1.483078,43.035564,1136.781],[-1.48301,43.035551,1135.319],[-1.482932,43.035538,1135.308],[-1.482875,43.035513,1135.065],[-1.48283,43.035475,1134.514],[-1.482787,43.035442,1133.489],[-1.48272,43.035425,1132.289],[-1.482683,43.035383,1129.867],[-1.482635,43.035333,1128.921],[-1.482582,43.035291,1127.59],[-1.48252,43.035264,1128.811],[-1.482457,43.035262,1127.914],[-1.482385,43.035255,1128.254],[-1.482317,43.035272,1128.109],[-1.482247,43.035277,1128.908],[-1.482184,43.035284,1127.54],[-1.482112,43.035292,1124.229],[-1.482047,43.035312,1123.054],[-1.481975,43.035324,1121.244],[-1.481903,43.035342,1119.442],[-1.481841,43.035372,1118.766],[-1.481781,43.035392,1114.745],[-1.481728,43.035424,1112.916],[-1.481663,43.035446,1109.473],[-1.481601,43.035456,1108.485],[-1.481538,43.035458,1107.413],[-1.481495,43.035491,1107.608],[-1.481427,43.035518,1107.556],[-1.481377,43.03555,1109.365],[-1.481312,43.03558,1112.98],[-1.481255,43.035603,1114.54],[-1.481192,43.03561,1113.528],[-1.481127,43.035623,1111.232],[-1.481062,43.035631,1108.031],[-1.481007,43.035666,1104.022],[-1.480942,43.035684,1099.046],[-1.480869,43.035706,1094.888],[-1.480824,43.035738,1093.216],[-1.480762,43.035766,1092.808],[-1.480712,43.035794,1091.933],[-1.480644,43.035816,1089.582],[-1.480596,43.035844,1088.087],[-1.480551,43.035882,1085.857],[-1.480491,43.0359,1082.335],[-1.480423,43.035945,1081.689],[-1.480368,43.035972,1081.078],[-1.480313,43.036007,1080.999],[-1.48025,43.03603,1081.026],[-1.480202,43.036068,1079.947],[-1.480152,43.0361,1077.911],[-1.480105,43.036137,1076.608],[-1.480053,43.03617,1075.211],[-1.48001,43.036213,1072.96],[-1.479958,43.03625,1071.375],[-1.47991,43.03629,1069.675],[-1.479855,43.03632,1068.163],[-1.479807,43.036358,1065.417],[-1.479772,43.036408,1063.186],[-1.479717,43.036441,1061.397],[-1.479675,43.036478,1060.677],[-1.479623,43.036508,1060.561],[-1.47958,43.036546,1059.127],[-1.479535,43.036578,1058.808],[-1.479485,43.036616,1057.596],[-1.479432,43.036653,1056.065],[-1.479369,43.036681,1054.29],[-1.479312,43.036704,1052.19],[-1.479269,43.036739,1049.968],[-1.479207,43.036761,1048.992],[-1.479134,43.036774,1047.831],[-1.479079,43.036797,1046.412],[-1.479016,43.036812,1044.184],[-1.478946,43.03683,1041.607],[-1.478884,43.036853,1039.417],[-1.478824,43.036873,1037.808],[-1.478757,43.036911,1036.547],[-1.478715,43.036946,1035.766],[-1.47867,43.036986,1035.381],[-1.478632,43.037031,1035.521],[-1.478579,43.037068,1035.879],[-1.478536,43.037115,1035.153],[-1.478489,43.037157,1033.082],[-1.478436,43.037187,1031.183],[-1.478368,43.037214,1029.552],[-1.478293,43.037232,1028.853],[-1.478231,43.037232,1029.408],[-1.478151,43.037249,1028.408],[-1.478083,43.037262,1028.274],[-1.478026,43.03728,1028.773],[-1.477953,43.03729,1028.798],[-1.477883,43.037288,1027.248],[-1.477808,43.037273,1025.766],[-1.47774,43.037276,1024.98],[-1.477677,43.037274,1023.849],[-1.477597,43.037276,1022.07],[-1.477525,43.037278,1020.086],[-1.477448,43.037283,1018.06],[-1.477373,43.037278,1016.026],[-1.477308,43.037253,1014.008],[-1.477243,43.037241,1010.467],[-1.477183,43.037224,1008.096],[-1.47712,43.037221,1006.841],[-1.47704,43.037214,1005.531],[-1.476968,43.037211,1003.979],[-1.476905,43.037214,1002.573],[-1.476853,43.037187,1001.142],[-1.476788,43.037162,1001.433],[-1.476725,43.037144,1003.444],[-1.476657,43.037129,1003.405],[-1.47659,43.037119,1003.615],[-1.476512,43.037109,1003.208],[-1.476442,43.037084,999.683],[-1.476385,43.037062,996.712],[-1.476318,43.037044,995.357],[-1.476253,43.037042,996.847],[-1.476211,43.037009,994.245],[-1.476149,43.036992,991.759],[-1.476082,43.03701,989.638],[-1.476004,43.037017,989.769],[-1.475934,43.037012,989.396],[-1.475872,43.03701,990.631],[-1.475799,43.037022,991.424],[-1.475727,43.037027,992.208],[-1.475654,43.037024,992.768],[-1.475586,43.037029,993.037],[-1.475511,43.037027,993.182],[-1.475434,43.037034,991.632],[-1.475366,43.037047,990.42],[-1.475311,43.037074,988.424],[-1.475263,43.037106,985.813],[-1.475201,43.037131,983.684],[-1.475126,43.037141,981.646],[-1.475054,43.037151,980.588],[-1.474996,43.037179,979.116],[-1.474938,43.037194,978.108],[-1.474878,43.037214,976.633],[-1.474818,43.037227,976.342],[-1.474743,43.037247,975.267],[-1.47467,43.037242,972.697],[-1.474608,43.037232,970.085],[-1.474536,43.037234,969.159],[-1.474463,43.037234,968.388],[-1.47439,43.037236,967.489],[-1.474313,43.037244,966.475],[-1.474235,43.037232,966.228],[-1.474155,43.037217,965.82],[-1.474078,43.037202,965.008],[-1.474001,43.03718,965.346],[-1.473936,43.03716,965.385],[-1.473878,43.03714,965.33],[-1.473818,43.037125,965.96],[-1.473761,43.037107,966.218],[-1.473711,43.037079,966.222],[-1.473654,43.037054,965.791],[-1.473599,43.037024,965.072],[-1.473524,43.036994,964.455],[-1.473454,43.036971,965.107],[-1.473377,43.036948,964.517],[-1.473317,43.036931,964.308],[-1.47326,43.036889,964.244],[-1.473208,43.036859,963.583],[-1.473158,43.036827,962.648],[-1.473133,43.036785,961.438],[-1.473091,43.036748,960.956],[-1.473049,43.0367,960.78],[-1.473011,43.036657,960.399],[-1.472953,43.036612,959.18],[-1.472885,43.036569,958.171],[-1.472832,43.036524,956.541],[-1.472764,43.036477,954.815],[-1.472704,43.036452,953.308],[-1.472634,43.036427,952.096],[-1.472581,43.036404,950.085],[-1.472519,43.036384,950.31],[-1.472459,43.036364,950.57],[-1.472387,43.036337,950.188],[-1.47233,43.036319,949.212],[-1.472263,43.036306,946.581],[-1.472188,43.036303,943.352],[-1.472125,43.0363,940.633],[-1.47205,43.036295,938.923],[-1.471985,43.036295,936.815],[-1.471913,43.036277,934.808],[-1.47185,43.036245,931.852],[-1.471795,43.036205,930.371],[-1.471742,43.036178,929.686],[-1.471684,43.036141,927.926],[-1.471647,43.036103,926.424],[-1.4716,43.036058,925.158],[-1.471528,43.036033,926.137],[-1.471458,43.036011,926.518],[-1.471381,43.035989,928.051],[-1.471306,43.035974,928.901],[-1.471239,43.035947,929.711],[-1.471174,43.035924,928.308],[-1.471112,43.035906,926.364],[-1.471052,43.035891,924.793],[-1.47099,43.035869,922.538],[-1.470908,43.035866,920.038],[-1.47084,43.035871,918.746],[-1.470775,43.035888,918.18],[-1.470708,43.035885,917.979],[-1.470636,43.035887,917.19],[-1.470566,43.035889,917.051],[-1.470498,43.035901,916.401],[-1.470386,43.035899,917.011],[-1.470324,43.035914,917.208],[-1.470257,43.035931,917.244],[-1.47015,43.035971,913.753],[-1.470087,43.035983,912.178],[-1.47021,43.035975,909.878],[-1.470168,43.036017,909.136],[-1.470226,43.035969,910.56]]}}]}